{
"type": "FeatureCollection",
"name": "elvis_tile_id_1607",
"crs": { "type": "name", "properties": { "name": "urn:ogc:def:crs:OGC:1.3:CRS84" } },
"xy_coordinate_resolution": 1e-15,
"features": [
{ "type": "Feature", "properties": { "fid": 296519, "elvelengde_m": 418.0, "elvID": "219-1-1", "elvenavn": null, "regulert": null, "fid_2": 1607, "id": 1607, "left": 23.986919847, "top": 71.446110046000001, "right": 24.486919847, "bottom": 70.946110046000001, "row_index": 6, "col_index": 40, "tile_id": 1607 }, "geometry": { "type": "MultiLineString", "coordinates": [ [ [ 24.056573758091375, 71.054022302312504 ], [ 24.05651608243663, 71.054407365540513 ], [ 24.056017588649262, 71.054785493845287 ], [ 24.056007541775994, 71.055036555820621 ], [ 24.056568287779928, 71.055350577529097 ], [ 24.056497078217298, 71.055457209026756 ], [ 24.0560005229671, 71.055637739055086 ], [ 24.055593925937412, 71.055954495411171 ], [ 24.055677278702671, 71.05613532892319 ], [ 24.055996691385552, 71.056400773104244 ], [ 24.055622494518765, 71.057564090971951 ] ] ] } },
{ "type": "Feature", "properties": { "fid": 296521, "elvelengde_m": 1534.3, "elvID": "219-4-1", "elvenavn": null, "regulert": null, "fid_2": 1607, "id": 1607, "left": 23.986919847, "top": 71.446110046000001, "right": 24.486919847, "bottom": 70.946110046000001, "row_index": 6, "col_index": 40, "tile_id": 1607 }, "geometry": { "type": "MultiLineString", "coordinates": [ [ [ 23.986919847, 71.060759743556119 ], [ 23.987531083421668, 71.060671364087938 ], [ 23.988926154763092, 71.060577224056289 ], [ 23.991879623505159, 71.060736174897826 ], [ 23.994109219728358, 71.061041559061223 ], [ 23.996550908737031, 71.061147727298589 ] ] ] } },
{ "type": "Feature", "properties": { "fid": 296522, "elvelengde_m": 85.09, "elvID": "219-2-1", "elvenavn": null, "regulert": null, "fid_2": 1607, "id": 1607, "left": 23.986919847, "top": 71.446110046000001, "right": 24.486919847, "bottom": 70.946110046000001, "row_index": 6, "col_index": 40, "tile_id": 1607 }, "geometry": { "type": "MultiLineString", "coordinates": [ [ [ 24.064614755485209, 71.049751186578789 ], [ 24.063932389960609, 71.049327601851729 ], [ 24.063086107531785, 71.049260338094527 ] ] ] } },
{ "type": "Feature", "properties": { "fid": 296523, "elvelengde_m": 34.24, "elvID": "219-3-1", "elvenavn": null, "regulert": null, "fid_2": 1607, "id": 1607, "left": 23.986919847, "top": 71.446110046000001, "right": 24.486919847, "bottom": 70.946110046000001, "row_index": 6, "col_index": 40, "tile_id": 1607 }, "geometry": { "type": "MultiLineString", "coordinates": [ [ [ 24.030953998477479, 71.05043835305446 ], [ 24.030181713100088, 71.050614530382802 ] ] ] } },
{ "type": "Feature", "properties": { "fid": 296524, "elvelengde_m": 255.35, "elvID": "219-3-1", "elvenavn": null, "regulert": null, "fid_2": 1607, "id": 1607, "left": 23.986919847, "top": 71.446110046000001, "right": 24.486919847, "bottom": 70.946110046000001, "row_index": 6, "col_index": 40, "tile_id": 1607 }, "geometry": { "type": "MultiLineString", "coordinates": [ [ [ 24.029514914966242, 71.050639855430418 ], [ 24.027856128670809, 71.050101774448635 ], [ 24.02703485057754, 71.050052686966993 ], [ 24.025032118700494, 71.050146394042102 ], [ 24.023400837252794, 71.049903758303714 ] ] ] } },
{ "type": "Feature", "properties": { "fid": 296525, "elvelengde_m": 143.49, "elvID": "219-2-1", "elvenavn": null, "regulert": null, "fid_2": 1607, "id": 1607, "left": 23.986919847, "top": 71.446110046000001, "right": 24.486919847, "bottom": 70.946110046000001, "row_index": 6, "col_index": 40, "tile_id": 1607 }, "geometry": { "type": "MultiLineString", "coordinates": [ [ [ 24.060013190582758, 71.048386145635632 ], [ 24.059242207256876, 71.047817475131751 ], [ 24.058137539822454, 71.047261534333998 ] ] ] } },
{ "type": "Feature", "properties": { "fid": 296526, "elvelengde_m": 434.05, "elvID": "219-2-1", "elvenavn": null, "regulert": null, "fid_2": 1607, "id": 1607, "left": 23.986919847, "top": 71.446110046000001, "right": 24.486919847, "bottom": 70.946110046000001, "row_index": 6, "col_index": 40, "tile_id": 1607 }, "geometry": { "type": "MultiLineString", "coordinates": [ [ [ 24.058566935471017, 71.04679259749939 ], [ 24.058838874012739, 71.046635284402328 ], [ 24.060434220708881, 71.046121958593417 ], [ 24.060991754878057, 71.045717999356512 ], [ 24.061735200419818, 71.045361701486982 ], [ 24.061545537836093, 71.04515230519074 ], [ 24.061471546738101, 71.04490880254555 ], [ 24.061885196627827, 71.04472678537249 ], [ 24.063053610681614, 71.044484934312024 ], [ 24.064923158703163, 71.044352851779806 ], [ 24.0658327488342, 71.044181270115018 ] ] ] } },
{ "type": "Feature", "properties": { "fid": 296527, "elvelengde_m": 173.38, "elvID": "219-47-1", "elvenavn": null, "regulert": null, "fid_2": 1607, "id": 1607, "left": 23.986919847, "top": 71.446110046000001, "right": 24.486919847, "bottom": 70.946110046000001, "row_index": 6, "col_index": 40, "tile_id": 1607 }, "geometry": { "type": "MultiLineString", "coordinates": [ [ [ 24.012937074743853, 71.023393413946962 ], [ 24.01197792964815, 71.023351130554602 ], [ 24.011150760668954, 71.023167124029641 ], [ 24.010464365224461, 71.023147288627698 ], [ 24.008494053527727, 71.023382141060338 ] ] ] } },
{ "type": "Feature", "properties": { "fid": 296529, "elvelengde_m": 632.06, "elvID": "219-48-1", "elvenavn": null, "regulert": null, "fid_2": 1607, "id": 1607, "left": 23.986919847, "top": 71.446110046000001, "right": 24.486919847, "bottom": 70.946110046000001, "row_index": 6, "col_index": 40, "tile_id": 1607 }, "geometry": { "type": "MultiLineString", "coordinates": [ [ [ 24.025161063898668, 71.022081442966808 ], [ 24.025016342121898, 71.022491914345167 ], [ 24.025142926085437, 71.022933766285846 ], [ 24.024995391602758, 71.023201306598423 ], [ 24.023762139794645, 71.023674576873773 ], [ 24.022800795816909, 71.023829671376674 ], [ 24.018515909140511, 71.024075397902067 ], [ 24.017000157851204, 71.024248480048612 ], [ 24.016652343186678, 71.024359543177724 ], [ 24.016983149082396, 71.024723871648419 ], [ 24.016662851330906, 71.024835492298592 ], [ 24.013815964963385, 71.024830960704634 ] ] ] } },
{ "type": "Feature", "properties": { "fid": 296532, "elvelengde_m": 1043.05, "elvID": "219-45-1", "elvenavn": null, "regulert": null, "fid_2": 1607, "id": 1607, "left": 23.986919847, "top": 71.446110046000001, "right": 24.486919847, "bottom": 70.946110046000001, "row_index": 6, "col_index": 40, "tile_id": 1607 }, "geometry": { "type": "MultiLineString", "coordinates": [ [ [ 23.986919847, 71.023449217664052 ], [ 23.987099518763863, 71.023455639597145 ], [ 23.989299370442929, 71.023958819286776 ], [ 23.99339462902714, 71.024404718186872 ], [ 23.994487008321677, 71.024333225249975 ], [ 23.99578741330998, 71.024415746752183 ] ] ] } },
{ "type": "Feature", "properties": { "fid": 296534, "elvelengde_m": 1188.55, "elvID": "219-46-1", "elvenavn": null, "regulert": null, "fid_2": 1607, "id": 1607, "left": 23.986919847, "top": 71.446110046000001, "right": 24.486919847, "bottom": 70.946110046000001, "row_index": 6, "col_index": 40, "tile_id": 1607 }, "geometry": { "type": "MultiLineString", "coordinates": [ [ [ 23.986919847, 71.018019251096788 ], [ 23.988890008392126, 71.01798755900623 ], [ 23.990607929356461, 71.018040804637778 ], [ 23.994488523201575, 71.018355199392246 ], [ 23.998046371018219, 71.018719928998138 ], [ 24.001775234785086, 71.019345263661222 ], [ 24.003483818366231, 71.019534308304429 ], [ 24.005621504571888, 71.019622636541399 ], [ 24.007052648027603, 71.020004646722938 ], [ 24.007870421409923, 71.020430789126408 ], [ 24.008152942960294, 71.020749400775443 ], [ 24.008146728134388, 71.021153268279846 ], [ 24.007531608741701, 71.021753719443183 ], [ 24.00737384223752, 71.022065378049106 ], [ 24.007355398008695, 71.022502528594728 ] ] ] } },
{ "type": "Feature", "properties": { "fid": 296535, "elvelengde_m": 157.21, "elvID": "219-7-2", "elvenavn": null, "regulert": null, "fid_2": 1607, "id": 1607, "left": 23.986919847, "top": 71.446110046000001, "right": 24.486919847, "bottom": 70.946110046000001, "row_index": 6, "col_index": 40, "tile_id": 1607 }, "geometry": { "type": "MultiLineString", "coordinates": [ [ [ 24.011444669806995, 71.015775841882459 ], [ 24.009983435901685, 71.015411372801935 ], [ 24.008765177480882, 71.01471857525388 ] ] ] } },
{ "type": "Feature", "properties": { "fid": 296536, "elvelengde_m": 173.39, "elvID": "219-6-1", "elvenavn": null, "regulert": null, "fid_2": 1607, "id": 1607, "left": 23.986919847, "top": 71.446110046000001, "right": 24.486919847, "bottom": 70.946110046000001, "row_index": 6, "col_index": 40, "tile_id": 1607 }, "geometry": { "type": "MultiLineString", "coordinates": [ [ [ 24.039805174175342, 71.014012525355142 ], [ 24.040994736588473, 71.013986584864256 ], [ 24.040995995216928, 71.013609552703713 ], [ 24.040843767200599, 71.013337925841554 ], [ 24.040779335662418, 71.012834983872153 ] ] ] } },
{ "type": "Feature", "properties": { "fid": 296537, "elvelengde_m": 231.77, "elvID": "219-7-4", "elvenavn": null, "regulert": null, "fid_2": 1607, "id": 1607, "left": 23.986919847, "top": 71.446110046000001, "right": 24.486919847, "bottom": 70.946110046000001, "row_index": 6, "col_index": 40, "tile_id": 1607 }, "geometry": { "type": "MultiLineString", "coordinates": [ [ [ 24.018148430476714, 71.011925035480729 ], [ 24.022420408472296, 71.011930837217847 ], [ 24.024477313508406, 71.011820124992411 ] ] ] } },
{ "type": "Feature", "properties": { "fid": 296538, "elvelengde_m": 576.08, "elvID": "219-7-1", "elvenavn": null, "regulert": null, "fid_2": 1607, "id": 1607, "left": 23.986919847, "top": 71.446110046000001, "right": 24.486919847, "bottom": 70.946110046000001, "row_index": 6, "col_index": 40, "tile_id": 1607 }, "geometry": { "type": "MultiLineString", "coordinates": [ [ [ 24.024477313508406, 71.011820124992411 ], [ 24.025993944490981, 71.011997140530553 ], [ 24.028408488385114, 71.012071451910955 ], [ 24.033016465281918, 71.01131026649611 ], [ 24.035306955224492, 71.011293035428722 ], [ 24.035713628193829, 71.011155949536203 ], [ 24.035839104297001, 71.010870636324739 ], [ 24.036062734992701, 71.010667807480061 ], [ 24.037459325136943, 71.010119400422155 ] ] ] } },
{ "type": "Feature", "properties": { "fid": 296540, "elvelengde_m": 908.17, "elvID": "219-7-1", "elvenavn": null, "regulert": null, "fid_2": 1607, "id": 1607, "left": 23.986919847, "top": 71.446110046000001, "right": 24.486919847, "bottom": 70.946110046000001, "row_index": 6, "col_index": 40, "tile_id": 1607 }, "geometry": { "type": "MultiLineString", "coordinates": [ [ [ 23.986919847, 71.012573079041985 ], [ 23.993033357002179, 71.012768867018607 ], [ 24.002312461161381, 71.013277185557328 ] ] ] } },
{ "type": "Feature", "properties": { "fid": 296541, "elvelengde_m": 164.61, "elvID": "219-7-1", "elvenavn": null, "regulert": null, "fid_2": 1607, "id": 1607, "left": 23.986919847, "top": 71.446110046000001, "right": 24.486919847, "bottom": 70.946110046000001, "row_index": 6, "col_index": 40, "tile_id": 1607 }, "geometry": { "type": "MultiLineString", "coordinates": [ [ [ 24.010518301343694, 71.010797269689292 ], [ 24.010741972203128, 71.010773943968658 ], [ 24.01203205352428, 71.010265188602233 ], [ 24.012669322773096, 71.009880481103025 ], [ 24.012879006151529, 71.009587733815295 ] ] ] } },
{ "type": "Feature", "properties": { "fid": 296542, "elvelengde_m": 531.08, "elvID": "219-7-1", "elvenavn": null, "regulert": null, "fid_2": 1607, "id": 1607, "left": 23.986919847, "top": 71.446110046000001, "right": 24.486919847, "bottom": 70.946110046000001, "row_index": 6, "col_index": 40, "tile_id": 1607 }, "geometry": { "type": "MultiLineString", "coordinates": [ [ [ 24.013556516189965, 71.009481842717818 ], [ 24.020175823264875, 71.010000953093268 ], [ 24.020865183511628, 71.010182580386456 ], [ 24.021532947131981, 71.011054970803755 ], [ 24.021885130943708, 71.011275987746316 ], [ 24.023728170198684, 71.01148496142622 ], [ 24.024286678782858, 71.011619643325446 ], [ 24.024566277894174, 71.011776657351646 ], [ 24.024477313508406, 71.011820124992411 ] ] ] } },
{ "type": "Feature", "properties": { "fid": 296543, "elvelengde_m": 113.4, "elvID": "219-7-3", "elvenavn": null, "regulert": null, "fid_2": 1607, "id": 1607, "left": 23.986919847, "top": 71.446110046000001, "right": 24.486919847, "bottom": 70.946110046000001, "row_index": 6, "col_index": 40, "tile_id": 1607 }, "geometry": { "type": "MultiLineString", "coordinates": [ [ [ 24.016559454375621, 71.007124507925454 ], [ 24.016121438462157, 71.007467626146322 ], [ 24.015368685365591, 71.007706961836263 ], [ 24.014548437651801, 71.007846275703912 ] ] ] } },
{ "type": "Feature", "properties": { "fid": 296544, "elvelengde_m": 363.98, "elvID": "219-10-1", "elvenavn": null, "regulert": null, "fid_2": 1607, "id": 1607, "left": 23.986919847, "top": 71.446110046000001, "right": 24.486919847, "bottom": 70.946110046000001, "row_index": 6, "col_index": 40, "tile_id": 1607 }, "geometry": { "type": "MultiLineString", "coordinates": [ [ [ 24.134568720053874, 71.002554797671067 ], [ 24.138302928569836, 71.002262305264694 ], [ 24.139177183645536, 71.002123249850229 ], [ 24.140073694576859, 71.001831831964864 ], [ 24.140905454528767, 71.001413736096609 ], [ 24.141651225654499, 71.000677642788489 ] ] ] } },
{ "type": "Feature", "properties": { "fid": 296545, "elvelengde_m": 772.69, "elvID": "219-8-1", "elvenavn": null, "regulert": null, "fid_2": 1607, "id": 1607, "left": 23.986919847, "top": 71.446110046000001, "right": 24.486919847, "bottom": 70.946110046000001, "row_index": 6, "col_index": 40, "tile_id": 1607 }, "geometry": { "type": "MultiLineString", "coordinates": [ [ [ 24.089727830484886, 71.003024848334277 ], [ 24.094947950999021, 71.003312992647167 ], [ 24.11006665717256, 71.004883579465385 ] ] ] } },
{ "type": "Feature", "properties": { "fid": 296549, "elvelengde_m": 261.67, "elvID": "219-11-1", "elvenavn": null, "regulert": null, "fid_2": 1607, "id": 1607, "left": 23.986919847, "top": 71.446110046000001, "right": 24.486919847, "bottom": 70.946110046000001, "row_index": 6, "col_index": 40, "tile_id": 1607 }, "geometry": { "type": "MultiLineString", "coordinates": [ [ [ 24.120655846138451, 70.998776666652816 ], [ 24.121052173561182, 70.998513434516482 ], [ 24.121819135833711, 70.998354860647979 ], [ 24.12298908375169, 70.998265374085719 ], [ 24.123618450126646, 70.998104451407045 ], [ 24.123613243386973, 70.99795191923414 ], [ 24.123064753153489, 70.997368985182774 ], [ 24.122960230091277, 70.997032530955323 ] ] ] } },
{ "type": "Feature", "properties": { "fid": 296552, "elvelengde_m": 169.0, "elvID": "219-9-1", "elvenavn": null, "regulert": null, "fid_2": 1607, "id": 1607, "left": 23.986919847, "top": 71.446110046000001, "right": 24.486919847, "bottom": 70.946110046000001, "row_index": 6, "col_index": 40, "tile_id": 1607 }, "geometry": { "type": "MultiLineString", "coordinates": [ [ [ 24.170556870321533, 70.994633892296619 ], [ 24.168270096715943, 70.994832409265825 ], [ 24.166169574460231, 70.994547191261759 ] ] ] } },
{ "type": "Feature", "properties": { "fid": 296553, "elvelengde_m": 603.03, "elvID": "219-12-1", "elvenavn": null, "regulert": null, "fid_2": 1607, "id": 1607, "left": 23.986919847, "top": 71.446110046000001, "right": 24.486919847, "bottom": 70.946110046000001, "row_index": 6, "col_index": 40, "tile_id": 1607 }, "geometry": { "type": "MultiLineString", "coordinates": [ [ [ 24.088230183657981, 70.995067257734888 ], [ 24.089174339118031, 70.995198673260958 ], [ 24.089811713962543, 70.995361238207153 ], [ 24.090482399077029, 70.995667965363879 ], [ 24.092622798311407, 70.996096388890209 ], [ 24.09322074783497, 70.996150583170689 ], [ 24.094550242764399, 70.996099597574613 ], [ 24.097428353785983, 70.99563304381816 ], [ 24.101811092000943, 70.994357876410177 ] ] ] } },
{ "type": "Feature", "properties": { "fid": 296555, "elvelengde_m": 814.32, "elvID": "219-40-2", "elvenavn": null, "regulert": null, "fid_2": 1607, "id": 1607, "left": 23.986919847, "top": 71.446110046000001, "right": 24.486919847, "bottom": 70.946110046000001, "row_index": 6, "col_index": 40, "tile_id": 1607 }, "geometry": { "type": "MultiLineString", "coordinates": [ [ [ 24.036261478944862, 71.00256901415284 ], [ 24.038038106152694, 70.999722048193348 ], [ 24.03866183109573, 70.99887026767685 ], [ 24.039184318442874, 70.997774608557222 ], [ 24.039766867650236, 70.99701203960359 ], [ 24.03984823750227, 70.996654355398064 ], [ 24.039389418245179, 70.996225079946754 ], [ 24.038285121267101, 70.995507431549655 ] ] ] } },
{ "type": "Feature", "properties": { "fid": 296556, "elvelengde_m": 625.43, "elvID": "219-40-1", "elvenavn": null, "regulert": null, "fid_2": 1607, "id": 1607, "left": 23.986919847, "top": 71.446110046000001, "right": 24.486919847, "bottom": 70.946110046000001, "row_index": 6, "col_index": 40, "tile_id": 1607 }, "geometry": { "type": "MultiLineString", "coordinates": [ [ [ 24.021989411468923, 70.995076441048113 ], [ 24.022949521833191, 70.995100818971125 ], [ 24.025852002235506, 70.995398581584084 ], [ 24.02996278396467, 70.995536085138824 ], [ 24.036420644145839, 70.995998316261307 ], [ 24.037070424530839, 70.995891950961777 ], [ 24.038285121267101, 70.995507431549655 ] ] ] } },
{ "type": "Feature", "properties": { "fid": 296557, "elvelengde_m": 183.66, "elvID": "219-40-3", "elvenavn": null, "regulert": null, "fid_2": 1607, "id": 1607, "left": 23.986919847, "top": 71.446110046000001, "right": 24.486919847, "bottom": 70.946110046000001, "row_index": 6, "col_index": 40, "tile_id": 1607 }, "geometry": { "type": "MultiLineString", "coordinates": [ [ [ 24.019172565733349, 70.99603649139101 ], [ 24.020208286995736, 70.995927523518915 ], [ 24.020614674475244, 70.995790296629465 ], [ 24.020737939322181, 70.995702592707758 ], [ 24.020411035242045, 70.995679375274165 ], [ 24.02040658853841, 70.99552674732864 ], [ 24.021212727547624, 70.995476811385146 ], [ 24.021989411468923, 70.995076441048113 ] ] ] } },
{ "type": "Feature", "properties": { "fid": 296558, "elvelengde_m": 210.05, "elvID": "219-40-1", "elvenavn": null, "regulert": null, "fid_2": 1607, "id": 1607, "left": 23.986919847, "top": 71.446110046000001, "right": 24.486919847, "bottom": 70.946110046000001, "row_index": 6, "col_index": 40, "tile_id": 1607 }, "geometry": { "type": "MultiLineString", "coordinates": [ [ [ 24.000640392500223, 70.996568894010267 ], [ 23.999671338326728, 70.996156218464236 ], [ 23.997579690908672, 70.994979433043085 ] ] ] } },
{ "type": "Feature", "properties": { "fid": 296559, "elvelengde_m": 384.24, "elvID": "219-40-1", "elvenavn": null, "regulert": null, "fid_2": 1607, "id": 1607, "left": 23.986919847, "top": 71.446110046000001, "right": 24.486919847, "bottom": 70.946110046000001, "row_index": 6, "col_index": 40, "tile_id": 1607 }, "geometry": { "type": "MultiLineString", "coordinates": [ [ [ 24.001779849953767, 70.994711083460103 ], [ 24.00195597426827, 70.994816210397914 ], [ 24.00306355986579, 70.994872064176818 ], [ 24.003828710261459, 70.995096836581055 ], [ 24.005637186326283, 70.995020031725431 ], [ 24.007431097268572, 70.994815527137789 ], [ 24.0089233378778, 70.994965196722745 ], [ 24.00962785705908, 70.994859881476472 ], [ 24.009864535676979, 70.994388072396134 ], [ 24.010236659972215, 70.994295280995985 ] ] ] } },
{ "type": "Feature", "properties": { "fid": 296560, "elvelengde_m": 293.88, "elvID": "219-40-1", "elvenavn": null, "regulert": null, "fid_2": 1607, "id": 1607, "left": 23.986919847, "top": 71.446110046000001, "right": 24.486919847, "bottom": 70.946110046000001, "row_index": 6, "col_index": 40, "tile_id": 1607 }, "geometry": { "type": "MultiLineString", "coordinates": [ [ [ 24.016024180152002, 70.993723926386863 ], [ 24.017412754078741, 70.994195150618538 ], [ 24.018367650354634, 70.994255391381884 ], [ 24.019129772238159, 70.994132912144821 ], [ 24.019676665887843, 70.994159677313363 ], [ 24.020971387482732, 70.994521560523893 ], [ 24.021989411468923, 70.995076441048113 ] ] ] } },
{ "type": "Feature", "properties": { "fid": 296561, "elvelengde_m": 40.94, "elvID": "219-40-1", "elvenavn": null, "regulert": null, "fid_2": 1607, "id": 1607, "left": 23.986919847, "top": 71.446110046000001, "right": 24.486919847, "bottom": 70.946110046000001, "row_index": 6, "col_index": 40, "tile_id": 1607 }, "geometry": { "type": "MultiLineString", "coordinates": [ [ [ 24.010741826926576, 70.994052019332571 ], [ 24.010727905897543, 70.993961972155461 ], [ 24.011074957888859, 70.993850936190356 ], [ 24.011429496188949, 70.993874538314074 ] ] ] } },
{ "type": "Feature", "properties": { "fid": 296562, "elvelengde_m": 98.3, "elvID": "219-40-1", "elvenavn": null, "regulert": null, "fid_2": 1607, "id": 1607, "left": 23.986919847, "top": 71.446110046000001, "right": 24.486919847, "bottom": 70.946110046000001, "row_index": 6, "col_index": 40, "tile_id": 1607 }, "geometry": { "type": "MultiLineString", "coordinates": [ [ [ 24.013084431705281, 70.993676852808022 ], [ 24.014119641862294, 70.993388294951657 ], [ 24.014585347514512, 70.993404736224051 ], [ 24.015276675962706, 70.993568512145202 ] ] ] } },
{ "type": "Feature", "properties": { "fid": 296563, "elvelengde_m": 306.64, "elvID": "219-40-1", "elvenavn": null, "regulert": null, "fid_2": 1607, "id": 1607, "left": 23.986919847, "top": 71.446110046000001, "right": 24.486919847, "bottom": 70.946110046000001, "row_index": 6, "col_index": 40, "tile_id": 1607 }, "geometry": { "type": "MultiLineString", "coordinates": [ [ [ 23.997579690908672, 70.994979433043085 ], [ 23.996696401051455, 70.994225108975471 ], [ 24.000265971022646, 70.99412535846011 ], [ 24.001779849953767, 70.994711083460103 ] ] ] } },
{ "type": "Feature", "properties": { "fid": 296567, "elvelengde_m": 442.31, "elvID": "219-40-1", "elvenavn": null, "regulert": null, "fid_2": 1607, "id": 1607, "left": 23.986919847, "top": 71.446110046000001, "right": 24.486919847, "bottom": 70.946110046000001, "row_index": 6, "col_index": 40, "tile_id": 1607 }, "geometry": { "type": "MultiLineString", "coordinates": [ [ [ 24.038285121267101, 70.995507431549655 ], [ 24.038244092610721, 70.994680984974266 ], [ 24.038383425810096, 70.994117714911013 ], [ 24.038463781238018, 70.992665037836545 ], [ 24.038201996969878, 70.992391545320501 ], [ 24.036468548214454, 70.992013789927739 ], [ 24.036211449009691, 70.991893098350388 ] ] ] } },
{ "type": "Feature", "properties": { "fid": 296570, "elvelengde_m": 268.03, "elvID": "219-40-1", "elvenavn": null, "regulert": null, "fid_2": 1607, "id": 1607, "left": 23.986919847, "top": 71.446110046000001, "right": 24.486919847, "bottom": 70.946110046000001, "row_index": 6, "col_index": 40, "tile_id": 1607 }, "geometry": { "type": "MultiLineString", "coordinates": [ [ [ 24.037647483124033, 70.988379581435439 ], [ 24.035706163539025, 70.98810619779124 ], [ 24.03501462479985, 70.988310599645345 ], [ 24.034546435392294, 70.98831208401036 ], [ 24.03457253479235, 70.988471080175643 ], [ 24.034403022000102, 70.988534170612198 ], [ 24.033723115989645, 70.988414457444435 ], [ 24.032800142102996, 70.988452529825338 ], [ 24.032521768237977, 70.988645821293758 ], [ 24.032613760968225, 70.988858001657277 ] ] ] } },
{ "type": "Feature", "properties": { "fid": 296571, "elvelengde_m": 488.33, "elvID": "219-40-4", "elvenavn": null, "regulert": null, "fid_2": 1607, "id": 1607, "left": 23.986919847, "top": 71.446110046000001, "right": 24.486919847, "bottom": 70.946110046000001, "row_index": 6, "col_index": 40, "tile_id": 1607 }, "geometry": { "type": "MultiLineString", "coordinates": [ [ [ 24.045454756441224, 70.983863461805612 ], [ 24.044782161603138, 70.984310566798513 ], [ 24.04475337447154, 70.985055057769856 ], [ 24.044126461106554, 70.985565749271274 ], [ 24.043914627030414, 70.985876415012939 ], [ 24.043570209267202, 70.985969649893121 ], [ 24.042606283819744, 70.985972296471601 ], [ 24.042400685898343, 70.986058809400348 ], [ 24.042340281259957, 70.986461743748634 ], [ 24.041154439315804, 70.986658273445187 ], [ 24.0408115241936, 70.987110557409764 ], [ 24.040131265753363, 70.987422909414093 ] ] ] } },
{ "type": "Feature", "properties": { "fid": 296573, "elvelengde_m": 481.49, "elvID": "219-39-1", "elvenavn": null, "regulert": null, "fid_2": 1607, "id": 1607, "left": 23.986919847, "top": 71.446110046000001, "right": 24.486919847, "bottom": 70.946110046000001, "row_index": 6, "col_index": 40, "tile_id": 1607 }, "geometry": { "type": "MultiLineString", "coordinates": [ [ [ 24.017703560720566, 70.979515389189814 ], [ 24.017476213964716, 70.979924650882054 ], [ 24.017475116242121, 70.980481119570427 ], [ 24.016917681604749, 70.980525959893839 ], [ 24.016108629020437, 70.98041432734793 ], [ 24.01485729594534, 70.98050188998657 ], [ 24.012663567208286, 70.980448644747923 ], [ 24.012243481294789, 70.980495717834742 ], [ 24.010603891531019, 70.980962973607134 ], [ 24.008071310282606, 70.981241788965988 ] ] ] } },
{ "type": "Feature", "properties": { "fid": 296574, "elvelengde_m": 102.02, "elvID": "219-39-2", "elvenavn": null, "regulert": null, "fid_2": 1607, "id": 1607, "left": 23.986919847, "top": 71.446110046000001, "right": 24.486919847, "bottom": 70.946110046000001, "row_index": 6, "col_index": 40, "tile_id": 1607 }, "geometry": { "type": "MultiLineString", "coordinates": [ [ [ 24.025948936877121, 70.978857827228481 ], [ 24.023285228289421, 70.978635588530878 ] ] ] } },
{ "type": "Feature", "properties": { "fid": 296575, "elvelengde_m": 8.7, "elvID": "219-38-1", "elvenavn": null, "regulert": null, "fid_2": 1607, "id": 1607, "left": 23.986919847, "top": 71.446110046000001, "right": 24.486919847, "bottom": 70.946110046000001, "row_index": 6, "col_index": 40, "tile_id": 1607 }, "geometry": { "type": "MultiLineString", "coordinates": [ [ [ 23.997076146694585, 70.97843218617119 ], [ 23.997304683056679, 70.978454710696582 ] ] ] } },
{ "type": "Feature", "properties": { "fid": 296576, "elvelengde_m": 8.62, "elvID": "219-38-4", "elvenavn": null, "regulert": null, "fid_2": 1607, "id": 1607, "left": 23.986919847, "top": 71.446110046000001, "right": 24.486919847, "bottom": 70.946110046000001, "row_index": 6, "col_index": 40, "tile_id": 1607 }, "geometry": { "type": "MultiLineString", "coordinates": [ [ [ 23.997047597807704, 70.978244163240603 ], [ 23.996919710532698, 70.978309078957039 ] ] ] } },
{ "type": "Feature", "properties": { "fid": 296578, "elvelengde_m": 121.63, "elvID": "219-39-1", "elvenavn": null, "regulert": null, "fid_2": 1607, "id": 1607, "left": 23.986919847, "top": 71.446110046000001, "right": 24.486919847, "bottom": 70.946110046000001, "row_index": 6, "col_index": 40, "tile_id": 1607 }, "geometry": { "type": "MultiLineString", "coordinates": [ [ [ 24.026029468848073, 70.976828931997332 ], [ 24.02357038863757, 70.976925830593558 ], [ 24.022757685137858, 70.976841032914535 ] ] ] } },
{ "type": "Feature", "properties": { "fid": 296579, "elvelengde_m": 49.71, "elvID": "219-39-1", "elvenavn": null, "regulert": null, "fid_2": 1607, "id": 1607, "left": 23.986919847, "top": 71.446110046000001, "right": 24.486919847, "bottom": 70.946110046000001, "row_index": 6, "col_index": 40, "tile_id": 1607 }, "geometry": { "type": "MultiLineString", "coordinates": [ [ [ 24.021318200247929, 70.976898656881204 ], [ 24.020627334917524, 70.977282538001077 ] ] ] } },
{ "type": "Feature", "properties": { "fid": 296580, "elvelengde_m": 64.7, "elvID": "219-38-1", "elvenavn": null, "regulert": null, "fid_2": 1607, "id": 1607, "left": 23.986919847, "top": 71.446110046000001, "right": 24.486919847, "bottom": 70.946110046000001, "row_index": 6, "col_index": 40, "tile_id": 1607 }, "geometry": { "type": "MultiLineString", "coordinates": [ [ [ 23.99458258754532, 70.978140308933106 ], [ 23.994795198699279, 70.978271540734156 ], [ 23.995194247323479, 70.978363793091788 ], [ 23.996023520375847, 70.978386331360667 ] ] ] } },
{ "type": "Feature", "properties": { "fid": 296581, "elvelengde_m": 397.68, "elvID": "219-38-1", "elvenavn": null, "regulert": null, "fid_2": 1607, "id": 1607, "left": 23.986919847, "top": 71.446110046000001, "right": 24.486919847, "bottom": 70.946110046000001, "row_index": 6, "col_index": 40, "tile_id": 1607 }, "geometry": { "type": "MultiLineString", "coordinates": [ [ [ 24.000382814618973, 70.975592244342351 ], [ 24.000108422505434, 70.975767267991046 ], [ 24.000022642964733, 70.97615183281502 ], [ 23.999810227895008, 70.976282903519021 ], [ 23.998673637517641, 70.976345384231152 ], [ 23.99687858726621, 70.976586235427845 ], [ 23.996528365599271, 70.9768162921536 ], [ 23.99640942697371, 70.97730297490007 ], [ 23.995325902263229, 70.977598616277035 ], [ 23.99458258754532, 70.978140308933106 ] ] ] } },
{ "type": "Feature", "properties": { "fid": 296582, "elvelengde_m": 202.75, "elvID": "219-38-3", "elvenavn": null, "regulert": null, "fid_2": 1607, "id": 1607, "left": 23.986919847, "top": 71.446110046000001, "right": 24.486919847, "bottom": 70.946110046000001, "row_index": 6, "col_index": 40, "tile_id": 1607 }, "geometry": { "type": "MultiLineString", "coordinates": [ [ [ 24.005693340270899, 70.975956169331795 ], [ 24.004919055810625, 70.975799972633737 ], [ 24.002175260759788, 70.975567247795638 ], [ 24.000382814618973, 70.975592244342351 ] ] ] } },
{ "type": "Feature", "properties": { "fid": 296583, "elvelengde_m": 126.9, "elvID": "219-16-1", "elvenavn": null, "regulert": null, "fid_2": 1607, "id": 1607, "left": 23.986919847, "top": 71.446110046000001, "right": 24.486919847, "bottom": 70.946110046000001, "row_index": 6, "col_index": 40, "tile_id": 1607 }, "geometry": { "type": "MultiLineString", "coordinates": [ [ [ 24.128926781165063, 70.96882009661914 ], [ 24.128704875623153, 70.969023103814223 ], [ 24.127181233281167, 70.969797998721077 ] ] ] } },
{ "type": "Feature", "properties": { "fid": 296584, "elvelengde_m": 72.51, "elvID": "219-16-4", "elvenavn": null, "regulert": null, "fid_2": 1607, "id": 1607, "left": 23.986919847, "top": 71.446110046000001, "right": 24.486919847, "bottom": 70.946110046000001, "row_index": 6, "col_index": 40, "tile_id": 1607 }, "geometry": { "type": "MultiLineString", "coordinates": [ [ [ 24.131742966321564, 70.968935428929342 ], [ 24.129877934591818, 70.968709183923167 ] ] ] } },
{ "type": "Feature", "properties": { "fid": 296585, "elvelengde_m": 129.52, "elvID": "219-19-1", "elvenavn": null, "regulert": null, "fid_2": 1607, "id": 1607, "left": 23.986919847, "top": 71.446110046000001, "right": 24.486919847, "bottom": 70.946110046000001, "row_index": 6, "col_index": 40, "tile_id": 1607 }, "geometry": { "type": "MultiLineString", "coordinates": [ [ [ 24.149818069718133, 70.967185577419784 ], [ 24.147960249830337, 70.967291558229405 ], [ 24.146590196715717, 70.96758469074517 ] ] ] } },
{ "type": "Feature", "properties": { "fid": 296586, "elvelengde_m": 329.99, "elvID": "219-16-1", "elvenavn": null, "regulert": null, "fid_2": 1607, "id": 1607, "left": 23.986919847, "top": 71.446110046000001, "right": 24.486919847, "bottom": 70.946110046000001, "row_index": 6, "col_index": 40, "tile_id": 1607 }, "geometry": { "type": "MultiLineString", "coordinates": [ [ [ 24.120069058246266, 70.967695669519358 ], [ 24.122065873670149, 70.967959944665751 ], [ 24.123507300268976, 70.968260413652203 ], [ 24.125965321295183, 70.968567827542287 ], [ 24.126520723690181, 70.968531518738217 ], [ 24.128453537963608, 70.968669208602776 ] ] ] } },
{ "type": "Feature", "properties": { "fid": 296587, "elvelengde_m": 178.42, "elvID": "219-15-1", "elvenavn": null, "regulert": null, "fid_2": 1607, "id": 1607, "left": 23.986919847, "top": 71.446110046000001, "right": 24.486919847, "bottom": 70.946110046000001, "row_index": 6, "col_index": 40, "tile_id": 1607 }, "geometry": { "type": "MultiLineString", "coordinates": [ [ [ 24.094121288566836, 70.967030726323742 ], [ 24.09397085666458, 70.967306582227465 ], [ 24.092599040763844, 70.968218629154336 ], [ 24.092365993608588, 70.968509700367008 ] ] ] } },
{ "type": "Feature", "properties": { "fid": 296588, "elvelengde_m": 434.64, "elvID": "219-18-1", "elvenavn": null, "regulert": null, "fid_2": 1607, "id": 1607, "left": 23.986919847, "top": 71.446110046000001, "right": 24.486919847, "bottom": 70.946110046000001, "row_index": 6, "col_index": 40, "tile_id": 1607 }, "geometry": { "type": "MultiLineString", "coordinates": [ [ [ 24.150377222054885, 70.964070854959701 ], [ 24.149620304994766, 70.96436434318349 ], [ 24.148741648660668, 70.964925180118243 ], [ 24.148392975356536, 70.965817352739663 ], [ 24.147972455854763, 70.96606232406269 ], [ 24.147354627952243, 70.966151438369138 ], [ 24.146251726254288, 70.966170448643538 ], [ 24.145421248630015, 70.966399908528544 ], [ 24.145289415844591, 70.966550466995088 ], [ 24.145413786306964, 70.966642199249875 ], [ 24.145084888199118, 70.966825458835572 ], [ 24.144342581557446, 70.966989940092759 ] ] ] } },
{ "type": "Feature", "properties": { "fid": 296589, "elvelengde_m": 616.81, "elvID": "219-38-1", "elvenavn": null, "regulert": null, "fid_2": 1607, "id": 1607, "left": 23.986919847, "top": 71.446110046000001, "right": 24.486919847, "bottom": 70.946110046000001, "row_index": 6, "col_index": 40, "tile_id": 1607 }, "geometry": { "type": "MultiLineString", "coordinates": [ [ [ 24.003804162900305, 70.971177372008512 ], [ 24.002721175915937, 70.971788235455818 ], [ 24.002353996397371, 70.972213174847937 ], [ 24.00139265063725, 70.97256564264265 ], [ 24.000828756523941, 70.9726552161044 ], [ 23.998855701329727, 70.972605370333127 ], [ 23.998883831689763, 70.97314445141177 ], [ 23.99980687519707, 70.974855734505667 ], [ 24.000107689206775, 70.975049109325113 ], [ 24.000382814618973, 70.975592244342351 ] ] ] } },
{ "type": "Feature", "properties": { "fid": 296591, "elvelengde_m": 922.05, "elvID": "219-38-2", "elvenavn": null, "regulert": null, "fid_2": 1607, "id": 1607, "left": 23.986919847, "top": 71.446110046000001, "right": 24.486919847, "bottom": 70.946110046000001, "row_index": 6, "col_index": 40, "tile_id": 1607 }, "geometry": { "type": "MultiLineString", "coordinates": [ [ [ 23.986919847, 70.973514369004533 ], [ 23.987169527530359, 70.973888529885841 ], [ 23.987722145689819, 70.974086026407051 ], [ 23.989362225712551, 70.974014798477526 ], [ 23.990255444483793, 70.974099153187439 ], [ 23.991289747950429, 70.974387672094636 ], [ 23.99200670120306, 70.974941572645534 ], [ 23.991880025737313, 70.975194934979299 ], [ 23.991393572473044, 70.975436064095831 ], [ 23.991407085227301, 70.975705220510051 ], [ 23.99343812636236, 70.976399526025943 ], [ 23.993924759910289, 70.976705803036637 ], [ 23.99392129426456, 70.977226502340216 ], [ 23.993817917442481, 70.977452563462265 ], [ 23.993806291295858, 70.977740060749468 ], [ 23.99458258754532, 70.978140308933106 ] ] ] } },
{ "type": "Feature", "properties": { "fid": 296592, "elvelengde_m": 749.22, "elvID": "219-16-1", "elvenavn": null, "regulert": null, "fid_2": 1607, "id": 1607, "left": 23.986919847, "top": 71.446110046000001, "right": 24.486919847, "bottom": 70.946110046000001, "row_index": 6, "col_index": 40, "tile_id": 1607 }, "geometry": { "type": "MultiLineString", "coordinates": [ [ [ 24.105180251285283, 70.965884179487048 ], [ 24.105331838743179, 70.965976395898892 ], [ 24.105254202482268, 70.966127765628443 ], [ 24.104438038496326, 70.966258594411613 ], [ 24.104142659246055, 70.966397633643922 ], [ 24.104761694177832, 70.966864952796641 ], [ 24.105988227541044, 70.967314911411179 ], [ 24.107584898365243, 70.967680900730329 ], [ 24.11174671267667, 70.967997050473755 ], [ 24.11587967359565, 70.968133135872662 ], [ 24.116826078219198, 70.968246589375056 ], [ 24.11710944592188, 70.968188092595554 ], [ 24.117255695102255, 70.967939129271898 ], [ 24.119191002285802, 70.967493442268946 ] ] ] } },
{ "type": "Feature", "properties": { "fid": 296593, "elvelengde_m": 891.21, "elvID": "219-17-1", "elvenavn": null, "regulert": null, "fid_2": 1607, "id": 1607, "left": 23.986919847, "top": 71.446110046000001, "right": 24.486919847, "bottom": 70.946110046000001, "row_index": 6, "col_index": 40, "tile_id": 1607 }, "geometry": { "type": "MultiLineString", "coordinates": [ [ [ 24.118375287929879, 70.964976754004695 ], [ 24.119418076937002, 70.965181416802508 ], [ 24.121534708649229, 70.965375722265136 ], [ 24.122843773591178, 70.965638456488733 ], [ 24.128186915178119, 70.966152006891477 ], [ 24.132373285402629, 70.966297562327711 ], [ 24.133481237974991, 70.966431268200481 ], [ 24.134649880056092, 70.966718462716656 ], [ 24.135326811019748, 70.966791845295049 ], [ 24.137376818485354, 70.966877433450577 ], [ 24.138419339196425, 70.96670496645126 ], [ 24.138960353844674, 70.966767148263159 ], [ 24.140203337843261, 70.967109403545237 ], [ 24.14104429838326, 70.967224982785154 ] ] ] } },
{ "type": "Feature", "properties": { "fid": 296594, "elvelengde_m": 47.61, "elvID": "219-16-3", "elvenavn": null, "regulert": null, "fid_2": 1607, "id": 1607, "left": 23.986919847, "top": 71.446110046000001, "right": 24.486919847, "bottom": 70.946110046000001, "row_index": 6, "col_index": 40, "tile_id": 1607 }, "geometry": { "type": "MultiLineString", "coordinates": [ [ [ 24.099028521316743, 70.964890657403728 ], [ 24.099285929533764, 70.964822875022577 ], [ 24.099496638479089, 70.964512063162985 ] ] ] } },
{ "type": "Feature", "properties": { "fid": 296595, "elvelengde_m": 152.5, "elvID": "219-13-1", "elvenavn": null, "regulert": null, "fid_2": 1607, "id": 1607, "left": 23.986919847, "top": 71.446110046000001, "right": 24.486919847, "bottom": 70.946110046000001, "row_index": 6, "col_index": 40, "tile_id": 1607 }, "geometry": { "type": "MultiLineString", "coordinates": [ [ [ 24.034170814752393, 70.966073212687405 ], [ 24.036033743447259, 70.966120996204339 ], [ 24.038256733578741, 70.966332376241866 ] ] ] } },
{ "type": "Feature", "properties": { "fid": 296596, "elvelengde_m": 124.56, "elvID": "219-13-4", "elvenavn": null, "regulert": null, "fid_2": 1607, "id": 1607, "left": 23.986919847, "top": 71.446110046000001, "right": 24.486919847, "bottom": 70.946110046000001, "row_index": 6, "col_index": 40, "tile_id": 1607 }, "geometry": { "type": "MultiLineString", "coordinates": [ [ [ 24.0308958131568, 70.966272225863634 ], [ 24.033771922591821, 70.966165581767086 ], [ 24.034170814752393, 70.966073212687405 ] ] ] } },
{ "type": "Feature", "properties": { "fid": 296597, "elvelengde_m": 263.69, "elvID": "219-38-1", "elvenavn": null, "regulert": null, "fid_2": 1607, "id": 1607, "left": 23.986919847, "top": 71.446110046000001, "right": 24.486919847, "bottom": 70.946110046000001, "row_index": 6, "col_index": 40, "tile_id": 1607 }, "geometry": { "type": "MultiLineString", "coordinates": [ [ [ 24.01019308075788, 70.967133517772183 ], [ 24.009705022433653, 70.96726939634074 ], [ 24.009451569087723, 70.967489596283954 ], [ 24.009306900810952, 70.967900143892109 ], [ 24.009364092707404, 70.9682511998856 ], [ 24.010034632208544, 70.968908177673754 ], [ 24.009742929066984, 70.969199787380845 ], [ 24.009692498247897, 70.969351564866102 ] ] ] } },
{ "type": "Feature", "properties": { "fid": 296598, "elvelengde_m": 300.18, "elvID": "219-16-1", "elvenavn": null, "regulert": null, "fid_2": 1607, "id": 1607, "left": 23.986919847, "top": 71.446110046000001, "right": 24.486919847, "bottom": 70.946110046000001, "row_index": 6, "col_index": 40, "tile_id": 1607 }, "geometry": { "type": "MultiLineString", "coordinates": [ [ [ 24.107296179117824, 70.961761712951557 ], [ 24.108944605147979, 70.962523325978012 ], [ 24.109135051283388, 70.962723744017794 ], [ 24.109132413118235, 70.962930182751876 ], [ 24.108868123000054, 70.963042790398845 ], [ 24.106938736487848, 70.963264027003376 ], [ 24.105758905577364, 70.963622510812542 ] ] ] } },
{ "type": "Feature", "properties": { "fid": 296599, "elvelengde_m": 458.46, "elvID": "219-18-1", "elvenavn": null, "regulert": null, "fid_2": 1607, "id": 1607, "left": 23.986919847, "top": 71.446110046000001, "right": 24.486919847, "bottom": 70.946110046000001, "row_index": 6, "col_index": 40, "tile_id": 1607 }, "geometry": { "type": "MultiLineString", "coordinates": [ [ [ 24.131755983008642, 70.960507964289803 ], [ 24.134630197919378, 70.961162748995221 ], [ 24.141762954453537, 70.961461257165837 ], [ 24.143268640808206, 70.961125361053604 ] ] ] } },
{ "type": "Feature", "properties": { "fid": 296602, "elvelengde_m": 161.33, "elvID": "219-20-1", "elvenavn": null, "regulert": null, "fid_2": 1607, "id": 1607, "left": 23.986919847, "top": 71.446110046000001, "right": 24.486919847, "bottom": 70.946110046000001, "row_index": 6, "col_index": 40, "tile_id": 1607 }, "geometry": { "type": "MultiLineString", "coordinates": [ [ [ 24.188948861331571, 70.9571563556391 ], [ 24.191309408287104, 70.956985673412717 ], [ 24.193012609200323, 70.956640089392067 ] ] ] } },
{ "type": "Feature", "properties": { "fid": 296603, "elvelengde_m": 249.9, "elvID": "219-16-2", "elvenavn": null, "regulert": null, "fid_2": 1607, "id": 1607, "left": 23.986919847, "top": 71.446110046000001, "right": 24.486919847, "bottom": 70.946110046000001, "row_index": 6, "col_index": 40, "tile_id": 1607 }, "geometry": { "type": "MultiLineString", "coordinates": [ [ [ 24.102433955292234, 70.960231815021032 ], [ 24.103253706726051, 70.960639576263915 ], [ 24.105344816397714, 70.961381224016904 ], [ 24.107296179117824, 70.961761712951557 ] ] ] } },
{ "type": "Feature", "properties": { "fid": 296605, "elvelengde_m": 304.12, "elvID": "219-16-1", "elvenavn": null, "regulert": null, "fid_2": 1607, "id": 1607, "left": 23.986919847, "top": 71.446110046000001, "right": 24.486919847, "bottom": 70.946110046000001, "row_index": 6, "col_index": 40, "tile_id": 1607 }, "geometry": { "type": "MultiLineString", "coordinates": [ [ [ 24.105330215890792, 70.959227049600898 ], [ 24.105950402187691, 70.959497047603818 ], [ 24.107303232902666, 70.960397543148474 ], [ 24.107509463438202, 70.960867517285891 ], [ 24.107506728189463, 70.961450892167932 ], [ 24.10728463899763, 70.96165378679386 ], [ 24.107296179117824, 70.961761712951557 ] ] ] } },
{ "type": "Feature", "properties": { "fid": 296607, "elvelengde_m": 940.52, "elvID": "219-13-4", "elvenavn": null, "regulert": null, "fid_2": 1607, "id": 1607, "left": 23.986919847, "top": 71.446110046000001, "right": 24.486919847, "bottom": 70.946110046000001, "row_index": 6, "col_index": 40, "tile_id": 1607 }, "geometry": { "type": "MultiLineString", "coordinates": [ [ [ 24.005662161394497, 70.963093157790595 ], [ 24.008265362224382, 70.963880071985756 ], [ 24.011217547795766, 70.964179043217413 ], [ 24.015659024088215, 70.964816063735313 ], [ 24.018867340312095, 70.965424101228891 ], [ 24.02230618385089, 70.965964025921991 ], [ 24.023663112613118, 70.966084530210466 ], [ 24.026072102133337, 70.966159081779253 ], [ 24.027101213540941, 70.966265293854647 ], [ 24.028618174143205, 70.966603748670778 ] ] ] } },
{ "type": "Feature", "properties": { "fid": 296610, "elvelengde_m": 1241.91, "elvID": "219-14-1", "elvenavn": null, "regulert": null, "fid_2": 1607, "id": 1607, "left": 23.986919847, "top": 71.446110046000001, "right": 24.486919847, "bottom": 70.946110046000001, "row_index": 6, "col_index": 40, "tile_id": 1607 }, "geometry": { "type": "MultiLineString", "coordinates": [ [ [ 24.066989572897793, 70.957673238437181 ], [ 24.06579810921593, 70.957923717539273 ], [ 24.061960952142634, 70.958401424535282 ], [ 24.059293685572559, 70.958404108793374 ], [ 24.057707389857264, 70.958720048797616 ], [ 24.056741918703089, 70.958740561287257 ], [ 24.055900664203321, 70.958852939754792 ], [ 24.054665064649122, 70.958842265844794 ], [ 24.054115856919378, 70.959021951031175 ], [ 24.053629035326445, 70.959337476649793 ], [ 24.052672897189346, 70.959295297618553 ], [ 24.052410969863306, 70.959578299345964 ], [ 24.051716597109078, 70.959809575007228 ], [ 24.051717350910717, 70.959989197031561 ], [ 24.052130787451752, 70.960166279350346 ], [ 24.052046549510798, 70.960362486043962 ], [ 24.051121260853591, 70.960850329638447 ], [ 24.051213806979003, 70.960968571282038 ], [ 24.051618599427144, 70.96101984725604 ], [ 24.05186747607614, 70.961194334544771 ], [ 24.053401073777792, 70.961604666325556 ], [ 24.05340176214224, 70.961784111172136 ], [ 24.051501338941527, 70.962911759351925 ], [ 24.051105166443126, 70.962986290765613 ], [ 24.050434084896239, 70.962876833506442 ], [ 24.047123186802704, 70.963144756890941 ] ] ] } },
{ "type": "Feature", "properties": { "fid": 296613, "elvelengde_m": 127.17, "elvID": "219-21-1", "elvenavn": null, "regulert": null, "fid_2": 1607, "id": 1607, "left": 23.986919847, "top": 71.446110046000001, "right": 24.486919847, "bottom": 70.946110046000001, "row_index": 6, "col_index": 40, "tile_id": 1607 }, "geometry": { "type": "MultiLineString", "coordinates": [ [ [ 24.177871189689885, 70.952150703807476 ], [ 24.179586026239996, 70.952266339438879 ], [ 24.180335312037577, 70.952215099502084 ], [ 24.181127273631738, 70.952035730443811 ] ] ] } },
{ "type": "Feature", "properties": { "fid": 296614, "elvelengde_m": 755.02, "elvID": "219-21-3", "elvenavn": null, "regulert": null, "fid_2": 1607, "id": 1607, "left": 23.986919847, "top": 71.446110046000001, "right": 24.486919847, "bottom": 70.946110046000001, "row_index": 6, "col_index": 40, "tile_id": 1607 }, "geometry": { "type": "MultiLineString", "coordinates": [ [ [ 24.16328331113462, 70.956146254735543 ], [ 24.164393044411685, 70.955499172523503 ], [ 24.16576320791167, 70.955143176268152 ], [ 24.165842418545306, 70.954399399922835 ], [ 24.165977852726972, 70.9542220076615 ], [ 24.166803744646554, 70.954019279900876 ], [ 24.168468478875294, 70.95390998952746 ], [ 24.169821876268426, 70.953670457158651 ], [ 24.171484330065582, 70.953193142536605 ], [ 24.172512826661421, 70.953110176732238 ], [ 24.174653280465076, 70.952747857924265 ], [ 24.176090826254367, 70.952302991297046 ], [ 24.177871189689885, 70.952150703807476 ] ] ] } },
{ "type": "Feature", "properties": { "fid": 296618, "elvelengde_m": 212.14, "elvID": "219-22-1", "elvenavn": null, "regulert": null, "fid_2": 1607, "id": 1607, "left": 23.986919847, "top": 71.446110046000001, "right": 24.486919847, "bottom": 70.946110046000001, "row_index": 6, "col_index": 40, "tile_id": 1607 }, "geometry": { "type": "MultiLineString", "coordinates": [ [ [ 24.176243076424665, 70.950851389880441 ], [ 24.180084184684247, 70.950891941166475 ], [ 24.181721288792364, 70.951249475082108 ] ] ] } },
{ "type": "Feature", "properties": { "fid": 296620, "elvelengde_m": 413.53, "elvID": "219-21-1", "elvenavn": null, "regulert": null, "fid_2": 1607, "id": 1607, "left": 23.986919847, "top": 71.446110046000001, "right": 24.486919847, "bottom": 70.946110046000001, "row_index": 6, "col_index": 40, "tile_id": 1607 }, "geometry": { "type": "MultiLineString", "coordinates": [ [ [ 24.133114507358485, 70.954551601649399 ], [ 24.133237253061271, 70.954463725427701 ], [ 24.132966638822314, 70.954055641168992 ], [ 24.132989140014455, 70.953517533139035 ], [ 24.133340410605502, 70.953181746951643 ], [ 24.134018064691357, 70.952869155590037 ], [ 24.139099933052329, 70.951933578941464 ] ] ] } },
{ "type": "Feature", "properties": { "fid": 296621, "elvelengde_m": 1472.28, "elvID": "219-21-1", "elvenavn": null, "regulert": null, "fid_2": 1607, "id": 1607, "left": 23.986919847, "top": 71.446110046000001, "right": 24.486919847, "bottom": 70.946110046000001, "row_index": 6, "col_index": 40, "tile_id": 1607 }, "geometry": { "type": "MultiLineString", "coordinates": [ [ [ 24.139099933052329, 70.951933578941464 ], [ 24.14376930428498, 70.951951686239951 ], [ 24.144609614539981, 70.951650529881803 ], [ 24.14632629780079, 70.951560229386416 ], [ 24.153187743654232, 70.951620835516792 ], [ 24.156810501667735, 70.951461061423188 ], [ 24.162430189978519, 70.951556032484888 ], [ 24.163678129088805, 70.952050750778312 ], [ 24.168004322117529, 70.952161785268146 ], [ 24.169904567754582, 70.952325425925295 ], [ 24.174169655616559, 70.95228284564655 ], [ 24.176788101594553, 70.952035521063607 ], [ 24.17761013608801, 70.952056841019299 ], [ 24.177871189689885, 70.952150703807476 ] ] ] } },
{ "type": "Feature", "properties": { "fid": 296623, "elvelengde_m": 206.56, "elvID": "219-21-2", "elvenavn": null, "regulert": null, "fid_2": 1607, "id": 1607, "left": 23.986919847, "top": 71.446110046000001, "right": 24.486919847, "bottom": 70.946110046000001, "row_index": 6, "col_index": 40, "tile_id": 1607 }, "geometry": { "type": "MultiLineString", "coordinates": [ [ [ 24.133675735484463, 70.951436842613433 ], [ 24.139099933052329, 70.951933578941464 ] ] ] } },
{ "type": "Feature", "properties": { "fid": 296625, "elvelengde_m": 1659.28, "elvID": "219-13-1", "elvenavn": null, "regulert": null, "fid_2": 1607, "id": 1607, "left": 23.986919847, "top": 71.446110046000001, "right": 24.486919847, "bottom": 70.946110046000001, "row_index": 6, "col_index": 40, "tile_id": 1607 }, "geometry": { "type": "MultiLineString", "coordinates": [ [ [ 24.024442687049028, 70.955792793552774 ], [ 24.024505212540678, 70.956107915851703 ], [ 24.025072019670237, 70.95635938107506 ], [ 24.025335023228926, 70.956803486501045 ], [ 24.025237688501118, 70.957816064027057 ], [ 24.024830481242546, 70.958330330435643 ], [ 24.02420618897759, 70.958643353763421 ], [ 24.023172927081841, 70.958931955470945 ], [ 24.020480524813408, 70.959104088680533 ], [ 24.019257558172413, 70.959371717072202 ], [ 24.0186945745196, 70.95964096522728 ], [ 24.018273427887017, 70.960064982465369 ], [ 24.018281215765839, 70.960558718693008 ], [ 24.01921060884484, 70.961507226668203 ], [ 24.0198230670382, 70.961822214510221 ], [ 24.02132366612874, 70.962447732320484 ], [ 24.022274120562447, 70.962525761083072 ], [ 24.022767224772597, 70.96272217616081 ], [ 24.023098484036257, 70.963077555260156 ], [ 24.024467044298586, 70.963485509462117 ], [ 24.024953766760444, 70.963906159487379 ], [ 24.024867769114692, 70.964111210946953 ], [ 24.024537823315224, 70.964294353481804 ], [ 24.02459453175566, 70.96446588066722 ], [ 24.025065226641438, 70.96462608391883 ], [ 24.026248250449996, 70.964806520956742 ], [ 24.029735982958019, 70.964656099055659 ], [ 24.030905587029498, 70.964925993828572 ], [ 24.031847341648096, 70.96524626608911 ], [ 24.032538577776798, 70.965221238037074 ], [ 24.032820233157874, 70.965360545171876 ], [ 24.033021304254945, 70.965668876925648 ], [ 24.033691783866914, 70.965966861566088 ], [ 24.034170814752393, 70.966073212687405 ] ] ] } },
{ "type": "Feature", "properties": { "fid": 296627, "elvelengde_m": 115.51, "elvID": "219-33-1", "elvenavn": null, "regulert": null, "fid_2": 1607, "id": 1607, "left": 23.986919847, "top": 71.446110046000001, "right": 24.486919847, "bottom": 70.946110046000001, "row_index": 6, "col_index": 40, "tile_id": 1607 }, "geometry": { "type": "MultiLineString", "coordinates": [ [ [ 23.995737173153401, 70.955816542404889 ], [ 23.995099037067323, 70.955413933758663 ], [ 23.994065689871242, 70.955125429015339 ], [ 23.993650508349823, 70.95510524006167 ] ] ] } },
{ "type": "Feature", "properties": { "fid": 296628, "elvelengde_m": 396.18, "elvID": "219-14-4", "elvenavn": null, "regulert": null, "fid_2": 1607, "id": 1607, "left": 23.986919847, "top": 71.446110046000001, "right": 24.486919847, "bottom": 70.946110046000001, "row_index": 6, "col_index": 40, "tile_id": 1607 }, "geometry": { "type": "MultiLineString", "coordinates": [ [ [ 24.054758018640097, 70.951941423564165 ], [ 24.055523059491868, 70.951971608943921 ], [ 24.056830604047498, 70.952234715824375 ], [ 24.058727561899012, 70.952785388851041 ], [ 24.059905631585774, 70.953181084952178 ], [ 24.061750735764821, 70.954080934086818 ], [ 24.062634340365577, 70.954238555464599 ] ] ] } },
{ "type": "Feature", "properties": { "fid": 296629, "elvelengde_m": 820.73, "elvID": "219-14-1", "elvenavn": null, "regulert": null, "fid_2": 1607, "id": 1607, "left": 23.986919847, "top": 71.446110046000001, "right": 24.486919847, "bottom": 70.946110046000001, "row_index": 6, "col_index": 40, "tile_id": 1607 }, "geometry": { "type": "MultiLineString", "coordinates": [ [ [ 24.082655989647673, 70.948936080730959 ], [ 24.081758626988705, 70.949244896279353 ], [ 24.081212894414673, 70.949963341147836 ], [ 24.08024560537736, 70.950746960340823 ], [ 24.079815011775626, 70.951242739235937 ], [ 24.079483011972691, 70.951443949901659 ], [ 24.078598800932305, 70.951663437674213 ], [ 24.077346490458307, 70.951769312213941 ], [ 24.076248989525581, 70.952129077630872 ], [ 24.071778024546706, 70.952812354518315 ], [ 24.070892252315435, 70.953040749725616 ], [ 24.070735369453299, 70.953172907805623 ], [ 24.071079407564216, 70.953447548022055 ], [ 24.070939234160885, 70.953651872202499 ], [ 24.070239946920388, 70.953919067145009 ], [ 24.069366475841331, 70.954066794105984 ] ] ] } },
{ "type": "Feature", "properties": { "fid": 296630, "elvelengde_m": 216.81, "elvID": "219-13-1", "elvenavn": null, "regulert": null, "fid_2": 1607, "id": 1607, "left": 23.986919847, "top": 71.446110046000001, "right": 24.486919847, "bottom": 70.946110046000001, "row_index": 6, "col_index": 40, "tile_id": 1607 }, "geometry": { "type": "MultiLineString", "coordinates": [ [ [ 24.02081498204095, 70.951955798434057 ], [ 24.02203525351073, 70.95206522246724 ], [ 24.022663462495547, 70.95227266054755 ], [ 24.02347233018763, 70.952743426794356 ], [ 24.024344422679068, 70.952972860382943 ], [ 24.024544374689327, 70.953290208721526 ] ] ] } },
{ "type": "Feature", "properties": { "fid": 296631, "elvelengde_m": 208.35, "elvID": "219-13-3", "elvenavn": null, "regulert": null, "fid_2": 1607, "id": 1607, "left": 23.986919847, "top": 71.446110046000001, "right": 24.486919847, "bottom": 70.946110046000001, "row_index": 6, "col_index": 40, "tile_id": 1607 }, "geometry": { "type": "MultiLineString", "coordinates": [ [ [ 24.01566754841555, 70.95128062478247 ], [ 24.017512878919437, 70.951435877022334 ], [ 24.019423394548429, 70.951888628531762 ], [ 24.020316041113634, 70.951983783252132 ], [ 24.02081498204095, 70.951955798434057 ] ] ] } },
{ "type": "Feature", "properties": { "fid": 296633, "elvelengde_m": 541.01, "elvID": "219-13-2", "elvenavn": null, "regulert": null, "fid_2": 1607, "id": 1607, "left": 23.986919847, "top": 71.446110046000001, "right": 24.486919847, "bottom": 70.946110046000001, "row_index": 6, "col_index": 40, "tile_id": 1607 }, "geometry": { "type": "MultiLineString", "coordinates": [ [ [ 24.036879595335897, 70.950391081291826 ], [ 24.035286657586081, 70.950751446933268 ], [ 24.034408027327213, 70.950746497915262 ], [ 24.033118831313498, 70.950546367014311 ], [ 24.030724191538656, 70.9500234271663 ], [ 24.029129432817403, 70.949845237967509 ], [ 24.027076185803963, 70.949794291637104 ], [ 24.025925701954257, 70.949587402217034 ], [ 24.024006602812577, 70.949009101710686 ] ] ] } },
{ "type": "Feature", "properties": { "fid": 296634, "elvelengde_m": 1042.35, "elvID": "219-14-1", "elvenavn": null, "regulert": null, "fid_2": 1607, "id": 1607, "left": 23.986919847, "top": 71.446110046000001, "right": 24.486919847, "bottom": 70.946110046000001, "row_index": 6, "col_index": 40, "tile_id": 1607 }, "geometry": { "type": "MultiLineString", "coordinates": [ [ [ 24.107474375504424, 70.946110046 ], [ 24.105560146614771, 70.947140874048685 ], [ 24.105065094084804, 70.947330562671524 ], [ 24.103330167532327, 70.947545826736174 ], [ 24.100507997019797, 70.947681177400341 ], [ 24.095839932138237, 70.947662046858355 ], [ 24.09215903318989, 70.947469680925408 ], [ 24.089608291015374, 70.947438582877695 ], [ 24.086113615791611, 70.947662082650155 ] ] ] } },
{ "type": "Feature", "properties": { "fid": 296636, "elvelengde_m": 501.37, "elvID": "219-13-1", "elvenavn": null, "regulert": null, "fid_2": 1607, "id": 1607, "left": 23.986919847, "top": 71.446110046000001, "right": 24.486919847, "bottom": 70.946110046000001, "row_index": 6, "col_index": 40, "tile_id": 1607 }, "geometry": { "type": "MultiLineString", "coordinates": [ [ [ 24.024006602812577, 70.949009101710686 ], [ 24.023451093144271, 70.948865566033007 ], [ 24.022904289630024, 70.948847735660564 ], [ 24.021885009515415, 70.949046839033926 ], [ 24.020858688804498, 70.949111183861319 ], [ 24.02008623504361, 70.949314204975806 ], [ 24.019805773684645, 70.949534036799719 ], [ 24.019596552871334, 70.949826888242939 ], [ 24.018842607846622, 70.950272477003693 ], [ 24.018626808148269, 70.95061019896184 ], [ 24.018689587423921, 70.951104770508039 ], [ 24.01951814281918, 70.951441298191 ], [ 24.020474225271499, 70.951663099226366 ], [ 24.02081498204095, 70.951955798434057 ] ] ] } },
{ "type": "Feature", "properties": { "fid": 296637, "elvelengde_m": 522.51, "elvID": "219-14-2", "elvenavn": null, "regulert": null, "fid_2": 1607, "id": 1607, "left": 23.986919847, "top": 71.446110046000001, "right": 24.486919847, "bottom": 70.946110046000001, "row_index": 6, "col_index": 40, "tile_id": 1607 }, "geometry": { "type": "MultiLineString", "coordinates": [ [ [ 24.071616286704586, 70.946110046 ], [ 24.071714552345252, 70.94636514128068 ], [ 24.072270673624207, 70.946698866344107 ], [ 24.072817211525329, 70.946905014100523 ], [ 24.074936137927182, 70.947441129279525 ], [ 24.076581591257725, 70.947646586682481 ], [ 24.078439127661269, 70.947720671806266 ], [ 24.079593068831379, 70.947720968421891 ], [ 24.081118323417101, 70.947439765543365 ], [ 24.082620664150326, 70.947499280029817 ] ] ] } },
{ "type": "Feature", "properties": { "fid": 296640, "elvelengde_m": 42.58, "elvID": "219-33-2", "elvenavn": null, "regulert": null, "fid_2": 1607, "id": 1607, "left": 23.986919847, "top": 71.446110046000001, "right": 24.486919847, "bottom": 70.946110046000001, "row_index": 6, "col_index": 40, "tile_id": 1607 }, "geometry": { "type": "MultiLineString", "coordinates": [ [ [ 23.998081479871463, 70.947888821447165 ], [ 23.9971662404906, 70.947652251472377 ] ] ] } },
{ "type": "Feature", "properties": { "fid": 296641, "elvelengde_m": 44.1, "elvID": "219-33-3", "elvenavn": null, "regulert": null, "fid_2": 1607, "id": 1607, "left": 23.986919847, "top": 71.446110046000001, "right": 24.486919847, "bottom": 70.946110046000001, "row_index": 6, "col_index": 40, "tile_id": 1607 }, "geometry": { "type": "MultiLineString", "coordinates": [ [ [ 23.995957394361195, 70.947653853011587 ], [ 23.9971662404906, 70.947652251472377 ] ] ] } },
{ "type": "Feature", "properties": { "fid": 296642, "elvelengde_m": 35.88, "elvID": "219-33-2", "elvenavn": null, "regulert": null, "fid_2": 1607, "id": 1607, "left": 23.986919847, "top": 71.446110046000001, "right": 24.486919847, "bottom": 70.946110046000001, "row_index": 6, "col_index": 40, "tile_id": 1607 }, "geometry": { "type": "MultiLineString", "coordinates": [ [ [ 23.9971662404906, 70.947652251472377 ], [ 23.996630879084677, 70.947382712846789 ] ] ] } },
{ "type": "Feature", "properties": { "fid": 296646, "elvelengde_m": 159.9, "elvID": "219-33-2", "elvenavn": null, "regulert": null, "fid_2": 1607, "id": 1607, "left": 23.986919847, "top": 71.446110046000001, "right": 24.486919847, "bottom": 70.946110046000001, "row_index": 6, "col_index": 40, "tile_id": 1607 }, "geometry": { "type": "MultiLineString", "coordinates": [ [ [ 23.99324057332986, 70.946405235899647 ], [ 23.991983950557501, 70.946452427667751 ], [ 23.990899417877699, 70.946730233908227 ], [ 23.990356233540489, 70.946954332920399 ], [ 23.989542173495018, 70.947021443830565 ] ] ] } },
{ "type": "Feature", "properties": { "fid": 296647, "elvelengde_m": 932.02, "elvID": "219-13-1", "elvenavn": null, "regulert": null, "fid_2": 1607, "id": 1607, "left": 23.986919847, "top": 71.446110046000001, "right": 24.486919847, "bottom": 70.946110046000001, "row_index": 6, "col_index": 40, "tile_id": 1607 }, "geometry": { "type": "MultiLineString", "coordinates": [ [ [ 24.030605730719596, 70.946110046 ], [ 24.030561488073143, 70.946529312860577 ], [ 24.030154235495989, 70.946863687478896 ], [ 24.028375774538347, 70.946996770950122 ], [ 24.027163658381312, 70.947749298132123 ], [ 24.025580742643193, 70.948226621895373 ], [ 24.024006602812577, 70.949009101710686 ] ] ] } },
{ "type": "Feature", "properties": { "fid": 296657, "elvelengde_m": 1222.74, "elvID": "219-33-1", "elvenavn": null, "regulert": null, "fid_2": 1607, "id": 1607, "left": 23.986919847, "top": 71.446110046000001, "right": 24.486919847, "bottom": 70.946110046000001, "row_index": 6, "col_index": 40, "tile_id": 1607 }, "geometry": { "type": "MultiLineString", "coordinates": [ [ [ 23.989254324139175, 70.953300248053509 ], [ 23.988853305661287, 70.953010540264827 ], [ 23.987446668517105, 70.952431765230727 ], [ 23.986919847, 70.952161346412254 ] ] ] } },
{ "type": "Feature", "properties": { "fid": 296675, "elvelengde_m": 48.75, "elvID": "219-7-2", "elvenavn": null, "regulert": null, "fid_2": 1607, "id": 1607, "left": 23.986919847, "top": 71.446110046000001, "right": 24.486919847, "bottom": 70.946110046000001, "row_index": 6, "col_index": 40, "tile_id": 1607 }, "geometry": { "type": "MultiLineString", "coordinates": [ [ [ 24.012683749913574, 71.015939228782585 ], [ 24.011444669806995, 71.015775841882459 ] ] ] } },
{ "type": "Feature", "properties": { "fid": 296676, "elvelengde_m": 22.35, "elvID": "219-7-1", "elvenavn": null, "regulert": null, "fid_2": 1607, "id": 1607, "left": 23.986919847, "top": 71.446110046000001, "right": 24.486919847, "bottom": 70.946110046000001, "row_index": 6, "col_index": 40, "tile_id": 1607 }, "geometry": { "type": "MultiLineString", "coordinates": [ [ [ 24.012997006080191, 71.009399040358375 ], [ 24.013556516189965, 71.009481842717818 ] ] ] } },
{ "type": "Feature", "properties": { "fid": 296679, "elvelengde_m": 47.16, "elvID": "219-40-1", "elvenavn": null, "regulert": null, "fid_2": 1607, "id": 1607, "left": 23.986919847, "top": 71.446110046000001, "right": 24.486919847, "bottom": 70.946110046000001, "row_index": 6, "col_index": 40, "tile_id": 1607 }, "geometry": { "type": "MultiLineString", "coordinates": [ [ [ 24.038668866474257, 70.988480030029905 ], [ 24.03806504819233, 70.988304026055445 ], [ 24.037647483124033, 70.988379581435439 ] ] ] } },
{ "type": "Feature", "properties": { "fid": 296681, "elvelengde_m": 12.77, "elvID": "219-38-1", "elvenavn": null, "regulert": null, "fid_2": 1607, "id": 1607, "left": 23.986919847, "top": 71.446110046000001, "right": 24.486919847, "bottom": 70.946110046000001, "row_index": 6, "col_index": 40, "tile_id": 1607 }, "geometry": { "type": "MultiLineString", "coordinates": [ [ [ 23.996737604920014, 70.978402592099073 ], [ 23.997076146694585, 70.97843218617119 ] ] ] } },
{ "type": "Feature", "properties": { "fid": 296682, "elvelengde_m": 12.37, "elvID": "219-38-4", "elvenavn": null, "regulert": null, "fid_2": 1607, "id": 1607, "left": 23.986919847, "top": 71.446110046000001, "right": 24.486919847, "bottom": 70.946110046000001, "row_index": 6, "col_index": 40, "tile_id": 1607 }, "geometry": { "type": "MultiLineString", "coordinates": [ [ [ 23.996919710532698, 70.978309078957039 ], [ 23.996737604920014, 70.978402592099073 ] ] ] } },
{ "type": "Feature", "properties": { "fid": 296683, "elvelengde_m": 16.75, "elvID": "219-16-1", "elvenavn": null, "regulert": null, "fid_2": 1607, "id": 1607, "left": 23.986919847, "top": 71.446110046000001, "right": 24.486919847, "bottom": 70.946110046000001, "row_index": 6, "col_index": 40, "tile_id": 1607 }, "geometry": { "type": "MultiLineString", "coordinates": [ [ [ 24.129098175205915, 70.968680903100378 ], [ 24.128926781165063, 70.96882009661914 ] ] ] } },
{ "type": "Feature", "properties": { "fid": 296684, "elvelengde_m": 23.53, "elvID": "219-16-1", "elvenavn": null, "regulert": null, "fid_2": 1607, "id": 1607, "left": 23.986919847, "top": 71.446110046000001, "right": 24.486919847, "bottom": 70.946110046000001, "row_index": 6, "col_index": 40, "tile_id": 1607 }, "geometry": { "type": "MultiLineString", "coordinates": [ [ [ 24.128453537963608, 70.968669208602776 ], [ 24.129098175205915, 70.968680903100378 ] ] ] } },
{ "type": "Feature", "properties": { "fid": 296685, "elvelengde_m": 40.25, "elvID": "219-19-1", "elvenavn": null, "regulert": null, "fid_2": 1607, "id": 1607, "left": 23.986919847, "top": 71.446110046000001, "right": 24.486919847, "bottom": 70.946110046000001, "row_index": 6, "col_index": 40, "tile_id": 1607 }, "geometry": { "type": "MultiLineString", "coordinates": [ [ [ 24.150836863142622, 70.967052384045459 ], [ 24.149818069718133, 70.967185577419784 ] ] ] } },
{ "type": "Feature", "properties": { "fid": 296686, "elvelengde_m": 9.59, "elvID": "219-16-3", "elvenavn": null, "regulert": null, "fid_2": 1607, "id": 1607, "left": 23.986919847, "top": 71.446110046000001, "right": 24.486919847, "bottom": 70.946110046000001, "row_index": 6, "col_index": 40, "tile_id": 1607 }, "geometry": { "type": "MultiLineString", "coordinates": [ [ [ 24.098799202334561, 70.964932822949649 ], [ 24.099028521316743, 70.964890657403728 ] ] ] } },
{ "type": "Feature", "properties": { "fid": 296687, "elvelengde_m": 96.54, "elvID": "219-16-1", "elvenavn": null, "regulert": null, "fid_2": 1607, "id": 1607, "left": 23.986919847, "top": 71.446110046000001, "right": 24.486919847, "bottom": 70.946110046000001, "row_index": 6, "col_index": 40, "tile_id": 1607 }, "geometry": { "type": "MultiLineString", "coordinates": [ [ [ 24.105758905577364, 70.963622510812542 ], [ 24.105081664750877, 70.963673491580352 ], [ 24.10416211365629, 70.964229014091515 ] ] ] } },
{ "type": "Feature", "properties": { "fid": 296689, "elvelengde_m": 38.73, "elvID": "219-21-3", "elvenavn": null, "regulert": null, "fid_2": 1607, "id": 1607, "left": 23.986919847, "top": 71.446110046000001, "right": 24.486919847, "bottom": 70.946110046000001, "row_index": 6, "col_index": 40, "tile_id": 1607 }, "geometry": { "type": "MultiLineString", "coordinates": [ [ [ 24.162728498787022, 70.956441984381911 ], [ 24.16328331113462, 70.956146254735543 ] ] ] } },
{ "type": "Feature", "properties": { "fid": 296694, "elvelengde_m": 61.49, "elvID": "219-2-1", "elvenavn": null, "regulert": null, "fid_2": 1607, "id": 1607, "left": 23.986919847, "top": 71.446110046000001, "right": 24.486919847, "bottom": 70.946110046000001, "row_index": 6, "col_index": 40, "tile_id": 1607 }, "geometry": { "type": "MultiLineString", "coordinates": [ [ [ 24.058137539822454, 71.047261534333998 ], [ 24.058022504923354, 71.047158194332397 ], [ 24.058124570137885, 71.046897708988681 ], [ 24.058566935471017, 71.04679259749939 ] ] ] } },
{ "type": "Feature", "properties": { "fid": 296695, "elvelengde_m": 180.08, "elvID": "219-7-2", "elvenavn": null, "regulert": null, "fid_2": 1607, "id": 1607, "left": 23.986919847, "top": 71.446110046000001, "right": 24.486919847, "bottom": 70.946110046000001, "row_index": 6, "col_index": 40, "tile_id": 1607 }, "geometry": { "type": "MultiLineString", "coordinates": [ [ [ 24.008765177480882, 71.01471857525388 ], [ 24.008537212301249, 71.014369659015387 ], [ 24.005995295430719, 71.013427334247183 ] ] ] } },
{ "type": "Feature", "properties": { "fid": 296696, "elvelengde_m": 21.5, "elvID": "219-7-1", "elvenavn": null, "regulert": null, "fid_2": 1607, "id": 1607, "left": 23.986919847, "top": 71.446110046000001, "right": 24.486919847, "bottom": 70.946110046000001, "row_index": 6, "col_index": 40, "tile_id": 1607 }, "geometry": { "type": "MultiLineString", "coordinates": [ [ [ 24.012879006151529, 71.009587733815295 ], [ 24.012997006080191, 71.009399040358375 ] ] ] } },
{ "type": "Feature", "properties": { "fid": 296698, "elvelengde_m": 32.81, "elvID": "219-40-1", "elvenavn": null, "regulert": null, "fid_2": 1607, "id": 1607, "left": 23.986919847, "top": 71.446110046000001, "right": 24.486919847, "bottom": 70.946110046000001, "row_index": 6, "col_index": 40, "tile_id": 1607 }, "geometry": { "type": "MultiLineString", "coordinates": [ [ [ 24.015276675962706, 70.993568512145202 ], [ 24.016024180152002, 70.993723926386863 ] ] ] } },
{ "type": "Feature", "properties": { "fid": 296700, "elvelengde_m": 153.27, "elvID": "219-39-1", "elvenavn": null, "regulert": null, "fid_2": 1607, "id": 1607, "left": 23.986919847, "top": 71.446110046000001, "right": 24.486919847, "bottom": 70.946110046000001, "row_index": 6, "col_index": 40, "tile_id": 1607 }, "geometry": { "type": "MultiLineString", "coordinates": [ [ [ 24.018934485463188, 70.978255651183318 ], [ 24.018745122135869, 70.97860800231895 ], [ 24.018686646086365, 70.9790539727679 ], [ 24.01830976458292, 70.979290974155134 ], [ 24.017703560720566, 70.979515389189814 ] ] ] } },
{ "type": "Feature", "properties": { "fid": 296701, "elvelengde_m": 26.78, "elvID": "219-38-1", "elvenavn": null, "regulert": null, "fid_2": 1607, "id": 1607, "left": 23.986919847, "top": 71.446110046000001, "right": 24.486919847, "bottom": 70.946110046000001, "row_index": 6, "col_index": 40, "tile_id": 1607 }, "geometry": { "type": "MultiLineString", "coordinates": [ [ [ 23.996023520375847, 70.978386331360667 ], [ 23.996737604920014, 70.978402592099073 ] ] ] } },
{ "type": "Feature", "properties": { "fid": 296702, "elvelengde_m": 25.86, "elvID": "219-38-4", "elvenavn": null, "regulert": null, "fid_2": 1607, "id": 1607, "left": 23.986919847, "top": 71.446110046000001, "right": 24.486919847, "bottom": 70.946110046000001, "row_index": 6, "col_index": 40, "tile_id": 1607 }, "geometry": { "type": "MultiLineString", "coordinates": [ [ [ 23.997720998237007, 70.978192606274973 ], [ 23.997047597807704, 70.978244163240603 ] ] ] } },
{ "type": "Feature", "properties": { "fid": 296704, "elvelengde_m": 319.32, "elvID": "219-14-1", "elvenavn": null, "regulert": null, "fid_2": 1607, "id": 1607, "left": 23.986919847, "top": 71.446110046000001, "right": 24.486919847, "bottom": 70.946110046000001, "row_index": 6, "col_index": 40, "tile_id": 1607 }, "geometry": { "type": "MultiLineString", "coordinates": [ [ [ 24.067077034293646, 70.955223672844895 ], [ 24.06859162560497, 70.955970985483333 ], [ 24.068943301953276, 70.956495705200069 ], [ 24.069008589752048, 70.956762752668439 ], [ 24.068943469269982, 70.956940016671098 ], [ 24.068502566531414, 70.957166719154799 ], [ 24.066989572897793, 70.957673238437181 ] ] ] } },
{ "type": "Feature", "properties": { "fid": 296706, "elvelengde_m": 153.97, "elvID": "219-14-1", "elvenavn": null, "regulert": null, "fid_2": 1607, "id": 1607, "left": 23.986919847, "top": 71.446110046000001, "right": 24.486919847, "bottom": 70.946110046000001, "row_index": 6, "col_index": 40, "tile_id": 1607 }, "geometry": { "type": "MultiLineString", "coordinates": [ [ [ 24.069366475841331, 70.954066794105984 ], [ 24.067077034293646, 70.955223672844895 ] ] ] } },
{ "type": "Feature", "properties": { "fid": 296707, "elvelengde_m": 123.43, "elvID": "219-14-1", "elvenavn": null, "regulert": null, "fid_2": 1607, "id": 1607, "left": 23.986919847, "top": 71.446110046000001, "right": 24.486919847, "bottom": 70.946110046000001, "row_index": 6, "col_index": 40, "tile_id": 1607 }, "geometry": { "type": "MultiLineString", "coordinates": [ [ [ 24.084390942315387, 70.948001552870295 ], [ 24.083648126273363, 70.948515496434155 ], [ 24.083064900783448, 70.948818777625249 ], [ 24.082655989647673, 70.948936080730959 ] ] ] } },
{ "type": "Feature", "properties": { "fid": 296708, "elvelengde_m": 92.19, "elvID": "219-14-2", "elvenavn": null, "regulert": null, "fid_2": 1607, "id": 1607, "left": 23.986919847, "top": 71.446110046000001, "right": 24.486919847, "bottom": 70.946110046000001, "row_index": 6, "col_index": 40, "tile_id": 1607 }, "geometry": { "type": "MultiLineString", "coordinates": [ [ [ 24.082620664150326, 70.947499280029817 ], [ 24.083478248851435, 70.947567766457638 ], [ 24.084207277016024, 70.947835560097928 ], [ 24.084390942315387, 70.948001552870295 ] ] ] } },
{ "type": "Feature", "properties": { "fid": 296709, "elvelengde_m": 178.63, "elvID": "219-33-2", "elvenavn": null, "regulert": null, "fid_2": 1607, "id": 1607, "left": 23.986919847, "top": 71.446110046000001, "right": 24.486919847, "bottom": 70.946110046000001, "row_index": 6, "col_index": 40, "tile_id": 1607 }, "geometry": { "type": "MultiLineString", "coordinates": [ [ [ 23.996630879084677, 70.947382712846789 ], [ 23.996443314250232, 70.947038919135352 ], [ 23.99612793416247, 70.946894609297757 ], [ 23.994757785225957, 70.94659817251582 ], [ 23.99324057332986, 70.946405235899647 ] ] ] } },
{ "type": "Feature", "properties": { "fid": 296711, "elvelengde_m": 32.55, "elvID": "219-3-1", "elvenavn": null, "regulert": null, "fid_2": 1607, "id": 1607, "left": 23.986919847, "top": 71.446110046000001, "right": 24.486919847, "bottom": 70.946110046000001, "row_index": 6, "col_index": 40, "tile_id": 1607 }, "geometry": { "type": "MultiLineString", "coordinates": [ [ [ 24.030181713100088, 71.050614530382802 ], [ 24.029962591872788, 71.050718559742435 ], [ 24.029514914966242, 71.050639855430418 ] ] ] } },
{ "type": "Feature", "properties": { "fid": 296712, "elvelengde_m": 149.77, "elvID": "219-7-1", "elvenavn": null, "regulert": null, "fid_2": 1607, "id": 1607, "left": 23.986919847, "top": 71.446110046000001, "right": 24.486919847, "bottom": 70.946110046000001, "row_index": 6, "col_index": 40, "tile_id": 1607 }, "geometry": { "type": "MultiLineString", "coordinates": [ [ [ 24.002312461161381, 71.013277185557328 ], [ 24.003175168135702, 71.013499446491181 ], [ 24.004230165631697, 71.013596060812318 ], [ 24.005043154159583, 71.013607377826119 ], [ 24.005995295430719, 71.013427334247183 ] ] ] } },
{ "type": "Feature", "properties": { "fid": 296713, "elvelengde_m": 393.69, "elvID": "219-7-1", "elvenavn": null, "regulert": null, "fid_2": 1607, "id": 1607, "left": 23.986919847, "top": 71.446110046000001, "right": 24.486919847, "bottom": 70.946110046000001, "row_index": 6, "col_index": 40, "tile_id": 1607 }, "geometry": { "type": "MultiLineString", "coordinates": [ [ [ 24.005995295430719, 71.013427334247183 ], [ 24.005960983630533, 71.013160409381285 ], [ 24.005153753387539, 71.012596087788083 ], [ 24.005803031512606, 71.012098821119181 ], [ 24.007571212283594, 71.01154155381937 ], [ 24.00841998256929, 71.011081599188159 ], [ 24.010518301343694, 71.010797269689292 ] ] ] } },
{ "type": "Feature", "properties": { "fid": 296714, "elvelengde_m": 216.06, "elvID": "219-7-3", "elvenavn": null, "regulert": null, "fid_2": 1607, "id": 1607, "left": 23.986919847, "top": 71.446110046000001, "right": 24.486919847, "bottom": 70.946110046000001, "row_index": 6, "col_index": 40, "tile_id": 1607 }, "geometry": { "type": "MultiLineString", "coordinates": [ [ [ 24.014548437651801, 71.007846275703912 ], [ 24.013692886737999, 71.007883673374138 ], [ 24.012581403136391, 71.008546653159357 ], [ 24.012425827979975, 71.008899250450099 ], [ 24.012626119116348, 71.009159546047854 ], [ 24.012997006080191, 71.009399040358375 ] ] ] } },
{ "type": "Feature", "properties": { "fid": 296718, "elvelengde_m": 40.48, "elvID": "219-40-1", "elvenavn": null, "regulert": null, "fid_2": 1607, "id": 1607, "left": 23.986919847, "top": 71.446110046000001, "right": 24.486919847, "bottom": 70.946110046000001, "row_index": 6, "col_index": 40, "tile_id": 1607 }, "geometry": { "type": "MultiLineString", "coordinates": [ [ [ 24.010236659972215, 70.994295280995985 ], [ 24.01073815462593, 70.994231075717593 ], [ 24.010741826926576, 70.994052019332571 ] ] ] } },
{ "type": "Feature", "properties": { "fid": 296719, "elvelengde_m": 72.04, "elvID": "219-40-1", "elvenavn": null, "regulert": null, "fid_2": 1607, "id": 1607, "left": 23.986919847, "top": 71.446110046000001, "right": 24.486919847, "bottom": 70.946110046000001, "row_index": 6, "col_index": 40, "tile_id": 1607 }, "geometry": { "type": "MultiLineString", "coordinates": [ [ [ 24.011429496188949, 70.993874538314074 ], [ 24.012207270664486, 70.993883695810794 ], [ 24.012476569179935, 70.993736083766677 ], [ 24.013084431705281, 70.993676852808022 ] ] ] } },
{ "type": "Feature", "properties": { "fid": 296721, "elvelengde_m": 134.51, "elvID": "219-40-4", "elvenavn": null, "regulert": null, "fid_2": 1607, "id": 1607, "left": 23.986919847, "top": 71.446110046000001, "right": 24.486919847, "bottom": 70.946110046000001, "row_index": 6, "col_index": 40, "tile_id": 1607 }, "geometry": { "type": "MultiLineString", "coordinates": [ [ [ 24.040131265753363, 70.987422909414093 ], [ 24.039200170928133, 70.987813488370733 ], [ 24.039232868027955, 70.988075228119172 ], [ 24.038668866474257, 70.988480030029905 ] ] ] } },
{ "type": "Feature", "properties": { "fid": 296722, "elvelengde_m": 170.14, "elvID": "219-39-2", "elvenavn": null, "regulert": null, "fid_2": 1607, "id": 1607, "left": 23.986919847, "top": 71.446110046000001, "right": 24.486919847, "bottom": 70.946110046000001, "row_index": 6, "col_index": 40, "tile_id": 1607 }, "geometry": { "type": "MultiLineString", "coordinates": [ [ [ 24.023285228289421, 70.978635588530878 ], [ 24.0224895415544, 70.978695931958583 ], [ 24.020908838919752, 70.978560638466377 ], [ 24.018934485463188, 70.978255651183318 ] ] ] } },
{ "type": "Feature", "properties": { "fid": 296723, "elvelengde_m": 47.71, "elvID": "219-16-1", "elvenavn": null, "regulert": null, "fid_2": 1607, "id": 1607, "left": 23.986919847, "top": 71.446110046000001, "right": 24.486919847, "bottom": 70.946110046000001, "row_index": 6, "col_index": 40, "tile_id": 1607 }, "geometry": { "type": "MultiLineString", "coordinates": [ [ [ 24.119191002285802, 70.967493442268946 ], [ 24.119610761524555, 70.967481254886721 ], [ 24.120069058246266, 70.967695669519358 ] ] ] } },
{ "type": "Feature", "properties": { "fid": 296724, "elvelengde_m": 337.97, "elvID": "219-38-1", "elvenavn": null, "regulert": null, "fid_2": 1607, "id": 1607, "left": 23.986919847, "top": 71.446110046000001, "right": 24.486919847, "bottom": 70.946110046000001, "row_index": 6, "col_index": 40, "tile_id": 1607 }, "geometry": { "type": "MultiLineString", "coordinates": [ [ [ 24.009692498247897, 70.969351564866102 ], [ 24.009341044453553, 70.969888904986902 ], [ 24.009220114358442, 70.969958808895669 ], [ 24.00678658186531, 70.970052323184944 ], [ 24.005080106290105, 70.97049734203199 ], [ 24.00455778911282, 70.970522902641079 ], [ 24.004408469429244, 70.970580866528095 ], [ 24.003804162900305, 70.971177372008512 ] ] ] } },
{ "type": "Feature", "properties": { "fid": 296725, "elvelengde_m": 205.9, "elvID": "219-16-1", "elvenavn": null, "regulert": null, "fid_2": 1607, "id": 1607, "left": 23.986919847, "top": 71.446110046000001, "right": 24.486919847, "bottom": 70.946110046000001, "row_index": 6, "col_index": 40, "tile_id": 1607 }, "geometry": { "type": "MultiLineString", "coordinates": [ [ [ 24.10416211365629, 70.964229014091515 ], [ 24.104792248514801, 70.964405190930265 ], [ 24.104524841243109, 70.964749271024587 ], [ 24.104280792714508, 70.965370393466372 ], [ 24.105180251285283, 70.965884179487048 ] ] ] } },
{ "type": "Feature", "properties": { "fid": 296726, "elvelengde_m": 228.78, "elvID": "219-16-3", "elvenavn": null, "regulert": null, "fid_2": 1607, "id": 1607, "left": 23.986919847, "top": 71.446110046000001, "right": 24.486919847, "bottom": 70.946110046000001, "row_index": 6, "col_index": 40, "tile_id": 1607 }, "geometry": { "type": "MultiLineString", "coordinates": [ [ [ 24.099496638479089, 70.964512063162985 ], [ 24.100929165700343, 70.963758031886442 ], [ 24.102357966085709, 70.964020693697663 ], [ 24.10416211365629, 70.964229014091515 ] ] ] } },
{ "type": "Feature", "properties": { "fid": 296728, "elvelengde_m": 137.02, "elvID": "219-13-4", "elvenavn": null, "regulert": null, "fid_2": 1607, "id": 1607, "left": 23.986919847, "top": 71.446110046000001, "right": 24.486919847, "bottom": 70.946110046000001, "row_index": 6, "col_index": 40, "tile_id": 1607 }, "geometry": { "type": "MultiLineString", "coordinates": [ [ [ 24.028618174143205, 70.966603748670778 ], [ 24.029079400542543, 70.966687719480916 ], [ 24.029605284484475, 70.966655615726964 ], [ 24.029824482722542, 70.966604302752174 ], [ 24.029713518940408, 70.966254264003268 ], [ 24.03049259512154, 70.966176046194221 ], [ 24.0308958131568, 70.966272225863634 ] ] ] } },
{ "type": "Feature", "properties": { "fid": 296732, "elvelengde_m": 343.19, "elvID": "219-13-1", "elvenavn": null, "regulert": null, "fid_2": 1607, "id": 1607, "left": 23.986919847, "top": 71.446110046000001, "right": 24.486919847, "bottom": 70.946110046000001, "row_index": 6, "col_index": 40, "tile_id": 1607 }, "geometry": { "type": "MultiLineString", "coordinates": [ [ [ 24.024544374689327, 70.953290208721526 ], [ 24.026122295722384, 70.953626657302365 ], [ 24.02637249963751, 70.953882064086145 ], [ 24.026486687697577, 70.954147807894472 ], [ 24.026245845888404, 70.954299135483126 ], [ 24.02482925354845, 70.954706223798482 ], [ 24.02462766193295, 70.954872741445087 ], [ 24.024303849733318, 70.955398915415415 ], [ 24.024442687049028, 70.955792793552774 ] ] ] } },
{ "type": "Feature", "properties": { "fid": 296733, "elvelengde_m": 292.23, "elvID": "219-33-1", "elvenavn": null, "regulert": null, "fid_2": 1607, "id": 1607, "left": 23.986919847, "top": 71.446110046000001, "right": 24.486919847, "bottom": 70.946110046000001, "row_index": 6, "col_index": 40, "tile_id": 1607 }, "geometry": { "type": "MultiLineString", "coordinates": [ [ [ 23.993650508349823, 70.95510524006167 ], [ 23.992537036463865, 70.954929150295541 ], [ 23.991984732980114, 70.954623614354801 ], [ 23.991421425128802, 70.954428788215083 ], [ 23.989902452994535, 70.954256621181131 ], [ 23.989337123207299, 70.954062088870572 ], [ 23.989292803885753, 70.953985864048221 ], [ 23.989545366677991, 70.95373378764495 ], [ 23.989254324139175, 70.953300248053509 ] ] ] } },
{ "type": "Feature", "properties": { "fid": 296734, "elvelengde_m": 73.79, "elvID": "219-14-1", "elvenavn": null, "regulert": null, "fid_2": 1607, "id": 1607, "left": 23.986919847, "top": 71.446110046000001, "right": 24.486919847, "bottom": 70.946110046000001, "row_index": 6, "col_index": 40, "tile_id": 1607 }, "geometry": { "type": "MultiLineString", "coordinates": [ [ [ 24.086113615791611, 70.947662082650155 ], [ 24.084390942315387, 70.948001552870295 ] ] ] } },
{ "type": "Feature", "properties": { "fid": 296737, "elvelengde_m": 158.44, "elvID": "219-33-2", "elvenavn": null, "regulert": null, "fid_2": 1607, "id": 1607, "left": 23.986919847, "top": 71.446110046000001, "right": 24.486919847, "bottom": 70.946110046000001, "row_index": 6, "col_index": 40, "tile_id": 1607 }, "geometry": { "type": "MultiLineString", "coordinates": [ [ [ 23.989542173495018, 70.947021443830565 ], [ 23.988240557836999, 70.947081014375584 ], [ 23.987322064955606, 70.946653268020995 ], [ 23.986919847, 70.946588552871347 ] ] ] } },
{ "type": "Feature", "properties": { "fid": 296739, "elvelengde_m": 30.45, "elvID": "219-16-4", "elvenavn": null, "regulert": null, "fid_2": 1607, "id": 1607, "left": 23.986919847, "top": 71.446110046000001, "right": 24.486919847, "bottom": 70.946110046000001, "row_index": 6, "col_index": 40, "tile_id": 1607 }, "geometry": { "type": "MultiLineString", "coordinates": [ [ [ 24.129877934591818, 70.968709183923167 ], [ 24.129098175205915, 70.968680903100378 ] ] ] } },
{ "type": "Feature", "properties": { "fid": 296740, "elvelengde_m": 204.47, "elvID": "219-14-4", "elvenavn": null, "regulert": null, "fid_2": 1607, "id": 1607, "left": 23.986919847, "top": 71.446110046000001, "right": 24.486919847, "bottom": 70.946110046000001, "row_index": 6, "col_index": 40, "tile_id": 1607 }, "geometry": { "type": "MultiLineString", "coordinates": [ [ [ 24.062634340365577, 70.954238555464599 ], [ 24.063273292490415, 70.954467548766118 ], [ 24.063784872891297, 70.954784528753436 ], [ 24.067077034293646, 70.955223672844895 ] ] ] } },
{ "type": "Feature", "properties": { "fid": 296741, "elvelengde_m": 162.01, "elvID": "219-2-1", "elvenavn": null, "regulert": null, "fid_2": 1607, "id": 1607, "left": 23.986919847, "top": 71.446110046000001, "right": 24.486919847, "bottom": 70.946110046000001, "row_index": 6, "col_index": 40, "tile_id": 1607 }, "geometry": { "type": "MultiLineString", "coordinates": [ [ [ 24.063086107531785, 71.049260338094527 ], [ 24.061580514197125, 71.048995173364901 ], [ 24.061236314577645, 71.04885827225155 ], [ 24.061061799599415, 71.048688483808519 ], [ 24.060270817757935, 71.048640056879009 ], [ 24.060013190582758, 71.048386145635632 ] ] ] } },
{ "type": "Feature", "properties": { "fid": 296744, "elvelengde_m": 163.92, "elvID": "219-39-1", "elvenavn": null, "regulert": null, "fid_2": 1607, "id": 1607, "left": 23.986919847, "top": 71.446110046000001, "right": 24.486919847, "bottom": 70.946110046000001, "row_index": 6, "col_index": 40, "tile_id": 1607 }, "geometry": { "type": "MultiLineString", "coordinates": [ [ [ 24.020627334917524, 70.977282538001077 ], [ 24.018133844106082, 70.977892913168702 ], [ 24.018934485463188, 70.978255651183318 ] ] ] } },
{ "type": "Feature", "properties": { "fid": 296745, "elvelengde_m": 70.05, "elvID": "219-39-1", "elvenavn": null, "regulert": null, "fid_2": 1607, "id": 1607, "left": 23.986919847, "top": 71.446110046000001, "right": 24.486919847, "bottom": 70.946110046000001, "row_index": 6, "col_index": 40, "tile_id": 1607 }, "geometry": { "type": "MultiLineString", "coordinates": [ [ [ 24.022757685137858, 70.976841032914535 ], [ 24.021782588941534, 70.976687065784617 ], [ 24.021318200247929, 70.976898656881204 ] ] ] } },
{ "type": "Feature", "properties": { "fid": 296748, "elvelengde_m": 638.54, "elvID": "219-18-1", "elvenavn": null, "regulert": null, "fid_2": 1607, "id": 1607, "left": 23.986919847, "top": 71.446110046000001, "right": 24.486919847, "bottom": 70.946110046000001, "row_index": 6, "col_index": 40, "tile_id": 1607 }, "geometry": { "type": "MultiLineString", "coordinates": [ [ [ 24.143268640808206, 70.961125361053604 ], [ 24.14528089229109, 70.960662619635045 ], [ 24.146639587639765, 70.960601829354076 ], [ 24.148219344528076, 70.960746723513893 ], [ 24.149417707316534, 70.960958227457169 ], [ 24.152224022717334, 70.962481054146664 ], [ 24.151654603698617, 70.962888647839961 ], [ 24.150377222054885, 70.964070854959701 ] ] ] } },
{ "type": "Feature", "properties": { "fid": 296751, "elvelengde_m": 166.71, "elvID": "219-1-1", "elvenavn": null, "regulert": null, "fid_2": 1607, "id": 1607, "left": 23.986919847, "top": 71.446110046000001, "right": 24.486919847, "bottom": 70.946110046000001, "row_index": 6, "col_index": 40, "tile_id": 1607 }, "geometry": { "type": "MultiLineString", "coordinates": [ [ [ 24.054011161012816, 71.053719740119277 ], [ 24.054419390572896, 71.053402599511045 ], [ 24.055157353024619, 71.053338758414327 ], [ 24.056246338713759, 71.053604457236219 ], [ 24.05660052057571, 71.053847235586943 ], [ 24.056573758091375, 71.054022302312504 ] ] ] } },
{ "type": "Feature", "properties": { "fid": 296752, "elvelengde_m": 93.32, "elvID": "219-2-1", "elvenavn": null, "regulert": null, "fid_2": 1607, "id": 1607, "left": 23.986919847, "top": 71.446110046000001, "right": 24.486919847, "bottom": 70.946110046000001, "row_index": 6, "col_index": 40, "tile_id": 1607 }, "geometry": { "type": "MultiLineString", "coordinates": [ [ [ 24.066271160218722, 71.049866794291631 ], [ 24.065761286107168, 71.050000699679799 ], [ 24.06498468942932, 71.050076343487333 ], [ 24.064795294653063, 71.050011514834708 ], [ 24.064614755485209, 71.049751186578789 ] ] ] } },
{ "type": "Feature", "properties": { "fid": 296753, "elvelengde_m": 123.52, "elvID": "219-3-1", "elvenavn": null, "regulert": null, "fid_2": 1607, "id": 1607, "left": 23.986919847, "top": 71.446110046000001, "right": 24.486919847, "bottom": 70.946110046000001, "row_index": 6, "col_index": 40, "tile_id": 1607 }, "geometry": { "type": "MultiLineString", "coordinates": [ [ [ 24.033924464824722, 71.050193204144051 ], [ 24.032035312361963, 71.050134303178936 ], [ 24.031332836533696, 71.050398206280832 ], [ 24.030953998477479, 71.05043835305446 ] ] ] } },
{ "type": "Feature", "properties": { "fid": 296755, "elvelengde_m": 13.46, "elvID": "219-10-1", "elvenavn": null, "regulert": null, "fid_2": 1607, "id": 1607, "left": 23.986919847, "top": 71.446110046000001, "right": 24.486919847, "bottom": 70.946110046000001, "row_index": 6, "col_index": 40, "tile_id": 1607 }, "geometry": { "type": "MultiLineString", "coordinates": [ [ [ 24.134199127333417, 71.00255933793548 ], [ 24.134568720053874, 71.002554797671067 ] ] ] } },
{ "type": "Feature", "properties": { "fid": 296756, "elvelengde_m": 74.1, "elvID": "219-7-3", "elvenavn": null, "regulert": null, "fid_2": 1607, "id": 1607, "left": 23.986919847, "top": 71.446110046000001, "right": 24.486919847, "bottom": 70.946110046000001, "row_index": 6, "col_index": 40, "tile_id": 1607 }, "geometry": { "type": "MultiLineString", "coordinates": [ [ [ 24.017841302291394, 71.00664760763614 ], [ 24.017030617161868, 71.006808024483348 ], [ 24.016559454375621, 71.007124507925454 ] ] ] } },
{ "type": "Feature", "properties": { "fid": 296759, "elvelengde_m": 199.66, "elvID": "219-39-2", "elvenavn": null, "regulert": null, "fid_2": 1607, "id": 1607, "left": 23.986919847, "top": 71.446110046000001, "right": 24.486919847, "bottom": 70.946110046000001, "row_index": 6, "col_index": 40, "tile_id": 1607 }, "geometry": { "type": "MultiLineString", "coordinates": [ [ [ 24.029208879624385, 70.980263990418862 ], [ 24.027019550726827, 70.979110204442165 ], [ 24.025948936877121, 70.978857827228481 ] ] ] } },
{ "type": "Feature", "properties": { "fid": 296760, "elvelengde_m": 216.8, "elvID": "219-39-1", "elvenavn": null, "regulert": null, "fid_2": 1607, "id": 1607, "left": 23.986919847, "top": 71.446110046000001, "right": 24.486919847, "bottom": 70.946110046000001, "row_index": 6, "col_index": 40, "tile_id": 1607 }, "geometry": { "type": "MultiLineString", "coordinates": [ [ [ 24.031556952628438, 70.976791393687648 ], [ 24.028149506222931, 70.976468313150306 ], [ 24.026029468848073, 70.976828931997332 ] ] ] } },
{ "type": "Feature", "properties": { "fid": 296762, "elvelengde_m": 170.23, "elvID": "219-38-3", "elvenavn": null, "regulert": null, "fid_2": 1607, "id": 1607, "left": 23.986919847, "top": 71.446110046000001, "right": 24.486919847, "bottom": 70.946110046000001, "row_index": 6, "col_index": 40, "tile_id": 1607 }, "geometry": { "type": "MultiLineString", "coordinates": [ [ [ 24.009822276596076, 70.975805534797445 ], [ 24.00822160993318, 70.975702988536611 ], [ 24.006724211940973, 70.976082162535988 ], [ 24.005693340270899, 70.975956169331795 ] ] ] } },
{ "type": "Feature", "properties": { "fid": 296763, "elvelengde_m": 47.78, "elvID": "219-16-4", "elvenavn": null, "regulert": null, "fid_2": 1607, "id": 1607, "left": 23.986919847, "top": 71.446110046000001, "right": 24.486919847, "bottom": 70.946110046000001, "row_index": 6, "col_index": 40, "tile_id": 1607 }, "geometry": { "type": "MultiLineString", "coordinates": [ [ [ 24.132979836226074, 70.96899282592436 ], [ 24.132489506058153, 70.969033776934353 ], [ 24.131742966321564, 70.968935428929342 ] ] ] } },
{ "type": "Feature", "properties": { "fid": 296764, "elvelengde_m": 61.27, "elvID": "219-15-1", "elvenavn": null, "regulert": null, "fid_2": 1607, "id": 1607, "left": 23.986919847, "top": 71.446110046000001, "right": 24.486919847, "bottom": 70.946110046000001, "row_index": 6, "col_index": 40, "tile_id": 1607 }, "geometry": { "type": "MultiLineString", "coordinates": [ [ [ 24.094095197985773, 70.96648351906434 ], [ 24.094121288566836, 70.967030726323742 ] ] ] } },
{ "type": "Feature", "properties": { "fid": 296765, "elvelengde_m": 91.84, "elvID": "219-17-1", "elvenavn": null, "regulert": null, "fid_2": 1607, "id": 1607, "left": 23.986919847, "top": 71.446110046000001, "right": 24.486919847, "bottom": 70.946110046000001, "row_index": 6, "col_index": 40, "tile_id": 1607 }, "geometry": { "type": "MultiLineString", "coordinates": [ [ [ 24.117375115048279, 70.964258977968043 ], [ 24.117536086405604, 70.964629837101015 ], [ 24.118375287929879, 70.964976754004695 ] ] ] } },
{ "type": "Feature", "properties": { "fid": 296766, "elvelengde_m": 12.24, "elvID": "219-38-1", "elvenavn": null, "regulert": null, "fid_2": 1607, "id": 1607, "left": 23.986919847, "top": 71.446110046000001, "right": 24.486919847, "bottom": 70.946110046000001, "row_index": 6, "col_index": 40, "tile_id": 1607 }, "geometry": { "type": "MultiLineString", "coordinates": [ [ [ 24.010462199184918, 70.967199093196456 ], [ 24.01019308075788, 70.967133517772183 ] ] ] } },
{ "type": "Feature", "properties": { "fid": 296768, "elvelengde_m": 31.38, "elvID": "219-20-1", "elvenavn": null, "regulert": null, "fid_2": 1607, "id": 1607, "left": 23.986919847, "top": 71.446110046000001, "right": 24.486919847, "bottom": 70.946110046000001, "row_index": 6, "col_index": 40, "tile_id": 1607 }, "geometry": { "type": "MultiLineString", "coordinates": [ [ [ 24.188550663875002, 70.95740267907226 ], [ 24.188948861331571, 70.9571563556391 ] ] ] } },
{ "type": "Feature", "properties": { "fid": 296770, "elvelengde_m": 14.67, "elvID": "219-16-2", "elvenavn": null, "regulert": null, "fid_2": 1607, "id": 1607, "left": 23.986919847, "top": 71.446110046000001, "right": 24.486919847, "bottom": 70.946110046000001, "row_index": 6, "col_index": 40, "tile_id": 1607 }, "geometry": { "type": "MultiLineString", "coordinates": [ [ [ 24.102267888041759, 70.960112137548293 ], [ 24.102433955292234, 70.960231815021032 ] ] ] } },
{ "type": "Feature", "properties": { "fid": 296772, "elvelengde_m": 190.16, "elvID": "219-16-1", "elvenavn": null, "regulert": null, "fid_2": 1607, "id": 1607, "left": 23.986919847, "top": 71.446110046000001, "right": 24.486919847, "bottom": 70.946110046000001, "row_index": 6, "col_index": 40, "tile_id": 1607 }, "geometry": { "type": "MultiLineString", "coordinates": [ [ [ 24.105650498368874, 70.957800190991364 ], [ 24.104777078683409, 70.95813685351429 ], [ 24.104430919935403, 70.958568813201794 ], [ 24.104493911227724, 70.958833981561426 ], [ 24.104425755938287, 70.958920503226949 ], [ 24.105280738779587, 70.959128977249165 ], [ 24.105330215890792, 70.959227049600898 ] ] ] } },
{ "type": "Feature", "properties": { "fid": 296773, "elvelengde_m": 203.84, "elvID": "219-13-4", "elvenavn": null, "regulert": null, "fid_2": 1607, "id": 1607, "left": 23.986919847, "top": 71.446110046000001, "right": 24.486919847, "bottom": 70.946110046000001, "row_index": 6, "col_index": 40, "tile_id": 1607 }, "geometry": { "type": "MultiLineString", "coordinates": [ [ [ 24.002372653482894, 70.961624268744998 ], [ 24.002765267592849, 70.961859864201514 ], [ 24.005662161394497, 70.963093157790595 ] ] ] } },
{ "type": "Feature", "properties": { "fid": 296775, "elvelengde_m": 31.05, "elvID": "219-21-1", "elvenavn": null, "regulert": null, "fid_2": 1607, "id": 1607, "left": 23.986919847, "top": 71.446110046000001, "right": 24.486919847, "bottom": 70.946110046000001, "row_index": 6, "col_index": 40, "tile_id": 1607 }, "geometry": { "type": "MultiLineString", "coordinates": [ [ [ 24.132857251758708, 70.954814683765051 ], [ 24.133114507358485, 70.954551601649399 ] ] ] } },
{ "type": "Feature", "properties": { "fid": 296777, "elvelengde_m": 102.78, "elvID": "219-33-1", "elvenavn": null, "regulert": null, "fid_2": 1607, "id": 1607, "left": 23.986919847, "top": 71.446110046000001, "right": 24.486919847, "bottom": 70.946110046000001, "row_index": 6, "col_index": 40, "tile_id": 1607 }, "geometry": { "type": "MultiLineString", "coordinates": [ [ [ 23.997765975725958, 70.956424187711292 ], [ 23.996422656003915, 70.956116637003333 ], [ 23.995848835530033, 70.955928837098327 ], [ 23.995737173153401, 70.955816542404889 ] ] ] } },
{ "type": "Feature", "properties": { "fid": 296778, "elvelengde_m": 80.71, "elvID": "219-14-4", "elvenavn": null, "regulert": null, "fid_2": 1607, "id": 1607, "left": 23.986919847, "top": 71.446110046000001, "right": 24.486919847, "bottom": 70.946110046000001, "row_index": 6, "col_index": 40, "tile_id": 1607 }, "geometry": { "type": "MultiLineString", "coordinates": [ [ [ 24.052861445010635, 70.951643803355566 ], [ 24.053635569128915, 70.951889297332187 ], [ 24.054758018640097, 70.951941423564165 ] ] ] } },
{ "type": "Feature", "properties": { "fid": 296780, "elvelengde_m": 53.22, "elvID": "219-13-2", "elvenavn": null, "regulert": null, "fid_2": 1607, "id": 1607, "left": 23.986919847, "top": 71.446110046000001, "right": 24.486919847, "bottom": 70.946110046000001, "row_index": 6, "col_index": 40, "tile_id": 1607 }, "geometry": { "type": "MultiLineString", "coordinates": [ [ [ 24.038298233291385, 70.950310479288419 ], [ 24.036879595335897, 70.950391081291826 ] ] ] } },
{ "type": "Feature", "properties": { "fid": 296781, "elvelengde_m": 27.04, "elvID": "219-13-3", "elvenavn": null, "regulert": null, "fid_2": 1607, "id": 1607, "left": 23.986919847, "top": 71.446110046000001, "right": 24.486919847, "bottom": 70.946110046000001, "row_index": 6, "col_index": 40, "tile_id": 1607 }, "geometry": { "type": "MultiLineString", "coordinates": [ [ [ 24.014960447116852, 70.951215844003642 ], [ 24.01566754841555, 70.95128062478247 ] ] ] } },
{ "type": "Feature", "properties": { "fid": 296784, "elvelengde_m": 155.54, "elvID": "219-33-2", "elvenavn": null, "regulert": null, "fid_2": 1607, "id": 1607, "left": 23.986919847, "top": 71.446110046000001, "right": 24.486919847, "bottom": 70.946110046000001, "row_index": 6, "col_index": 40, "tile_id": 1607 }, "geometry": { "type": "MultiLineString", "coordinates": [ [ [ 24.000752300425201, 70.948931694875412 ], [ 24.000385825495002, 70.948694695432366 ], [ 23.998934638687007, 70.948047249560446 ], [ 23.998081479871463, 70.947888821447165 ] ] ] } },
{ "type": "Feature", "properties": { "fid": 296786, "elvelengde_m": 33.86, "elvID": "219-33-3", "elvenavn": null, "regulert": null, "fid_2": 1607, "id": 1607, "left": 23.986919847, "top": 71.446110046000001, "right": 24.486919847, "bottom": 70.946110046000001, "row_index": 6, "col_index": 40, "tile_id": 1607 }, "geometry": { "type": "MultiLineString", "coordinates": [ [ [ 23.995062017635934, 70.947587993627167 ], [ 23.995957394361195, 70.947653853011587 ] ] ] } },
{ "type": "Feature", "properties": { "fid": 296793, "elvelengde_m": 402.41, "elvID": "219-40-1", "elvenavn": null, "regulert": null, "fid_2": 1607, "id": 1607, "left": 23.986919847, "top": 71.446110046000001, "right": 24.486919847, "bottom": 70.946110046000001, "row_index": 6, "col_index": 40, "tile_id": 1607 }, "geometry": { "type": "MultiLineString", "coordinates": [ [ [ 24.036211449009691, 70.991893098350388 ], [ 24.036137152441636, 70.991603746152634 ], [ 24.036262781236665, 70.991429523262738 ], [ 24.037362739905738, 70.990812769549251 ], [ 24.037738105631568, 70.990681824285986 ], [ 24.037666527396798, 70.990056677505152 ], [ 24.037757814551622, 70.989700019266323 ], [ 24.038668866474257, 70.988480030029905 ] ] ] } }
]
}
