{
"type": "FeatureCollection",
"name": "elvis_tile_id_1293",
"crs": { "type": "name", "properties": { "name": "urn:ogc:def:crs:OGC:1.3:CRS84" } },
"xy_coordinate_resolution": 1e-15,
"features": [
{ "type": "Feature", "properties": { "fid": 1050665, "elvelengde_m": 970.75, "elvID": "196-74-193", "elvenavn": null, "regulert": null, "fid_2": 1293, "id": 1293, "left": 19.986919847, "top": 68.446110046000001, "right": 20.486919847, "bottom": 67.946110046000001, "row_index": 12, "col_index": 32, "tile_id": 1293 }, "geometry": { "type": "MultiLineString", "coordinates": [ [ [ 20.112911998153844, 68.445078504148825 ], [ 20.112417873105688, 68.445237364525241 ], [ 20.112116504052764, 68.445460037060812 ], [ 20.110829410187012, 68.445928563166419 ], [ 20.110609485651697, 68.446110046 ] ] ] } },
{ "type": "Feature", "properties": { "fid": 1050681, "elvelengde_m": 1107.33, "elvID": "196-74-209", "elvenavn": null, "regulert": null, "fid_2": 1293, "id": 1293, "left": 19.986919847, "top": 68.446110046000001, "right": 20.486919847, "bottom": 67.946110046000001, "row_index": 12, "col_index": 32, "tile_id": 1293 }, "geometry": { "type": "MultiLineString", "coordinates": [ [ [ 20.038129129322193, 68.445562792522537 ], [ 20.038264790170121, 68.445814678565426 ], [ 20.038739371842176, 68.446110046 ] ] ] } },
{ "type": "Feature", "properties": { "fid": 1050702, "elvelengde_m": 571.41, "elvID": "196-74-180", "elvenavn": "Maissajåkka", "regulert": null, "fid_2": 1293, "id": 1293, "left": 19.986919847, "top": 68.446110046000001, "right": 20.486919847, "bottom": 67.946110046000001, "row_index": 12, "col_index": 32, "tile_id": 1293 }, "geometry": { "type": "MultiLineString", "coordinates": [ [ [ 19.986919847, 68.44451055579755 ], [ 19.987474538181271, 68.444250633567748 ], [ 19.989252852058311, 68.443759099819673 ], [ 19.989620548817186, 68.44316928188988 ], [ 19.990296130939729, 68.442787736813557 ] ] ] } },
{ "type": "Feature", "properties": { "fid": 1050708, "elvelengde_m": 30.16, "elvID": "196-74-180", "elvenavn": "Maissajåkka", "regulert": null, "fid_2": 1293, "id": 1293, "left": 19.986919847, "top": 68.446110046000001, "right": 20.486919847, "bottom": 67.946110046000001, "row_index": 12, "col_index": 32, "tile_id": 1293 }, "geometry": { "type": "MultiLineString", "coordinates": [ [ [ 19.991315786692713, 68.442345365296859 ], [ 19.991400994182712, 68.442076783872778 ] ] ] } },
{ "type": "Feature", "properties": { "fid": 1050718, "elvelengde_m": 44.31, "elvID": "196-74-180", "elvenavn": "Maissajåkka", "regulert": null, "fid_2": 1293, "id": 1293, "left": 19.986919847, "top": 68.446110046000001, "right": 20.486919847, "bottom": 67.946110046000001, "row_index": 12, "col_index": 32, "tile_id": 1293 }, "geometry": { "type": "MultiLineString", "coordinates": [ [ [ 19.992796230988109, 68.440865184374886 ], [ 19.992853728631268, 68.440668300789469 ], [ 19.99317794477717, 68.440508774917731 ] ] ] } },
{ "type": "Feature", "properties": { "fid": 1050722, "elvelengde_m": 72.62, "elvID": "196-74-180", "elvenavn": "Maissajåkka", "regulert": null, "fid_2": 1293, "id": 1293, "left": 19.986919847, "top": 68.446110046000001, "right": 20.486919847, "bottom": 67.946110046000001, "row_index": 12, "col_index": 32, "tile_id": 1293 }, "geometry": { "type": "MultiLineString", "coordinates": [ [ [ 19.993602958322985, 68.439721975775527 ], [ 19.995245739124993, 68.439525456907987 ] ] ] } },
{ "type": "Feature", "properties": { "fid": 1050736, "elvelengde_m": 197.37, "elvID": "196-74-180", "elvenavn": "Maissajåkka", "regulert": null, "fid_2": 1293, "id": 1293, "left": 19.986919847, "top": 68.446110046000001, "right": 20.486919847, "bottom": 67.946110046000001, "row_index": 12, "col_index": 32, "tile_id": 1293 }, "geometry": { "type": "MultiLineString", "coordinates": [ [ [ 19.996413235807996, 68.438491959957844 ], [ 19.996660991189309, 68.438403785315202 ], [ 19.996790701866331, 68.438225155476459 ], [ 19.99665439135541, 68.438000069641888 ], [ 19.996669969589856, 68.437641379292785 ], [ 19.997389652257063, 68.437367664461391 ], [ 19.998066522921611, 68.436950156231006 ] ] ] } },
{ "type": "Feature", "properties": { "fid": 1050749, "elvelengde_m": 121.71, "elvID": "196-74-208", "elvenavn": null, "regulert": null, "fid_2": 1293, "id": 1293, "left": 19.986919847, "top": 68.446110046000001, "right": 20.486919847, "bottom": 67.946110046000001, "row_index": 12, "col_index": 32, "tile_id": 1293 }, "geometry": { "type": "MultiLineString", "coordinates": [ [ [ 19.997122635042025, 68.435445304425656 ], [ 19.997286234934379, 68.435792788847948 ], [ 19.997293902383809, 68.436028982357072 ], [ 19.998118935100326, 68.43642556518931 ] ] ] } },
{ "type": "Feature", "properties": { "fid": 1050767, "elvelengde_m": 877.0, "elvID": "196-74-180", "elvenavn": "Maissajåkka", "regulert": null, "fid_2": 1293, "id": 1293, "left": 19.986919847, "top": 68.446110046000001, "right": 20.486919847, "bottom": 67.946110046000001, "row_index": 12, "col_index": 32, "tile_id": 1293 }, "geometry": { "type": "MultiLineString", "coordinates": [ [ [ 20.002568880045292, 68.43659125962445 ], [ 20.022232771623074, 68.433513987971807 ] ] ] } },
{ "type": "Feature", "properties": { "fid": 1050770, "elvelengde_m": 145.23, "elvID": "196-74-180", "elvenavn": "Maissajåkka", "regulert": null, "fid_2": 1293, "id": 1293, "left": 19.986919847, "top": 68.446110046000001, "right": 20.486919847, "bottom": 67.946110046000001, "row_index": 12, "col_index": 32, "tile_id": 1293 }, "geometry": { "type": "MultiLineString", "coordinates": [ [ [ 20.022232771623074, 68.433513987971807 ], [ 20.02296135375072, 68.433015931144965 ], [ 20.024108750395758, 68.432412722996972 ] ] ] } },
{ "type": "Feature", "properties": { "fid": 1050775, "elvelengde_m": 92.4, "elvID": "196-74-180", "elvenavn": "Maissajåkka", "regulert": null, "fid_2": 1293, "id": 1293, "left": 19.986919847, "top": 68.446110046000001, "right": 20.486919847, "bottom": 67.946110046000001, "row_index": 12, "col_index": 32, "tile_id": 1293 }, "geometry": { "type": "MultiLineString", "coordinates": [ [ [ 20.026565466707027, 68.431404402645626 ], [ 20.028030746630826, 68.430776125142557 ] ] ] } },
{ "type": "Feature", "properties": { "fid": 1050780, "elvelengde_m": 28.08, "elvID": "196-74-180", "elvenavn": "Maissajåkka", "regulert": null, "fid_2": 1293, "id": 1293, "left": 19.986919847, "top": 68.446110046000001, "right": 20.486919847, "bottom": 67.946110046000001, "row_index": 12, "col_index": 32, "tile_id": 1293 }, "geometry": { "type": "MultiLineString", "coordinates": [ [ [ 20.028942786724144, 68.429974086920524 ], [ 20.029002145523759, 68.429723341035043 ] ] ] } },
{ "type": "Feature", "properties": { "fid": 1050843, "elvelengde_m": 1621.82, "elvID": "196-74-180", "elvenavn": "Maissajåkka", "regulert": null, "fid_2": 1293, "id": 1293, "left": 19.986919847, "top": 68.446110046000001, "right": 20.486919847, "bottom": 67.946110046000001, "row_index": 12, "col_index": 32, "tile_id": 1293 }, "geometry": { "type": "MultiLineString", "coordinates": [ [ [ 20.029011912720314, 68.42949909227822 ], [ 20.032119618032727, 68.428072987560952 ], [ 20.033110013808898, 68.42771089372269 ], [ 20.033651041122241, 68.427597448396398 ], [ 20.034870557037241, 68.427577501811157 ], [ 20.036706270222982, 68.427399820403437 ], [ 20.037795943333698, 68.426993417995575 ], [ 20.039138661112879, 68.425790214385657 ], [ 20.039321702696192, 68.425495164773352 ], [ 20.039196496527147, 68.425001200854084 ], [ 20.039384164827808, 68.424598619787261 ], [ 20.039869939491471, 68.424063278937524 ], [ 20.040057345878857, 68.423660704506617 ], [ 20.040797259532287, 68.422875561851356 ], [ 20.041403270118892, 68.422376788854123 ], [ 20.042448541143436, 68.421862497744868 ], [ 20.04324071481917, 68.42098797767332 ], [ 20.044097485114797, 68.420320168608171 ], [ 20.045449742308627, 68.419448857745479 ], [ 20.047035538617536, 68.418821054896739 ], [ 20.0478329411592, 68.418394986075526 ], [ 20.048230846890643, 68.417704868218294 ] ] ] } },
{ "type": "Feature", "properties": { "fid": 1050880, "elvelengde_m": 3464.61, "elvID": "196-74-226", "elvenavn": null, "regulert": null, "fid_2": 1293, "id": 1293, "left": 19.986919847, "top": 68.446110046000001, "right": 20.486919847, "bottom": 67.946110046000001, "row_index": 12, "col_index": 32, "tile_id": 1293 }, "geometry": { "type": "MultiLineString", "coordinates": [ [ [ 19.986919847, 68.422833951098028 ], [ 19.988483538794206, 68.422208843190205 ], [ 19.989890207565409, 68.42180480908155 ], [ 19.990797949118313, 68.421666693481541 ], [ 19.993475289361278, 68.421736565244174 ], [ 19.995238967791469, 68.422079084749811 ], [ 19.997421255921605, 68.422325414968896 ], [ 19.99900902048887, 68.422236240833882 ], [ 20.000046108155985, 68.421928444039594 ], [ 20.003333611274975, 68.421975028157036 ], [ 20.006998425928341, 68.421754624948974 ], [ 20.010053292618011, 68.420992299880481 ], [ 20.01224027002915, 68.420565726260023 ], [ 20.014190765401068, 68.419985232040133 ], [ 20.016692129663653, 68.419049083784472 ], [ 20.018838453142823, 68.418442766962258 ], [ 20.019689974727854, 68.417900544125203 ], [ 20.020657018751947, 68.417502614070315 ], [ 20.021764212704433, 68.41669284903594 ], [ 20.022382752030179, 68.415907132570695 ], [ 20.022735986907925, 68.415622183437421 ], [ 20.025011011885613, 68.414272045106642 ], [ 20.025116810178648, 68.414075306189801 ], [ 20.025062170795895, 68.413644423741715 ], [ 20.024772662135049, 68.413014827125238 ], [ 20.024478791408683, 68.411918836694895 ], [ 20.024222373369856, 68.411648278344529 ], [ 20.023865596465079, 68.410883726157863 ], [ 20.022707570147993, 68.410060725783168 ], [ 20.022107485928743, 68.408729671401375 ], [ 20.021756497958403, 68.408395760505499 ], [ 20.021394716775148, 68.407747830458646 ], [ 20.021213208672865, 68.406876638574204 ], [ 20.021466996924602, 68.40663596433366 ] ] ] } },
{ "type": "Feature", "properties": { "fid": 1050904, "elvelengde_m": 2812.92, "elvID": "196-74-180", "elvenavn": "Maissajåkka", "regulert": null, "fid_2": 1293, "id": 1293, "left": 19.986919847, "top": 68.446110046000001, "right": 20.486919847, "bottom": 67.946110046000001, "row_index": 12, "col_index": 32, "tile_id": 1293 }, "geometry": { "type": "MultiLineString", "coordinates": [ [ [ 20.020099196010463, 68.405891758839843 ], [ 20.018789136670978, 68.406064101582487 ], [ 20.016045416410808, 68.405877595064254 ], [ 20.013731733129475, 68.405881927411698 ], [ 20.012865876133539, 68.405634615097441 ], [ 20.012443341932006, 68.405273338459367 ], [ 20.012034180337167, 68.405163221482169 ], [ 20.011545169012589, 68.405205251983958 ], [ 20.011237650292909, 68.405006097655743 ], [ 20.010876243710275, 68.404914240626539 ], [ 20.008620849664741, 68.404712501135819 ], [ 20.007228032765887, 68.404820861595624 ], [ 20.007024125801003, 68.405026016879191 ], [ 20.006369686145167, 68.404959222984701 ], [ 20.005636747327205, 68.405017728749016 ], [ 20.004901285229714, 68.405130000622592 ], [ 20.004184318744951, 68.40537680300524 ], [ 20.003695282162553, 68.40542762481833 ], [ 20.003435102646339, 68.405246824736921 ], [ 20.003018466592255, 68.405307075630574 ], [ 20.002463406099345, 68.405196094561646 ], [ 20.001919582542193, 68.405381303650145 ], [ 20.001488544894489, 68.405217224953446 ], [ 20.001302361729188, 68.405018734449953 ], [ 20.00081950437567, 68.404926180011472 ], [ 20.000222195510148, 68.404662483060108 ], [ 19.99961372291941, 68.404658861879426 ], [ 19.998645939989135, 68.40451841419241 ], [ 19.996868497570315, 68.404516882916127 ], [ 19.996449559970593, 68.404630879470275 ], [ 19.995401625119776, 68.404651554811778 ], [ 19.993778535770605, 68.403915251236398 ], [ 19.992498426057242, 68.403683296975117 ], [ 19.990680436662068, 68.403501869904744 ], [ 19.990128024960235, 68.403328174532916 ], [ 19.987437640805904, 68.403051658005865 ], [ 19.98695164633067, 68.403030839870453 ], [ 19.986919847, 68.403036106608909 ] ] ] } },
{ "type": "Feature", "properties": { "fid": 1051042, "elvelengde_m": 100.26, "elvID": "196-74-180", "elvenavn": "Maissajåkka", "regulert": null, "fid_2": 1293, "id": 1293, "left": 19.986919847, "top": 68.446110046000001, "right": 20.486919847, "bottom": 67.946110046000001, "row_index": 12, "col_index": 32, "tile_id": 1293 }, "geometry": { "type": "MultiLineString", "coordinates": [ [ [ 20.021466996924602, 68.40663596433366 ], [ 20.020099196010463, 68.405891758839843 ] ] ] } },
{ "type": "Feature", "properties": { "fid": 1051047, "elvelengde_m": 0.04, "elvID": "196-74-193", "elvenavn": null, "regulert": null, "fid_2": 1293, "id": 1293, "left": 19.986919847, "top": 68.446110046000001, "right": 20.486919847, "bottom": 67.946110046000001, "row_index": 12, "col_index": 32, "tile_id": 1293 }, "geometry": { "type": "MultiLineString", "coordinates": [ [ [ 20.113302058758119, 68.444928837409023 ], [ 20.113301088840917, 68.44492897233394 ] ] ] } },
{ "type": "Feature", "properties": { "fid": 1074583, "elvelengde_m": 23.09, "elvID": "196-74-193", "elvenavn": null, "regulert": null, "fid_2": 1293, "id": 1293, "left": 19.986919847, "top": 68.446110046000001, "right": 20.486919847, "bottom": 67.946110046000001, "row_index": 12, "col_index": 32, "tile_id": 1293 }, "geometry": { "type": "MultiLineString", "coordinates": [ [ [ 20.113301088840917, 68.44492897233394 ], [ 20.112911998153844, 68.445078504148825 ] ] ] } },
{ "type": "Feature", "properties": { "fid": 1074588, "elvelengde_m": 25.52, "elvID": "196-74-180", "elvenavn": "Maissajåkka", "regulert": null, "fid_2": 1293, "id": 1293, "left": 19.986919847, "top": 68.446110046000001, "right": 20.486919847, "bottom": 67.946110046000001, "row_index": 12, "col_index": 32, "tile_id": 1293 }, "geometry": { "type": "MultiLineString", "coordinates": [ [ [ 19.998066522921611, 68.436950156231006 ], [ 19.998374930005784, 68.436751527036876 ] ] ] } },
{ "type": "Feature", "properties": { "fid": 1074589, "elvelengde_m": 37.85, "elvID": "196-74-208", "elvenavn": null, "regulert": null, "fid_2": 1293, "id": 1293, "left": 19.986919847, "top": 68.446110046000001, "right": 20.486919847, "bottom": 67.946110046000001, "row_index": 12, "col_index": 32, "tile_id": 1293 }, "geometry": { "type": "MultiLineString", "coordinates": [ [ [ 19.998118935100326, 68.43642556518931 ], [ 19.998374930005784, 68.436751527036876 ] ] ] } },
{ "type": "Feature", "properties": { "fid": 1078427, "elvelengde_m": 66.58, "elvID": "196-74-180", "elvenavn": "Maissajåkka", "regulert": null, "fid_2": 1293, "id": 1293, "left": 19.986919847, "top": 68.446110046000001, "right": 20.486919847, "bottom": 67.946110046000001, "row_index": 12, "col_index": 32, "tile_id": 1293 }, "geometry": { "type": "MultiLineString", "coordinates": [ [ [ 19.990296130939729, 68.442787736813557 ], [ 19.991281357016739, 68.442433769265648 ], [ 19.991315786692713, 68.442345365296859 ] ] ] } },
{ "type": "Feature", "properties": { "fid": 1078429, "elvelengde_m": 149.04, "elvID": "196-74-180", "elvenavn": "Maissajåkka", "regulert": null, "fid_2": 1293, "id": 1293, "left": 19.986919847, "top": 68.446110046000001, "right": 20.486919847, "bottom": 67.946110046000001, "row_index": 12, "col_index": 32, "tile_id": 1293 }, "geometry": { "type": "MultiLineString", "coordinates": [ [ [ 19.991400994182712, 68.442076783872778 ], [ 19.991787183934147, 68.441858330120752 ], [ 19.992057603499433, 68.44151746627972 ], [ 19.992786741414783, 68.440954859973758 ], [ 19.992796230988109, 68.440865184374886 ] ] ] } },
{ "type": "Feature", "properties": { "fid": 1078434, "elvelengde_m": 153.11, "elvID": "196-74-180", "elvenavn": "Maissajåkka", "regulert": null, "fid_2": 1293, "id": 1293, "left": 19.986919847, "top": 68.446110046000001, "right": 20.486919847, "bottom": 67.946110046000001, "row_index": 12, "col_index": 32, "tile_id": 1293 }, "geometry": { "type": "MultiLineString", "coordinates": [ [ [ 20.024108750395758, 68.432412722996972 ], [ 20.025250457077867, 68.431794892071096 ], [ 20.026565466707027, 68.431404402645626 ] ] ] } },
{ "type": "Feature", "properties": { "fid": 1078435, "elvelengde_m": 98.7, "elvID": "196-74-180", "elvenavn": "Maissajåkka", "regulert": null, "fid_2": 1293, "id": 1293, "left": 19.986919847, "top": 68.446110046000001, "right": 20.486919847, "bottom": 67.946110046000001, "row_index": 12, "col_index": 32, "tile_id": 1293 }, "geometry": { "type": "MultiLineString", "coordinates": [ [ [ 20.028030746630826, 68.430776125142557 ], [ 20.028374433786649, 68.430551793039541 ], [ 20.028528562074655, 68.430381711990236 ], [ 20.02856736414256, 68.430204955214947 ], [ 20.028942786724144, 68.429974086920524 ] ] ] } },
{ "type": "Feature", "properties": { "fid": 1078436, "elvelengde_m": 26.35, "elvID": "196-74-180", "elvenavn": "Maissajåkka", "regulert": null, "fid_2": 1293, "id": 1293, "left": 19.986919847, "top": 68.446110046000001, "right": 20.486919847, "bottom": 67.946110046000001, "row_index": 12, "col_index": 32, "tile_id": 1293 }, "geometry": { "type": "MultiLineString", "coordinates": [ [ [ 20.029002145523759, 68.429723341035043 ], [ 20.028909045730771, 68.429644770825675 ], [ 20.029011912720314, 68.42949909227822 ] ] ] } },
{ "type": "Feature", "properties": { "fid": 1083588, "elvelengde_m": 109.63, "elvID": "196-74-180", "elvenavn": "Maissajåkka", "regulert": null, "fid_2": 1293, "id": 1293, "left": 19.986919847, "top": 68.446110046000001, "right": 20.486919847, "bottom": 67.946110046000001, "row_index": 12, "col_index": 32, "tile_id": 1293 }, "geometry": { "type": "MultiLineString", "coordinates": [ [ [ 19.99317794477717, 68.440508774917731 ], [ 19.993657376642869, 68.440305330464142 ], [ 19.993222067596918, 68.440018302428328 ], [ 19.993359575366142, 68.439753852748268 ], [ 19.993602958322985, 68.439721975775527 ] ] ] } },
{ "type": "Feature", "properties": { "fid": 1083589, "elvelengde_m": 136.29, "elvID": "196-74-180", "elvenavn": "Maissajåkka", "regulert": null, "fid_2": 1293, "id": 1293, "left": 19.986919847, "top": 68.446110046000001, "right": 20.486919847, "bottom": 67.946110046000001, "row_index": 12, "col_index": 32, "tile_id": 1293 }, "geometry": { "type": "MultiLineString", "coordinates": [ [ [ 19.995245739124993, 68.439525456907987 ], [ 19.995701650873514, 68.439511139338791 ], [ 19.996413235807996, 68.438491959957844 ] ] ] } },
{ "type": "Feature", "properties": { "fid": 1086223, "elvelengde_m": 182.34, "elvID": "196-74-180", "elvenavn": "Maissajåkka", "regulert": null, "fid_2": 1293, "id": 1293, "left": 19.986919847, "top": 68.446110046000001, "right": 20.486919847, "bottom": 67.946110046000001, "row_index": 12, "col_index": 32, "tile_id": 1293 }, "geometry": { "type": "MultiLineString", "coordinates": [ [ [ 19.998374930005784, 68.436751527036876 ], [ 19.999515605863614, 68.436603151313463 ], [ 20.000082376218554, 68.436729538256316 ], [ 20.002568880045292, 68.43659125962445 ] ] ] } },
{ "type": "Feature", "properties": { "fid": 1093632, "elvelengde_m": 220.51, "elvID": "196-74-209", "elvenavn": null, "regulert": null, "fid_2": 1293, "id": 1293, "left": 19.986919847, "top": 68.446110046000001, "right": 20.486919847, "bottom": 67.946110046000001, "row_index": 12, "col_index": 32, "tile_id": 1293 }, "geometry": { "type": "MultiLineString", "coordinates": [ [ [ 20.039725491893336, 68.443868183375812 ], [ 20.039161312435201, 68.444057631085059 ], [ 20.038562816238475, 68.444547165042479 ], [ 20.037764588568429, 68.444882266109573 ], [ 20.037689815437712, 68.445146881707359 ], [ 20.038129129322193, 68.445562792522537 ] ] ] } },
{ "type": "Feature", "properties": { "fid": 1093633, "elvelengde_m": 41.64, "elvID": "196-74-208", "elvenavn": null, "regulert": null, "fid_2": 1293, "id": 1293, "left": 19.986919847, "top": 68.446110046000001, "right": 20.486919847, "bottom": 67.946110046000001, "row_index": 12, "col_index": 32, "tile_id": 1293 }, "geometry": { "type": "MultiLineString", "coordinates": [ [ [ 19.997605676897763, 68.435125491581047 ], [ 19.997261254913813, 68.435277538836743 ], [ 19.997122635042025, 68.435445304425656 ] ] ] } },
{ "type": "Feature", "properties": { "fid": 1204234, "elvelengde_m": 409.61, "elvID": "302-3-353", "elvenavn": null, "regulert": null, "fid_2": 1293, "id": 1293, "left": 19.986919847, "top": 68.446110046000001, "right": 20.486919847, "bottom": 67.946110046000001, "row_index": 12, "col_index": 32, "tile_id": 1293 }, "geometry": { "type": "MultiLineString", "coordinates": [ [ [ 20.072745794435324, 68.43297617738294 ], [ 20.073738904595118, 68.432533157437987 ], [ 20.074040485802882, 68.432310552873531 ], [ 20.073910010621088, 68.431924150540155 ], [ 20.074516368708903, 68.431407245282017 ], [ 20.075020176666175, 68.43100642611337 ], [ 20.076536582821522, 68.430288256792906 ], [ 20.076838728474105, 68.430047729183755 ], [ 20.07702613578622, 68.429778488419331 ] ] ] } }
]
}
