{
"type": "FeatureCollection",
"name": "elvis_tile_id_1567",
"crs": { "type": "name", "properties": { "name": "urn:ogc:def:crs:OGC:1.3:CRS84" } },
"xy_coordinate_resolution": 1e-15,
"features": [
{ "type": "Feature", "properties": { "fid": 296518, "elvelengde_m": 681.13, "elvID": "219-5-1", "elvenavn": null, "regulert": null, "fid_2": 1567, "id": 1567, "left": 23.486919847, "top": 71.446110046000001, "right": 23.986919847, "bottom": 70.946110046000001, "row_index": 6, "col_index": 39, "tile_id": 1567 }, "geometry": { "type": "MultiLineString", "coordinates": [ [ [ 23.976330719894737, 71.064449791783346 ], [ 23.97717647896517, 71.064741490716031 ], [ 23.977799873822111, 71.065207313100117 ], [ 23.978000119127017, 71.065616979100128 ], [ 23.978291880216176, 71.065899524139965 ], [ 23.97857443303965, 71.066487367289184 ], [ 23.979043306069979, 71.067027415613168 ], [ 23.979276432422346, 71.067651973078071 ], [ 23.979268576155537, 71.067966260309447 ], [ 23.980396293567026, 71.068657319685883 ], [ 23.981359400570874, 71.068991934833761 ], [ 23.982103285670863, 71.069886592840106 ], [ 23.982135468123563, 71.070096355937153 ] ] ] } },
{ "type": "Feature", "properties": { "fid": 296520, "elvelengde_m": 1534.3, "elvID": "219-4-1", "elvenavn": null, "regulert": null, "fid_2": 1567, "id": 1567, "left": 23.486919847, "top": 71.446110046000001, "right": 23.986919847, "bottom": 70.946110046000001, "row_index": 6, "col_index": 39, "tile_id": 1567 }, "geometry": { "type": "MultiLineString", "coordinates": [ [ [ 23.973124436135642, 71.054035266409912 ], [ 23.972695255846311, 71.054302540537265 ], [ 23.972487839869167, 71.05457517024999 ], [ 23.972229595688738, 71.055243476922257 ], [ 23.972229850973822, 71.056158910650623 ], [ 23.97209850049596, 71.056385475188591 ], [ 23.97245653336612, 71.057106727232409 ], [ 23.973816999652684, 71.058431412411792 ], [ 23.974406503847298, 71.058673250508576 ], [ 23.974545725157071, 71.059048122360238 ], [ 23.975649309412667, 71.059766426112262 ], [ 23.975942019376117, 71.060057976485623 ], [ 23.977811720248464, 71.060907681912468 ], [ 23.982571877078726, 71.061316349315916 ], [ 23.983691085867552, 71.061226594322292 ], [ 23.986919847, 71.060759743556119 ] ] ] } },
{ "type": "Feature", "properties": { "fid": 296528, "elvelengde_m": 68.08, "elvID": "219-45-2", "elvenavn": null, "regulert": null, "fid_2": 1567, "id": 1567, "left": 23.486919847, "top": 71.446110046000001, "right": 23.986919847, "bottom": 70.946110046000001, "row_index": 6, "col_index": 39, "tile_id": 1567 }, "geometry": { "type": "MultiLineString", "coordinates": [ [ [ 23.971293793374503, 71.025279501201751 ], [ 23.971840413318752, 71.024696404549715 ] ] ] } },
{ "type": "Feature", "properties": { "fid": 296530, "elvelengde_m": 362.76, "elvID": "219-45-1", "elvenavn": null, "regulert": null, "fid_2": 1567, "id": 1567, "left": 23.486919847, "top": 71.446110046000001, "right": 23.986919847, "bottom": 70.946110046000001, "row_index": 6, "col_index": 39, "tile_id": 1567 }, "geometry": { "type": "MultiLineString", "coordinates": [ [ [ 23.963083574541574, 71.023696102561814 ], [ 23.964794029551413, 71.023516291790102 ], [ 23.966314251669719, 71.023536915740181 ], [ 23.967210936806698, 71.023630269728955 ], [ 23.970999935439362, 71.024611113667618 ], [ 23.971840413318752, 71.024696404549715 ] ] ] } },
{ "type": "Feature", "properties": { "fid": 296531, "elvelengde_m": 1043.05, "elvID": "219-45-1", "elvenavn": null, "regulert": null, "fid_2": 1567, "id": 1567, "left": 23.486919847, "top": 71.446110046000001, "right": 23.986919847, "bottom": 70.946110046000001, "row_index": 6, "col_index": 39, "tile_id": 1567 }, "geometry": { "type": "MultiLineString", "coordinates": [ [ [ 23.971840413318752, 71.024696404549715 ], [ 23.972389546388285, 71.0244990596984 ], [ 23.974841373763404, 71.023930299247581 ], [ 23.975114639092325, 71.023728514838623 ], [ 23.975192086379781, 71.023511710902369 ], [ 23.975536273406853, 71.023416574774458 ], [ 23.978692636228153, 71.022764798646747 ], [ 23.981591789225181, 71.02242208113536 ], [ 23.983583349907132, 71.022641460926607 ], [ 23.98420988275204, 71.022954491918142 ], [ 23.984779532035422, 71.02307100831402 ], [ 23.985712542017673, 71.023406065464414 ], [ 23.986919847, 71.023449217664052 ] ] ] } },
{ "type": "Feature", "properties": { "fid": 296533, "elvelengde_m": 1188.55, "elvID": "219-46-1", "elvenavn": null, "regulert": null, "fid_2": 1567, "id": 1567, "left": 23.486919847, "top": 71.446110046000001, "right": 23.986919847, "bottom": 70.946110046000001, "row_index": 6, "col_index": 39, "tile_id": 1567 }, "geometry": { "type": "MultiLineString", "coordinates": [ [ [ 23.983871794791238, 71.017807820453484 ], [ 23.985781729868226, 71.018037558891962 ], [ 23.986919847, 71.018019251096788 ] ] ] } },
{ "type": "Feature", "properties": { "fid": 296539, "elvelengde_m": 908.17, "elvID": "219-7-1", "elvenavn": null, "regulert": null, "fid_2": 1567, "id": 1567, "left": 23.486919847, "top": 71.446110046000001, "right": 23.986919847, "bottom": 70.946110046000001, "row_index": 6, "col_index": 39, "tile_id": 1567 }, "geometry": { "type": "MultiLineString", "coordinates": [ [ [ 23.978661251831678, 71.013618857784309 ], [ 23.980526646757689, 71.013194013479804 ], [ 23.981461276074388, 71.012811091719982 ], [ 23.982864348544453, 71.012609082968339 ], [ 23.985193629353049, 71.01251779612592 ], [ 23.986919847, 71.012573079041985 ] ] ] } },
{ "type": "Feature", "properties": { "fid": 296546, "elvelengde_m": 455.1, "elvID": "219-43-2", "elvenavn": null, "regulert": null, "fid_2": 1567, "id": 1567, "left": 23.486919847, "top": 71.446110046000001, "right": 23.986919847, "bottom": 70.946110046000001, "row_index": 6, "col_index": 39, "tile_id": 1567 }, "geometry": { "type": "MultiLineString", "coordinates": [ [ [ 23.975315210070086, 71.008987160407472 ], [ 23.975167361370783, 71.008738124275027 ], [ 23.974886391315898, 71.00851828780776 ], [ 23.973983942852659, 71.008200560253542 ], [ 23.971643012855356, 71.007663682422731 ], [ 23.969844507939495, 71.006884568448385 ], [ 23.96985167640074, 71.006749770495645 ], [ 23.969559891188506, 71.006458206835035 ], [ 23.96914791055929, 71.006285295221744 ], [ 23.967692016263989, 71.005949540279929 ] ] ] } },
{ "type": "Feature", "properties": { "fid": 296547, "elvelengde_m": 523.44, "elvID": "219-43-1", "elvenavn": null, "regulert": null, "fid_2": 1567, "id": 1567, "left": 23.486919847, "top": 71.446110046000001, "right": 23.986919847, "bottom": 70.946110046000001, "row_index": 6, "col_index": 39, "tile_id": 1567 }, "geometry": { "type": "MultiLineString", "coordinates": [ [ [ 23.981373867922795, 71.004761206496397 ], [ 23.97642754392999, 71.004669904438899 ], [ 23.974093545437139, 71.004725224306142 ], [ 23.971947880970479, 71.004930068179362 ], [ 23.971329993330613, 71.005038700466429 ], [ 23.96975220843489, 71.005539670500099 ], [ 23.967905672859253, 71.005721773031084 ] ] ] } },
{ "type": "Feature", "properties": { "fid": 296548, "elvelengde_m": 345.14, "elvID": "219-44-1", "elvenavn": null, "regulert": null, "fid_2": 1567, "id": 1567, "left": 23.486919847, "top": 71.446110046000001, "right": 23.986919847, "bottom": 70.946110046000001, "row_index": 6, "col_index": 39, "tile_id": 1567 }, "geometry": { "type": "MultiLineString", "coordinates": [ [ [ 23.905848701868958, 71.007976746043127 ], [ 23.904904940861222, 71.00811715420393 ], [ 23.904006862505629, 71.008382451699006 ], [ 23.903605261764092, 71.008649050623006 ], [ 23.902777748091655, 71.008832450987796 ], [ 23.900766389713809, 71.008836943583376 ], [ 23.89787625400178, 71.008675484855928 ], [ 23.897526674630431, 71.008727098702607 ] ] ] } },
{ "type": "Feature", "properties": { "fid": 296550, "elvelengde_m": 40.1, "elvID": "219-44-1", "elvenavn": null, "regulert": null, "fid_2": 1567, "id": 1567, "left": 23.486919847, "top": 71.446110046000001, "right": 23.986919847, "bottom": 70.946110046000001, "row_index": 6, "col_index": 39, "tile_id": 1567 }, "geometry": { "type": "MultiLineString", "coordinates": [ [ [ 23.907037103777974, 71.007437525414431 ], [ 23.907034812090682, 71.007796571680814 ] ] ] } },
{ "type": "Feature", "properties": { "fid": 296551, "elvelengde_m": 170.16, "elvID": "219-43-1", "elvenavn": null, "regulert": null, "fid_2": 1567, "id": 1567, "left": 23.486919847, "top": 71.446110046000001, "right": 23.986919847, "bottom": 70.946110046000001, "row_index": 6, "col_index": 39, "tile_id": 1567 }, "geometry": { "type": "MultiLineString", "coordinates": [ [ [ 23.961673392394697, 71.005327430039955 ], [ 23.958611505710621, 71.005124923806974 ], [ 23.957152806018382, 71.004950658146171 ] ] ] } },
{ "type": "Feature", "properties": { "fid": 296554, "elvelengde_m": 739.61, "elvID": "219-43-1", "elvenavn": null, "regulert": null, "fid_2": 1567, "id": 1567, "left": 23.486919847, "top": 71.446110046000001, "right": 23.986919847, "bottom": 70.946110046000001, "row_index": 6, "col_index": 39, "tile_id": 1567 }, "geometry": { "type": "MultiLineString", "coordinates": [ [ [ 23.955452739988385, 71.004457101790692 ], [ 23.954138879185805, 71.004145960093112 ], [ 23.954115664282352, 71.003993719992451 ], [ 23.954826027870386, 71.003766948216281 ], [ 23.956036629748603, 71.003020661189353 ], [ 23.956106384131633, 71.002750285658379 ], [ 23.954586588116818, 71.002352637662995 ], [ 23.952010305501126, 71.00152296990197 ], [ 23.950950977859023, 71.001441009911218 ], [ 23.945709793985259, 71.001398543207571 ], [ 23.943894682823089, 71.00150954197116 ] ] ] } },
{ "type": "Feature", "properties": { "fid": 296564, "elvelengde_m": 100.93, "elvID": "219-42-2", "elvenavn": null, "regulert": null, "fid_2": 1567, "id": 1567, "left": 23.486919847, "top": 71.446110046000001, "right": 23.986919847, "bottom": 70.946110046000001, "row_index": 6, "col_index": 39, "tile_id": 1567 }, "geometry": { "type": "MultiLineString", "coordinates": [ [ [ 23.946475201460956, 70.996744572813824 ], [ 23.944888784055749, 70.99663510397265 ], [ 23.943801871112264, 70.996732986470747 ] ] ] } },
{ "type": "Feature", "properties": { "fid": 296565, "elvelengde_m": 10.07, "elvID": "219-42-1", "elvenavn": null, "regulert": null, "fid_2": 1567, "id": 1567, "left": 23.486919847, "top": 71.446110046000001, "right": 23.986919847, "bottom": 70.946110046000001, "row_index": 6, "col_index": 39, "tile_id": 1567 }, "geometry": { "type": "MultiLineString", "coordinates": [ [ [ 23.938784702631335, 70.996704773502131 ], [ 23.938508374435337, 70.996700148366003 ] ] ] } },
{ "type": "Feature", "properties": { "fid": 296566, "elvelengde_m": 277.57, "elvID": "219-42-1", "elvenavn": null, "regulert": null, "fid_2": 1567, "id": 1567, "left": 23.486919847, "top": 71.446110046000001, "right": 23.986919847, "bottom": 70.946110046000001, "row_index": 6, "col_index": 39, "tile_id": 1567 }, "geometry": { "type": "MultiLineString", "coordinates": [ [ [ 23.927290725647801, 70.997209352645982 ], [ 23.927646977696668, 70.997383219825309 ], [ 23.927921393993778, 70.99774690450738 ], [ 23.927669101214544, 70.997903511010179 ], [ 23.926487650205775, 70.998110602377821 ], [ 23.926861397191225, 70.998400860996327 ], [ 23.925757532084187, 70.998759359340951 ], [ 23.925845541562889, 70.998982330343637 ], [ 23.926096107136846, 70.999207756570669 ] ] ] } },
{ "type": "Feature", "properties": { "fid": 296568, "elvelengde_m": 57.36, "elvID": "219-42-1", "elvenavn": null, "regulert": null, "fid_2": 1567, "id": 1567, "left": 23.486919847, "top": 71.446110046000001, "right": 23.986919847, "bottom": 70.946110046000001, "row_index": 6, "col_index": 39, "tile_id": 1567 }, "geometry": { "type": "MultiLineString", "coordinates": [ [ [ 23.938665909268543, 70.995539858984714 ], [ 23.939713970684767, 70.995918187543737 ] ] ] } },
{ "type": "Feature", "properties": { "fid": 296569, "elvelengde_m": 339.6, "elvID": "219-42-1", "elvenavn": null, "regulert": null, "fid_2": 1567, "id": 1567, "left": 23.486919847, "top": 71.446110046000001, "right": 23.986919847, "bottom": 70.946110046000001, "row_index": 6, "col_index": 39, "tile_id": 1567 }, "geometry": { "type": "MultiLineString", "coordinates": [ [ [ 23.960747380666632, 70.995485454507474 ], [ 23.959220121329725, 70.995402115493889 ], [ 23.958395054758739, 70.99522671625067 ], [ 23.952952365477003, 70.994747883855226 ], [ 23.951793114043237, 70.994730368394755 ] ] ] } },
{ "type": "Feature", "properties": { "fid": 296572, "elvelengde_m": 275.57, "elvID": "219-41-1", "elvenavn": null, "regulert": null, "fid_2": 1567, "id": 1567, "left": 23.486919847, "top": 71.446110046000001, "right": 23.986919847, "bottom": 70.946110046000001, "row_index": 6, "col_index": 39, "tile_id": 1567 }, "geometry": { "type": "MultiLineString", "coordinates": [ [ [ 23.893120327261201, 70.989595023161286 ], [ 23.892988427354272, 70.989821445331188 ], [ 23.892305640732161, 70.990047454370099 ], [ 23.890394637267903, 70.990346524535411 ], [ 23.886689093703826, 70.990513534857669 ] ] ] } },
{ "type": "Feature", "properties": { "fid": 296577, "elvelengde_m": 214.77, "elvID": "219-37-1", "elvenavn": null, "regulert": null, "fid_2": 1567, "id": 1567, "left": 23.486919847, "top": 71.446110046000001, "right": 23.986919847, "bottom": 70.946110046000001, "row_index": 6, "col_index": 39, "tile_id": 1567 }, "geometry": { "type": "MultiLineString", "coordinates": [ [ [ 23.963837085278538, 70.979746668511098 ], [ 23.963639492504839, 70.98008193918119 ], [ 23.96363300112662, 70.980773231641905 ], [ 23.964030552500613, 70.981036100949865 ], [ 23.964445739204841, 70.981617980165055 ] ] ] } },
{ "type": "Feature", "properties": { "fid": 296590, "elvelengde_m": 922.05, "elvID": "219-38-2", "elvenavn": null, "regulert": null, "fid_2": 1567, "id": 1567, "left": 23.486919847, "top": 71.446110046000001, "right": 23.986919847, "bottom": 70.946110046000001, "row_index": 6, "col_index": 39, "tile_id": 1567 }, "geometry": { "type": "MultiLineString", "coordinates": [ [ [ 23.983241038390066, 70.971923248083286 ], [ 23.984148452826997, 70.972285439081077 ], [ 23.984691324222609, 70.972599943624743 ], [ 23.985143110670212, 70.973041479973418 ], [ 23.986528726514248, 70.973288440983566 ], [ 23.986885089204215, 70.973462282414189 ], [ 23.986919847, 70.973514369004533 ] ] ] } },
{ "type": "Feature", "properties": { "fid": 296600, "elvelengde_m": 111.18, "elvID": "219-36-1", "elvenavn": null, "regulert": null, "fid_2": 1567, "id": 1567, "left": 23.486919847, "top": 71.446110046000001, "right": 23.986919847, "bottom": 70.946110046000001, "row_index": 6, "col_index": 39, "tile_id": 1567 }, "geometry": { "type": "MultiLineString", "coordinates": [ [ [ 23.937441691211248, 70.969925131413987 ], [ 23.936292430560687, 70.970149720241935 ], [ 23.935201003580357, 70.970579899395716 ] ] ] } },
{ "type": "Feature", "properties": { "fid": 296601, "elvelengde_m": 262.29, "elvID": "219-36-1", "elvenavn": null, "regulert": null, "fid_2": 1567, "id": 1567, "left": 23.486919847, "top": 71.446110046000001, "right": 23.986919847, "bottom": 70.946110046000001, "row_index": 6, "col_index": 39, "tile_id": 1567 }, "geometry": { "type": "MultiLineString", "coordinates": [ [ [ 23.933297173206281, 70.971283119748136 ], [ 23.931639919746257, 70.971237537413572 ], [ 23.930462036042751, 70.971085689220146 ], [ 23.926907048924829, 70.970340358457889 ] ] ] } },
{ "type": "Feature", "properties": { "fid": 296604, "elvelengde_m": 33.47, "elvID": "219-34-3", "elvenavn": null, "regulert": null, "fid_2": 1567, "id": 1567, "left": 23.486919847, "top": 71.446110046000001, "right": 23.986919847, "bottom": 70.946110046000001, "row_index": 6, "col_index": 39, "tile_id": 1567 }, "geometry": { "type": "MultiLineString", "coordinates": [ [ [ 23.980595202590195, 70.966239118900191 ], [ 23.979853267622278, 70.966062523430452 ] ] ] } },
{ "type": "Feature", "properties": { "fid": 296606, "elvelengde_m": 21.43, "elvID": "219-34-1", "elvenavn": null, "regulert": null, "fid_2": 1567, "id": 1567, "left": 23.486919847, "top": 71.446110046000001, "right": 23.986919847, "bottom": 70.946110046000001, "row_index": 6, "col_index": 39, "tile_id": 1567 }, "geometry": { "type": "MultiLineString", "coordinates": [ [ [ 23.979661879784125, 70.964790989253828 ], [ 23.979328055691262, 70.964948958247618 ] ] ] } },
{ "type": "Feature", "properties": { "fid": 296608, "elvelengde_m": 97.89, "elvID": "219-34-5", "elvenavn": null, "regulert": null, "fid_2": 1567, "id": 1567, "left": 23.486919847, "top": 71.446110046000001, "right": 23.986919847, "bottom": 70.946110046000001, "row_index": 6, "col_index": 39, "tile_id": 1567 }, "geometry": { "type": "MultiLineString", "coordinates": [ [ [ 23.982777726373087, 70.963206065663698 ], [ 23.981443328090318, 70.962563304712802 ], [ 23.981162462683031, 70.96252294985311 ] ] ] } },
{ "type": "Feature", "properties": { "fid": 296609, "elvelengde_m": 18.81, "elvID": "219-35-1", "elvenavn": null, "regulert": null, "fid_2": 1567, "id": 1567, "left": 23.486919847, "top": 71.446110046000001, "right": 23.986919847, "bottom": 70.946110046000001, "row_index": 6, "col_index": 39, "tile_id": 1567 }, "geometry": { "type": "MultiLineString", "coordinates": [ [ [ 23.937140667356559, 70.964382917846663 ], [ 23.936663470929965, 70.964318708747243 ] ] ] } },
{ "type": "Feature", "properties": { "fid": 296611, "elvelengde_m": 564.57, "elvID": "219-35-1", "elvenavn": null, "regulert": null, "fid_2": 1567, "id": 1567, "left": 23.486919847, "top": 71.446110046000001, "right": 23.986919847, "bottom": 70.946110046000001, "row_index": 6, "col_index": 39, "tile_id": 1567 }, "geometry": { "type": "MultiLineString", "coordinates": [ [ [ 23.925344888369537, 70.964578364909457 ], [ 23.924996621580544, 70.964826180400507 ], [ 23.925067579538521, 70.965121215374467 ], [ 23.925429982349868, 70.96533984576773 ], [ 23.925449117506702, 70.965653869183512 ], [ 23.925091395995839, 70.965838861577097 ], [ 23.924003616031985, 70.96610747506773 ], [ 23.923669241940228, 70.966265169928192 ], [ 23.922569131599271, 70.966264594607665 ], [ 23.922015285099615, 70.966425855895594 ], [ 23.922042091503943, 70.966604980680003 ], [ 23.919770859683354, 70.967242113538418 ], [ 23.919518352119116, 70.967578157973833 ], [ 23.919732872592427, 70.967915759978567 ], [ 23.919462991447894, 70.968135502923275 ], [ 23.918647532538476, 70.968383557999175 ] ] ] } },
{ "type": "Feature", "properties": { "fid": 296612, "elvelengde_m": 399.59, "elvID": "219-34-1", "elvenavn": null, "regulert": null, "fid_2": 1567, "id": 1567, "left": 23.486919847, "top": 71.446110046000001, "right": 23.986919847, "bottom": 70.946110046000001, "row_index": 6, "col_index": 39, "tile_id": 1567 }, "geometry": { "type": "MultiLineString", "coordinates": [ [ [ 23.976254015990051, 70.965536829883391 ], [ 23.974741226249819, 70.964986646074152 ], [ 23.974666051828976, 70.964853233451464 ], [ 23.97477649465603, 70.964492487156548 ], [ 23.974778389552831, 70.963953871159845 ], [ 23.974270104864431, 70.963683753813839 ], [ 23.973623748154402, 70.962859387491449 ], [ 23.973556852723966, 70.962232136917365 ] ] ] } },
{ "type": "Feature", "properties": { "fid": 296615, "elvelengde_m": 84.54, "elvID": "219-34-5", "elvenavn": null, "regulert": null, "fid_2": 1567, "id": 1567, "left": 23.486919847, "top": 71.446110046000001, "right": 23.986919847, "bottom": 70.946110046000001, "row_index": 6, "col_index": 39, "tile_id": 1567 }, "geometry": { "type": "MultiLineString", "coordinates": [ [ [ 23.975737837464351, 70.962107380828499 ], [ 23.974849194514025, 70.96204983025558 ], [ 23.973556852723966, 70.962232136917365 ] ] ] } },
{ "type": "Feature", "properties": { "fid": 296616, "elvelengde_m": 331.45, "elvID": "219-35-1", "elvenavn": null, "regulert": null, "fid_2": 1567, "id": 1567, "left": 23.486919847, "top": 71.446110046000001, "right": 23.986919847, "bottom": 70.946110046000001, "row_index": 6, "col_index": 39, "tile_id": 1567 }, "geometry": { "type": "MultiLineString", "coordinates": [ [ [ 23.93472991327172, 70.964259605531268 ], [ 23.934118161779175, 70.96421540639966 ], [ 23.932670910082503, 70.964283155127859 ], [ 23.9308252624582, 70.964446979792996 ], [ 23.929184123967875, 70.964320318155828 ], [ 23.928090541726402, 70.964364366547414 ], [ 23.926510783654205, 70.964281692585715 ], [ 23.925889257819957, 70.964354361120797 ] ] ] } },
{ "type": "Feature", "properties": { "fid": 296617, "elvelengde_m": 318.77, "elvID": "219-34-4", "elvenavn": null, "regulert": null, "fid_2": 1567, "id": 1567, "left": 23.486919847, "top": 71.446110046000001, "right": 23.986919847, "bottom": 70.946110046000001, "row_index": 6, "col_index": 39, "tile_id": 1567 }, "geometry": { "type": "MultiLineString", "coordinates": [ [ [ 23.951397282715487, 70.963357879142919 ], [ 23.951672328510014, 70.963174035215516 ], [ 23.953826096890733, 70.962314009001915 ], [ 23.955428581686895, 70.962180774624201 ], [ 23.957881997485181, 70.961854401860379 ], [ 23.958142830547231, 70.9617605032185 ] ] ] } },
{ "type": "Feature", "properties": { "fid": 296619, "elvelengde_m": 173.7, "elvID": "219-34-1", "elvenavn": null, "regulert": null, "fid_2": 1567, "id": 1567, "left": 23.486919847, "top": 71.446110046000001, "right": 23.986919847, "bottom": 70.946110046000001, "row_index": 6, "col_index": 39, "tile_id": 1567 }, "geometry": { "type": "MultiLineString", "coordinates": [ [ [ 23.973556852723966, 70.962232136917365 ], [ 23.972804836181002, 70.961804317110079 ], [ 23.971597601559761, 70.96145571255424 ], [ 23.971783495393229, 70.961228369581079 ], [ 23.971574452367602, 70.960935522018104 ] ] ] } },
{ "type": "Feature", "properties": { "fid": 296622, "elvelengde_m": 438.99, "elvID": "219-34-2", "elvenavn": null, "regulert": null, "fid_2": 1567, "id": 1567, "left": 23.486919847, "top": 71.446110046000001, "right": 23.986919847, "bottom": 70.946110046000001, "row_index": 6, "col_index": 39, "tile_id": 1567 }, "geometry": { "type": "MultiLineString", "coordinates": [ [ [ 23.958142830547231, 70.9617605032185 ], [ 23.958823170465212, 70.961713736426205 ], [ 23.960427533529167, 70.961777914909305 ], [ 23.963699281737622, 70.96159117230296 ], [ 23.965131400838526, 70.961424584342865 ], [ 23.965761484325661, 70.961225963339643 ], [ 23.96573647503417, 70.960508317710023 ], [ 23.967228163594417, 70.960188245676633 ] ] ] } },
{ "type": "Feature", "properties": { "fid": 296624, "elvelengde_m": 537.13, "elvID": "219-34-2", "elvenavn": null, "regulert": null, "fid_2": 1567, "id": 1567, "left": 23.486919847, "top": 71.446110046000001, "right": 23.986919847, "bottom": 70.946110046000001, "row_index": 6, "col_index": 39, "tile_id": 1567 }, "geometry": { "type": "MultiLineString", "coordinates": [ [ [ 23.946056780653056, 70.959628202671354 ], [ 23.949011046250938, 70.95952738842783 ], [ 23.94992074988934, 70.959728342430978 ], [ 23.951714822683883, 70.960328110220232 ], [ 23.953647577992964, 70.960566591177084 ], [ 23.954137895860562, 70.960720378061978 ], [ 23.95463168212811, 70.961080506882354 ], [ 23.955520813791477, 70.961326619327409 ], [ 23.958142830547231, 70.9617605032185 ] ] ] } },
{ "type": "Feature", "properties": { "fid": 296626, "elvelengde_m": 24.1, "elvID": "219-34-1", "elvenavn": null, "regulert": null, "fid_2": 1567, "id": 1567, "left": 23.486919847, "top": 71.446110046000001, "right": 23.986919847, "bottom": 70.946110046000001, "row_index": 6, "col_index": 39, "tile_id": 1567 }, "geometry": { "type": "MultiLineString", "coordinates": [ [ [ 23.969004357722039, 70.957736359306793 ], [ 23.969476628137713, 70.957585333426707 ] ] ] } },
{ "type": "Feature", "properties": { "fid": 296649, "elvelengde_m": 640.39, "elvID": "219-34-1", "elvenavn": null, "regulert": null, "fid_2": 1567, "id": 1567, "left": 23.486919847, "top": 71.446110046000001, "right": 23.986919847, "bottom": 70.946110046000001, "row_index": 6, "col_index": 39, "tile_id": 1567 }, "geometry": { "type": "MultiLineString", "coordinates": [ [ [ 23.971679093122248, 70.950288584721946 ], [ 23.971617750552387, 70.950065139308961 ], [ 23.970612540809967, 70.949776065185617 ], [ 23.970750777900697, 70.949414871510029 ], [ 23.970460173913654, 70.948943753040012 ], [ 23.970839377440001, 70.948542750461627 ], [ 23.970955800863422, 70.947670266097674 ], [ 23.970691591057879, 70.947557840401302 ], [ 23.969795653158478, 70.947446418065681 ], [ 23.969305322259594, 70.947292772272149 ], [ 23.968465433989479, 70.946821533669805 ], [ 23.96759540523836, 70.94682318838727 ], [ 23.96629586734954, 70.946615530139724 ], [ 23.965669025042892, 70.946163327526634 ], [ 23.965235502976583, 70.946110046 ] ] ] } },
{ "type": "Feature", "properties": { "fid": 296651, "elvelengde_m": 569.87, "elvID": "219-33-2", "elvenavn": null, "regulert": null, "fid_2": 1567, "id": 1567, "left": 23.486919847, "top": 71.446110046000001, "right": 23.986919847, "bottom": 70.946110046000001, "row_index": 6, "col_index": 39, "tile_id": 1567 }, "geometry": { "type": "MultiLineString", "coordinates": [ [ [ 23.986105115216382, 70.946457466010216 ], [ 23.98448000200634, 70.946110046 ] ] ] } },
{ "type": "Feature", "properties": { "fid": 296655, "elvelengde_m": 1222.74, "elvID": "219-33-1", "elvenavn": null, "regulert": null, "fid_2": 1567, "id": 1567, "left": 23.486919847, "top": 71.446110046000001, "right": 23.986919847, "bottom": 70.946110046000001, "row_index": 6, "col_index": 39, "tile_id": 1567 }, "geometry": { "type": "MultiLineString", "coordinates": [ [ [ 23.986919847, 70.952161346412254 ], [ 23.985361299352324, 70.95136133995895 ], [ 23.98491929558973, 70.950982456067379 ], [ 23.983963295858089, 70.950656728109095 ], [ 23.983950901166242, 70.950028618859349 ], [ 23.983375536039446, 70.949310832265894 ], [ 23.983232590890143, 70.948909290865487 ], [ 23.982806790982693, 70.948637719287419 ], [ 23.982283803834733, 70.948448754945886 ], [ 23.980298703398883, 70.948040871219533 ], [ 23.97854618633329, 70.947350997466643 ], [ 23.977531226851021, 70.947178781088041 ], [ 23.976358167391471, 70.94668606991641 ], [ 23.9753590938423, 70.946621262711417 ], [ 23.974838859740689, 70.946450164702014 ], [ 23.974617501041376, 70.946256252355809 ], [ 23.974156698175683, 70.946110046 ] ] ] } },
{ "type": "Feature", "properties": { "fid": 296677, "elvelengde_m": 65.66, "elvID": "219-43-2", "elvenavn": null, "regulert": null, "fid_2": 1567, "id": 1567, "left": 23.486919847, "top": 71.446110046000001, "right": 23.986919847, "bottom": 70.946110046000001, "row_index": 6, "col_index": 39, "tile_id": 1567 }, "geometry": { "type": "MultiLineString", "coordinates": [ [ [ 23.967692016263989, 71.005949540279929 ], [ 23.966073214868864, 71.005689266547165 ] ] ] } },
{ "type": "Feature", "properties": { "fid": 296678, "elvelengde_m": 16.1, "elvID": "219-42-2", "elvenavn": null, "regulert": null, "fid_2": 1567, "id": 1567, "left": 23.486919847, "top": 71.446110046000001, "right": 23.986919847, "bottom": 70.946110046000001, "row_index": 6, "col_index": 39, "tile_id": 1567 }, "geometry": { "type": "MultiLineString", "coordinates": [ [ [ 23.946876798971608, 70.996805141013851 ], [ 23.946475201460956, 70.996744572813824 ] ] ] } },
{ "type": "Feature", "properties": { "fid": 296680, "elvelengde_m": 28.79, "elvID": "219-41-1", "elvenavn": null, "regulert": null, "fid_2": 1567, "id": 1567, "left": 23.486919847, "top": 71.446110046000001, "right": 23.986919847, "bottom": 70.946110046000001, "row_index": 6, "col_index": 39, "tile_id": 1567 }, "geometry": { "type": "MultiLineString", "coordinates": [ [ [ 23.893079691934691, 70.989337531965589 ], [ 23.893120327261201, 70.989595023161286 ] ] ] } },
{ "type": "Feature", "properties": { "fid": 296688, "elvelengde_m": 25.46, "elvID": "219-34-3", "elvenavn": null, "regulert": null, "fid_2": 1567, "id": 1567, "left": 23.486919847, "top": 71.446110046000001, "right": 23.986919847, "bottom": 70.946110046000001, "row_index": 6, "col_index": 39, "tile_id": 1567 }, "geometry": { "type": "MultiLineString", "coordinates": [ [ [ 23.981233480267548, 70.966146496037098 ], [ 23.980595202590195, 70.966239118900191 ] ] ] } },
{ "type": "Feature", "properties": { "fid": 296690, "elvelengde_m": 32.95, "elvID": "219-34-1", "elvenavn": null, "regulert": null, "fid_2": 1567, "id": 1567, "left": 23.486919847, "top": 71.446110046000001, "right": 23.986919847, "bottom": 70.946110046000001, "row_index": 6, "col_index": 39, "tile_id": 1567 }, "geometry": { "type": "MultiLineString", "coordinates": [ [ [ 23.979328055691262, 70.964948958247618 ], [ 23.979153722535862, 70.965238502414806 ] ] ] } },
{ "type": "Feature", "properties": { "fid": 296697, "elvelengde_m": 88.07, "elvID": "219-43-1", "elvenavn": null, "regulert": null, "fid_2": 1567, "id": 1567, "left": 23.486919847, "top": 71.446110046000001, "right": 23.986919847, "bottom": 70.946110046000001, "row_index": 6, "col_index": 39, "tile_id": 1567 }, "geometry": { "type": "MultiLineString", "coordinates": [ [ [ 23.957152806018382, 71.004950658146171 ], [ 23.956696825534653, 71.004917341174178 ], [ 23.955452739988385, 71.004457101790692 ] ] ] } },
{ "type": "Feature", "properties": { "fid": 296699, "elvelengde_m": 91.15, "elvID": "219-42-1", "elvenavn": null, "regulert": null, "fid_2": 1567, "id": 1567, "left": 23.486919847, "top": 71.446110046000001, "right": 23.986919847, "bottom": 70.946110046000001, "row_index": 6, "col_index": 39, "tile_id": 1567 }, "geometry": { "type": "MultiLineString", "coordinates": [ [ [ 23.941239440142429, 70.99654950737289 ], [ 23.938784702631335, 70.996704773502131 ] ] ] } },
{ "type": "Feature", "properties": { "fid": 296703, "elvelengde_m": 98.52, "elvID": "219-34-3", "elvenavn": null, "regulert": null, "fid_2": 1567, "id": 1567, "left": 23.486919847, "top": 71.446110046000001, "right": 23.986919847, "bottom": 70.946110046000001, "row_index": 6, "col_index": 39, "tile_id": 1567 }, "geometry": { "type": "MultiLineString", "coordinates": [ [ [ 23.979853267622278, 70.966062523430452 ], [ 23.979649985451353, 70.965543212879808 ], [ 23.979367034110552, 70.965291320590808 ], [ 23.979153722535862, 70.965238502414806 ] ] ] } },
{ "type": "Feature", "properties": { "fid": 296705, "elvelengde_m": 87.56, "elvID": "219-34-2", "elvenavn": null, "regulert": null, "fid_2": 1567, "id": 1567, "left": 23.486919847, "top": 71.446110046000001, "right": 23.986919847, "bottom": 70.946110046000001, "row_index": 6, "col_index": 39, "tile_id": 1567 }, "geometry": { "type": "MultiLineString", "coordinates": [ [ [ 23.967228163594417, 70.960188245676633 ], [ 23.969315410960075, 70.959802320894809 ] ] ] } },
{ "type": "Feature", "properties": { "fid": 296715, "elvelengde_m": 172.06, "elvID": "219-43-1", "elvenavn": null, "regulert": null, "fid_2": 1567, "id": 1567, "left": 23.486919847, "top": 71.446110046000001, "right": 23.986919847, "bottom": 70.946110046000001, "row_index": 6, "col_index": 39, "tile_id": 1567 }, "geometry": { "type": "MultiLineString", "coordinates": [ [ [ 23.966073214868864, 71.005689266547165 ], [ 23.965326417266866, 71.005787827145767 ], [ 23.961673392394697, 71.005327430039955 ] ] ] } },
{ "type": "Feature", "properties": { "fid": 296716, "elvelengde_m": 67.14, "elvID": "219-43-1", "elvenavn": null, "regulert": null, "fid_2": 1567, "id": 1567, "left": 23.486919847, "top": 71.446110046000001, "right": 23.986919847, "bottom": 70.946110046000001, "row_index": 6, "col_index": 39, "tile_id": 1567 }, "geometry": { "type": "MultiLineString", "coordinates": [ [ [ 23.967905672859253, 71.005721773031084 ], [ 23.966073214868864, 71.005689266547165 ] ] ] } },
{ "type": "Feature", "properties": { "fid": 296717, "elvelengde_m": 62.52, "elvID": "219-44-1", "elvenavn": null, "regulert": null, "fid_2": 1567, "id": 1567, "left": 23.486919847, "top": 71.446110046000001, "right": 23.986919847, "bottom": 70.946110046000001, "row_index": 6, "col_index": 39, "tile_id": 1567 }, "geometry": { "type": "MultiLineString", "coordinates": [ [ [ 23.907034812090682, 71.007796571680814 ], [ 23.907044902793757, 71.007966695465768 ], [ 23.905848701868958, 71.007976746043127 ] ] ] } },
{ "type": "Feature", "properties": { "fid": 296720, "elvelengde_m": 91.47, "elvID": "219-42-1", "elvenavn": null, "regulert": null, "fid_2": 1567, "id": 1567, "left": 23.486919847, "top": 71.446110046000001, "right": 23.986919847, "bottom": 70.946110046000001, "row_index": 6, "col_index": 39, "tile_id": 1567 }, "geometry": { "type": "MultiLineString", "coordinates": [ [ [ 23.939713970684767, 70.995918187543737 ], [ 23.940582114659204, 70.996160262268191 ], [ 23.941239440142429, 70.99654950737289 ] ] ] } },
{ "type": "Feature", "properties": { "fid": 296727, "elvelengde_m": 124.16, "elvID": "219-36-1", "elvenavn": null, "regulert": null, "fid_2": 1567, "id": 1567, "left": 23.486919847, "top": 71.446110046000001, "right": 23.986919847, "bottom": 70.946110046000001, "row_index": 6, "col_index": 39, "tile_id": 1567 }, "geometry": { "type": "MultiLineString", "coordinates": [ [ [ 23.935201003580357, 70.970579899395716 ], [ 23.934759241776561, 70.970649841311712 ], [ 23.935002069498072, 70.97079643664145 ], [ 23.934278849271724, 70.971165620519699 ], [ 23.933297173206281, 70.971283119748136 ] ] ] } },
{ "type": "Feature", "properties": { "fid": 296729, "elvelengde_m": 80.5, "elvID": "219-35-1", "elvenavn": null, "regulert": null, "fid_2": 1567, "id": 1567, "left": 23.486919847, "top": 71.446110046000001, "right": 23.986919847, "bottom": 70.946110046000001, "row_index": 6, "col_index": 39, "tile_id": 1567 }, "geometry": { "type": "MultiLineString", "coordinates": [ [ [ 23.936663470929965, 70.964318708747243 ], [ 23.936342873751876, 70.964166228520924 ], [ 23.93472991327172, 70.964259605531268 ] ] ] } },
{ "type": "Feature", "properties": { "fid": 296730, "elvelengde_m": 39.86, "elvID": "219-35-1", "elvenavn": null, "regulert": null, "fid_2": 1567, "id": 1567, "left": 23.486919847, "top": 71.446110046000001, "right": 23.986919847, "bottom": 70.946110046000001, "row_index": 6, "col_index": 39, "tile_id": 1567 }, "geometry": { "type": "MultiLineString", "coordinates": [ [ [ 23.925889257819957, 70.964354361120797 ], [ 23.925367669500108, 70.964397079288531 ], [ 23.925344888369537, 70.964578364909457 ] ] ] } },
{ "type": "Feature", "properties": { "fid": 296731, "elvelengde_m": 154.85, "elvID": "219-34-1", "elvenavn": null, "regulert": null, "fid_2": 1567, "id": 1567, "left": 23.486919847, "top": 71.446110046000001, "right": 23.986919847, "bottom": 70.946110046000001, "row_index": 6, "col_index": 39, "tile_id": 1567 }, "geometry": { "type": "MultiLineString", "coordinates": [ [ [ 23.971574452367602, 70.960935522018104 ], [ 23.971325023593206, 70.960631856239459 ], [ 23.969484477162034, 70.959970665916785 ], [ 23.969315410960075, 70.959802320894809 ] ] ] } },
{ "type": "Feature", "properties": { "fid": 296735, "elvelengde_m": 903.75, "elvID": "219-34-1", "elvenavn": null, "regulert": null, "fid_2": 1567, "id": 1567, "left": 23.486919847, "top": 71.446110046000001, "right": 23.986919847, "bottom": 70.946110046000001, "row_index": 6, "col_index": 39, "tile_id": 1567 }, "geometry": { "type": "MultiLineString", "coordinates": [ [ [ 23.969476628137713, 70.957585333426707 ], [ 23.969754059515257, 70.95727984693616 ], [ 23.970137996969598, 70.957042840437879 ], [ 23.973803741447686, 70.955718168590835 ], [ 23.974694259162263, 70.955064755424573 ], [ 23.974723767377792, 70.954976487674131 ], [ 23.974628110852887, 70.954440807400033 ], [ 23.974278076743055, 70.95391644172399 ], [ 23.973303695559018, 70.953177126752323 ], [ 23.972804637068673, 70.952666919683821 ], [ 23.972582166806205, 70.952318723585464 ], [ 23.971210277322292, 70.951343183248255 ], [ 23.971172953748912, 70.951258951494452 ], [ 23.971679093122248, 70.950288584721946 ] ] ] } },
{ "type": "Feature", "properties": { "fid": 296736, "elvelengde_m": 158.44, "elvID": "219-33-2", "elvenavn": null, "regulert": null, "fid_2": 1567, "id": 1567, "left": 23.486919847, "top": 71.446110046000001, "right": 23.986919847, "bottom": 70.946110046000001, "row_index": 6, "col_index": 39, "tile_id": 1567 }, "geometry": { "type": "MultiLineString", "coordinates": [ [ [ 23.986919847, 70.946588552871347 ], [ 23.986105115216382, 70.946457466010216 ] ] ] } },
{ "type": "Feature", "properties": { "fid": 296742, "elvelengde_m": 102.68, "elvID": "219-42-2", "elvenavn": null, "regulert": null, "fid_2": 1567, "id": 1567, "left": 23.486919847, "top": 71.446110046000001, "right": 23.986919847, "bottom": 70.946110046000001, "row_index": 6, "col_index": 39, "tile_id": 1567 }, "geometry": { "type": "MultiLineString", "coordinates": [ [ [ 23.943801871112264, 70.996732986470747 ], [ 23.942153159300307, 70.996762098160389 ], [ 23.941239440142429, 70.99654950737289 ] ] ] } },
{ "type": "Feature", "properties": { "fid": 296743, "elvelengde_m": 579.19, "elvID": "219-42-1", "elvenavn": null, "regulert": null, "fid_2": 1567, "id": 1567, "left": 23.486919847, "top": 71.446110046000001, "right": 23.986919847, "bottom": 70.946110046000001, "row_index": 6, "col_index": 39, "tile_id": 1567 }, "geometry": { "type": "MultiLineString", "coordinates": [ [ [ 23.938508374435337, 70.996700148366003 ], [ 23.937685844089582, 70.996700650200296 ], [ 23.935898290177835, 70.996499927781699 ], [ 23.933449252218598, 70.996418724172386 ], [ 23.932136543217254, 70.996533591533634 ], [ 23.930500200580113, 70.996530228723643 ], [ 23.928955751845464, 70.996353018548703 ], [ 23.925680348368733, 70.996471800036886 ], [ 23.927290725647801, 70.997209352645982 ] ] ] } },
{ "type": "Feature", "properties": { "fid": 296746, "elvelengde_m": 136.64, "elvID": "219-34-1", "elvenavn": null, "regulert": null, "fid_2": 1567, "id": 1567, "left": 23.486919847, "top": 71.446110046000001, "right": 23.986919847, "bottom": 70.946110046000001, "row_index": 6, "col_index": 39, "tile_id": 1567 }, "geometry": { "type": "MultiLineString", "coordinates": [ [ [ 23.979153722535862, 70.965238502414806 ], [ 23.977877123577208, 70.965318483960104 ], [ 23.977236546466447, 70.96569578717191 ], [ 23.976254015990051, 70.965536829883391 ] ] ] } },
{ "type": "Feature", "properties": { "fid": 296747, "elvelengde_m": 276.22, "elvID": "219-34-1", "elvenavn": null, "regulert": null, "fid_2": 1567, "id": 1567, "left": 23.486919847, "top": 71.446110046000001, "right": 23.986919847, "bottom": 70.946110046000001, "row_index": 6, "col_index": 39, "tile_id": 1567 }, "geometry": { "type": "MultiLineString", "coordinates": [ [ [ 23.969315410960075, 70.959802320894809 ], [ 23.969344885526986, 70.959528616847763 ], [ 23.968670036309668, 70.959392829431863 ], [ 23.968042595199158, 70.959097197841473 ], [ 23.967721226010458, 70.958851716200556 ], [ 23.967394094863273, 70.958415282238164 ], [ 23.969004357722039, 70.957736359306793 ] ] ] } },
{ "type": "Feature", "properties": { "fid": 296749, "elvelengde_m": 575.7, "elvID": "219-42-1", "elvenavn": null, "regulert": null, "fid_2": 1567, "id": 1567, "left": 23.486919847, "top": 71.446110046000001, "right": 23.986919847, "bottom": 70.946110046000001, "row_index": 6, "col_index": 39, "tile_id": 1567 }, "geometry": { "type": "MultiLineString", "coordinates": [ [ [ 23.951793114043237, 70.994730368394755 ], [ 23.950713476829542, 70.994761763642359 ], [ 23.950063633612373, 70.994925937732233 ], [ 23.949243162281338, 70.994936434459973 ], [ 23.946274864856864, 70.994763664462994 ], [ 23.944021226955343, 70.994442984974285 ], [ 23.942382218454036, 70.994482982849831 ], [ 23.939249685710799, 70.99476911340912 ], [ 23.938490650630339, 70.995030864870046 ], [ 23.938455433458188, 70.995113069028761 ], [ 23.938665909268543, 70.995539858984714 ] ] ] } },
{ "type": "Feature", "properties": { "fid": 296750, "elvelengde_m": 214.96, "elvID": "219-34-5", "elvenavn": null, "regulert": null, "fid_2": 1567, "id": 1567, "left": 23.486919847, "top": 71.446110046000001, "right": 23.986919847, "bottom": 70.946110046000001, "row_index": 6, "col_index": 39, "tile_id": 1567 }, "geometry": { "type": "MultiLineString", "coordinates": [ [ [ 23.981162462683031, 70.96252294985311 ], [ 23.979146175915851, 70.962433319974465 ], [ 23.977740853387669, 70.962157159211344 ], [ 23.977067206281856, 70.962232860539117 ], [ 23.975737837464351, 70.962107380828499 ] ] ] } },
{ "type": "Feature", "properties": { "fid": 296754, "elvelengde_m": 27.47, "elvID": "219-45-2", "elvenavn": null, "regulert": null, "fid_2": 1567, "id": 1567, "left": 23.486919847, "top": 71.446110046000001, "right": 23.986919847, "bottom": 70.946110046000001, "row_index": 6, "col_index": 39, "tile_id": 1567 }, "geometry": { "type": "MultiLineString", "coordinates": [ [ [ 23.971116939167242, 71.02551868661827 ], [ 23.971293793374503, 71.025279501201751 ] ] ] } },
{ "type": "Feature", "properties": { "fid": 296757, "elvelengde_m": 43.46, "elvID": "219-44-1", "elvenavn": null, "regulert": null, "fid_2": 1567, "id": 1567, "left": 23.486919847, "top": 71.446110046000001, "right": 23.986919847, "bottom": 70.946110046000001, "row_index": 6, "col_index": 39, "tile_id": 1567 }, "geometry": { "type": "MultiLineString", "coordinates": [ [ [ 23.907326427114441, 71.007065997390669 ], [ 23.907068953704599, 71.007259952266494 ], [ 23.907037103777974, 71.007437525414431 ] ] ] } },
{ "type": "Feature", "properties": { "fid": 296758, "elvelengde_m": 368.81, "elvID": "219-42-1", "elvenavn": null, "regulert": null, "fid_2": 1567, "id": 1567, "left": 23.486919847, "top": 71.446110046000001, "right": 23.986919847, "bottom": 70.946110046000001, "row_index": 6, "col_index": 39, "tile_id": 1567 }, "geometry": { "type": "MultiLineString", "coordinates": [ [ [ 23.970458425267701, 70.996079292410485 ], [ 23.968866508221822, 70.996186119636135 ], [ 23.966158441956789, 70.996047655320737 ], [ 23.965401719970252, 70.995942910147775 ], [ 23.962700805136123, 70.995800346226744 ], [ 23.960747380666632, 70.995485454507474 ] ] ] } },
{ "type": "Feature", "properties": { "fid": 296761, "elvelengde_m": 88.17, "elvID": "219-37-1", "elvenavn": null, "regulert": null, "fid_2": 1567, "id": 1567, "left": 23.486919847, "top": 71.446110046000001, "right": 23.986919847, "bottom": 70.946110046000001, "row_index": 6, "col_index": 39, "tile_id": 1567 }, "geometry": { "type": "MultiLineString", "coordinates": [ [ [ 23.963670745777296, 70.978987134157478 ], [ 23.963941345462004, 70.979124629067599 ], [ 23.963953817463224, 70.979572153546272 ], [ 23.963837085278538, 70.979746668511098 ] ] ] } },
{ "type": "Feature", "properties": { "fid": 296767, "elvelengde_m": 94.56, "elvID": "219-36-1", "elvenavn": null, "regulert": null, "fid_2": 1567, "id": 1567, "left": 23.486919847, "top": 71.446110046000001, "right": 23.986919847, "bottom": 70.946110046000001, "row_index": 6, "col_index": 39, "tile_id": 1567 }, "geometry": { "type": "MultiLineString", "coordinates": [ [ [ 23.939591124001943, 70.969515196274756 ], [ 23.937959674177616, 70.969743604066579 ], [ 23.937681939541136, 70.969898767915083 ], [ 23.937441691211248, 70.969925131413987 ] ] ] } },
{ "type": "Feature", "properties": { "fid": 296769, "elvelengde_m": 202.94, "elvID": "219-34-1", "elvenavn": null, "regulert": null, "fid_2": 1567, "id": 1567, "left": 23.486919847, "top": 71.446110046000001, "right": 23.986919847, "bottom": 70.946110046000001, "row_index": 6, "col_index": 39, "tile_id": 1567 }, "geometry": { "type": "MultiLineString", "coordinates": [ [ [ 23.982981255071117, 70.96573031577762 ], [ 23.982604836555097, 70.96516421971117 ], [ 23.982254246245226, 70.965026518451509 ], [ 23.981231886264194, 70.964920013113883 ], [ 23.980203074607012, 70.964638411613166 ], [ 23.979951000605386, 70.964641643657188 ], [ 23.979661879784125, 70.964790989253828 ] ] ] } },
{ "type": "Feature", "properties": { "fid": 296771, "elvelengde_m": 61.0, "elvID": "219-34-5", "elvenavn": null, "regulert": null, "fid_2": 1567, "id": 1567, "left": 23.486919847, "top": 71.446110046000001, "right": 23.986919847, "bottom": 70.946110046000001, "row_index": 6, "col_index": 39, "tile_id": 1567 }, "geometry": { "type": "MultiLineString", "coordinates": [ [ [ 23.983644078641877, 70.963651288424686 ], [ 23.983368421943634, 70.963607368191276 ], [ 23.982777726373087, 70.963206065663698 ] ] ] } },
{ "type": "Feature", "properties": { "fid": 296774, "elvelengde_m": 152.23, "elvID": "219-35-1", "elvenavn": null, "regulert": null, "fid_2": 1567, "id": 1567, "left": 23.486919847, "top": 71.446110046000001, "right": 23.986919847, "bottom": 70.946110046000001, "row_index": 6, "col_index": 39, "tile_id": 1567 }, "geometry": { "type": "MultiLineString", "coordinates": [ [ [ 23.941219523796306, 70.964515592048784 ], [ 23.938416625732099, 70.964526509721196 ], [ 23.937140667356559, 70.964382917846663 ] ] ] } },
{ "type": "Feature", "properties": { "fid": 296776, "elvelengde_m": 16.72, "elvID": "219-34-4", "elvenavn": null, "regulert": null, "fid_2": 1567, "id": 1567, "left": 23.486919847, "top": 71.446110046000001, "right": 23.986919847, "bottom": 70.946110046000001, "row_index": 6, "col_index": 39, "tile_id": 1567 }, "geometry": { "type": "MultiLineString", "coordinates": [ [ [ 23.951126475172213, 70.963478711159155 ], [ 23.951397282715487, 70.963357879142919 ] ] ] } }
]
}
