{
"type": "FeatureCollection",
"name": "elvis_tile_id_71",
"crs": { "type": "name", "properties": { "name": "urn:ogc:def:crs:OGC:1.3:CRS84" } },
"xy_coordinate_resolution": 1e-15,
"features": [
{ "type": "Feature", "properties": { "fid": 49355, "elvelengde_m": 83.86, "elvID": "040-85-1", "elvenavn": null, "regulert": null, "fid_2": 71, "id": 71, "left": 4.486919847, "top": 59.446110046000001, "right": 4.986919847, "bottom": 58.946110046000001, "row_index": 30, "col_index": 1, "tile_id": 71 }, "geometry": { "type": "MultiLineString", "coordinates": [ [ [ 4.873202231283993, 59.313922013389501 ], [ 4.872266531540726, 59.314488918805516 ] ] ] } },
{ "type": "Feature", "properties": { "fid": 49362, "elvelengde_m": 631.98, "elvID": "040-78-1", "elvenavn": null, "regulert": null, "fid_2": 71, "id": 71, "left": 4.486919847, "top": 59.446110046000001, "right": 4.986919847, "bottom": 58.946110046000001, "row_index": 30, "col_index": 1, "tile_id": 71 }, "geometry": { "type": "MultiLineString", "coordinates": [ [ [ 4.896952534737217, 59.31386404170987 ], [ 4.896603543918766, 59.313987902268074 ], [ 4.896609072348818, 59.314086963952192 ], [ 4.896359828036434, 59.314258903991416 ], [ 4.896364493968857, 59.314510817782534 ], [ 4.896135022903102, 59.314809266518516 ], [ 4.89623172428277, 59.31502812488656 ], [ 4.896190327490143, 59.315224672711643 ], [ 4.895926269715686, 59.315809692688326 ], [ 4.895740549724958, 59.316037733219417 ], [ 4.895814045901673, 59.316156869055575 ], [ 4.895475128319152, 59.316487914806466 ], [ 4.895525793689714, 59.316651319074083 ], [ 4.89533096622792, 59.316806981651588 ], [ 4.895444973199129, 59.316882510743227 ], [ 4.895270264846776, 59.317164709643016 ], [ 4.895197299720765, 59.317477139127227 ], [ 4.894962220923892, 59.317532647748394 ], [ 4.894863860072284, 59.317763279538269 ], [ 4.894485247844429, 59.317985164406693 ], [ 4.894193307331913, 59.318362506991292 ], [ 4.894188228581695, 59.318551223544425 ], [ 4.894093937141269, 59.318602379561156 ], [ 4.894161090666654, 59.318775129763374 ], [ 4.894024414851071, 59.318876713175527 ] ] ] } },
{ "type": "Feature", "properties": { "fid": 49363, "elvelengde_m": 177.37, "elvID": "040-77-1", "elvenavn": null, "regulert": null, "fid_2": 71, "id": 71, "left": 4.486919847, "top": 59.446110046000001, "right": 4.986919847, "bottom": 58.946110046000001, "row_index": 30, "col_index": 1, "tile_id": 71 }, "geometry": { "type": "MultiLineString", "coordinates": [ [ [ 4.890104659506873, 59.313189322374598 ], [ 4.889814850739238, 59.313404942703457 ], [ 4.889831695814551, 59.313702242528194 ], [ 4.889632652443114, 59.313893760632055 ], [ 4.889427262547319, 59.314282854716666 ], [ 4.889179999877577, 59.314436840931286 ], [ 4.888800382804183, 59.314445535396921 ] ] ] } },
{ "type": "Feature", "properties": { "fid": 49365, "elvelengde_m": 520.7, "elvID": "040-84-1", "elvenavn": null, "regulert": null, "fid_2": 71, "id": 71, "left": 4.486919847, "top": 59.446110046000001, "right": 4.986919847, "bottom": 58.946110046000001, "row_index": 30, "col_index": 1, "tile_id": 71 }, "geometry": { "type": "MultiLineString", "coordinates": [ [ [ 4.869064507736987, 59.31121011449067 ], [ 4.868743732270203, 59.311388784088386 ], [ 4.86813590563211, 59.311468436819084 ], [ 4.868017131820729, 59.311581536090458 ], [ 4.867996238303348, 59.311751732752661 ], [ 4.867836466649606, 59.311764516179842 ], [ 4.867917560436616, 59.312108863675924 ], [ 4.867653875987542, 59.312397255589374 ], [ 4.867640861080762, 59.312504729166918 ], [ 4.867844893042625, 59.312852854427838 ], [ 4.867600761710569, 59.313123870729811 ], [ 4.868242658716545, 59.313341979785129 ], [ 4.868502283824949, 59.313521094646518 ], [ 4.868710305343497, 59.313545671931713 ], [ 4.868903087010604, 59.313695735874163 ], [ 4.868993201342956, 59.313968309262485 ], [ 4.868645042798721, 59.314083115586421 ], [ 4.868645156838563, 59.314227001752663 ], [ 4.869478680151754, 59.314460158433789 ], [ 4.869755080281771, 59.314456895797221 ] ] ] } },
{ "type": "Feature", "properties": { "fid": 49366, "elvelengde_m": 129.83, "elvID": "040-83-1", "elvenavn": null, "regulert": null, "fid_2": 71, "id": 71, "left": 4.486919847, "top": 59.446110046000001, "right": 4.986919847, "bottom": 58.946110046000001, "row_index": 30, "col_index": 1, "tile_id": 71 }, "geometry": { "type": "MultiLineString", "coordinates": [ [ [ 4.861749010241749, 59.310339271424255 ], [ 4.861306694660292, 59.310361141392157 ], [ 4.860913522746404, 59.310267879931395 ], [ 4.859568970851618, 59.310189027564746 ] ] ] } },
{ "type": "Feature", "properties": { "fid": 49368, "elvelengde_m": 414.82, "elvID": "040-85-1", "elvenavn": null, "regulert": null, "fid_2": 71, "id": 71, "left": 4.486919847, "top": 59.446110046000001, "right": 4.986919847, "bottom": 58.946110046000001, "row_index": 30, "col_index": 1, "tile_id": 71 }, "geometry": { "type": "MultiLineString", "coordinates": [ [ [ 4.874294506109765, 59.310719810497929 ], [ 4.875142021219405, 59.310980452756453 ], [ 4.87524843915729, 59.311262533744554 ], [ 4.875030702359138, 59.311462427139297 ], [ 4.875094569211439, 59.311662261968493 ], [ 4.875012530644262, 59.311758614930227 ], [ 4.874977749950439, 59.312189049547463 ], [ 4.874680609706938, 59.312898943006786 ], [ 4.874348123818279, 59.313176152864173 ], [ 4.873824655280404, 59.313285441161405 ], [ 4.873391641000934, 59.313811197004412 ] ] ] } },
{ "type": "Feature", "properties": { "fid": 49374, "elvelengde_m": 352.32, "elvID": "040-82-1", "elvenavn": null, "regulert": null, "fid_2": 71, "id": 71, "left": 4.486919847, "top": 59.446110046000001, "right": 4.986919847, "bottom": 58.946110046000001, "row_index": 30, "col_index": 1, "tile_id": 71 }, "geometry": { "type": "MultiLineString", "coordinates": [ [ [ 4.867828732350683, 59.307340545985255 ], [ 4.86746207312239, 59.307319877892873 ], [ 4.866630911574939, 59.30706887803953 ], [ 4.865801007605612, 59.307096315159818 ], [ 4.865629288342411, 59.307207784112677 ], [ 4.865434283371878, 59.307219513547047 ], [ 4.864307174625986, 59.307091094210406 ], [ 4.864260243723041, 59.307220276757164 ], [ 4.864110911137465, 59.307266276551573 ], [ 4.862563374016603, 59.307041337874281 ], [ 4.86234045115953, 59.307067339480412 ] ] ] } },
{ "type": "Feature", "properties": { "fid": 49378, "elvelengde_m": 174.34, "elvID": "040-82-1", "elvenavn": null, "regulert": null, "fid_2": 71, "id": 71, "left": 4.486919847, "top": 59.446110046000001, "right": 4.986919847, "bottom": 58.946110046000001, "row_index": 30, "col_index": 1, "tile_id": 71 }, "geometry": { "type": "MultiLineString", "coordinates": [ [ [ 4.86234045115953, 59.307067339480412 ], [ 4.861553108511209, 59.306958797697447 ], [ 4.861549985174134, 59.306772358946994 ], [ 4.861157921815886, 59.30652607493807 ], [ 4.860665170707653, 59.306384531383564 ], [ 4.86042673070704, 59.306089968368426 ] ] ] } },
{ "type": "Feature", "properties": { "fid": 49379, "elvelengde_m": 551.82, "elvID": "040-77-1", "elvenavn": null, "regulert": null, "fid_2": 71, "id": 71, "left": 4.486919847, "top": 59.446110046000001, "right": 4.986919847, "bottom": 58.946110046000001, "row_index": 30, "col_index": 1, "tile_id": 71 }, "geometry": { "type": "MultiLineString", "coordinates": [ [ [ 4.894810804855852, 59.308149961131882 ], [ 4.893402310991412, 59.309184307018811 ], [ 4.892678600316658, 59.309934805174251 ], [ 4.892143782521731, 59.310286588310632 ], [ 4.891851436339012, 59.310376237366462 ], [ 4.891517376476543, 59.310959110252831 ], [ 4.89138059704545, 59.311800038964023 ], [ 4.891045919124341, 59.312095119206035 ], [ 4.890867472807025, 59.31211651101129 ], [ 4.890709018470999, 59.312408212291672 ] ] ] } },
{ "type": "Feature", "properties": { "fid": 49381, "elvelengde_m": 345.12, "elvID": "040-79-1", "elvenavn": null, "regulert": null, "fid_2": 71, "id": 71, "left": 4.486919847, "top": 59.446110046000001, "right": 4.986919847, "bottom": 58.946110046000001, "row_index": 30, "col_index": 1, "tile_id": 71 }, "geometry": { "type": "MultiLineString", "coordinates": [ [ [ 4.901702711619667, 59.308160422889657 ], [ 4.902379961559966, 59.308379584428423 ], [ 4.902545542303089, 59.30860962086394 ], [ 4.902542642062285, 59.308924187490028 ], [ 4.903108261152034, 59.309922084801308 ], [ 4.90367356007942, 59.310047779219694 ], [ 4.905089439369981, 59.310146134489159 ] ] ] } },
{ "type": "Feature", "properties": { "fid": 49391, "elvelengde_m": 202.44, "elvID": "040-80-1", "elvenavn": null, "regulert": null, "fid_2": 71, "id": 71, "left": 4.486919847, "top": 59.446110046000001, "right": 4.986919847, "bottom": 58.946110046000001, "row_index": 30, "col_index": 1, "tile_id": 71 }, "geometry": { "type": "MultiLineString", "coordinates": [ [ [ 4.875825181031048, 59.303026659956423 ], [ 4.875829223261344, 59.303719205823853 ], [ 4.875523256520874, 59.304356917189033 ], [ 4.876233884614189, 59.304586177834025 ] ] ] } },
{ "type": "Feature", "properties": { "fid": 49392, "elvelengde_m": 379.96, "elvID": "040-81-1", "elvenavn": null, "regulert": null, "fid_2": 71, "id": 71, "left": 4.486919847, "top": 59.446110046000001, "right": 4.986919847, "bottom": 58.946110046000001, "row_index": 30, "col_index": 1, "tile_id": 71 }, "geometry": { "type": "MultiLineString", "coordinates": [ [ [ 4.870886016529507, 59.302726141967064 ], [ 4.870951589946645, 59.302620355003249 ], [ 4.87048074727383, 59.302443650488982 ], [ 4.87031332132447, 59.302519175046733 ], [ 4.86971793109222, 59.302500266535468 ], [ 4.86897982034758, 59.302350967547234 ], [ 4.868043000903498, 59.302393086488543 ], [ 4.8666417934369, 59.30220469297111 ], [ 4.866255128803604, 59.302057662164046 ], [ 4.866101900315369, 59.301872784858098 ], [ 4.866067681795282, 59.301575101769757 ], [ 4.865862726689664, 59.301456377568357 ] ] ] } },
{ "type": "Feature", "properties": { "fid": 51982, "elvelengde_m": 183.71, "elvID": "040-80-1", "elvenavn": null, "regulert": null, "fid_2": 71, "id": 71, "left": 4.486919847, "top": 59.446110046000001, "right": 4.986919847, "bottom": 58.946110046000001, "row_index": 30, "col_index": 1, "tile_id": 71 }, "geometry": { "type": "MultiLineString", "coordinates": [ [ [ 4.87647177048346, 59.304800489343286 ], [ 4.876888970092196, 59.30501028320478 ], [ 4.877641989425073, 59.305046685655697 ], [ 4.877779015712402, 59.304746203603223 ], [ 4.877716988192855, 59.304578532210485 ], [ 4.877924903387406, 59.304127332968235 ] ] ] } },
{ "type": "Feature", "properties": { "fid": 51983, "elvelengde_m": 318.6, "elvID": "040-80-1", "elvenavn": null, "regulert": null, "fid_2": 71, "id": 71, "left": 4.486919847, "top": 59.446110046000001, "right": 4.986919847, "bottom": 58.946110046000001, "row_index": 30, "col_index": 1, "tile_id": 71 }, "geometry": { "type": "MultiLineString", "coordinates": [ [ [ 4.878135722261482, 59.302888761292536 ], [ 4.878633675576811, 59.301767882138805 ], [ 4.878804145626741, 59.301012745132773 ], [ 4.879045631923328, 59.300722858010815 ], [ 4.879004095972991, 59.300109821113331 ] ] ] } },
{ "type": "Feature", "properties": { "fid": 51988, "elvelengde_m": 4.36, "elvID": "040-83-1", "elvenavn": null, "regulert": null, "fid_2": 71, "id": 71, "left": 4.486919847, "top": 59.446110046000001, "right": 4.986919847, "bottom": 58.946110046000001, "row_index": 30, "col_index": 1, "tile_id": 71 }, "geometry": { "type": "MultiLineString", "coordinates": [ [ [ 4.861793996580559, 59.310307834995925 ], [ 4.861749010241749, 59.310339271424255 ] ] ] } },
{ "type": "Feature", "properties": { "fid": 52035, "elvelengde_m": 17.5, "elvID": "040-85-1", "elvenavn": null, "regulert": null, "fid_2": 71, "id": 71, "left": 4.486919847, "top": 59.446110046000001, "right": 4.986919847, "bottom": 58.946110046000001, "row_index": 30, "col_index": 1, "tile_id": 71 }, "geometry": { "type": "MultiLineString", "coordinates": [ [ [ 4.873391641000934, 59.313811197004412 ], [ 4.873202231283993, 59.313922013389501 ] ] ] } },
{ "type": "Feature", "properties": { "fid": 52036, "elvelengde_m": 27.55, "elvID": "040-80-1", "elvenavn": null, "regulert": null, "fid_2": 71, "id": 71, "left": 4.486919847, "top": 59.446110046000001, "right": 4.986919847, "bottom": 58.946110046000001, "row_index": 30, "col_index": 1, "tile_id": 71 }, "geometry": { "type": "MultiLineString", "coordinates": [ [ [ 4.876233884614189, 59.304586177834025 ], [ 4.87647177048346, 59.304800489343286 ] ] ] } },
{ "type": "Feature", "properties": { "fid": 52195, "elvelengde_m": 110.68, "elvID": "040-77-1", "elvenavn": null, "regulert": null, "fid_2": 71, "id": 71, "left": 4.486919847, "top": 59.446110046000001, "right": 4.986919847, "bottom": 58.946110046000001, "row_index": 30, "col_index": 1, "tile_id": 71 }, "geometry": { "type": "MultiLineString", "coordinates": [ [ [ 4.890709018470999, 59.312408212291672 ], [ 4.890564410728076, 59.31271796506131 ], [ 4.890719698964253, 59.312878592557965 ], [ 4.890211503630609, 59.313075570421972 ], [ 4.890231227740212, 59.313163189446797 ], [ 4.890104659506873, 59.313189322374598 ] ] ] } },
{ "type": "Feature", "properties": { "fid": 52319, "elvelengde_m": 154.51, "elvID": "040-80-1", "elvenavn": null, "regulert": null, "fid_2": 71, "id": 71, "left": 4.486919847, "top": 59.446110046000001, "right": 4.986919847, "bottom": 58.946110046000001, "row_index": 30, "col_index": 1, "tile_id": 71 }, "geometry": { "type": "MultiLineString", "coordinates": [ [ [ 4.877924903387406, 59.304127332968235 ], [ 4.877973616896486, 59.304019471469651 ], [ 4.878433057885562, 59.303845810687079 ], [ 4.878135722261482, 59.302888761292536 ] ] ] } },
{ "type": "Feature", "properties": { "fid": 52364, "elvelengde_m": 217.6, "elvID": "040-82-2", "elvenavn": null, "regulert": null, "fid_2": 71, "id": 71, "left": 4.486919847, "top": 59.446110046000001, "right": 4.986919847, "bottom": 58.946110046000001, "row_index": 30, "col_index": 1, "tile_id": 71 }, "geometry": { "type": "MultiLineString", "coordinates": [ [ [ 4.863099412602968, 59.308769671583079 ], [ 4.863081573285872, 59.308320427998652 ], [ 4.862877314829927, 59.30771374562773 ], [ 4.862966971884389, 59.307410867976124 ], [ 4.862917603249982, 59.30723840499968 ], [ 4.862330756652095, 59.307147836825159 ], [ 4.86234045115953, 59.307067339480412 ] ] ] } }
]
}
