{
"type": "FeatureCollection",
"name": "elvis_tile_id_144",
"crs": { "type": "name", "properties": { "name": "urn:ogc:def:crs:OGC:1.3:CRS84" } },
"xy_coordinate_resolution": 1e-15,
"features": [
{ "type": "Feature", "properties": { "fid": 1066796, "elvelengde_m": 610.84, "elvID": "101-65-1", "elvenavn": null, "regulert": null, "fid_2": 144, "id": 144, "left": 5.486919847, "top": 62.946110046000001, "right": 5.986919847, "bottom": 62.446110046000001, "row_index": 23, "col_index": 3, "tile_id": 144 }, "geometry": { "type": "MultiLineString", "coordinates": [ [ [ 5.982197400037502, 62.479730701207473 ], [ 5.982036753677215, 62.4800038419597 ], [ 5.982177254496834, 62.480536894503871 ], [ 5.982655474293759, 62.480987430828499 ], [ 5.983441519236703, 62.481282893445915 ], [ 5.983680456368386, 62.481800112924979 ], [ 5.983587337210085, 62.481950813122779 ], [ 5.984025556907903, 62.483765852703463 ], [ 5.984372381085016, 62.484177719707127 ], [ 5.985192468000546, 62.484793340194678 ] ] ] } },
{ "type": "Feature", "properties": { "fid": 1066820, "elvelengde_m": 581.78, "elvID": "101-65-1", "elvenavn": null, "regulert": null, "fid_2": 144, "id": 144, "left": 5.486919847, "top": 62.946110046000001, "right": 5.986919847, "bottom": 62.446110046000001, "row_index": 23, "col_index": 3, "tile_id": 144 }, "geometry": { "type": "MultiLineString", "coordinates": [ [ [ 5.952741874848869, 62.470574683006163 ], [ 5.95448965047728, 62.471002443972395 ], [ 5.961785603959119, 62.471066100574113 ], [ 5.963639629394045, 62.470880835133407 ] ] ] } },
{ "type": "Feature", "properties": { "fid": 1068269, "elvelengde_m": 30.07, "elvID": "101-65-1", "elvenavn": null, "regulert": null, "fid_2": 144, "id": 144, "left": 5.486919847, "top": 62.946110046000001, "right": 5.986919847, "bottom": 62.446110046000001, "row_index": 23, "col_index": 3, "tile_id": 144 }, "geometry": { "type": "MultiLineString", "coordinates": [ [ [ 5.952367166393976, 62.470370877480377 ], [ 5.952741874848869, 62.470574683006163 ] ] ] } },
{ "type": "Feature", "properties": { "fid": 1068433, "elvelengde_m": 1659.26, "elvID": "101-65-1", "elvenavn": null, "regulert": null, "fid_2": 144, "id": 144, "left": 5.486919847, "top": 62.946110046000001, "right": 5.986919847, "bottom": 62.446110046000001, "row_index": 23, "col_index": 3, "tile_id": 144 }, "geometry": { "type": "MultiLineString", "coordinates": [ [ [ 5.963639629394045, 62.470880835133407 ], [ 5.964341158306402, 62.470900371954627 ], [ 5.96578219445218, 62.471148220065267 ], [ 5.966550163055239, 62.471082152402879 ], [ 5.967248120292949, 62.471218692860731 ], [ 5.969361540547016, 62.471337122376127 ], [ 5.970287491259184, 62.47190764476408 ], [ 5.9710289968986, 62.471999246322 ], [ 5.973861241462218, 62.472935910446282 ], [ 5.975427394472177, 62.473253063800328 ], [ 5.975799271699197, 62.473729395304723 ], [ 5.975855947763307, 62.473950763624487 ], [ 5.97572853813872, 62.474114683394042 ], [ 5.975125924438825, 62.474510914519264 ], [ 5.975031565297644, 62.475583089034792 ], [ 5.974703918657101, 62.476286284771945 ], [ 5.978439863221034, 62.477387563226941 ], [ 5.979618245445412, 62.47784767827919 ], [ 5.981487843257467, 62.478314491365147 ], [ 5.982490834514321, 62.478729503145182 ], [ 5.982365911485486, 62.479710019267458 ], [ 5.982197400037502, 62.479730701207473 ] ] ] } }
]
}
