{
"type": "FeatureCollection",
"name": "elvis_tile_id_2091",
"crs": { "type": "name", "properties": { "name": "urn:ogc:def:crs:OGC:1.3:CRS84" } },
"xy_coordinate_resolution": 1e-15,
"features": [
{ "type": "Feature", "properties": { "fid": 675940, "elvelengde_m": 73.79, "elvID": "246-49-1139", "elvenavn": null, "regulert": null, "fid_2": 2091, "id": 2091, "left": 29.986919847, "top": 69.446110046000001, "right": 30.486919847, "bottom": 68.946110046000001, "row_index": 10, "col_index": 52, "tile_id": 2091 }, "geometry": { "type": "MultiLineString", "coordinates": [ [ [ 29.99810705423555, 69.435752706392705 ], [ 29.99907905895887, 69.435190876013849 ] ] ] } },
{ "type": "Feature", "properties": { "fid": 675941, "elvelengde_m": 168.66, "elvID": "246-49-1139", "elvenavn": null, "regulert": null, "fid_2": 2091, "id": 2091, "left": 29.986919847, "top": 69.446110046000001, "right": 30.486919847, "bottom": 68.946110046000001, "row_index": 10, "col_index": 52, "tile_id": 2091 }, "geometry": { "type": "MultiLineString", "coordinates": [ [ [ 29.99907905895887, 69.435190876013849 ], [ 29.999475144689363, 69.434999418792088 ], [ 30.001314301922907, 69.43490450944897 ], [ 30.002139436330687, 69.435176635830842 ], [ 30.002672800249272, 69.435125443054048 ] ] ] } },
{ "type": "Feature", "properties": { "fid": 713788, "elvelengde_m": 137.92, "elvID": "246-49-1141", "elvenavn": null, "regulert": null, "fid_2": 2091, "id": 2091, "left": 29.986919847, "top": 69.446110046000001, "right": 30.486919847, "bottom": 68.946110046000001, "row_index": 10, "col_index": 52, "tile_id": 2091 }, "geometry": { "type": "MultiLineString", "coordinates": [ [ [ 30.000056291324615, 69.443764806929025 ], [ 30.002603247645276, 69.443459476752395 ], [ 30.003373856699351, 69.443527054083475 ] ] ] } },
{ "type": "Feature", "properties": { "fid": 713794, "elvelengde_m": 386.02, "elvID": "246-49-1129", "elvenavn": null, "regulert": null, "fid_2": 2091, "id": 2091, "left": 29.986919847, "top": 69.446110046000001, "right": 30.486919847, "bottom": 68.946110046000001, "row_index": 10, "col_index": 52, "tile_id": 2091 }, "geometry": { "type": "MultiLineString", "coordinates": [ [ [ 29.989334504296689, 69.431110580288745 ], [ 29.997700599493911, 69.431250642496295 ], [ 29.999079262603708, 69.431168080890018 ] ] ] } },
{ "type": "Feature", "properties": { "fid": 713795, "elvelengde_m": 132.16, "elvID": "246-49-1129", "elvenavn": null, "regulert": null, "fid_2": 2091, "id": 2091, "left": 29.986919847, "top": 69.446110046000001, "right": 30.486919847, "bottom": 68.946110046000001, "row_index": 10, "col_index": 52, "tile_id": 2091 }, "geometry": { "type": "MultiLineString", "coordinates": [ [ [ 29.999079262603708, 69.431168080890018 ], [ 30.000141794588803, 69.431089087115481 ], [ 30.001173314730018, 69.430820939965812 ], [ 30.001956742306962, 69.430955583894104 ] ] ] } },
{ "type": "Feature", "properties": { "fid": 713810, "elvelengde_m": 1013.62, "elvID": "246-49-1131", "elvenavn": null, "regulert": null, "fid_2": 2091, "id": 2091, "left": 29.986919847, "top": 69.446110046000001, "right": 30.486919847, "bottom": 68.946110046000001, "row_index": 10, "col_index": 52, "tile_id": 2091 }, "geometry": { "type": "MultiLineString", "coordinates": [ [ [ 29.986919847, 69.434361337201324 ], [ 29.996305866075133, 69.4339942130933 ], [ 29.997142856389409, 69.434071681310868 ], [ 29.998308242938407, 69.434348065751408 ], [ 29.999078911394442, 69.434430178111171 ] ] ] } },
{ "type": "Feature", "properties": { "fid": 713811, "elvelengde_m": 114.59, "elvID": "246-49-1131", "elvenavn": null, "regulert": null, "fid_2": 2091, "id": 2091, "left": 29.986919847, "top": 69.446110046000001, "right": 30.486919847, "bottom": 68.946110046000001, "row_index": 10, "col_index": 52, "tile_id": 2091 }, "geometry": { "type": "MultiLineString", "coordinates": [ [ [ 29.999078911394442, 69.434430178111171 ], [ 29.999521146487346, 69.434512251465009 ], [ 30.00082527117209, 69.434555777407439 ], [ 30.001678169942409, 69.434343538591406 ] ] ] } },
{ "type": "Feature", "properties": { "fid": 713812, "elvelengde_m": 188.89, "elvID": "246-49-1134", "elvenavn": null, "regulert": null, "fid_2": 2091, "id": 2091, "left": 29.986919847, "top": 69.446110046000001, "right": 30.486919847, "bottom": 68.946110046000001, "row_index": 10, "col_index": 52, "tile_id": 2091 }, "geometry": { "type": "MultiLineString", "coordinates": [ [ [ 29.999078828236307, 69.436133821183162 ], [ 30.001476691108145, 69.436071498710731 ], [ 30.00379664290281, 69.436125307911297 ] ] ] } },
{ "type": "Feature", "properties": { "fid": 713814, "elvelengde_m": 869.25, "elvID": "246-49-1134", "elvenavn": null, "regulert": null, "fid_2": 2091, "id": 2091, "left": 29.986919847, "top": 69.446110046000001, "right": 30.486919847, "bottom": 68.946110046000001, "row_index": 10, "col_index": 52, "tile_id": 2091 }, "geometry": { "type": "MultiLineString", "coordinates": [ [ [ 29.986919847, 69.436694359283763 ], [ 29.995948227462698, 69.436393760237408 ], [ 29.999078828236307, 69.436133821183162 ] ] ] } },
{ "type": "Feature", "properties": { "fid": 713818, "elvelengde_m": 545.96, "elvID": "246-49-1133", "elvenavn": null, "regulert": null, "fid_2": 2091, "id": 2091, "left": 29.986919847, "top": 69.446110046000001, "right": 30.486919847, "bottom": 68.946110046000001, "row_index": 10, "col_index": 52, "tile_id": 2091 }, "geometry": { "type": "MultiLineString", "coordinates": [ [ [ 29.986919847, 69.439081563314446 ], [ 29.987911345265218, 69.439037277370304 ], [ 29.992728375555295, 69.438971118202886 ], [ 29.995549063520219, 69.438679388424532 ], [ 29.998078042141497, 69.438614324040756 ], [ 29.999079018781025, 69.438668775181867 ] ] ] } },
{ "type": "Feature", "properties": { "fid": 713819, "elvelengde_m": 234.09, "elvID": "246-49-1133", "elvenavn": null, "regulert": null, "fid_2": 2091, "id": 2091, "left": 29.986919847, "top": 69.446110046000001, "right": 30.486919847, "bottom": 68.946110046000001, "row_index": 10, "col_index": 52, "tile_id": 2091 }, "geometry": { "type": "MultiLineString", "coordinates": [ [ [ 29.999079018781025, 69.438668775181867 ], [ 30.003090051206488, 69.43890854709781 ], [ 30.004368192751954, 69.439213551579712 ], [ 30.00465265816862, 69.439195548348138 ] ] ] } },
{ "type": "Feature", "properties": { "fid": 718262, "elvelengde_m": 1539.49, "elvID": "246-49-1129", "elvenavn": null, "regulert": null, "fid_2": 2091, "id": 2091, "left": 29.986919847, "top": 69.446110046000001, "right": 30.486919847, "bottom": 68.946110046000001, "row_index": 10, "col_index": 52, "tile_id": 2091 }, "geometry": { "type": "MultiLineString", "coordinates": [ [ [ 30.001956742306962, 69.430955583894104 ], [ 30.007521648569803, 69.430682281469416 ], [ 30.039072950026519, 69.426747137714159 ] ] ] } },
{ "type": "Feature", "properties": { "fid": 718263, "elvelengde_m": 156.35, "elvID": "246-49-1136", "elvenavn": null, "regulert": null, "fid_2": 2091, "id": 2091, "left": 29.986919847, "top": 69.446110046000001, "right": 30.486919847, "bottom": 68.946110046000001, "row_index": 10, "col_index": 52, "tile_id": 2091 }, "geometry": { "type": "MultiLineString", "coordinates": [ [ [ 30.020431999164206, 69.444395806367297 ], [ 30.024347533210751, 69.444162299171566 ] ] ] } },
{ "type": "Feature", "properties": { "fid": 718264, "elvelengde_m": 1198.11, "elvID": "246-49-1133", "elvenavn": null, "regulert": null, "fid_2": 2091, "id": 2091, "left": 29.986919847, "top": 69.446110046000001, "right": 30.486919847, "bottom": 68.946110046000001, "row_index": 10, "col_index": 52, "tile_id": 2091 }, "geometry": { "type": "MultiLineString", "coordinates": [ [ [ 30.00465265816862, 69.439195548348138 ], [ 30.005989410764823, 69.439022379152377 ], [ 30.007889669186131, 69.438578218737334 ], [ 30.011084295444984, 69.438030482121889 ], [ 30.017391642164018, 69.437341098364257 ], [ 30.032164236724459, 69.434708064679469 ] ] ] } },
{ "type": "Feature", "properties": { "fid": 718266, "elvelengde_m": 311.46, "elvID": "246-49-1121", "elvenavn": null, "regulert": null, "fid_2": 2091, "id": 2091, "left": 29.986919847, "top": 69.446110046000001, "right": 30.486919847, "bottom": 68.946110046000001, "row_index": 10, "col_index": 52, "tile_id": 2091 }, "geometry": { "type": "MultiLineString", "coordinates": [ [ [ 30.024295722660195, 69.446110046 ], [ 30.024378353296598, 69.444966035145001 ], [ 30.024347533210751, 69.444162299171566 ] ] ] } },
{ "type": "Feature", "properties": { "fid": 718267, "elvelengde_m": 750.09, "elvID": "246-49-1121", "elvenavn": null, "regulert": null, "fid_2": 2091, "id": 2091, "left": 29.986919847, "top": 69.446110046000001, "right": 30.486919847, "bottom": 68.946110046000001, "row_index": 10, "col_index": 52, "tile_id": 2091 }, "geometry": { "type": "MultiLineString", "coordinates": [ [ [ 30.024347533210751, 69.444162299171566 ], [ 30.024954873641743, 69.443843462369998 ], [ 30.026305592793367, 69.442883166085608 ], [ 30.032288941951208, 69.44166517907928 ], [ 30.039720079311, 69.440618478794406 ] ] ] } },
{ "type": "Feature", "properties": { "fid": 718271, "elvelengde_m": 679.39, "elvID": "246-49-1136", "elvenavn": null, "regulert": null, "fid_2": 2091, "id": 2091, "left": 29.986919847, "top": 69.446110046000001, "right": 30.486919847, "bottom": 68.946110046000001, "row_index": 10, "col_index": 52, "tile_id": 2091 }, "geometry": { "type": "MultiLineString", "coordinates": [ [ [ 30.012686766037465, 69.446110046 ], [ 30.020431999164206, 69.444395806367297 ] ] ] } },
{ "type": "Feature", "properties": { "fid": 718272, "elvelengde_m": 679.22, "elvID": "246-49-1134", "elvenavn": null, "regulert": null, "fid_2": 2091, "id": 2091, "left": 29.986919847, "top": 69.446110046000001, "right": 30.486919847, "bottom": 68.946110046000001, "row_index": 10, "col_index": 52, "tile_id": 2091 }, "geometry": { "type": "MultiLineString", "coordinates": [ [ [ 30.015055019810418, 69.435491625168908 ], [ 30.032164236724459, 69.434708064679469 ] ] ] } },
{ "type": "Feature", "properties": { "fid": 718273, "elvelengde_m": 1790.12, "elvID": "246-49-1131", "elvenavn": null, "regulert": null, "fid_2": 2091, "id": 2091, "left": 29.986919847, "top": 69.446110046000001, "right": 30.486919847, "bottom": 68.946110046000001, "row_index": 10, "col_index": 52, "tile_id": 2091 }, "geometry": { "type": "MultiLineString", "coordinates": [ [ [ 30.001678169942409, 69.434343538591406 ], [ 30.0045008730539, 69.434069843267679 ], [ 30.005721493224243, 69.434158541230474 ], [ 30.012953082184477, 69.433674236125015 ], [ 30.045562864269218, 69.430381369114798 ] ] ] } },
{ "type": "Feature", "properties": { "fid": 718275, "elvelengde_m": 688.84, "elvID": "246-49-1141", "elvenavn": null, "regulert": null, "fid_2": 2091, "id": 2091, "left": 29.986919847, "top": 69.446110046000001, "right": 30.486919847, "bottom": 68.946110046000001, "row_index": 10, "col_index": 52, "tile_id": 2091 }, "geometry": { "type": "MultiLineString", "coordinates": [ [ [ 30.003373856699351, 69.443527054083475 ], [ 30.004053673575466, 69.443423824696268 ], [ 30.005063975217375, 69.443464546445824 ], [ 30.005896119541372, 69.443654211243597 ], [ 30.015517476968547, 69.443939595604974 ], [ 30.020431999164206, 69.444395806367297 ] ] ] } },
{ "type": "Feature", "properties": { "fid": 718277, "elvelengde_m": 685.58, "elvID": "246-49-1133", "elvenavn": null, "regulert": null, "fid_2": 2091, "id": 2091, "left": 29.986919847, "top": 69.446110046000001, "right": 30.486919847, "bottom": 68.946110046000001, "row_index": 10, "col_index": 52, "tile_id": 2091 }, "geometry": { "type": "MultiLineString", "coordinates": [ [ [ 30.032164236724459, 69.434708064679469 ], [ 30.048515979886062, 69.432602206085804 ] ] ] } },
{ "type": "Feature", "properties": { "fid": 718279, "elvelengde_m": 765.51, "elvID": "246-49-1142", "elvenavn": null, "regulert": null, "fid_2": 2091, "id": 2091, "left": 29.986919847, "top": 69.446110046000001, "right": 30.486919847, "bottom": 68.946110046000001, "row_index": 10, "col_index": 52, "tile_id": 2091 }, "geometry": { "type": "MultiLineString", "coordinates": [ [ [ 30.045102576431692, 69.446110046 ], [ 30.044576837686314, 69.445166640196845 ], [ 30.041667860528662, 69.444044116530307 ], [ 30.03939876458287, 69.442969053909621 ], [ 30.04005222862601, 69.442050996619642 ], [ 30.039720079311, 69.440618478794406 ] ] ] } },
{ "type": "Feature", "properties": { "fid": 718301, "elvelengde_m": 672.58, "elvID": "246-49-1121", "elvenavn": null, "regulert": null, "fid_2": 2091, "id": 2091, "left": 29.986919847, "top": 69.446110046000001, "right": 30.486919847, "bottom": 68.946110046000001, "row_index": 10, "col_index": 52, "tile_id": 2091 }, "geometry": { "type": "MultiLineString", "coordinates": [ [ [ 30.039720079311, 69.440618478794406 ], [ 30.054974195011351, 69.437911140742912 ] ] ] } },
{ "type": "Feature", "properties": { "fid": 718443, "elvelengde_m": 2819.45, "elvID": "246-49-1", "elvenavn": "Pasvikelva", "regulert": 1, "fid_2": 2091, "id": 2091, "left": 29.986919847, "top": 69.446110046000001, "right": 30.486919847, "bottom": 68.946110046000001, "row_index": 10, "col_index": 52, "tile_id": 2091 }, "geometry": { "type": "MultiLineString", "coordinates": [ [ [ 29.986919847, 69.410918588503449 ], [ 29.994366368749532, 69.412476102787494 ], [ 29.999059987019319, 69.413544949486536 ], [ 30.009554447114816, 69.416094213778663 ], [ 30.014713644417146, 69.417522444971709 ], [ 30.020522653191634, 69.419369196337286 ], [ 30.028618624222457, 69.422283348938265 ], [ 30.03345844735172, 69.424215822347421 ], [ 30.039072950026519, 69.426747137714159 ] ] ] } },
{ "type": "Feature", "properties": { "fid": 718451, "elvelengde_m": 1274.43, "elvID": "246-49-1", "elvenavn": "Pasvikelva", "regulert": 1, "fid_2": 2091, "id": 2091, "left": 29.986919847, "top": 69.446110046000001, "right": 30.486919847, "bottom": 68.946110046000001, "row_index": 10, "col_index": 52, "tile_id": 2091 }, "geometry": { "type": "MultiLineString", "coordinates": [ [ [ 30.054974195011351, 69.437911140742912 ], [ 30.058510388713589, 69.440899104045172 ], [ 30.064084411666322, 69.444923880486613 ], [ 30.066032664792793, 69.446110046 ] ] ] } },
{ "type": "Feature", "properties": { "fid": 718452, "elvelengde_m": 646.63, "elvID": "246-49-1", "elvenavn": "Pasvikelva", "regulert": 1, "fid_2": 2091, "id": 2091, "left": 29.986919847, "top": 69.446110046000001, "right": 30.486919847, "bottom": 68.946110046000001, "row_index": 10, "col_index": 52, "tile_id": 2091 }, "geometry": { "type": "MultiLineString", "coordinates": [ [ [ 30.048515979886062, 69.432602206085804 ], [ 30.050931517227646, 69.434496898259212 ], [ 30.054974195011351, 69.437911140742912 ] ] ] } },
{ "type": "Feature", "properties": { "fid": 718453, "elvelengde_m": 274.54, "elvID": "246-49-1", "elvenavn": "Pasvikelva", "regulert": 1, "fid_2": 2091, "id": 2091, "left": 29.986919847, "top": 69.446110046000001, "right": 30.486919847, "bottom": 68.946110046000001, "row_index": 10, "col_index": 52, "tile_id": 2091 }, "geometry": { "type": "MultiLineString", "coordinates": [ [ [ 30.045562864269218, 69.430381369114798 ], [ 30.048515979886062, 69.432602206085804 ] ] ] } },
{ "type": "Feature", "properties": { "fid": 718454, "elvelengde_m": 481.46, "elvID": "246-49-1", "elvenavn": "Pasvikelva", "regulert": 1, "fid_2": 2091, "id": 2091, "left": 29.986919847, "top": 69.446110046000001, "right": 30.486919847, "bottom": 68.946110046000001, "row_index": 10, "col_index": 52, "tile_id": 2091 }, "geometry": { "type": "MultiLineString", "coordinates": [ [ [ 30.039072950026519, 69.426747137714159 ], [ 30.041962276190951, 69.428150445383608 ], [ 30.043870319914749, 69.429263932121088 ], [ 30.045562864269218, 69.430381369114798 ] ] ] } },
{ "type": "Feature", "properties": { "fid": 718566, "elvelengde_m": 489.15, "elvID": "246-49-1139", "elvenavn": null, "regulert": null, "fid_2": 2091, "id": 2091, "left": 29.986919847, "top": 69.446110046000001, "right": 30.486919847, "bottom": 68.946110046000001, "row_index": 10, "col_index": 52, "tile_id": 2091 }, "geometry": { "type": "MultiLineString", "coordinates": [ [ [ 30.002672800249272, 69.435125443054048 ], [ 30.015055019810418, 69.435491625168908 ] ] ] } },
{ "type": "Feature", "properties": { "fid": 718567, "elvelengde_m": 448.91, "elvID": "246-49-1134", "elvenavn": null, "regulert": null, "fid_2": 2091, "id": 2091, "left": 29.986919847, "top": 69.446110046000001, "right": 30.486919847, "bottom": 68.946110046000001, "row_index": 10, "col_index": 52, "tile_id": 2091 }, "geometry": { "type": "MultiLineString", "coordinates": [ [ [ 30.00379664290281, 69.436125307911297 ], [ 30.015055019810418, 69.435491625168908 ] ] ] } },
{ "type": "Feature", "properties": { "fid": 718569, "elvelengde_m": 158.01, "elvID": "246-49-1129", "elvenavn": null, "regulert": null, "fid_2": 2091, "id": 2091, "left": 29.986919847, "top": 69.446110046000001, "right": 30.486919847, "bottom": 68.946110046000001, "row_index": 10, "col_index": 52, "tile_id": 2091 }, "geometry": { "type": "MultiLineString", "coordinates": [ [ [ 29.986919847, 69.431105962728793 ], [ 29.989334504296689, 69.431110580288745 ] ] ] } }
]
}
