{
"type": "FeatureCollection",
"name": "elvis_tile_id_1647",
"crs": { "type": "name", "properties": { "name": "urn:ogc:def:crs:OGC:1.3:CRS84" } },
"xy_coordinate_resolution": 1e-15,
"features": [
{ "type": "Feature", "properties": { "fid": 296794, "elvelengde_m": 855.13, "elvID": "220-191-1", "elvenavn": null, "regulert": null, "fid_2": 1647, "id": 1647, "left": 24.486919847, "top": 71.446110046000001, "right": 24.986919847, "bottom": 70.946110046000001, "row_index": 6, "col_index": 41, "tile_id": 1647 }, "geometry": { "type": "MultiLineString", "coordinates": [ [ [ 24.741722804376135, 71.097686164327527 ], [ 24.743517237112485, 71.097483372637683 ], [ 24.745310608757613, 71.09753194837343 ], [ 24.749530492251878, 71.097896812648742 ], [ 24.752766884533735, 71.098393434936838 ], [ 24.754992956113394, 71.098527864111318 ], [ 24.756719899349068, 71.098916526871506 ], [ 24.757262509622862, 71.099255076831028 ], [ 24.760292522337839, 71.100107689363384 ], [ 24.762516037062355, 71.100349568463557 ] ] ] } },
{ "type": "Feature", "properties": { "fid": 296795, "elvelengde_m": 48.92, "elvID": "220-202-1", "elvenavn": null, "regulert": null, "fid_2": 1647, "id": 1647, "left": 24.486919847, "top": 71.446110046000001, "right": 24.986919847, "bottom": 70.946110046000001, "row_index": 6, "col_index": 41, "tile_id": 1647 }, "geometry": { "type": "MultiLineString", "coordinates": [ [ [ 24.737617539794439, 71.094406665674569 ], [ 24.736790845011438, 71.094378529808097 ], [ 24.736312859280439, 71.094444593481668 ] ] ] } },
{ "type": "Feature", "properties": { "fid": 296796, "elvelengde_m": 432.11, "elvID": "220-202-1", "elvenavn": null, "regulert": null, "fid_2": 1647, "id": 1647, "left": 24.486919847, "top": 71.446110046000001, "right": 24.986919847, "bottom": 70.946110046000001, "row_index": 6, "col_index": 41, "tile_id": 1647 }, "geometry": { "type": "MultiLineString", "coordinates": [ [ [ 24.731521722192479, 71.095678319799376 ], [ 24.730623787949391, 71.095784052212096 ], [ 24.729799006999098, 71.095738005698109 ], [ 24.729088013452273, 71.095666653164159 ], [ 24.7277977082809, 71.095336983783071 ], [ 24.725248669616178, 71.095126451238599 ], [ 24.723654556315587, 71.095035386856082 ], [ 24.721712895885151, 71.095074401196499 ], [ 24.720220647450596, 71.094948660673779 ] ] ] } },
{ "type": "Feature", "properties": { "fid": 296797, "elvelengde_m": 83.91, "elvID": "220-202-1", "elvenavn": null, "regulert": null, "fid_2": 1647, "id": 1647, "left": 24.486919847, "top": 71.446110046000001, "right": 24.986919847, "bottom": 70.946110046000001, "row_index": 6, "col_index": 41, "tile_id": 1647 }, "geometry": { "type": "MultiLineString", "coordinates": [ [ [ 24.740812706224514, 71.093090550864076 ], [ 24.739857006207394, 71.093222506014158 ], [ 24.739018702626606, 71.093535295766571 ] ] ] } },
{ "type": "Feature", "properties": { "fid": 296798, "elvelengde_m": 609.16, "elvID": "220-201-1", "elvenavn": null, "regulert": null, "fid_2": 1647, "id": 1647, "left": 24.486919847, "top": 71.446110046000001, "right": 24.986919847, "bottom": 70.946110046000001, "row_index": 6, "col_index": 41, "tile_id": 1647 }, "geometry": { "type": "MultiLineString", "coordinates": [ [ [ 24.765905578541812, 71.082411260359649 ], [ 24.763484730165388, 71.082543842196074 ], [ 24.762167510092024, 71.082698481766485 ], [ 24.761613151478659, 71.082983355899231 ], [ 24.761032101992502, 71.083483697012156 ], [ 24.759407479288434, 71.084093091911683 ], [ 24.755300415884385, 71.084563531306344 ], [ 24.752359412033602, 71.085130464295787 ] ] ] } },
{ "type": "Feature", "properties": { "fid": 296799, "elvelengde_m": 1146.51, "elvID": "220-199-1", "elvenavn": null, "regulert": null, "fid_2": 1647, "id": 1647, "left": 24.486919847, "top": 71.446110046000001, "right": 24.986919847, "bottom": 70.946110046000001, "row_index": 6, "col_index": 41, "tile_id": 1647 }, "geometry": { "type": "MultiLineString", "coordinates": [ [ [ 24.675180337045074, 71.083070424324191 ], [ 24.677389398041075, 71.083097926645038 ], [ 24.68181216468227, 71.083350397082953 ], [ 24.683061034172368, 71.083312027404617 ], [ 24.686026143282305, 71.08302577852416 ], [ 24.692239356007921, 71.083102768096353 ], [ 24.695154992548357, 71.083237580520873 ], [ 24.696128992063876, 71.083186689412571 ], [ 24.69723699445214, 71.082931243086577 ], [ 24.698204367466523, 71.082467685854894 ], [ 24.699239757617711, 71.082130603049706 ], [ 24.701048522547683, 71.081794019038711 ], [ 24.702706731415059, 71.081329914181197 ], [ 24.704202170317039, 71.081191481522907 ] ] ] } },
{ "type": "Feature", "properties": { "fid": 296800, "elvelengde_m": 149.54, "elvID": "220-192-1", "elvenavn": null, "regulert": null, "fid_2": 1647, "id": 1647, "left": 24.486919847, "top": 71.446110046000001, "right": 24.986919847, "bottom": 70.946110046000001, "row_index": 6, "col_index": 41, "tile_id": 1647 }, "geometry": { "type": "MultiLineString", "coordinates": [ [ [ 24.793178677285571, 71.076680214096953 ], [ 24.796308599117051, 71.07581649446891 ] ] ] } },
{ "type": "Feature", "properties": { "fid": 296801, "elvelengde_m": 242.78, "elvID": "220-200-1", "elvenavn": null, "regulert": null, "fid_2": 1647, "id": 1647, "left": 24.486919847, "top": 71.446110046000001, "right": 24.986919847, "bottom": 70.946110046000001, "row_index": 6, "col_index": 41, "tile_id": 1647 }, "geometry": { "type": "MultiLineString", "coordinates": [ [ [ 24.737167389067764, 71.067351396453034 ], [ 24.736970617465818, 71.067618260568537 ], [ 24.736392133883331, 71.067844653478758 ], [ 24.735511921333583, 71.06804921255096 ], [ 24.732974962107232, 71.068986266095578 ] ] ] } },
{ "type": "Feature", "properties": { "fid": 296802, "elvelengde_m": 316.67, "elvID": "220-193-1", "elvenavn": null, "regulert": null, "fid_2": 1647, "id": 1647, "left": 24.486919847, "top": 71.446110046000001, "right": 24.986919847, "bottom": 70.946110046000001, "row_index": 6, "col_index": 41, "tile_id": 1647 }, "geometry": { "type": "MultiLineString", "coordinates": [ [ [ 24.767641095616192, 71.059841774175041 ], [ 24.767562605420828, 71.060047289279012 ], [ 24.767071091667649, 71.059996547645611 ], [ 24.766726956724607, 71.060108897897607 ], [ 24.766733367351161, 71.06078185681983 ], [ 24.767197125039548, 71.060832344696934 ], [ 24.767768251659948, 71.060668623486109 ], [ 24.768039040126666, 71.06071688820451 ], [ 24.768249494790936, 71.061051432765495 ], [ 24.768788374615038, 71.061416589788351 ], [ 24.769128946480084, 71.061767744921795 ] ] ] } },
{ "type": "Feature", "properties": { "fid": 296803, "elvelengde_m": 453.62, "elvID": "220-198-1", "elvenavn": null, "regulert": null, "fid_2": 1647, "id": 1647, "left": 24.486919847, "top": 71.446110046000001, "right": 24.986919847, "bottom": 70.946110046000001, "row_index": 6, "col_index": 41, "tile_id": 1647 }, "geometry": { "type": "MultiLineString", "coordinates": [ [ [ 24.642891070721632, 71.066380819138686 ], [ 24.641448883577606, 71.065734552819322 ], [ 24.640087568802528, 71.064873961578286 ], [ 24.639892689377248, 71.064656166657457 ], [ 24.636655949644386, 71.063771798398591 ], [ 24.63487797281438, 71.063390286758633 ] ] ] } },
{ "type": "Feature", "properties": { "fid": 296804, "elvelengde_m": 277.81, "elvID": "220-198-2", "elvenavn": null, "regulert": null, "fid_2": 1647, "id": 1647, "left": 24.486919847, "top": 71.446110046000001, "right": 24.986919847, "bottom": 70.946110046000001, "row_index": 6, "col_index": 41, "tile_id": 1647 }, "geometry": { "type": "MultiLineString", "coordinates": [ [ [ 24.642216258754946, 71.062792465928794 ], [ 24.640970554277757, 71.062812498045346 ], [ 24.636872569782589, 71.063119599245837 ], [ 24.63487797281438, 71.063390286758633 ] ] ] } },
{ "type": "Feature", "properties": { "fid": 296805, "elvelengde_m": 438.04, "elvID": "220-194-1", "elvenavn": null, "regulert": null, "fid_2": 1647, "id": 1647, "left": 24.486919847, "top": 71.446110046000001, "right": 24.986919847, "bottom": 70.946110046000001, "row_index": 6, "col_index": 41, "tile_id": 1647 }, "geometry": { "type": "MultiLineString", "coordinates": [ [ [ 24.776027719030065, 71.056757198307352 ], [ 24.776032532112339, 71.056470130383516 ], [ 24.776317401306869, 71.056392914580258 ], [ 24.778439472914247, 71.05618494487166 ], [ 24.77997945974607, 71.055754616781812 ], [ 24.782672402816083, 71.055383105745136 ], [ 24.786241814326978, 71.055157581031395 ] ] ] } },
{ "type": "Feature", "properties": { "fid": 296806, "elvelengde_m": 753.78, "elvID": "220-198-1", "elvenavn": null, "regulert": null, "fid_2": 1647, "id": 1647, "left": 24.486919847, "top": 71.446110046000001, "right": 24.986919847, "bottom": 70.946110046000001, "row_index": 6, "col_index": 41, "tile_id": 1647 }, "geometry": { "type": "MultiLineString", "coordinates": [ [ [ 24.63487797281438, 71.063390286758633 ], [ 24.632177043940587, 71.063338155338784 ], [ 24.630730754847118, 71.063418444748336 ], [ 24.628582189660481, 71.063821852868884 ], [ 24.62774828212202, 71.063865035196599 ], [ 24.625835039754953, 71.063921466601755 ], [ 24.623908439674551, 71.063860969768044 ], [ 24.622301359254749, 71.063670019084867 ], [ 24.620794681740094, 71.063336821138321 ], [ 24.619349921681732, 71.063174753302832 ], [ 24.615503155157413, 71.062529286613056 ] ] ] } },
{ "type": "Feature", "properties": { "fid": 296807, "elvelengde_m": 1394.03, "elvID": "220-193-3", "elvenavn": null, "regulert": null, "fid_2": 1647, "id": 1647, "left": 24.486919847, "top": 71.446110046000001, "right": 24.986919847, "bottom": 70.946110046000001, "row_index": 6, "col_index": 41, "tile_id": 1647 }, "geometry": { "type": "MultiLineString", "coordinates": [ [ [ 24.724758662186666, 71.056147344106719 ], [ 24.730702046964417, 71.05633644925436 ], [ 24.731950806614613, 71.05652205545509 ], [ 24.733721652440682, 71.056974267313834 ], [ 24.736801474269306, 71.057567875229552 ], [ 24.738554339203091, 71.057697024849318 ], [ 24.740887510786653, 71.057581683901361 ], [ 24.741712840355834, 71.057609619752867 ], [ 24.747084091353337, 71.058939663981121 ], [ 24.748175951885877, 71.059051463477417 ], [ 24.751788129836743, 71.05910402581749 ], [ 24.754557607339351, 71.059280938320953 ], [ 24.755422929412809, 71.059201672369198 ], [ 24.757988009734767, 71.058505800665372 ], [ 24.75937434256095, 71.058217487772438 ] ] ] } },
{ "type": "Feature", "properties": { "fid": 296808, "elvelengde_m": 184.52, "elvID": "220-203-1", "elvenavn": null, "regulert": null, "fid_2": 1647, "id": 1647, "left": 24.486919847, "top": 71.446110046000001, "right": 24.986919847, "bottom": 70.946110046000001, "row_index": 6, "col_index": 41, "tile_id": 1647 }, "geometry": { "type": "MultiLineString", "coordinates": [ [ [ 24.972325527019532, 71.042185060258362 ], [ 24.972541976887769, 71.042492522640927 ], [ 24.972949034261518, 71.042828793071152 ], [ 24.973847467925445, 71.043215360837166 ], [ 24.975080605468897, 71.043489447975858 ] ] ] } },
{ "type": "Feature", "properties": { "fid": 296809, "elvelengde_m": 448.02, "elvID": "220-196-1", "elvenavn": null, "regulert": null, "fid_2": 1647, "id": 1647, "left": 24.486919847, "top": 71.446110046000001, "right": 24.986919847, "bottom": 70.946110046000001, "row_index": 6, "col_index": 41, "tile_id": 1647 }, "geometry": { "type": "MultiLineString", "coordinates": [ [ [ 24.70692949113419, 71.05439461882716 ], [ 24.705705432864271, 71.054235858757323 ], [ 24.701689264016881, 71.054338980884921 ], [ 24.69940851046653, 71.054005796164233 ], [ 24.696802600281348, 71.053857073942993 ], [ 24.695086702967885, 71.053656421991207 ] ] ] } },
{ "type": "Feature", "properties": { "fid": 296810, "elvelengde_m": 331.49, "elvID": "220-196-2", "elvenavn": null, "regulert": null, "fid_2": 1647, "id": 1647, "left": 24.486919847, "top": 71.446110046000001, "right": 24.986919847, "bottom": 70.946110046000001, "row_index": 6, "col_index": 41, "tile_id": 1647 }, "geometry": { "type": "MultiLineString", "coordinates": [ [ [ 24.693917198673006, 71.056566708199611 ], [ 24.694428009433526, 71.056214141894088 ], [ 24.69475934935388, 71.055742670370279 ], [ 24.694861639685932, 71.05439819134709 ], [ 24.695086702967885, 71.053656421991207 ] ] ] } },
{ "type": "Feature", "properties": { "fid": 296811, "elvelengde_m": 195.94, "elvID": "220-193-2", "elvenavn": null, "regulert": null, "fid_2": 1647, "id": 1647, "left": 24.486919847, "top": 71.446110046000001, "right": 24.986919847, "bottom": 70.946110046000001, "row_index": 6, "col_index": 41, "tile_id": 1647 }, "geometry": { "type": "MultiLineString", "coordinates": [ [ [ 24.735867766902466, 71.051285326764102 ], [ 24.73693112499295, 71.050921421296621 ], [ 24.737958807158915, 71.050386700921365 ], [ 24.739698229240748, 71.050147739880273 ] ] ] } },
{ "type": "Feature", "properties": { "fid": 296812, "elvelengde_m": 1594.47, "elvID": "220-193-1", "elvenavn": null, "regulert": null, "fid_2": 1647, "id": 1647, "left": 24.486919847, "top": 71.446110046000001, "right": 24.986919847, "bottom": 70.946110046000001, "row_index": 6, "col_index": 41, "tile_id": 1647 }, "geometry": { "type": "MultiLineString", "coordinates": [ [ [ 24.739698229240748, 71.050147739880273 ], [ 24.740994150566014, 71.049921097105909 ], [ 24.742471060156344, 71.049320011134867 ], [ 24.743206096912626, 71.049167391239791 ], [ 24.745285927465655, 71.049327257456838 ], [ 24.747840665085789, 71.049196546791407 ], [ 24.751160163422369, 71.048895792621394 ], [ 24.754592895905681, 71.048811481282527 ], [ 24.756795428603162, 71.048864964816161 ], [ 24.757363979301289, 71.04896153344545 ], [ 24.757708006929903, 71.049091283835807 ], [ 24.757905125792337, 71.049300000648941 ], [ 24.757897003340542, 71.049613896718753 ], [ 24.757470059462438, 71.049967617320476 ], [ 24.757544755172134, 71.050282487132847 ], [ 24.757689859977134, 71.050463659375978 ], [ 24.757671326089003, 71.050867175134897 ], [ 24.759026517074982, 71.052058845562399 ], [ 24.758896720901362, 71.052954318334912 ], [ 24.758342265577419, 71.053216819745501 ], [ 24.756393835740717, 71.053839329652533 ], [ 24.756395834761062, 71.054063620605334 ], [ 24.756668190253109, 71.054336119531371 ], [ 24.756272995655493, 71.054654231713116 ], [ 24.756308933982631, 71.054825301378784 ], [ 24.756591669917007, 71.055008092362328 ], [ 24.756590629920275, 71.055259210441292 ], [ 24.756317096415415, 71.055480191594626 ], [ 24.756377173997077, 71.055678284955931 ], [ 24.757743857534226, 71.056286789898095 ] ] ] } },
{ "type": "Feature", "properties": { "fid": 296813, "elvelengde_m": 221.54, "elvID": "220-193-1", "elvenavn": null, "regulert": null, "fid_2": 1647, "id": 1647, "left": 24.486919847, "top": 71.446110046000001, "right": 24.986919847, "bottom": 70.946110046000001, "row_index": 6, "col_index": 41, "tile_id": 1647 }, "geometry": { "type": "MultiLineString", "coordinates": [ [ [ 24.734527362206723, 71.049259359774197 ], [ 24.73542967105098, 71.049333221826998 ], [ 24.7367987406884, 71.049672785165114 ], [ 24.73734787496026, 71.04993967777547 ], [ 24.738024493831208, 71.050055544638113 ], [ 24.739698229240748, 71.050147739880273 ] ] ] } },
{ "type": "Feature", "properties": { "fid": 296814, "elvelengde_m": 423.14, "elvID": "220-203-1", "elvenavn": null, "regulert": null, "fid_2": 1647, "id": 1647, "left": 24.486919847, "top": 71.446110046000001, "right": 24.986919847, "bottom": 70.946110046000001, "row_index": 6, "col_index": 41, "tile_id": 1647 }, "geometry": { "type": "MultiLineString", "coordinates": [ [ [ 24.964280887563046, 71.035925553508605 ], [ 24.96565529642012, 71.03623650763852 ], [ 24.966905184867901, 71.03668976048516 ], [ 24.96908312221009, 71.037772092933238 ], [ 24.969038004691718, 71.03794205281136 ], [ 24.967863052116964, 71.038099756267769 ], [ 24.967869424714003, 71.03830604478587 ], [ 24.968060211386934, 71.038595201456559 ], [ 24.968007654383229, 71.038836890551821 ] ] ] } },
{ "type": "Feature", "properties": { "fid": 296815, "elvelengde_m": 2101.18, "elvID": "220-197-1", "elvenavn": null, "regulert": null, "fid_2": 1647, "id": 1647, "left": 24.486919847, "top": 71.446110046000001, "right": 24.986919847, "bottom": 70.946110046000001, "row_index": 6, "col_index": 41, "tile_id": 1647 }, "geometry": { "type": "MultiLineString", "coordinates": [ [ [ 24.675194145180001, 71.066131592201998 ], [ 24.676813200495005, 71.06459058596586 ], [ 24.677172646686838, 71.064119512900902 ], [ 24.677163873452567, 71.063957918250253 ], [ 24.677614562538317, 71.062949833049629 ], [ 24.678224822101729, 71.062463802979977 ], [ 24.678857007835582, 71.062256385154043 ], [ 24.681483017084886, 71.062244291378263 ], [ 24.681937975230927, 71.062133207740203 ], [ 24.68233022561239, 71.061617775320826 ], [ 24.682330966538583, 71.06114217852074 ], [ 24.681969057527745, 71.060931349029303 ], [ 24.68074145081421, 71.060566199543999 ], [ 24.679505416818305, 71.060039521404562 ], [ 24.678343701484579, 71.059818634192723 ], [ 24.677732633053836, 71.059613599592822 ], [ 24.677263818408793, 71.05914120770187 ], [ 24.676925024257155, 71.058966614525431 ], [ 24.675527026033389, 71.058644102195103 ], [ 24.675069877260004, 71.058306398550457 ], [ 24.674655927675186, 71.057834667342135 ], [ 24.674396164566915, 71.057230350421875 ], [ 24.674409634891692, 71.056647270059713 ], [ 24.67383676891561, 71.056352989916988 ], [ 24.673508024330634, 71.055864372834193 ], [ 24.672960764315334, 71.055588428931699 ], [ 24.672813284684, 71.055434100993793 ], [ 24.674018109504107, 71.054587844848299 ], [ 24.674178055973837, 71.05393488258558 ], [ 24.674590682510384, 71.053715755622605 ], [ 24.674871655344099, 71.053441134033108 ], [ 24.675634117558403, 71.053064836974585 ], [ 24.676676550769816, 71.052889421931582 ], [ 24.676959492988622, 71.052596917894235 ], [ 24.677377132932939, 71.05233290234348 ], [ 24.6779891408971, 71.052062416337449 ], [ 24.679315237316636, 71.051818792377745 ], [ 24.679324799970903, 71.051504701360656 ], [ 24.678981082807212, 71.051141750298456 ], [ 24.679113555910416, 71.050721644138747 ], [ 24.67857954398346, 71.050454275494175 ] ] ] } },
{ "type": "Feature", "properties": { "fid": 296816, "elvelengde_m": 690.22, "elvID": "220-204-1", "elvenavn": null, "regulert": null, "fid_2": 1647, "id": 1647, "left": 24.486919847, "top": 71.446110046000001, "right": 24.986919847, "bottom": 70.946110046000001, "row_index": 6, "col_index": 41, "tile_id": 1647 }, "geometry": { "type": "MultiLineString", "coordinates": [ [ [ 24.97351916438032, 71.034878108892968 ], [ 24.974477987876163, 71.034673062207332 ], [ 24.97545059548969, 71.034603025153558 ], [ 24.9802656232361, 71.034718093930238 ], [ 24.980572404749083, 71.034685608028099 ], [ 24.981026139590952, 71.034295776972627 ], [ 24.981596460295947, 71.034113623305402 ], [ 24.982830771868727, 71.033911673663141 ], [ 24.985444153090953, 71.033706729738583 ], [ 24.986919847, 71.033701695177669 ] ] ] } },
{ "type": "Feature", "properties": { "fid": 296818, "elvelengde_m": 712.37, "elvID": "220-196-1", "elvenavn": null, "regulert": null, "fid_2": 1647, "id": 1647, "left": 24.486919847, "top": 71.446110046000001, "right": 24.986919847, "bottom": 70.946110046000001, "row_index": 6, "col_index": 41, "tile_id": 1647 }, "geometry": { "type": "MultiLineString", "coordinates": [ [ [ 24.695086702967885, 71.053656421991207 ], [ 24.694529913654474, 71.053461199696414 ], [ 24.693642454362564, 71.052786181463873 ], [ 24.692656890754613, 71.052477885418114 ], [ 24.690630080994705, 71.052102803728701 ], [ 24.688898907839732, 71.051560924327461 ], [ 24.687334821921397, 71.051245599709617 ], [ 24.687328249209145, 71.051066112225556 ], [ 24.687680239645509, 71.050891027840066 ], [ 24.688711679387829, 71.050805075858051 ], [ 24.689056380791008, 71.050692854158612 ], [ 24.68904970497244, 71.050513190068202 ], [ 24.688469360402891, 71.050048400661495 ], [ 24.687494589789338, 71.049883804165304 ], [ 24.687474263453318, 71.049587326605035 ], [ 24.6873469274516, 71.049496156642718 ], [ 24.68624232772039, 71.049500424557237 ], [ 24.6860581321382, 71.049413869417734 ] ] ] } },
{ "type": "Feature", "properties": { "fid": 296821, "elvelengde_m": 779.29, "elvID": "220-205-1", "elvenavn": null, "regulert": null, "fid_2": 1647, "id": 1647, "left": 24.486919847, "top": 71.446110046000001, "right": 24.986919847, "bottom": 70.946110046000001, "row_index": 6, "col_index": 41, "tile_id": 1647 }, "geometry": { "type": "MultiLineString", "coordinates": [ [ [ 24.980699282409933, 71.026990169746313 ], [ 24.98021462266729, 71.027146365689177 ], [ 24.980286121929364, 71.027523918574289 ], [ 24.980844530880447, 71.02772727640874 ], [ 24.985856329186607, 71.028059888073187 ], [ 24.986919847, 71.028230641032934 ] ] ] } },
{ "type": "Feature", "properties": { "fid": 296825, "elvelengde_m": 644.16, "elvID": "220-210-1", "elvenavn": null, "regulert": null, "fid_2": 1647, "id": 1647, "left": 24.486919847, "top": 71.446110046000001, "right": 24.986919847, "bottom": 70.946110046000001, "row_index": 6, "col_index": 41, "tile_id": 1647 }, "geometry": { "type": "MultiLineString", "coordinates": [ [ [ 24.949844582405234, 71.027271907399353 ], [ 24.948952981849914, 71.027360681288798 ], [ 24.948103038574263, 71.027315624720558 ], [ 24.947726868105857, 71.027221678274302 ], [ 24.946732524980828, 71.026708370123018 ], [ 24.945841294837194, 71.02652805717392 ], [ 24.943978123673805, 71.026417777240667 ], [ 24.93800004114566, 71.026369567439204 ], [ 24.93488363114583, 71.026639992740527 ], [ 24.933567519709367, 71.026828424794516 ] ] ] } },
{ "type": "Feature", "properties": { "fid": 296826, "elvelengde_m": 1048.32, "elvID": "220-195-1", "elvenavn": null, "regulert": null, "fid_2": 1647, "id": 1647, "left": 24.486919847, "top": 71.446110046000001, "right": 24.986919847, "bottom": 70.946110046000001, "row_index": 6, "col_index": 41, "tile_id": 1647 }, "geometry": { "type": "MultiLineString", "coordinates": [ [ [ 24.727712332610981, 71.044206057031914 ], [ 24.726823417512733, 71.044015827373542 ], [ 24.724338367878385, 71.043788075334405 ], [ 24.7220760321783, 71.043302870293601 ], [ 24.720533852091055, 71.043274994580102 ], [ 24.719527742717442, 71.043146049312128 ], [ 24.718887060159474, 71.042958767565707 ], [ 24.718209344635817, 71.042376287409823 ], [ 24.717870988145581, 71.042201652455617 ], [ 24.716438254063274, 71.041941886131056 ], [ 24.715537699003878, 71.04161691129859 ], [ 24.715489941841458, 71.041077988925394 ], [ 24.71444696945418, 71.04055372977858 ], [ 24.714032749378958, 71.040082075838839 ], [ 24.711951814234876, 71.038755674576294 ], [ 24.711024775211961, 71.03842128983004 ], [ 24.709726250840845, 71.038198955321519 ], [ 24.709150519589116, 71.03797014378209 ] ] ] } },
{ "type": "Feature", "properties": { "fid": 296827, "elvelengde_m": 331.05, "elvID": "220-209-1", "elvenavn": null, "regulert": null, "fid_2": 1647, "id": 1647, "left": 24.486919847, "top": 71.446110046000001, "right": 24.986919847, "bottom": 70.946110046000001, "row_index": 6, "col_index": 41, "tile_id": 1647 }, "geometry": { "type": "MultiLineString", "coordinates": [ [ [ 24.951650529133886, 71.022896114707763 ], [ 24.949705232671509, 71.022784987838662 ], [ 24.94468431554197, 71.022290189266542 ], [ 24.942810778622341, 71.022234830967705 ] ] ] } },
{ "type": "Feature", "properties": { "fid": 296828, "elvelengde_m": 1756.64, "elvID": "220-207-1", "elvenavn": null, "regulert": null, "fid_2": 1647, "id": 1647, "left": 24.486919847, "top": 71.446110046000001, "right": 24.986919847, "bottom": 70.946110046000001, "row_index": 6, "col_index": 41, "tile_id": 1647 }, "geometry": { "type": "MultiLineString", "coordinates": [ [ [ 24.986154278354448, 71.019747231242093 ], [ 24.986919847, 71.019744933634598 ] ] ] } },
{ "type": "Feature", "properties": { "fid": 296830, "elvelengde_m": 850.96, "elvID": "220-208-1", "elvenavn": null, "regulert": null, "fid_2": 1647, "id": 1647, "left": 24.486919847, "top": 71.446110046000001, "right": 24.986919847, "bottom": 70.946110046000001, "row_index": 6, "col_index": 41, "tile_id": 1647 }, "geometry": { "type": "MultiLineString", "coordinates": [ [ [ 24.973829006144157, 71.016581333129594 ], [ 24.973426206437193, 71.016209197146637 ], [ 24.972601349261012, 71.016191229220425 ], [ 24.970112920540654, 71.016540883842993 ], [ 24.969570478818365, 71.016723327228107 ], [ 24.968047942421872, 71.016787462648338 ], [ 24.966390377421501, 71.01656305320752 ], [ 24.964886812495529, 71.01617875477001 ], [ 24.963853652699775, 71.016042064865374 ], [ 24.962808648056928, 71.01602143970895 ], [ 24.955512385114027, 71.016228521071838 ], [ 24.952587661720361, 71.016563748376015 ] ] ] } },
{ "type": "Feature", "properties": { "fid": 296832, "elvelengde_m": 520.72, "elvID": "220-189-1", "elvenavn": null, "regulert": null, "fid_2": 1647, "id": 1647, "left": 24.486919847, "top": 71.446110046000001, "right": 24.986919847, "bottom": 70.946110046000001, "row_index": 6, "col_index": 41, "tile_id": 1647 }, "geometry": { "type": "MultiLineString", "coordinates": [ [ [ 24.581409318072634, 71.016065350047128 ], [ 24.584849942342196, 71.015652436454261 ], [ 24.586975407089295, 71.015626163952064 ], [ 24.58847245647517, 71.015780150339779 ], [ 24.590088651954794, 71.016088316330041 ], [ 24.591180854464042, 71.016398431534768 ], [ 24.59293142415412, 71.017183745224088 ], [ 24.593534691268637, 71.017248919626041 ] ] ] } },
{ "type": "Feature", "properties": { "fid": 296834, "elvelengde_m": 939.09, "elvID": "220-190-1", "elvenavn": null, "regulert": null, "fid_2": 1647, "id": 1647, "left": 24.486919847, "top": 71.446110046000001, "right": 24.986919847, "bottom": 70.946110046000001, "row_index": 6, "col_index": 41, "tile_id": 1647 }, "geometry": { "type": "MultiLineString", "coordinates": [ [ [ 24.585802071804014, 71.012829506622495 ], [ 24.584145767425525, 71.012628483841894 ], [ 24.582425497253592, 71.012274195916874 ], [ 24.577059289892286, 71.010867432402463 ], [ 24.570124978418544, 71.009449037054679 ], [ 24.566944015350298, 71.008878077224935 ], [ 24.566390645058593, 71.008673435933716 ], [ 24.566102927358049, 71.008449567820961 ], [ 24.565354602525556, 71.008139449885419 ], [ 24.565211268961583, 71.007991586794347 ] ] ] } },
{ "type": "Feature", "properties": { "fid": 296847, "elvelengde_m": 262.46, "elvID": "220-56-1", "elvenavn": null, "regulert": null, "fid_2": 1647, "id": 1647, "left": 24.486919847, "top": 71.446110046000001, "right": 24.986919847, "bottom": 70.946110046000001, "row_index": 6, "col_index": 41, "tile_id": 1647 }, "geometry": { "type": "MultiLineString", "coordinates": [ [ [ 24.678253279577863, 70.990616517376282 ], [ 24.679690165372438, 70.991038123105341 ], [ 24.679538234276357, 70.991395153009805 ], [ 24.67976245986927, 70.991595296105189 ], [ 24.68043162570882, 70.991756180645496 ], [ 24.680432712620416, 70.991980476881238 ], [ 24.679883192257364, 70.992207054421954 ], [ 24.679405332844418, 70.992290572247697 ], [ 24.679256280142354, 70.992387458353576 ], [ 24.679317403989, 70.992455886265176 ] ] ] } },
{ "type": "Feature", "properties": { "fid": 296848, "elvelengde_m": 30.5, "elvID": "220-56-1", "elvenavn": null, "regulert": null, "fid_2": 1647, "id": 1647, "left": 24.486919847, "top": 71.446110046000001, "right": 24.986919847, "bottom": 70.946110046000001, "row_index": 6, "col_index": 41, "tile_id": 1647 }, "geometry": { "type": "MultiLineString", "coordinates": [ [ [ 24.676599100436562, 70.99040736778845 ], [ 24.677355879570403, 70.990524480947315 ] ] ] } },
{ "type": "Feature", "properties": { "fid": 296849, "elvelengde_m": 263.48, "elvID": "220-79-1", "elvenavn": null, "regulert": null, "fid_2": 1647, "id": 1647, "left": 24.486919847, "top": 71.446110046000001, "right": 24.986919847, "bottom": 70.946110046000001, "row_index": 6, "col_index": 41, "tile_id": 1647 }, "geometry": { "type": "MultiLineString", "coordinates": [ [ [ 24.98441410052877, 70.972605864956051 ], [ 24.984911252290416, 70.972853571389223 ], [ 24.985928516205771, 70.973124579472454 ], [ 24.986554782756809, 70.973185312754936 ], [ 24.986919847, 70.973339319616144 ] ], [ [ 24.986919847, 70.974171368460759 ], [ 24.986833381895821, 70.974185956237051 ] ] ] } },
{ "type": "Feature", "properties": { "fid": 296851, "elvelengde_m": 306.46, "elvID": "220-79-1", "elvenavn": null, "regulert": null, "fid_2": 1647, "id": 1647, "left": 24.486919847, "top": 71.446110046000001, "right": 24.986919847, "bottom": 70.946110046000001, "row_index": 6, "col_index": 41, "tile_id": 1647 }, "geometry": { "type": "MultiLineString", "coordinates": [ [ [ 24.986919847, 70.97063982176995 ], [ 24.986049521278822, 70.970587245922118 ], [ 24.984876415141176, 70.97104100044514 ], [ 24.984852606995915, 70.971812219205631 ], [ 24.984094551225713, 70.972234623177343 ], [ 24.98441410052877, 70.972605864956051 ] ] ] } },
{ "type": "Feature", "properties": { "fid": 296859, "elvelengde_m": 483.08, "elvID": "220-79-2", "elvenavn": null, "regulert": null, "fid_2": 1647, "id": 1647, "left": 24.486919847, "top": 71.446110046000001, "right": 24.986919847, "bottom": 70.946110046000001, "row_index": 6, "col_index": 41, "tile_id": 1647 }, "geometry": { "type": "MultiLineString", "coordinates": [ [ [ 24.977237190700858, 70.969388150316576 ], [ 24.977525178280516, 70.969794957329924 ], [ 24.977938172544498, 70.970059583528197 ], [ 24.978836034640079, 70.970419317194782 ], [ 24.979319324986921, 70.971339509736168 ], [ 24.979865035667711, 70.971650473633247 ], [ 24.980974666323682, 70.972093087977086 ], [ 24.982635400881932, 70.972523748987115 ], [ 24.98441410052877, 70.972605864956051 ] ] ] } },
{ "type": "Feature", "properties": { "fid": 296862, "elvelengde_m": 120.62, "elvID": "220-57-1", "elvenavn": null, "regulert": null, "fid_2": 1647, "id": 1647, "left": 24.486919847, "top": 71.446110046000001, "right": 24.986919847, "bottom": 70.946110046000001, "row_index": 6, "col_index": 41, "tile_id": 1647 }, "geometry": { "type": "MultiLineString", "coordinates": [ [ [ 24.670293259621172, 70.984828499102704 ], [ 24.671650152925039, 70.985222330133496 ], [ 24.67228465947511, 70.985212391925884 ], [ 24.673072573005463, 70.9853248837845 ] ] ] } },
{ "type": "Feature", "properties": { "fid": 296865, "elvelengde_m": 742.24, "elvID": "220-57-1", "elvenavn": null, "regulert": null, "fid_2": 1647, "id": 1647, "left": 24.486919847, "top": 71.446110046000001, "right": 24.986919847, "bottom": 70.946110046000001, "row_index": 6, "col_index": 41, "tile_id": 1647 }, "geometry": { "type": "MultiLineString", "coordinates": [ [ [ 24.652837800009323, 70.986762030501382 ], [ 24.657026621821206, 70.986249754264136 ], [ 24.659471277218802, 70.985589585420954 ], [ 24.660896048852397, 70.985410273744435 ], [ 24.663713868716545, 70.984620278361504 ], [ 24.664953607812464, 70.9843756498245 ], [ 24.666389696901781, 70.984330991812328 ], [ 24.667276417395289, 70.984512494584635 ], [ 24.667555360045576, 70.984713487478572 ], [ 24.668232704354985, 70.984802695166792 ], [ 24.670293259621172, 70.984828499102704 ] ] ] } },
{ "type": "Feature", "properties": { "fid": 296867, "elvelengde_m": 458.48, "elvID": "220-57-2", "elvenavn": null, "regulert": null, "fid_2": 1647, "id": 1647, "left": 24.486919847, "top": 71.446110046000001, "right": 24.986919847, "bottom": 70.946110046000001, "row_index": 6, "col_index": 41, "tile_id": 1647 }, "geometry": { "type": "MultiLineString", "coordinates": [ [ [ 24.661926203286743, 70.982291943457369 ], [ 24.664119366149588, 70.982355458359862 ], [ 24.665446745787481, 70.982533598622823 ], [ 24.667209036443694, 70.98298641741367 ], [ 24.668306719353772, 70.983475761660102 ], [ 24.668385077296087, 70.983745867902925 ], [ 24.669136154484811, 70.98390782468951 ], [ 24.669536795838514, 70.98424479379689 ], [ 24.670085123945274, 70.984493932918042 ], [ 24.670293259621172, 70.984828499102704 ] ] ] } },
{ "type": "Feature", "properties": { "fid": 296869, "elvelengde_m": 356.42, "elvID": "220-59-1", "elvenavn": null, "regulert": null, "fid_2": 1647, "id": 1647, "left": 24.486919847, "top": 71.446110046000001, "right": 24.986919847, "bottom": 70.946110046000001, "row_index": 6, "col_index": 41, "tile_id": 1647 }, "geometry": { "type": "MultiLineString", "coordinates": [ [ [ 24.731148796094462, 70.977507137031708 ], [ 24.730946360959486, 70.977594388658986 ], [ 24.730685455867441, 70.977950014693661 ], [ 24.729291038688416, 70.97835468831633 ], [ 24.728114514853914, 70.978779936469465 ], [ 24.727927778610393, 70.978997316457452 ], [ 24.72775786428123, 70.979007930605746 ], [ 24.727532071296178, 70.979367769264854 ], [ 24.727143268133393, 70.979622311136524 ], [ 24.727141552997427, 70.979970305034144 ], [ 24.727434529436469, 70.980203957268188 ] ] ] } },
{ "type": "Feature", "properties": { "fid": 296876, "elvelengde_m": 732.97, "elvID": "220-59-1", "elvenavn": null, "regulert": null, "fid_2": 1647, "id": 1647, "left": 24.486919847, "top": 71.446110046000001, "right": 24.986919847, "bottom": 70.946110046000001, "row_index": 6, "col_index": 41, "tile_id": 1647 }, "geometry": { "type": "MultiLineString", "coordinates": [ [ [ 24.713283282180996, 70.973824923013481 ], [ 24.719121824046184, 70.974946368007167 ], [ 24.720503757814484, 70.975124858327234 ], [ 24.720845111081676, 70.975263632781449 ], [ 24.722966219030628, 70.975235816130734 ], [ 24.724271238464492, 70.975368463625159 ], [ 24.726269286694805, 70.975688938603767 ], [ 24.727303507871387, 70.976024615709548 ], [ 24.728819057613482, 70.975998273192843 ], [ 24.730203062539317, 70.976400968124508 ], [ 24.73079707612083, 70.976497980351439 ] ] ] } },
{ "type": "Feature", "properties": { "fid": 296883, "elvelengde_m": 427.95, "elvID": "220-60-1", "elvenavn": null, "regulert": null, "fid_2": 1647, "id": 1647, "left": 24.486919847, "top": 71.446110046000001, "right": 24.986919847, "bottom": 70.946110046000001, "row_index": 6, "col_index": 41, "tile_id": 1647 }, "geometry": { "type": "MultiLineString", "coordinates": [ [ [ 24.748891771449152, 70.967109530837277 ], [ 24.751630389302822, 70.96769003545694 ], [ 24.752744563341832, 70.967802110266732 ], [ 24.754102013222653, 70.967718971066617 ], [ 24.755230299938678, 70.967872730837982 ], [ 24.755842425133437, 70.967773055024978 ], [ 24.757234315881014, 70.967874001382569 ], [ 24.759567094999277, 70.968197027574718 ] ] ] } },
{ "type": "Feature", "properties": { "fid": 296884, "elvelengde_m": 10.63, "elvID": "220-60-2", "elvenavn": null, "regulert": null, "fid_2": 1647, "id": 1647, "left": 24.486919847, "top": 71.446110046000001, "right": 24.986919847, "bottom": 70.946110046000001, "row_index": 6, "col_index": 41, "tile_id": 1647 }, "geometry": { "type": "MultiLineString", "coordinates": [ [ [ 24.748692002159789, 70.967178892171304 ], [ 24.748891771449152, 70.967109530837277 ] ] ] } },
{ "type": "Feature", "properties": { "fid": 296888, "elvelengde_m": 327.91, "elvID": "220-61-1", "elvenavn": null, "regulert": null, "fid_2": 1647, "id": 1647, "left": 24.486919847, "top": 71.446110046000001, "right": 24.986919847, "bottom": 70.946110046000001, "row_index": 6, "col_index": 41, "tile_id": 1647 }, "geometry": { "type": "MultiLineString", "coordinates": [ [ [ 24.750398199279882, 70.966679215624154 ], [ 24.752852651344419, 70.966852559016672 ], [ 24.753631698233313, 70.96677224573439 ], [ 24.754121614076688, 70.966571757470291 ], [ 24.755426221932105, 70.966461929249093 ], [ 24.755832020942517, 70.966278413652432 ], [ 24.758293239907204, 70.96582984415906 ] ] ] } },
{ "type": "Feature", "properties": { "fid": 296896, "elvelengde_m": 235.47, "elvID": "220-62-1", "elvenavn": null, "regulert": null, "fid_2": 1647, "id": 1647, "left": 24.486919847, "top": 71.446110046000001, "right": 24.986919847, "bottom": 70.946110046000001, "row_index": 6, "col_index": 41, "tile_id": 1647 }, "geometry": { "type": "MultiLineString", "coordinates": [ [ [ 24.748151572038818, 70.965404902143447 ], [ 24.750472654934779, 70.965540713958219 ], [ 24.75308365797774, 70.965545390785891 ], [ 24.753711991951835, 70.96533774323062 ], [ 24.75389723567876, 70.965160577544438 ] ] ] } },
{ "type": "Feature", "properties": { "fid": 296904, "elvelengde_m": 124.68, "elvID": "220-62-1", "elvenavn": null, "regulert": null, "fid_2": 1647, "id": 1647, "left": 24.486919847, "top": 71.446110046000001, "right": 24.986919847, "bottom": 70.946110046000001, "row_index": 6, "col_index": 41, "tile_id": 1647 }, "geometry": { "type": "MultiLineString", "coordinates": [ [ [ 24.755135660005088, 70.96442189664144 ], [ 24.755498415694532, 70.964372450537752 ], [ 24.756169407118911, 70.96451508068057 ], [ 24.75687002074627, 70.964398003898907 ], [ 24.758134420870125, 70.964598846063268 ] ] ] } },
{ "type": "Feature", "properties": { "fid": 296905, "elvelengde_m": 758.38, "elvID": "220-60-2", "elvenavn": null, "regulert": null, "fid_2": 1647, "id": 1647, "left": 24.486919847, "top": 71.446110046000001, "right": 24.986919847, "bottom": 70.946110046000001, "row_index": 6, "col_index": 41, "tile_id": 1647 }, "geometry": { "type": "MultiLineString", "coordinates": [ [ [ 24.728490897780773, 70.965694600183227 ], [ 24.729473197331814, 70.965760541704782 ], [ 24.733177279756031, 70.966299279029471 ], [ 24.733999883869014, 70.966318325266499 ], [ 24.738398835720997, 70.966793527758227 ], [ 24.739559109330735, 70.966744878927273 ], [ 24.741210247233376, 70.966971339802754 ], [ 24.742922711227617, 70.966902493414111 ], [ 24.743662942237165, 70.966678166524915 ], [ 24.744292371173415, 70.966703773882045 ], [ 24.745189106944608, 70.967037647245036 ], [ 24.746295299761702, 70.967221559862438 ], [ 24.746754461831312, 70.967532177008479 ], [ 24.74697203541222, 70.967552754469651 ] ] ] } },
{ "type": "Feature", "properties": { "fid": 296908, "elvelengde_m": 20.16, "elvID": "220-78-1", "elvenavn": null, "regulert": null, "fid_2": 1647, "id": 1647, "left": 24.486919847, "top": 71.446110046000001, "right": 24.986919847, "bottom": 70.946110046000001, "row_index": 6, "col_index": 41, "tile_id": 1647 }, "geometry": { "type": "MultiLineString", "coordinates": [ [ [ 24.980629242438322, 70.950981427671962 ], [ 24.980143635036804, 70.950895371790466 ] ] ] } },
{ "type": "Feature", "properties": { "fid": 296909, "elvelengde_m": 642.22, "elvID": "220-55-1", "elvenavn": null, "regulert": null, "fid_2": 1647, "id": 1647, "left": 24.486919847, "top": 71.446110046000001, "right": 24.986919847, "bottom": 70.946110046000001, "row_index": 6, "col_index": 41, "tile_id": 1647 }, "geometry": { "type": "MultiLineString", "coordinates": [ [ [ 24.575600408110862, 70.972077988917079 ], [ 24.573541010438177, 70.972499819104826 ], [ 24.571204507900188, 70.973608737663952 ], [ 24.571083722412617, 70.973921180868857 ], [ 24.57103153423321, 70.975912450753768 ], [ 24.570695339595545, 70.976186230321929 ], [ 24.570552454346846, 70.976453493646389 ], [ 24.570705931968519, 70.976993921016131 ], [ 24.570525895653706, 70.977172092255941 ] ] ] } },
{ "type": "Feature", "properties": { "fid": 296916, "elvelengde_m": 434.89, "elvID": "220-63-1", "elvenavn": null, "regulert": null, "fid_2": 1647, "id": 1647, "left": 24.486919847, "top": 71.446110046000001, "right": 24.986919847, "bottom": 70.946110046000001, "row_index": 6, "col_index": 41, "tile_id": 1647 }, "geometry": { "type": "MultiLineString", "coordinates": [ [ [ 24.764619769479108, 70.959063725592642 ], [ 24.766685182986194, 70.959267938637794 ], [ 24.768553636756742, 70.959756880877919 ], [ 24.768730430957739, 70.9598936098633 ], [ 24.76881009326684, 70.960163753521769 ], [ 24.770041391296477, 70.960456696712754 ], [ 24.770317686518041, 70.960684283158031 ], [ 24.770470549102697, 70.961035980067862 ], [ 24.77032535849424, 70.961348276751352 ], [ 24.770459822786531, 70.961619046514343 ], [ 24.771010298409873, 70.961855918705908 ] ] ] } },
{ "type": "Feature", "properties": { "fid": 296919, "elvelengde_m": 1306.41, "elvID": "220-78-1", "elvenavn": null, "regulert": null, "fid_2": 1647, "id": 1647, "left": 24.486919847, "top": 71.446110046000001, "right": 24.986919847, "bottom": 70.946110046000001, "row_index": 6, "col_index": 41, "tile_id": 1647 }, "geometry": { "type": "MultiLineString", "coordinates": [ [ [ 24.975471747013508, 70.950117768726898 ], [ 24.974239888212978, 70.950077484737747 ], [ 24.972999909014352, 70.949848697731753 ], [ 24.97177302258017, 70.949494325158668 ], [ 24.969975975423111, 70.949340135079296 ], [ 24.964612252786775, 70.947819068645984 ], [ 24.962010564460215, 70.947216440900831 ], [ 24.959180408355543, 70.946700672928415 ], [ 24.957671548297572, 70.946684292638267 ], [ 24.955671584445867, 70.946375283773037 ], [ 24.953889601947843, 70.946346635896688 ], [ 24.952115771170664, 70.94650636477374 ], [ 24.95040234302461, 70.946873234401139 ], [ 24.948539839506687, 70.947094805334601 ], [ 24.946022784625473, 70.94700416794106 ], [ 24.944304800166947, 70.947428568419696 ] ] ] } },
{ "type": "Feature", "properties": { "fid": 296922, "elvelengde_m": 1638.25, "elvID": "220-60-1", "elvenavn": null, "regulert": null, "fid_2": 1647, "id": 1647, "left": 24.486919847, "top": 71.446110046000001, "right": 24.986919847, "bottom": 70.946110046000001, "row_index": 6, "col_index": 41, "tile_id": 1647 }, "geometry": { "type": "MultiLineString", "coordinates": [ [ [ 24.716023811983501, 70.958678195513883 ], [ 24.718097081652719, 70.958811318592737 ], [ 24.721466212229874, 70.959382246887941 ], [ 24.722481459985673, 70.959636832152654 ], [ 24.723498061026604, 70.960115807015839 ], [ 24.723919065624788, 70.96051581131438 ], [ 24.7241927856968, 70.961003595784121 ], [ 24.725244982157161, 70.962128961507148 ], [ 24.726379658436809, 70.962779898834526 ], [ 24.726989236595927, 70.9629757524051 ], [ 24.728582912289266, 70.963219582864639 ], [ 24.732064547798974, 70.964258025546741 ], [ 24.733308821700145, 70.964434695855061 ], [ 24.734414261842293, 70.964860955251226 ], [ 24.736173908369032, 70.965097670102892 ], [ 24.737704174777132, 70.965179180606967 ], [ 24.739419975677826, 70.965558950404073 ], [ 24.744021456613797, 70.965946833793694 ], [ 24.744850850356958, 70.966145416271203 ], [ 24.745665009368235, 70.966478129172557 ], [ 24.747253454633462, 70.96677561184147 ], [ 24.748620885053583, 70.966837190366334 ], [ 24.748830149561048, 70.966929313569693 ], [ 24.748891771449152, 70.967109530837277 ] ] ] } },
{ "type": "Feature", "properties": { "fid": 296927, "elvelengde_m": 636.44, "elvID": "220-64-1", "elvenavn": null, "regulert": null, "fid_2": 1647, "id": 1647, "left": 24.486919847, "top": 71.446110046000001, "right": 24.986919847, "bottom": 70.946110046000001, "row_index": 6, "col_index": 41, "tile_id": 1647 }, "geometry": { "type": "MultiLineString", "coordinates": [ [ [ 24.762304857621601, 70.95498953893204 ], [ 24.764625938500359, 70.95463179196868 ], [ 24.766272324977479, 70.954651535946439 ], [ 24.768342230765207, 70.954811026365078 ], [ 24.768746952178006, 70.955120946357027 ], [ 24.769228439997338, 70.955234314776334 ], [ 24.770045714784672, 70.955297998718677 ], [ 24.77093181241046, 70.955479109916752 ], [ 24.772165628813827, 70.955502956525237 ], [ 24.776015833100558, 70.956446278406986 ], [ 24.777492606418814, 70.956547695115418 ] ] ] } },
{ "type": "Feature", "properties": { "fid": 296928, "elvelengde_m": 1041.45, "elvID": "220-54-7", "elvenavn": null, "regulert": null, "fid_2": 1647, "id": 1647, "left": 24.486919847, "top": 71.446110046000001, "right": 24.986919847, "bottom": 70.946110046000001, "row_index": 6, "col_index": 41, "tile_id": 1647 }, "geometry": { "type": "MultiLineString", "coordinates": [ [ [ 24.633199423201795, 70.964853856513102 ], [ 24.637052235521821, 70.96458902841033 ], [ 24.639588449560623, 70.964298270392518 ], [ 24.643152673994059, 70.964146178396476 ], [ 24.644468412145951, 70.963947528042766 ], [ 24.650299398083707, 70.963456167411749 ], [ 24.650848568085785, 70.963229857463375 ], [ 24.651077851790451, 70.962918681036058 ], [ 24.652030295121886, 70.962536004357418 ], [ 24.652261938312108, 70.96220710992138 ], [ 24.653331899994882, 70.961529627810435 ], [ 24.653418478714396, 70.961261572724183 ], [ 24.653214075328478, 70.960900158647647 ], [ 24.652742495978476, 70.960705742001167 ], [ 24.65150228532087, 70.960501610140412 ] ] ] } },
{ "type": "Feature", "properties": { "fid": 296929, "elvelengde_m": 54.14, "elvID": "220-54-1", "elvenavn": null, "regulert": null, "fid_2": 1647, "id": 1647, "left": 24.486919847, "top": 71.446110046000001, "right": 24.986919847, "bottom": 70.946110046000001, "row_index": 6, "col_index": 41, "tile_id": 1647 }, "geometry": { "type": "MultiLineString", "coordinates": [ [ [ 24.65150228532087, 70.960501610140412 ], [ 24.650022949258773, 70.960542878440322 ] ] ] } },
{ "type": "Feature", "properties": { "fid": 296932, "elvelengde_m": 598.3, "elvID": "220-58-1", "elvenavn": null, "regulert": null, "fid_2": 1647, "id": 1647, "left": 24.486919847, "top": 71.446110046000001, "right": 24.986919847, "bottom": 70.946110046000001, "row_index": 6, "col_index": 41, "tile_id": 1647 }, "geometry": { "type": "MultiLineString", "coordinates": [ [ [ 24.669019592117223, 70.958317961268449 ], [ 24.668878158936423, 70.958585291031156 ], [ 24.668883177668814, 70.959007058413022 ], [ 24.670672251575407, 70.960151058093359 ], [ 24.671269469819357, 70.960445471118817 ], [ 24.672095122812696, 70.960671373943953 ], [ 24.672974492103474, 70.961140016305464 ], [ 24.674827909120481, 70.961504095792293 ], [ 24.675247184569457, 70.961679817564047 ], [ 24.675297898503405, 70.961949651448862 ], [ 24.675860578455101, 70.962306630045234 ], [ 24.675789939711915, 70.96244038576468 ], [ 24.675022131640176, 70.962731970145782 ] ] ] } },
{ "type": "Feature", "properties": { "fid": 296934, "elvelengde_m": 253.75, "elvID": "220-64-1", "elvenavn": null, "regulert": null, "fid_2": 1647, "id": 1647, "left": 24.486919847, "top": 71.446110046000001, "right": 24.986919847, "bottom": 70.946110046000001, "row_index": 6, "col_index": 41, "tile_id": 1647 }, "geometry": { "type": "MultiLineString", "coordinates": [ [ [ 24.751861121446783, 70.953571347478771 ], [ 24.752342791006548, 70.953684834660137 ], [ 24.754462314547656, 70.953889909072615 ], [ 24.754755075775805, 70.953974233356078 ], [ 24.755008988206789, 70.954156851482793 ], [ 24.755571133563155, 70.954289098763908 ], [ 24.75693657332511, 70.954359479707179 ], [ 24.757911172728797, 70.954245616041788 ] ] ] } },
{ "type": "Feature", "properties": { "fid": 296943, "elvelengde_m": 258.49, "elvID": "220-54-1", "elvenavn": null, "regulert": null, "fid_2": 1647, "id": 1647, "left": 24.486919847, "top": 71.446110046000001, "right": 24.986919847, "bottom": 70.946110046000001, "row_index": 6, "col_index": 41, "tile_id": 1647 }, "geometry": { "type": "MultiLineString", "coordinates": [ [ [ 24.652687590071974, 70.95839016965239 ], [ 24.652748575045205, 70.95857040993269 ], [ 24.653354927276762, 70.959017723396173 ], [ 24.653290330632462, 70.959330961348101 ], [ 24.652553072232827, 70.959985545297414 ], [ 24.652185801260934, 70.960070563476009 ], [ 24.65150228532087, 70.960501610140412 ] ] ] } },
{ "type": "Feature", "properties": { "fid": 297975, "elvelengde_m": 199.69, "elvID": "220-54-1", "elvenavn": null, "regulert": null, "fid_2": 1647, "id": 1647, "left": 24.486919847, "top": 71.446110046000001, "right": 24.986919847, "bottom": 70.946110046000001, "row_index": 6, "col_index": 41, "tile_id": 1647 }, "geometry": { "type": "MultiLineString", "coordinates": [ [ [ 24.658157472949654, 70.958378534111816 ], [ 24.652687590071974, 70.95839016965239 ] ] ] } },
{ "type": "Feature", "properties": { "fid": 297988, "elvelengde_m": 184.76, "elvID": "220-54-6", "elvenavn": null, "regulert": null, "fid_2": 1647, "id": 1647, "left": 24.486919847, "top": 71.446110046000001, "right": 24.986919847, "bottom": 70.946110046000001, "row_index": 6, "col_index": 41, "tile_id": 1647 }, "geometry": { "type": "MultiLineString", "coordinates": [ [ [ 24.64938320733523, 70.957289667673379 ], [ 24.649931502532034, 70.95776315617438 ], [ 24.65040726832855, 70.957921719399778 ], [ 24.65206188718221, 70.958104280389321 ], [ 24.652687590071974, 70.95839016965239 ] ] ] } },
{ "type": "Feature", "properties": { "fid": 297990, "elvelengde_m": 247.73, "elvID": "220-54-6", "elvenavn": null, "regulert": null, "fid_2": 1647, "id": 1647, "left": 24.486919847, "top": 71.446110046000001, "right": 24.986919847, "bottom": 70.946110046000001, "row_index": 6, "col_index": 41, "tile_id": 1647 }, "geometry": { "type": "MultiLineString", "coordinates": [ [ [ 24.644808976630152, 70.95601127296888 ], [ 24.644873111309604, 70.956164778737858 ], [ 24.645136895754771, 70.956257849393793 ], [ 24.645002362302289, 70.956462489891436 ], [ 24.64637586368956, 70.956928604567622 ], [ 24.647742059170724, 70.957223988137656 ], [ 24.64938320733523, 70.957289667673379 ] ] ] } },
{ "type": "Feature", "properties": { "fid": 297993, "elvelengde_m": 707.89, "elvID": "220-64-1", "elvenavn": null, "regulert": null, "fid_2": 1647, "id": 1647, "left": 24.486919847, "top": 71.446110046000001, "right": 24.986919847, "bottom": 70.946110046000001, "row_index": 6, "col_index": 41, "tile_id": 1647 }, "geometry": { "type": "MultiLineString", "coordinates": [ [ [ 24.733283975034308, 70.948823561448151 ], [ 24.733618023109841, 70.949024988896369 ], [ 24.734653919893091, 70.94933362889391 ], [ 24.737262628228567, 70.94958088990235 ], [ 24.738143209621807, 70.949806956269882 ], [ 24.739299691190315, 70.950502899084441 ], [ 24.73992838445918, 70.950770695439743 ], [ 24.740349509654717, 70.951170661364159 ], [ 24.741089789912774, 70.951664090784377 ], [ 24.744184149521399, 70.952231090440719 ], [ 24.744994835485738, 70.952590989939893 ], [ 24.74664992592156, 70.953014770280618 ] ] ] } },
{ "type": "Feature", "properties": { "fid": 297994, "elvelengde_m": 590.75, "elvID": "220-54-5", "elvenavn": null, "regulert": null, "fid_2": 1647, "id": 1647, "left": 24.486919847, "top": 71.446110046000001, "right": 24.986919847, "bottom": 70.946110046000001, "row_index": 6, "col_index": 41, "tile_id": 1647 }, "geometry": { "type": "MultiLineString", "coordinates": [ [ [ 24.686273096649188, 70.953419831423616 ], [ 24.684524123996368, 70.952635417854708 ], [ 24.682761968987514, 70.952200732366663 ], [ 24.682303861554807, 70.951889874454452 ], [ 24.681617708150188, 70.951647976575828 ], [ 24.680994282534847, 70.951577521190245 ], [ 24.67947310558116, 70.951666060696866 ], [ 24.678719939657036, 70.951997627743552 ], [ 24.676103492436802, 70.95228789598724 ], [ 24.67514325533379, 70.952742427574464 ], [ 24.674724742199032, 70.953033236353548 ] ] ] } },
{ "type": "Feature", "properties": { "fid": 298008, "elvelengde_m": 1023.5, "elvID": "220-54-6", "elvenavn": null, "regulert": null, "fid_2": 1647, "id": 1647, "left": 24.486919847, "top": 71.446110046000001, "right": 24.986919847, "bottom": 70.946110046000001, "row_index": 6, "col_index": 41, "tile_id": 1647 }, "geometry": { "type": "MultiLineString", "coordinates": [ [ [ 24.628979430234502, 70.950758278984196 ], [ 24.627810286018683, 70.950886973302076 ], [ 24.627873023117711, 70.951049255685319 ], [ 24.628423408644483, 70.95127177487106 ], [ 24.628981682027273, 70.951655640087807 ], [ 24.629674417069115, 70.951834976067616 ], [ 24.629813211495062, 70.952052030900063 ], [ 24.62971769942606, 70.952391798291458 ], [ 24.628973196382184, 70.952642513727653 ], [ 24.628957243339169, 70.952776819594533 ], [ 24.629381138394518, 70.952907855382207 ], [ 24.632465438866795, 70.953306195604227 ], [ 24.636387956025917, 70.953589470192455 ], [ 24.638487953616458, 70.953948270517799 ], [ 24.639197193117095, 70.953993058395596 ], [ 24.639533303718771, 70.954167849146032 ], [ 24.63965523181486, 70.95452823730578 ], [ 24.640414524528701, 70.954843057879671 ], [ 24.640692715707079, 70.955044006737367 ], [ 24.642683350370902, 70.955401250312747 ], [ 24.643079791042066, 70.955765196759742 ], [ 24.644808976630152, 70.95601127296888 ] ] ] } },
{ "type": "Feature", "properties": { "fid": 298017, "elvelengde_m": 818.47, "elvID": "220-64-3", "elvenavn": null, "regulert": null, "fid_2": 1647, "id": 1647, "left": 24.486919847, "top": 71.446110046000001, "right": 24.986919847, "bottom": 70.946110046000001, "row_index": 6, "col_index": 41, "tile_id": 1647 }, "geometry": { "type": "MultiLineString", "coordinates": [ [ [ 24.718140316314578, 70.946110046 ], [ 24.718819672357156, 70.946349410642583 ], [ 24.718816652485554, 70.946618381100095 ], [ 24.719242266515927, 70.946973603558533 ], [ 24.72038461759157, 70.94731068750751 ], [ 24.721492516262753, 70.947943341670054 ], [ 24.723004230086971, 70.94841033695738 ], [ 24.725386710940736, 70.948233486839101 ], [ 24.726352211923256, 70.94843361205362 ], [ 24.729373564044259, 70.94843475769008 ], [ 24.730462249544551, 70.948519871763509 ], [ 24.731019977726774, 70.948688146003448 ], [ 24.733283975034308, 70.948823561448151 ] ] ] } },
{ "type": "Feature", "properties": { "fid": 298019, "elvelengde_m": 618.36, "elvID": "220-64-1", "elvenavn": null, "regulert": null, "fid_2": 1647, "id": 1647, "left": 24.486919847, "top": 71.446110046000001, "right": 24.986919847, "bottom": 70.946110046000001, "row_index": 6, "col_index": 41, "tile_id": 1647 }, "geometry": { "type": "MultiLineString", "coordinates": [ [ [ 24.729664564361752, 70.946110046 ], [ 24.729795016767429, 70.946196965902914 ], [ 24.729596685629623, 70.946490523652471 ], [ 24.730005652075395, 70.946755826633193 ], [ 24.730131974051325, 70.947089332502287 ], [ 24.730931354884103, 70.947305484470618 ], [ 24.731156413982166, 70.947496632138808 ], [ 24.732334384857783, 70.94776229467054 ], [ 24.73288268148421, 70.948011146102971 ], [ 24.733898408602297, 70.948256915356595 ], [ 24.733764848908979, 70.948461614127723 ], [ 24.733283975034308, 70.948823561448151 ] ] ] } },
{ "type": "Feature", "properties": { "fid": 298029, "elvelengde_m": 45.68, "elvID": "220-54-1", "elvenavn": null, "regulert": null, "fid_2": 1647, "id": 1647, "left": 24.486919847, "top": 71.446110046000001, "right": 24.986919847, "bottom": 70.946110046000001, "row_index": 6, "col_index": 41, "tile_id": 1647 }, "geometry": { "type": "MultiLineString", "coordinates": [ [ [ 24.674836884394093, 70.946110046 ], [ 24.674712583321199, 70.946124505284004 ] ] ] } },
{ "type": "Feature", "properties": { "fid": 298032, "elvelengde_m": 732.6, "elvID": "220-54-4", "elvenavn": null, "regulert": null, "fid_2": 1647, "id": 1647, "left": 24.486919847, "top": 71.446110046000001, "right": 24.986919847, "bottom": 70.946110046000001, "row_index": 6, "col_index": 41, "tile_id": 1647 }, "geometry": { "type": "MultiLineString", "coordinates": [ [ [ 24.691926778340413, 70.947344323589888 ], [ 24.690347984547046, 70.947459405537373 ], [ 24.689252448558356, 70.947436727663899 ], [ 24.687571378047501, 70.947012068026226 ], [ 24.685670257314978, 70.946360311455749 ], [ 24.684424451889171, 70.946210226289196 ], [ 24.684020822152345, 70.946110046 ] ], [ [ 24.678669199694145, 70.946110046 ], [ 24.678351043352194, 70.94624197748027 ], [ 24.677299838411315, 70.946309485137462 ], [ 24.67689377898445, 70.946259498975692 ], [ 24.676728023317015, 70.946110046 ] ] ] } },
{ "type": "Feature", "properties": { "fid": 298036, "elvelengde_m": 60.24, "elvID": "220-53-3", "elvenavn": null, "regulert": null, "fid_2": 1647, "id": 1647, "left": 24.486919847, "top": 71.446110046000001, "right": 24.986919847, "bottom": 70.946110046000001, "row_index": 6, "col_index": 41, "tile_id": 1647 }, "geometry": { "type": "MultiLineString", "coordinates": [ [ [ 24.587172729849019, 70.950273042473 ], [ 24.585549154518247, 70.950296865576618 ] ] ] } },
{ "type": "Feature", "properties": { "fid": 298057, "elvelengde_m": 18.82, "elvID": "220-53-1", "elvenavn": null, "regulert": null, "fid_2": 1647, "id": 1647, "left": 24.486919847, "top": 71.446110046000001, "right": 24.986919847, "bottom": 70.946110046000001, "row_index": 6, "col_index": 41, "tile_id": 1647 }, "geometry": { "type": "MultiLineString", "coordinates": [ [ [ 24.593029169969949, 70.946392348986123 ], [ 24.592554196433461, 70.946457936081842 ] ] ] } },
{ "type": "Feature", "properties": { "fid": 298067, "elvelengde_m": 1389.57, "elvID": "220-54-3", "elvenavn": null, "regulert": null, "fid_2": 1647, "id": 1647, "left": 24.486919847, "top": 71.446110046000001, "right": 24.986919847, "bottom": 70.946110046000001, "row_index": 6, "col_index": 41, "tile_id": 1647 }, "geometry": { "type": "MultiLineString", "coordinates": [ [ [ 24.645603024508112, 70.946110046 ], [ 24.646029117271013, 70.946220320215247 ], [ 24.646729912909105, 70.946561115408713 ], [ 24.648375003396893, 70.947048565482405 ], [ 24.648492940448527, 70.947211577391556 ], [ 24.649053962360259, 70.947344256176905 ], [ 24.651245728906471, 70.947389951121124 ], [ 24.652210501484312, 70.947590556353447 ], [ 24.65384777287926, 70.947683203839546 ], [ 24.656641751906033, 70.947978762598837 ], [ 24.657342037557964, 70.947861900113665 ], [ 24.65851316113061, 70.947481897982541 ], [ 24.660215648506306, 70.947485370809105 ], [ 24.660831531156933, 70.947618761546138 ] ] ] } },
{ "type": "Feature", "properties": { "fid": 298070, "elvelengde_m": 832.99, "elvID": "220-53-1", "elvenavn": null, "regulert": null, "fid_2": 1647, "id": 1647, "left": 24.486919847, "top": 71.446110046000001, "right": 24.986919847, "bottom": 70.946110046000001, "row_index": 6, "col_index": 41, "tile_id": 1647 }, "geometry": { "type": "MultiLineString", "coordinates": [ [ [ 24.58816483955346, 70.94709167070225 ], [ 24.586879640824744, 70.947272395180093 ], [ 24.585497352160292, 70.94734420842093 ], [ 24.582418362449406, 70.947366928843635 ], [ 24.579805354092386, 70.946946907807984 ], [ 24.578352139170075, 70.946927984529907 ], [ 24.574113661978707, 70.946549607526435 ], [ 24.573540066057884, 70.946524087949427 ], [ 24.572593572270819, 70.946628410726447 ], [ 24.569986166922138, 70.946612226724412 ], [ 24.56937189299996, 70.946693887078325 ], [ 24.56882865936711, 70.946641840872715 ], [ 24.566772992315897, 70.946110046 ] ] ] } },
{ "type": "Feature", "properties": { "fid": 298072, "elvelengde_m": 584.81, "elvID": "220-53-3", "elvenavn": null, "regulert": null, "fid_2": 1647, "id": 1647, "left": 24.486919847, "top": 71.446110046000001, "right": 24.986919847, "bottom": 70.946110046000001, "row_index": 6, "col_index": 41, "tile_id": 1647 }, "geometry": { "type": "MultiLineString", "coordinates": [ [ [ 24.576828522817813, 70.949725495597249 ], [ 24.574745324506811, 70.949464918737874 ], [ 24.570682181540612, 70.948550300427584 ], [ 24.568487550085933, 70.947857667058187 ], [ 24.567864494343443, 70.947562360889791 ], [ 24.567514590733865, 70.947279672538954 ], [ 24.566674797268448, 70.946290585389818 ], [ 24.566673164466362, 70.946110046 ] ] ] } },
{ "type": "Feature", "properties": { "fid": 306204, "elvelengde_m": 26.01, "elvID": "220-205-1", "elvenavn": null, "regulert": null, "fid_2": 1647, "id": 1647, "left": 24.486919847, "top": 71.446110046000001, "right": 24.986919847, "bottom": 70.946110046000001, "row_index": 6, "col_index": 41, "tile_id": 1647 }, "geometry": { "type": "MultiLineString", "coordinates": [ [ [ 24.981325929825367, 71.026877719366894 ], [ 24.980699282409933, 71.026990169746313 ] ] ] } },
{ "type": "Feature", "properties": { "fid": 307986, "elvelengde_m": 134.9, "elvID": "220-193-3", "elvenavn": null, "regulert": null, "fid_2": 1647, "id": 1647, "left": 24.486919847, "top": 71.446110046000001, "right": 24.986919847, "bottom": 70.946110046000001, "row_index": 6, "col_index": 41, "tile_id": 1647 }, "geometry": { "type": "MultiLineString", "coordinates": [ [ [ 24.75937434256095, 71.058217487772438 ], [ 24.759565081866153, 71.058009562487072 ], [ 24.760902588160615, 71.057889286245569 ], [ 24.762552438451461, 71.057853322605439 ] ] ] } },
{ "type": "Feature", "properties": { "fid": 307991, "elvelengde_m": 34.72, "elvID": "220-56-1", "elvenavn": null, "regulert": null, "fid_2": 1647, "id": 1647, "left": 24.486919847, "top": 71.446110046000001, "right": 24.986919847, "bottom": 70.946110046000001, "row_index": 6, "col_index": 41, "tile_id": 1647 }, "geometry": { "type": "MultiLineString", "coordinates": [ [ [ 24.677355879570403, 70.990524480947315 ], [ 24.678253279577863, 70.990616517376282 ] ] ] } },
{ "type": "Feature", "properties": { "fid": 307996, "elvelengde_m": 96.38, "elvID": "220-62-1", "elvenavn": null, "regulert": null, "fid_2": 1647, "id": 1647, "left": 24.486919847, "top": 71.446110046000001, "right": 24.986919847, "bottom": 70.946110046000001, "row_index": 6, "col_index": 41, "tile_id": 1647 }, "geometry": { "type": "MultiLineString", "coordinates": [ [ [ 24.75389723567876, 70.965160577544438 ], [ 24.75412227831977, 70.964902848930208 ], [ 24.754613496269158, 70.964584296435547 ], [ 24.755135660005088, 70.96442189664144 ] ] ] } },
{ "type": "Feature", "properties": { "fid": 307999, "elvelengde_m": 194.28, "elvID": "220-78-1", "elvenavn": null, "regulert": null, "fid_2": 1647, "id": 1647, "left": 24.486919847, "top": 71.446110046000001, "right": 24.986919847, "bottom": 70.946110046000001, "row_index": 6, "col_index": 41, "tile_id": 1647 }, "geometry": { "type": "MultiLineString", "coordinates": [ [ [ 24.980143635036804, 70.950895371790466 ], [ 24.979611990264388, 70.950851371351803 ], [ 24.976118674911817, 70.950154022721591 ], [ 24.975471747013508, 70.950117768726898 ] ] ] } },
{ "type": "Feature", "properties": { "fid": 308001, "elvelengde_m": 203.66, "elvID": "220-64-1", "elvenavn": null, "regulert": null, "fid_2": 1647, "id": 1647, "left": 24.486919847, "top": 71.446110046000001, "right": 24.986919847, "bottom": 70.946110046000001, "row_index": 6, "col_index": 41, "tile_id": 1647 }, "geometry": { "type": "MultiLineString", "coordinates": [ [ [ 24.74664992592156, 70.953014770280618 ], [ 24.748004963555239, 70.953200766875028 ], [ 24.750168943180785, 70.953301549464797 ], [ 24.751861121446783, 70.953571347478771 ] ] ] } },
{ "type": "Feature", "properties": { "fid": 308007, "elvelengde_m": 233.19, "elvID": "220-54-3", "elvenavn": null, "regulert": null, "fid_2": 1647, "id": 1647, "left": 24.486919847, "top": 71.446110046000001, "right": 24.986919847, "bottom": 70.946110046000001, "row_index": 6, "col_index": 41, "tile_id": 1647 }, "geometry": { "type": "MultiLineString", "coordinates": [ [ [ 24.660831531156933, 70.947618761546138 ], [ 24.662521379697797, 70.947966566420476 ], [ 24.666788645431655, 70.948292115461769 ] ] ] } },
{ "type": "Feature", "properties": { "fid": 308008, "elvelengde_m": 153.89, "elvID": "220-54-1", "elvenavn": null, "regulert": null, "fid_2": 1647, "id": 1647, "left": 24.486919847, "top": 71.446110046000001, "right": 24.986919847, "bottom": 70.946110046000001, "row_index": 6, "col_index": 41, "tile_id": 1647 }, "geometry": { "type": "MultiLineString", "coordinates": [ [ [ 24.666543554329124, 70.946919274637779 ], [ 24.666519713693145, 70.947491214820886 ], [ 24.666788645431655, 70.948292115461769 ] ] ] } },
{ "type": "Feature", "properties": { "fid": 308011, "elvelengde_m": 329.39, "elvID": "220-53-3", "elvenavn": null, "regulert": null, "fid_2": 1647, "id": 1647, "left": 24.486919847, "top": 71.446110046000001, "right": 24.986919847, "bottom": 70.946110046000001, "row_index": 6, "col_index": 41, "tile_id": 1647 }, "geometry": { "type": "MultiLineString", "coordinates": [ [ [ 24.585549154518247, 70.950296865576618 ], [ 24.581562995200265, 70.950086404073474 ], [ 24.578985057252623, 70.949787980479712 ], [ 24.576828522817813, 70.949725495597249 ] ] ] } },
{ "type": "Feature", "properties": { "fid": 309588, "elvelengde_m": 125.14, "elvID": "220-202-1", "elvenavn": null, "regulert": null, "fid_2": 1647, "id": 1647, "left": 24.486919847, "top": 71.446110046000001, "right": 24.986919847, "bottom": 70.946110046000001, "row_index": 6, "col_index": 41, "tile_id": 1647 }, "geometry": { "type": "MultiLineString", "coordinates": [ [ [ 24.739018702626606, 71.093535295766571 ], [ 24.7385318495934, 71.093748254726648 ], [ 24.738578833076158, 71.09419353124477 ], [ 24.738049839062615, 71.094396805046387 ], [ 24.737617539794439, 71.094406665674569 ] ] ] } },
{ "type": "Feature", "properties": { "fid": 309589, "elvelengde_m": 312.0, "elvID": "220-193-1", "elvenavn": null, "regulert": null, "fid_2": 1647, "id": 1647, "left": 24.486919847, "top": 71.446110046000001, "right": 24.986919847, "bottom": 70.946110046000001, "row_index": 6, "col_index": 41, "tile_id": 1647 }, "geometry": { "type": "MultiLineString", "coordinates": [ [ [ 24.762552438451461, 71.057853322605439 ], [ 24.762589430125669, 71.057941886251982 ], [ 24.763193208175558, 71.058240964326316 ], [ 24.764495888376125, 71.058702394891824 ], [ 24.76797822045825, 71.059570695858952 ], [ 24.767641095616192, 71.059841774175041 ] ] ] } },
{ "type": "Feature", "properties": { "fid": 309590, "elvelengde_m": 275.44, "elvID": "220-193-1", "elvenavn": null, "regulert": null, "fid_2": 1647, "id": 1647, "left": 24.486919847, "top": 71.446110046000001, "right": 24.986919847, "bottom": 70.946110046000001, "row_index": 6, "col_index": 41, "tile_id": 1647 }, "geometry": { "type": "MultiLineString", "coordinates": [ [ [ 24.757743857534226, 71.056286789898095 ], [ 24.757696737889802, 71.056426761746266 ], [ 24.759335149141389, 71.056519330026291 ], [ 24.761468654922048, 71.057070348250335 ], [ 24.762561658558088, 71.057584495714551 ], [ 24.762552438451461, 71.057853322605439 ] ] ] } },
{ "type": "Feature", "properties": { "fid": 313075, "elvelengde_m": 226.48, "elvID": "220-202-1", "elvenavn": null, "regulert": null, "fid_2": 1647, "id": 1647, "left": 24.486919847, "top": 71.446110046000001, "right": 24.986919847, "bottom": 70.946110046000001, "row_index": 6, "col_index": 41, "tile_id": 1647 }, "geometry": { "type": "MultiLineString", "coordinates": [ [ [ 24.736312859280439, 71.094444593481668 ], [ 24.735434727374734, 71.094868312407598 ], [ 24.734162783808081, 71.095209098537239 ], [ 24.731521722192479, 71.095678319799376 ] ] ] } },
{ "type": "Feature", "properties": { "fid": 313076, "elvelengde_m": 124.74, "elvID": "220-59-1", "elvenavn": null, "regulert": null, "fid_2": 1647, "id": 1647, "left": 24.486919847, "top": 71.446110046000001, "right": 24.986919847, "bottom": 70.946110046000001, "row_index": 6, "col_index": 41, "tile_id": 1647 }, "geometry": { "type": "MultiLineString", "coordinates": [ [ [ 24.73079707612083, 70.976497980351439 ], [ 24.731224516486137, 70.976791779321616 ], [ 24.731583090380148, 70.976928099949319 ], [ 24.731424804392642, 70.97736034013738 ], [ 24.731148796094462, 70.977507137031708 ] ] ] } },
{ "type": "Feature", "properties": { "fid": 313077, "elvelengde_m": 92.37, "elvID": "220-60-2", "elvenavn": null, "regulert": null, "fid_2": 1647, "id": 1647, "left": 24.486919847, "top": 71.446110046000001, "right": 24.986919847, "bottom": 70.946110046000001, "row_index": 6, "col_index": 41, "tile_id": 1647 }, "geometry": { "type": "MultiLineString", "coordinates": [ [ [ 24.74697203541222, 70.967552754469651 ], [ 24.748026533207799, 70.967507849440736 ], [ 24.74815604744003, 70.96744048116777 ], [ 24.748307283645936, 70.967178401584604 ], [ 24.748692002159789, 70.967178892171304 ] ] ] } },
{ "type": "Feature", "properties": { "fid": 313082, "elvelengde_m": 229.48, "elvID": "220-64-1", "elvenavn": null, "regulert": null, "fid_2": 1647, "id": 1647, "left": 24.486919847, "top": 71.446110046000001, "right": 24.986919847, "bottom": 70.946110046000001, "row_index": 6, "col_index": 41, "tile_id": 1647 }, "geometry": { "type": "MultiLineString", "coordinates": [ [ [ 24.757911172728797, 70.954245616041788 ], [ 24.759196475893564, 70.954601871175967 ], [ 24.759838331841429, 70.954599602689697 ], [ 24.760560962994262, 70.95438590173265 ], [ 24.760832993624856, 70.954394577454153 ], [ 24.7612726404268, 70.954494905917159 ], [ 24.761580726928806, 70.954924945955341 ], [ 24.762304857621601, 70.95498953893204 ] ] ] } },
{ "type": "Feature", "properties": { "fid": 313083, "elvelengde_m": 326.94, "elvID": "220-54-1", "elvenavn": null, "regulert": null, "fid_2": 1647, "id": 1647, "left": 24.486919847, "top": 71.446110046000001, "right": 24.986919847, "bottom": 70.946110046000001, "row_index": 6, "col_index": 41, "tile_id": 1647 }, "geometry": { "type": "MultiLineString", "coordinates": [ [ [ 24.674712583321199, 70.946124505284004 ], [ 24.674505428070148, 70.946293974889031 ], [ 24.673518001404339, 70.946221269835334 ], [ 24.672514429367734, 70.946337311665388 ], [ 24.67116072157377, 70.946355662142381 ], [ 24.666543554329124, 70.946919274637779 ] ] ] } },
{ "type": "Feature", "properties": { "fid": 313085, "elvelengde_m": 177.47, "elvID": "220-53-1", "elvenavn": null, "regulert": null, "fid_2": 1647, "id": 1647, "left": 24.486919847, "top": 71.446110046000001, "right": 24.986919847, "bottom": 70.946110046000001, "row_index": 6, "col_index": 41, "tile_id": 1647 }, "geometry": { "type": "MultiLineString", "coordinates": [ [ [ 24.592554196433461, 70.946457936081842 ], [ 24.591749519138034, 70.946507956773829 ], [ 24.59018287178472, 70.946856537692923 ], [ 24.58816483955346, 70.94709167070225 ] ] ] } },
{ "type": "Feature", "properties": { "fid": 313086, "elvelengde_m": 115.47, "elvID": "220-53-1", "elvenavn": null, "regulert": null, "fid_2": 1647, "id": 1647, "left": 24.486919847, "top": 71.446110046000001, "right": 24.986919847, "bottom": 70.946110046000001, "row_index": 6, "col_index": 41, "tile_id": 1647 }, "geometry": { "type": "MultiLineString", "coordinates": [ [ [ 24.594903037248198, 70.946110046 ], [ 24.594884000568825, 70.946127106044116 ], [ 24.593029169969949, 70.946392348986123 ] ] ] } },
{ "type": "Feature", "properties": { "fid": 313168, "elvelengde_m": 482.5, "elvID": "220-203-1", "elvenavn": null, "regulert": null, "fid_2": 1647, "id": 1647, "left": 24.486919847, "top": 71.446110046000001, "right": 24.986919847, "bottom": 70.946110046000001, "row_index": 6, "col_index": 41, "tile_id": 1647 }, "geometry": { "type": "MultiLineString", "coordinates": [ [ [ 24.968007654383229, 71.038836890551821 ], [ 24.968781448820454, 71.038936754065006 ], [ 24.968826811588901, 71.039004327061861 ], [ 24.968531073816457, 71.039257567805123 ], [ 24.968621252623013, 71.039310786163981 ], [ 24.971186386317818, 71.039824359045355 ], [ 24.97277789401414, 71.040309062179261 ], [ 24.972856259281198, 71.040384180513541 ], [ 24.972934190430848, 71.040921812177274 ], [ 24.973160499361576, 71.041270511396505 ], [ 24.972996362154529, 71.041532938068826 ], [ 24.972313259187292, 71.042014457533185 ], [ 24.972325527019532, 71.042185060258362 ] ] ] } },
{ "type": "Feature", "properties": { "fid": 313173, "elvelengde_m": 825.77, "elvID": "220-54-1", "elvenavn": null, "regulert": null, "fid_2": 1647, "id": 1647, "left": 24.486919847, "top": 71.446110046000001, "right": 24.986919847, "bottom": 70.946110046000001, "row_index": 6, "col_index": 41, "tile_id": 1647 }, "geometry": { "type": "MultiLineString", "coordinates": [ [ [ 24.666788645431655, 70.948292115461769 ], [ 24.666736254490708, 70.948435968345066 ], [ 24.666436780291502, 70.948585924906595 ], [ 24.664507642182389, 70.949341132209057 ], [ 24.663819284375979, 70.949728136313013 ], [ 24.660418048188617, 70.950766377845639 ], [ 24.659516884142274, 70.951213320441823 ], [ 24.659253705868359, 70.951652117533101 ], [ 24.659669714701117, 70.952357587084492 ], [ 24.659801411265526, 70.952428790057425 ], [ 24.662488592326209, 70.953191915478001 ], [ 24.665379894143825, 70.953872458737735 ] ] ] } },
{ "type": "Feature", "properties": { "fid": 313223, "elvelengde_m": 378.88, "elvID": "220-54-5", "elvenavn": null, "regulert": null, "fid_2": 1647, "id": 1647, "left": 24.486919847, "top": 71.446110046000001, "right": 24.986919847, "bottom": 70.946110046000001, "row_index": 6, "col_index": 41, "tile_id": 1647 }, "geometry": { "type": "MultiLineString", "coordinates": [ [ [ 24.674724742199032, 70.953033236353548 ], [ 24.67364688997467, 70.953425218424172 ], [ 24.672049764963173, 70.953770777449165 ], [ 24.67041309532771, 70.953800206384329 ], [ 24.667726622899107, 70.953641816781399 ], [ 24.665379894143825, 70.953872458737735 ] ] ] } },
{ "type": "Feature", "properties": { "fid": 313225, "elvelengde_m": 306.09, "elvID": "220-54-2", "elvenavn": null, "regulert": null, "fid_2": 1647, "id": 1647, "left": 24.486919847, "top": 71.446110046000001, "right": 24.986919847, "bottom": 70.946110046000001, "row_index": 6, "col_index": 41, "tile_id": 1647 }, "geometry": { "type": "MultiLineString", "coordinates": [ [ [ 24.665807972565183, 70.946110046 ], [ 24.665887730032864, 70.946335272935642 ], [ 24.666171157783346, 70.946681709484366 ], [ 24.666543554329124, 70.946919274637779 ] ] ] } },
{ "type": "Feature", "properties": { "fid": 313285, "elvelengde_m": 704.4, "elvID": "220-54-1", "elvenavn": null, "regulert": null, "fid_2": 1647, "id": 1647, "left": 24.486919847, "top": 71.446110046000001, "right": 24.986919847, "bottom": 70.946110046000001, "row_index": 6, "col_index": 41, "tile_id": 1647 }, "geometry": { "type": "MultiLineString", "coordinates": [ [ [ 24.665379894143825, 70.953872458737735 ], [ 24.664210766063206, 70.954219078055701 ], [ 24.662151988812244, 70.954660999710256 ], [ 24.661170633506309, 70.954971662985116 ], [ 24.659983706146352, 70.955194294332827 ], [ 24.659169168261073, 70.955237531563256 ], [ 24.65874268813581, 70.95546110078557 ], [ 24.658430194811633, 70.955800187278456 ], [ 24.658571202270057, 70.956330860272345 ], [ 24.658709096836102, 70.956503512437848 ], [ 24.659359404446182, 70.956889517105949 ], [ 24.659655136916125, 70.957230666951205 ], [ 24.660708396976645, 70.957746910884211 ], [ 24.659770245782106, 70.957927691121796 ], [ 24.659075178056224, 70.958199933133699 ], [ 24.658157472949654, 70.958378534111816 ] ] ] } },
{ "type": "Feature", "properties": { "fid": 313297, "elvelengde_m": 30.92, "elvID": "220-191-1", "elvenavn": null, "regulert": null, "fid_2": 1647, "id": 1647, "left": 24.486919847, "top": 71.446110046000001, "right": 24.986919847, "bottom": 70.946110046000001, "row_index": 6, "col_index": 41, "tile_id": 1647 }, "geometry": { "type": "MultiLineString", "coordinates": [ [ [ 24.741100817255191, 71.097875504157187 ], [ 24.741722804376135, 71.097686164327527 ] ] ] } },
{ "type": "Feature", "properties": { "fid": 313298, "elvelengde_m": 155.11, "elvID": "220-202-1", "elvenavn": null, "regulert": null, "fid_2": 1647, "id": 1647, "left": 24.486919847, "top": 71.446110046000001, "right": 24.986919847, "bottom": 70.946110046000001, "row_index": 6, "col_index": 41, "tile_id": 1647 }, "geometry": { "type": "MultiLineString", "coordinates": [ [ [ 24.744911036526503, 71.093313413356114 ], [ 24.741619163035349, 71.09303986609261 ], [ 24.740812706224514, 71.093090550864076 ] ] ] } },
{ "type": "Feature", "properties": { "fid": 313299, "elvelengde_m": 231.04, "elvID": "220-192-1", "elvenavn": null, "regulert": null, "fid_2": 1647, "id": 1647, "left": 24.486919847, "top": 71.446110046000001, "right": 24.986919847, "bottom": 70.946110046000001, "row_index": 6, "col_index": 41, "tile_id": 1647 }, "geometry": { "type": "MultiLineString", "coordinates": [ [ [ 24.794078684535705, 71.078109448160319 ], [ 24.791338915814389, 71.077211245731547 ], [ 24.793178677285571, 71.076680214096953 ] ] ] } },
{ "type": "Feature", "properties": { "fid": 313300, "elvelengde_m": 188.09, "elvID": "220-200-1", "elvenavn": null, "regulert": null, "fid_2": 1647, "id": 1647, "left": 24.486919847, "top": 71.446110046000001, "right": 24.986919847, "bottom": 70.946110046000001, "row_index": 6, "col_index": 41, "tile_id": 1647 }, "geometry": { "type": "MultiLineString", "coordinates": [ [ [ 24.739255299872777, 71.065875796629541 ], [ 24.738814534525364, 71.065970463390201 ], [ 24.738633585717892, 71.066414053276418 ], [ 24.738267120080398, 71.066530657762769 ], [ 24.737167389067764, 71.067351396453034 ] ] ] } },
{ "type": "Feature", "properties": { "fid": 313301, "elvelengde_m": 63.14, "elvID": "220-197-1", "elvenavn": null, "regulert": null, "fid_2": 1647, "id": 1647, "left": 24.486919847, "top": 71.446110046000001, "right": 24.986919847, "bottom": 70.946110046000001, "row_index": 6, "col_index": 41, "tile_id": 1647 }, "geometry": { "type": "MultiLineString", "coordinates": [ [ [ 24.675744233180289, 71.06659862773077 ], [ 24.67522050481476, 71.066476244682804 ], [ 24.675083609027276, 71.06630398603545 ], [ 24.675194145180001, 71.066131592201998 ] ] ] } },
{ "type": "Feature", "properties": { "fid": 313302, "elvelengde_m": 87.48, "elvID": "220-194-1", "elvenavn": null, "regulert": null, "fid_2": 1647, "id": 1647, "left": 24.486919847, "top": 71.446110046000001, "right": 24.986919847, "bottom": 70.946110046000001, "row_index": 6, "col_index": 41, "tile_id": 1647 }, "geometry": { "type": "MultiLineString", "coordinates": [ [ [ 24.775859893465391, 71.057524222051626 ], [ 24.776047412524306, 71.057379564291892 ], [ 24.775946275768238, 71.057203571367225 ], [ 24.776027719030065, 71.056757198307352 ] ] ] } },
{ "type": "Feature", "properties": { "fid": 313303, "elvelengde_m": 125.05, "elvID": "220-193-3", "elvenavn": null, "regulert": null, "fid_2": 1647, "id": 1647, "left": 24.486919847, "top": 71.446110046000001, "right": 24.986919847, "bottom": 70.946110046000001, "row_index": 6, "col_index": 41, "tile_id": 1647 }, "geometry": { "type": "MultiLineString", "coordinates": [ [ [ 24.72195072100693, 71.055631863953536 ], [ 24.723155106562984, 71.056065997955713 ], [ 24.724758662186666, 71.056147344106719 ] ] ] } },
{ "type": "Feature", "properties": { "fid": 313304, "elvelengde_m": 159.16, "elvID": "220-196-1", "elvenavn": null, "regulert": null, "fid_2": 1647, "id": 1647, "left": 24.486919847, "top": 71.446110046000001, "right": 24.986919847, "bottom": 70.946110046000001, "row_index": 6, "col_index": 41, "tile_id": 1647 }, "geometry": { "type": "MultiLineString", "coordinates": [ [ [ 24.710573125011127, 71.055045958767508 ], [ 24.709038030030975, 71.054866657838346 ], [ 24.708891896899569, 71.054693963342956 ], [ 24.708684170466146, 71.054635590839538 ], [ 24.70692949113419, 71.05439461882716 ] ] ] } },
{ "type": "Feature", "properties": { "fid": 313305, "elvelengde_m": 34.69, "elvID": "220-204-1", "elvenavn": null, "regulert": null, "fid_2": 1647, "id": 1647, "left": 24.486919847, "top": 71.446110046000001, "right": 24.986919847, "bottom": 70.946110046000001, "row_index": 6, "col_index": 41, "tile_id": 1647 }, "geometry": { "type": "MultiLineString", "coordinates": [ [ [ 24.97295266647269, 71.035124381830272 ], [ 24.97351916438032, 71.034878108892968 ] ] ] } },
{ "type": "Feature", "properties": { "fid": 313308, "elvelengde_m": 277.81, "elvID": "220-189-1", "elvenavn": null, "regulert": null, "fid_2": 1647, "id": 1647, "left": 24.486919847, "top": 71.446110046000001, "right": 24.986919847, "bottom": 70.946110046000001, "row_index": 6, "col_index": 41, "tile_id": 1647 }, "geometry": { "type": "MultiLineString", "coordinates": [ [ [ 24.573815700198026, 71.016204619383984 ], [ 24.578972030060868, 71.016176194326547 ], [ 24.581409318072634, 71.016065350047128 ] ] ] } },
{ "type": "Feature", "properties": { "fid": 313309, "elvelengde_m": 189.17, "elvID": "220-190-1", "elvenavn": null, "regulert": null, "fid_2": 1647, "id": 1647, "left": 24.486919847, "top": 71.446110046000001, "right": 24.986919847, "bottom": 70.946110046000001, "row_index": 6, "col_index": 41, "tile_id": 1647 }, "geometry": { "type": "MultiLineString", "coordinates": [ [ [ 24.590778287548758, 71.013100382280001 ], [ 24.588315969542229, 71.013140906760967 ], [ 24.585802071804014, 71.012829506622495 ] ] ] } },
{ "type": "Feature", "properties": { "fid": 313314, "elvelengde_m": 225.84, "elvID": "220-57-1", "elvenavn": null, "regulert": null, "fid_2": 1647, "id": 1647, "left": 24.486919847, "top": 71.446110046000001, "right": 24.986919847, "bottom": 70.946110046000001, "row_index": 6, "col_index": 41, "tile_id": 1647 }, "geometry": { "type": "MultiLineString", "coordinates": [ [ [ 24.646728230797194, 70.986939890837917 ], [ 24.651539536901385, 70.986880120517583 ], [ 24.652837800009323, 70.986762030501382 ] ] ] } },
{ "type": "Feature", "properties": { "fid": 313315, "elvelengde_m": 37.09, "elvID": "220-79-2", "elvenavn": null, "regulert": null, "fid_2": 1647, "id": 1647, "left": 24.486919847, "top": 71.446110046000001, "right": 24.986919847, "bottom": 70.946110046000001, "row_index": 6, "col_index": 41, "tile_id": 1647 }, "geometry": { "type": "MultiLineString", "coordinates": [ [ [ 24.976855265478392, 70.969094066005852 ], [ 24.977253595979906, 70.969298570537674 ], [ 24.977237190700858, 70.969388150316576 ] ] ] } },
{ "type": "Feature", "properties": { "fid": 313316, "elvelengde_m": 365.74, "elvID": "220-57-2", "elvenavn": null, "regulert": null, "fid_2": 1647, "id": 1647, "left": 24.486919847, "top": 71.446110046000001, "right": 24.986919847, "bottom": 70.946110046000001, "row_index": 6, "col_index": 41, "tile_id": 1647 }, "geometry": { "type": "MultiLineString", "coordinates": [ [ [ 24.655608778468274, 70.980096034646607 ], [ 24.656970095849008, 70.980935492411476 ], [ 24.658685932811366, 70.981632976412328 ], [ 24.661645658297921, 70.982434639855072 ], [ 24.661926203286743, 70.982291943457369 ] ] ] } },
{ "type": "Feature", "properties": { "fid": 313319, "elvelengde_m": 75.32, "elvID": "220-59-1", "elvenavn": null, "regulert": null, "fid_2": 1647, "id": 1647, "left": 24.486919847, "top": 71.446110046000001, "right": 24.986919847, "bottom": 70.946110046000001, "row_index": 6, "col_index": 41, "tile_id": 1647 }, "geometry": { "type": "MultiLineString", "coordinates": [ [ [ 24.712023895901194, 70.973344247794174 ], [ 24.71240734434453, 70.973654690684342 ], [ 24.713283282180996, 70.973824923013481 ] ] ] } },
{ "type": "Feature", "properties": { "fid": 313322, "elvelengde_m": 62.19, "elvID": "220-78-1", "elvenavn": null, "regulert": null, "fid_2": 1647, "id": 1647, "left": 24.486919847, "top": 71.446110046000001, "right": 24.986919847, "bottom": 70.946110046000001, "row_index": 6, "col_index": 41, "tile_id": 1647 }, "geometry": { "type": "MultiLineString", "coordinates": [ [ [ 24.981915462225274, 70.951327951310503 ], [ 24.980629242438322, 70.950981427671962 ] ] ] } },
{ "type": "Feature", "properties": { "fid": 313325, "elvelengde_m": 89.66, "elvID": "220-63-1", "elvenavn": null, "regulert": null, "fid_2": 1647, "id": 1647, "left": 24.486919847, "top": 71.446110046000001, "right": 24.986919847, "bottom": 70.946110046000001, "row_index": 6, "col_index": 41, "tile_id": 1647 }, "geometry": { "type": "MultiLineString", "coordinates": [ [ [ 24.76220684780608, 70.959127175937027 ], [ 24.763307881800323, 70.9591484753891 ], [ 24.764619769479108, 70.959063725592642 ] ] ] } },
{ "type": "Feature", "properties": { "fid": 313328, "elvelengde_m": 43.87, "elvID": "220-54-7", "elvenavn": null, "regulert": null, "fid_2": 1647, "id": 1647, "left": 24.486919847, "top": 71.446110046000001, "right": 24.986919847, "bottom": 70.946110046000001, "row_index": 6, "col_index": 41, "tile_id": 1647 }, "geometry": { "type": "MultiLineString", "coordinates": [ [ [ 24.632052514817154, 70.964920967597791 ], [ 24.633199423201795, 70.964853856513102 ] ] ] } },
{ "type": "Feature", "properties": { "fid": 313331, "elvelengde_m": 251.44, "elvID": "220-60-1", "elvenavn": null, "regulert": null, "fid_2": 1647, "id": 1647, "left": 24.486919847, "top": 71.446110046000001, "right": 24.986919847, "bottom": 70.946110046000001, "row_index": 6, "col_index": 41, "tile_id": 1647 }, "geometry": { "type": "MultiLineString", "coordinates": [ [ [ 24.709848610951756, 70.957818541059538 ], [ 24.713350795210786, 70.958067963207853 ], [ 24.716023811983501, 70.958678195513883 ] ] ] } },
{ "type": "Feature", "properties": { "fid": 313343, "elvelengde_m": 221.2, "elvID": "220-54-6", "elvenavn": null, "regulert": null, "fid_2": 1647, "id": 1647, "left": 24.486919847, "top": 71.446110046000001, "right": 24.986919847, "bottom": 70.946110046000001, "row_index": 6, "col_index": 41, "tile_id": 1647 }, "geometry": { "type": "MultiLineString", "coordinates": [ [ [ 24.626438228638708, 70.949091333671745 ], [ 24.627545660636919, 70.949621779237148 ], [ 24.62886271418412, 70.950068610628023 ], [ 24.629184763693917, 70.950503301184128 ], [ 24.628979430234502, 70.950758278984196 ] ] ] } },
{ "type": "Feature", "properties": { "fid": 313346, "elvelengde_m": 209.91, "elvID": "220-53-3", "elvenavn": null, "regulert": null, "fid_2": 1647, "id": 1647, "left": 24.486919847, "top": 71.446110046000001, "right": 24.986919847, "bottom": 70.946110046000001, "row_index": 6, "col_index": 41, "tile_id": 1647 }, "geometry": { "type": "MultiLineString", "coordinates": [ [ [ 24.592601510995038, 70.950627088566932 ], [ 24.591201535320515, 70.950363900300971 ], [ 24.588194537291898, 70.9503874486809 ], [ 24.587172729849019, 70.950273042473 ] ] ] } },
{ "type": "Feature", "properties": { "fid": 314758, "elvelengde_m": 181.27, "elvID": "220-56-1", "elvenavn": null, "regulert": null, "fid_2": 1647, "id": 1647, "left": 24.486919847, "top": 71.446110046000001, "right": 24.986919847, "bottom": 70.946110046000001, "row_index": 6, "col_index": 41, "tile_id": 1647 }, "geometry": { "type": "MultiLineString", "coordinates": [ [ [ 24.671799711929154, 70.990176162246598 ], [ 24.675784615073304, 70.990241210073975 ], [ 24.676599100436562, 70.99040736778845 ] ] ] } }
]
}
