{
"type": "FeatureCollection",
"name": "elvis_tile_id_859",
"crs": { "type": "name", "properties": { "name": "urn:ogc:def:crs:OGC:1.3:CRS84" } },
"xy_coordinate_resolution": 1e-15,
"features": [
{ "type": "Feature", "properties": { "fid": 696641, "elvelengde_m": 370.79, "elvID": "151-3-1376", "elvenavn": null, "regulert": null, "fid_2": 859, "id": 859, "left": 14.486919847, "top": 65.446110046000001, "right": 14.986919847, "bottom": 64.946110046000001, "row_index": 18, "col_index": 21, "tile_id": 859 }, "geometry": { "type": "MultiLineString", "coordinates": [ [ [ 14.493112810603781, 65.442482861587607 ], [ 14.493464831883193, 65.442968644003656 ], [ 14.494909118752911, 65.4438905474357 ], [ 14.494934280952716, 65.444207449900603 ], [ 14.495134837759032, 65.444420138683768 ], [ 14.495040501098845, 65.444917707340238 ], [ 14.495405078205753, 65.44522524350181 ], [ 14.495944804730867, 65.445442022064299 ] ] ] } },
{ "type": "Feature", "properties": { "fid": 698423, "elvelengde_m": 1429.41, "elvID": "151-3-1396", "elvenavn": null, "regulert": null, "fid_2": 859, "id": 859, "left": 14.486919847, "top": 65.446110046000001, "right": 14.986919847, "bottom": 64.946110046000001, "row_index": 18, "col_index": 21, "tile_id": 859 }, "geometry": { "type": "MultiLineString", "coordinates": [ [ [ 14.5004680727937, 65.431741398025906 ], [ 14.499986980460035, 65.432226746733079 ], [ 14.499923871342132, 65.432450402007845 ], [ 14.499589727568537, 65.432610264145993 ], [ 14.499594409514877, 65.432828042113925 ], [ 14.499840063041919, 65.433148723609079 ], [ 14.499355129135875, 65.433359230077158 ], [ 14.49930305828576, 65.433726660972056 ], [ 14.499173450398864, 65.433864857204739 ], [ 14.499352527679331, 65.434071278709268 ], [ 14.499309914148663, 65.434270865482247 ], [ 14.499478251895365, 65.434418750625554 ], [ 14.499526182786456, 65.434595577537024 ], [ 14.499804966312125, 65.434830501752671 ], [ 14.499836581713533, 65.435037691381893 ], [ 14.50033085457928, 65.435221016895738 ], [ 14.50031082311696, 65.435604704272393 ], [ 14.499714410017027, 65.435780210040875 ], [ 14.499249969601305, 65.436066332352453 ], [ 14.499265930401744, 65.436257947871923 ], [ 14.49969893107154, 65.436670588998354 ], [ 14.499574171595047, 65.43687026314511 ], [ 14.498947511740814, 65.437205376302941 ], [ 14.498454196404134, 65.437331062194119 ], [ 14.497582989929198, 65.437701518414116 ], [ 14.497583697415818, 65.437788464212133 ], [ 14.497976122966879, 65.438090524138957 ], [ 14.498010806234955, 65.438238505820166 ], [ 14.497315872234413, 65.438566835952898 ], [ 14.497216571632615, 65.438696966186384 ], [ 14.497301727109717, 65.439023399058073 ], [ 14.497685951526975, 65.43929313144784 ], [ 14.497557473989646, 65.440439030354156 ], [ 14.497236215580557, 65.440899059955356 ], [ 14.497192982378492, 65.441084557158362 ], [ 14.496743913494477, 65.441304954609905 ], [ 14.495276169887241, 65.441683821615683 ], [ 14.49423045817173, 65.442159013967327 ], [ 14.493112810603781, 65.442482861587607 ] ] ] } },
{ "type": "Feature", "properties": { "fid": 698457, "elvelengde_m": 2159.06, "elvID": "151-3-1404", "elvenavn": null, "regulert": null, "fid_2": 859, "id": 859, "left": 14.486919847, "top": 65.446110046000001, "right": 14.986919847, "bottom": 64.946110046000001, "row_index": 18, "col_index": 21, "tile_id": 859 }, "geometry": { "type": "MultiLineString", "coordinates": [ [ [ 14.486919847, 65.445371345229006 ], [ 14.486968992204405, 65.445383969290418 ], [ 14.487532617691874, 65.445698659154417 ], [ 14.487413600408953, 65.446110046 ] ] ] } },
{ "type": "Feature", "properties": { "fid": 698465, "elvelengde_m": 1466.15, "elvID": "151-3-1376", "elvenavn": null, "regulert": null, "fid_2": 859, "id": 859, "left": 14.486919847, "top": 65.446110046000001, "right": 14.986919847, "bottom": 64.946110046000001, "row_index": 18, "col_index": 21, "tile_id": 859 }, "geometry": { "type": "MultiLineString", "coordinates": [ [ [ 14.489569162118901, 65.430360860290321 ], [ 14.488649913645721, 65.430613922142683 ], [ 14.488775098256951, 65.430715824149289 ], [ 14.488698293633274, 65.430929559006969 ], [ 14.48872017022504, 65.431222585308547 ], [ 14.489269275714173, 65.431515597257032 ], [ 14.489295454722132, 65.431632328193217 ], [ 14.489047952481167, 65.431922740366588 ], [ 14.488951687503292, 65.432482389471545 ], [ 14.488852582757858, 65.432767290763735 ], [ 14.488669187380555, 65.432963976673733 ], [ 14.488676405374832, 65.433080105286294 ], [ 14.489248673872243, 65.433934694728393 ], [ 14.489300549552489, 65.434270531156102 ], [ 14.4896541858175, 65.434564407050615 ], [ 14.489860401099069, 65.434979003790687 ], [ 14.489857574507266, 65.436143625000156 ], [ 14.490151502096472, 65.436305492292973 ], [ 14.490642233965154, 65.436779815772425 ], [ 14.490840474681654, 65.437218071529983 ], [ 14.491079305009761, 65.437487242139341 ], [ 14.491069937643166, 65.438025201631476 ], [ 14.490765948874845, 65.438224624874479 ], [ 14.490522837477704, 65.438685890454593 ], [ 14.490537966974097, 65.438950360871672 ], [ 14.490895457894011, 65.439116208925938 ], [ 14.491165469571696, 65.439468300287587 ], [ 14.491150245747495, 65.439841594663577 ], [ 14.490963619120654, 65.440158593557669 ], [ 14.490971324075522, 65.440894274324634 ], [ 14.491483985650621, 65.441299400605942 ], [ 14.491839789650937, 65.44175442405529 ], [ 14.492226747763008, 65.44192673815877 ], [ 14.492722970160003, 65.442013191776283 ], [ 14.493112810603781, 65.442482861587607 ] ] ] } },
{ "type": "Feature", "properties": { "fid": 698490, "elvelengde_m": 198.42, "elvID": "151-3-1376", "elvenavn": null, "regulert": null, "fid_2": 859, "id": 859, "left": 14.486919847, "top": 65.446110046000001, "right": 14.986919847, "bottom": 64.946110046000001, "row_index": 18, "col_index": 21, "tile_id": 859 }, "geometry": { "type": "MultiLineString", "coordinates": [ [ [ 14.49224092666503, 65.429172377440054 ], [ 14.49211653319743, 65.42926303095885 ], [ 14.49197516605717, 65.429707054448684 ], [ 14.491774852674611, 65.429867169185087 ], [ 14.489569162118901, 65.430360860290321 ] ] ] } },
{ "type": "Feature", "properties": { "fid": 698503, "elvelengde_m": 191.85, "elvID": "151-3-1379", "elvenavn": null, "regulert": null, "fid_2": 859, "id": 859, "left": 14.486919847, "top": 65.446110046000001, "right": 14.986919847, "bottom": 64.946110046000001, "row_index": 18, "col_index": 21, "tile_id": 859 }, "geometry": { "type": "MultiLineString", "coordinates": [ [ [ 14.489570397787336, 65.428658510275596 ], [ 14.48956680810601, 65.429031216235188 ], [ 14.489429561798067, 65.429360941600464 ], [ 14.489528336969389, 65.429878181076447 ], [ 14.489632937888819, 65.430029810373085 ], [ 14.489569162118901, 65.430360860290321 ] ] ] } },
{ "type": "Feature", "properties": { "fid": 701250, "elvelengde_m": 518.77, "elvID": "151-3-670", "elvenavn": null, "regulert": null, "fid_2": 859, "id": 859, "left": 14.486919847, "top": 65.446110046000001, "right": 14.986919847, "bottom": 64.946110046000001, "row_index": 18, "col_index": 21, "tile_id": 859 }, "geometry": { "type": "MultiLineString", "coordinates": [ [ [ 14.50129630809653, 65.412625421050663 ], [ 14.500318710363398, 65.412203177954112 ], [ 14.499711664548123, 65.412105524211199 ], [ 14.499566812135246, 65.411930619212271 ], [ 14.499307800958741, 65.411823796541384 ], [ 14.498534842579874, 65.411831823379117 ], [ 14.496558830530949, 65.411329616842664 ], [ 14.495375906623542, 65.411130342879659 ], [ 14.493840876876655, 65.410617368532044 ], [ 14.493726221203888, 65.410476116090152 ], [ 14.493003739052227, 65.410247857381947 ], [ 14.492646081741215, 65.410032124843724 ] ] ] } },
{ "type": "Feature", "properties": { "fid": 701251, "elvelengde_m": 474.48, "elvID": "151-3-674", "elvenavn": null, "regulert": null, "fid_2": 859, "id": 859, "left": 14.486919847, "top": 65.446110046000001, "right": 14.986919847, "bottom": 64.946110046000001, "row_index": 18, "col_index": 21, "tile_id": 859 }, "geometry": { "type": "MultiLineString", "coordinates": [ [ [ 14.499017271289334, 65.412928428552817 ], [ 14.498624423484239, 65.412802678003573 ], [ 14.497597777408691, 65.41266046650864 ], [ 14.497027679254169, 65.41246682900308 ], [ 14.496539829561133, 65.412443761609154 ], [ 14.496068305780977, 65.412221198104675 ], [ 14.495237075811806, 65.412111294441885 ], [ 14.495196756564798, 65.411967868659062 ], [ 14.494697162440042, 65.411503846179954 ], [ 14.494338761276197, 65.411358549610469 ], [ 14.49293825860088, 65.4104933954318 ], [ 14.492679319167186, 65.410195536373763 ], [ 14.492646081741215, 65.410032124843724 ] ] ] } },
{ "type": "Feature", "properties": { "fid": 701314, "elvelengde_m": 201.35, "elvID": "151-3-670", "elvenavn": null, "regulert": null, "fid_2": 859, "id": 859, "left": 14.486919847, "top": 65.446110046000001, "right": 14.986919847, "bottom": 64.946110046000001, "row_index": 18, "col_index": 21, "tile_id": 859 }, "geometry": { "type": "MultiLineString", "coordinates": [ [ [ 14.492646081741215, 65.410032124843724 ], [ 14.492387723854556, 65.409871546908661 ], [ 14.49237336439236, 65.409756650328134 ], [ 14.492129610793032, 65.409654173224752 ], [ 14.492115994606422, 65.409311466552438 ], [ 14.492025532168659, 65.409167243339652 ], [ 14.491294590300368, 65.408733566615055 ], [ 14.490640453615709, 65.408582600317402 ] ] ] } },
{ "type": "Feature", "properties": { "fid": 701325, "elvelengde_m": 591.79, "elvID": "151-3-646", "elvenavn": null, "regulert": null, "fid_2": 859, "id": 859, "left": 14.486919847, "top": 65.446110046000001, "right": 14.986919847, "bottom": 64.946110046000001, "row_index": 18, "col_index": 21, "tile_id": 859 }, "geometry": { "type": "MultiLineString", "coordinates": [ [ [ 14.501350183215944, 65.409717647876818 ], [ 14.500508265312162, 65.409587865414267 ], [ 14.498555768226963, 65.409056601428262 ], [ 14.497843521104546, 65.408934993351892 ], [ 14.497359064172302, 65.408625536627596 ], [ 14.497304300238232, 65.408516338402166 ], [ 14.49689418951646, 65.40835140548775 ], [ 14.496060453612595, 65.408344591997121 ], [ 14.494524815815875, 65.408586660384998 ], [ 14.493742747318477, 65.408591850554814 ], [ 14.492516107919993, 65.408845430535308 ], [ 14.491961809924485, 65.408765418789244 ], [ 14.491804738458168, 65.408613345003673 ], [ 14.491254338985375, 65.408532446490256 ], [ 14.490640453615709, 65.408582600317402 ] ] ] } },
{ "type": "Feature", "properties": { "fid": 701327, "elvelengde_m": 133.18, "elvID": "151-3-646", "elvenavn": null, "regulert": null, "fid_2": 859, "id": 859, "left": 14.486919847, "top": 65.446110046000001, "right": 14.986919847, "bottom": 64.946110046000001, "row_index": 18, "col_index": 21, "tile_id": 859 }, "geometry": { "type": "MultiLineString", "coordinates": [ [ [ 14.490640453615709, 65.408582600317402 ], [ 14.489722254234684, 65.408633160798104 ], [ 14.488099145269803, 65.408232614885506 ] ] ] } },
{ "type": "Feature", "properties": { "fid": 701328, "elvelengde_m": 1386.0, "elvID": "151-3-634", "elvenavn": null, "regulert": null, "fid_2": 859, "id": 859, "left": 14.486919847, "top": 65.446110046000001, "right": 14.986919847, "bottom": 64.946110046000001, "row_index": 18, "col_index": 21, "tile_id": 859 }, "geometry": { "type": "MultiLineString", "coordinates": [ [ [ 14.489482326209245, 65.41874439026914 ], [ 14.489105699373441, 65.418170671877149 ], [ 14.489335335623624, 65.418049869533874 ], [ 14.489424191595255, 65.417912082324378 ], [ 14.489937192762577, 65.417710136605692 ], [ 14.489970883242703, 65.417595043001469 ], [ 14.489819201915864, 65.417418580350798 ], [ 14.489872423175477, 65.417362681559979 ], [ 14.490939579238974, 65.417034293091262 ], [ 14.49205123841598, 65.416464326839787 ], [ 14.492241885466793, 65.415707416788564 ], [ 14.49263268040696, 65.415383025468628 ], [ 14.492619597392096, 65.414978948852976 ], [ 14.491943682783907, 65.414653758996494 ], [ 14.49160919209665, 65.414229131961051 ], [ 14.491560323194493, 65.414027534502239 ], [ 14.491110960515922, 65.413762320817966 ], [ 14.491252532266083, 65.413593036846791 ], [ 14.491201005103001, 65.413284208606257 ], [ 14.491052680981236, 65.413146519658682 ], [ 14.491105893640011, 65.412835082820166 ], [ 14.490832326730001, 65.412591634729836 ], [ 14.490812465598003, 65.41243840681166 ], [ 14.489938452657555, 65.41209262161 ], [ 14.489055592464839, 65.412047381169913 ], [ 14.488202019001481, 65.411748760657105 ], [ 14.487620703683964, 65.41133997787432 ], [ 14.487600965319169, 65.411225600939346 ], [ 14.487368410051026, 65.411035223281885 ], [ 14.487345441255783, 65.410799706154876 ], [ 14.486983092774187, 65.410572638842737 ], [ 14.486970690509562, 65.410292563979212 ], [ 14.48710898909262, 65.410158714195774 ], [ 14.486968506684203, 65.409875243982725 ], [ 14.487134526925221, 65.409645302632583 ], [ 14.487424147034794, 65.409471409769822 ], [ 14.487363844613952, 65.409261965862385 ], [ 14.487457325478797, 65.408996605922141 ], [ 14.488233379406745, 65.408549440788889 ], [ 14.488099145269803, 65.408232614885506 ] ] ] } },
{ "type": "Feature", "properties": { "fid": 701402, "elvelengde_m": 262.76, "elvID": "151-3-634", "elvenavn": null, "regulert": null, "fid_2": 859, "id": 859, "left": 14.486919847, "top": 65.446110046000001, "right": 14.986919847, "bottom": 64.946110046000001, "row_index": 18, "col_index": 21, "tile_id": 859 }, "geometry": { "type": "MultiLineString", "coordinates": [ [ [ 14.488099145269803, 65.408232614885506 ], [ 14.487179285073871, 65.40810397272918 ], [ 14.486919847, 65.407993924938722 ] ] ] } },
{ "type": "Feature", "properties": { "fid": 701458, "elvelengde_m": 812.76, "elvID": "151-3-692", "elvenavn": null, "regulert": null, "fid_2": 859, "id": 859, "left": 14.486919847, "top": 65.446110046000001, "right": 14.986919847, "bottom": 64.946110046000001, "row_index": 18, "col_index": 21, "tile_id": 859 }, "geometry": { "type": "MultiLineString", "coordinates": [ [ [ 14.501412213368718, 65.406433057989602 ], [ 14.49888146869721, 65.406051884454925 ], [ 14.497640213901104, 65.406054226376625 ], [ 14.496687935078159, 65.405899513905368 ], [ 14.495777963434291, 65.405964584052015 ], [ 14.495533295983304, 65.405854662076706 ], [ 14.495128802216167, 65.40589297077392 ], [ 14.494979566392148, 65.405837470840737 ], [ 14.494937673962518, 65.40567564589486 ], [ 14.494711380614547, 65.405562374372764 ], [ 14.494032071117632, 65.405435743702441 ], [ 14.493959124505896, 65.405321458708144 ], [ 14.493566295006268, 65.4052576050791 ], [ 14.492733578592421, 65.405392721902047 ], [ 14.491390104674323, 65.40582669712289 ], [ 14.490682526609714, 65.40589241721274 ], [ 14.489480601218022, 65.405854627629893 ], [ 14.488197446140964, 65.405598520898522 ], [ 14.487659702654556, 65.405380461775053 ], [ 14.487120496534677, 65.405347858156262 ], [ 14.486919847, 65.405224990293746 ] ] ] } },
{ "type": "Feature", "properties": { "fid": 703160, "elvelengde_m": 261.62, "elvID": "151-3-737", "elvenavn": null, "regulert": null, "fid_2": 859, "id": 859, "left": 14.486919847, "top": 65.446110046000001, "right": 14.986919847, "bottom": 64.946110046000001, "row_index": 18, "col_index": 21, "tile_id": 859 }, "geometry": { "type": "MultiLineString", "coordinates": [ [ [ 14.491090106368151, 65.402784446151244 ], [ 14.49055830833076, 65.402494726577117 ], [ 14.48948979660442, 65.40223639236882 ], [ 14.488599163686763, 65.401634644964474 ], [ 14.486938710243232, 65.401383082410447 ] ] ] } },
{ "type": "Feature", "properties": { "fid": 703162, "elvelengde_m": 449.04, "elvID": "151-3-634", "elvenavn": null, "regulert": null, "fid_2": 859, "id": 859, "left": 14.486919847, "top": 65.446110046000001, "right": 14.986919847, "bottom": 64.946110046000001, "row_index": 18, "col_index": 21, "tile_id": 859 }, "geometry": { "type": "MultiLineString", "coordinates": [ [ [ 14.486919847, 65.402408844928289 ], [ 14.487074878122955, 65.402348182638434 ], [ 14.487245541609823, 65.4020543723055 ], [ 14.486919847, 65.401868441082996 ] ], [ [ 14.486919847, 65.401429726447148 ], [ 14.486938710243232, 65.401383082410447 ] ] ] } },
{ "type": "Feature", "properties": { "fid": 703368, "elvelengde_m": 585.33, "elvID": "151-3-634", "elvenavn": null, "regulert": null, "fid_2": 859, "id": 859, "left": 14.486919847, "top": 65.446110046000001, "right": 14.986919847, "bottom": 64.946110046000001, "row_index": 18, "col_index": 21, "tile_id": 859 }, "geometry": { "type": "MultiLineString", "coordinates": [ [ [ 14.486938710243232, 65.401383082410447 ], [ 14.486919847, 65.401263833412656 ] ], [ [ 14.486919847, 65.401071816634314 ], [ 14.487165385073983, 65.400922034497228 ], [ 14.487075441622906, 65.400291138882054 ], [ 14.487195195174008, 65.400189168336141 ], [ 14.487198934652739, 65.400063924272587 ], [ 14.487537620661156, 65.399808368039501 ], [ 14.487310333303805, 65.399606971355482 ], [ 14.487270305737935, 65.399451790008271 ], [ 14.486919847, 65.39917314939153 ] ], [ [ 14.486919847, 65.398436214090594 ], [ 14.486938645265704, 65.398422141741662 ], [ 14.486938989320597, 65.398140045976888 ], [ 14.486919847, 65.398119498745643 ] ] ] } },
{ "type": "Feature", "properties": { "fid": 704656, "elvelengde_m": 934.95, "elvID": "151-3-757", "elvenavn": null, "regulert": null, "fid_2": 859, "id": 859, "left": 14.486919847, "top": 65.446110046000001, "right": 14.986919847, "bottom": 64.946110046000001, "row_index": 18, "col_index": 21, "tile_id": 859 }, "geometry": { "type": "MultiLineString", "coordinates": [ [ [ 14.494059984594074, 65.398835638375729 ], [ 14.494120946869444, 65.398587661862024 ], [ 14.493801515874964, 65.398395657014646 ], [ 14.49333423622369, 65.398313159449543 ], [ 14.493244380039918, 65.39820617475884 ], [ 14.493195788792345, 65.397823602083946 ], [ 14.493084040178752, 65.397624126694026 ], [ 14.49310947581117, 65.39736571298188 ], [ 14.493292210951152, 65.397188579445924 ], [ 14.493374239615916, 65.396841975785648 ], [ 14.493299304125477, 65.396419297236434 ], [ 14.492453893389916, 65.396078375823251 ], [ 14.49241595091042, 65.395691352226351 ], [ 14.492058521085941, 65.395541117703686 ], [ 14.491959558923744, 65.395371383467719 ], [ 14.491994496426575, 65.395078547190536 ], [ 14.491577419936354, 65.394919048765985 ], [ 14.491572157904276, 65.394634870452137 ], [ 14.491784459327496, 65.394464388094477 ], [ 14.49188447112113, 65.394256920054588 ], [ 14.491498458908282, 65.394005467410565 ], [ 14.491553472674894, 65.393676270152298 ], [ 14.489960505472576, 65.393132819937989 ], [ 14.489932889333888, 65.392992126863945 ], [ 14.490076005061074, 65.392848779692912 ], [ 14.489978808161268, 65.392556036296156 ], [ 14.489662014040913, 65.392344291553144 ], [ 14.489683741739286, 65.392134407157059 ], [ 14.489399895866132, 65.391999578125379 ], [ 14.489415816563454, 65.391712061543686 ], [ 14.489290017434003, 65.391562602436125 ] ] ] } },
{ "type": "Feature", "properties": { "fid": 704658, "elvelengde_m": 468.45, "elvID": "151-3-634", "elvenavn": null, "regulert": null, "fid_2": 859, "id": 859, "left": 14.486919847, "top": 65.446110046000001, "right": 14.986919847, "bottom": 64.946110046000001, "row_index": 18, "col_index": 21, "tile_id": 859 }, "geometry": { "type": "MultiLineString", "coordinates": [ [ [ 14.486919847, 65.394673448673586 ], [ 14.487045043227756, 65.394627741887831 ], [ 14.487073230493776, 65.394518013481118 ], [ 14.487200642251651, 65.39445240774775 ], [ 14.487096787826703, 65.393972831340449 ], [ 14.486919847, 65.393759575885539 ] ], [ [ 14.486919847, 65.393402313115701 ], [ 14.488767025335425, 65.39235930215284 ], [ 14.488939327853371, 65.392054459045227 ], [ 14.488866677812089, 65.391794996303162 ], [ 14.489290017434003, 65.391562602436125 ] ] ] } },
{ "type": "Feature", "properties": { "fid": 704725, "elvelengde_m": 395.51, "elvID": "151-3-845", "elvenavn": null, "regulert": null, "fid_2": 859, "id": 859, "left": 14.486919847, "top": 65.446110046000001, "right": 14.986919847, "bottom": 64.946110046000001, "row_index": 18, "col_index": 21, "tile_id": 859 }, "geometry": { "type": "MultiLineString", "coordinates": [ [ [ 14.499729587513386, 65.393354068559589 ], [ 14.499543025053331, 65.393216081395536 ], [ 14.498938932855737, 65.39303184787785 ], [ 14.498910370816196, 65.3927351208864 ], [ 14.499059846698866, 65.392515071165107 ], [ 14.498143436529912, 65.391905128475983 ], [ 14.498205145812449, 65.391739341236317 ], [ 14.498640110326132, 65.391468557494875 ], [ 14.498760211196133, 65.391152135187895 ], [ 14.498058330217379, 65.390783636433824 ], [ 14.497884500726816, 65.390453766585523 ], [ 14.497517677520584, 65.390380318572866 ] ] ] } },
{ "type": "Feature", "properties": { "fid": 704726, "elvelengde_m": 441.97, "elvID": "151-3-842", "elvenavn": null, "regulert": null, "fid_2": 859, "id": 859, "left": 14.486919847, "top": 65.446110046000001, "right": 14.986919847, "bottom": 64.946110046000001, "row_index": 18, "col_index": 21, "tile_id": 859 }, "geometry": { "type": "MultiLineString", "coordinates": [ [ [ 14.497256055009892, 65.39382939283847 ], [ 14.497259578529411, 65.393656413893481 ], [ 14.497407880452815, 65.393431337253062 ], [ 14.497001314845033, 65.39323940810695 ], [ 14.497073096779259, 65.393053825521733 ], [ 14.496920024827965, 65.392786382926744 ], [ 14.496562180249191, 65.392647283536078 ], [ 14.496570088199517, 65.392459245291747 ], [ 14.496727551332846, 65.392328770441026 ], [ 14.496784484705561, 65.391906981091225 ], [ 14.496414344985073, 65.391601668780808 ], [ 14.496508997384828, 65.391300775645277 ], [ 14.497590154421086, 65.390855566194375 ], [ 14.497586503317219, 65.390731373994669 ], [ 14.497344088421931, 65.390623435822434 ], [ 14.497338243371862, 65.390535126507999 ], [ 14.497517677520584, 65.390380318572866 ] ] ] } },
{ "type": "Feature", "properties": { "fid": 705022, "elvelengde_m": 647.98, "elvID": "151-3-842", "elvenavn": null, "regulert": null, "fid_2": 859, "id": 859, "left": 14.486919847, "top": 65.446110046000001, "right": 14.986919847, "bottom": 64.946110046000001, "row_index": 18, "col_index": 21, "tile_id": 859 }, "geometry": { "type": "MultiLineString", "coordinates": [ [ [ 14.497517677520584, 65.390380318572866 ], [ 14.497489319495518, 65.390265196225059 ], [ 14.497263519265998, 65.390076380747331 ], [ 14.497269488250152, 65.38976442506106 ], [ 14.497504007941322, 65.389609710621329 ], [ 14.497431594347503, 65.389446438637748 ], [ 14.497535548953268, 65.389277023610518 ], [ 14.497356943306205, 65.389186435083488 ], [ 14.497438600803902, 65.388990118041761 ], [ 14.496840956149851, 65.388722362730547 ], [ 14.496716185700793, 65.388551558570484 ], [ 14.496448812180418, 65.388433307049709 ], [ 14.496518690406422, 65.388268085984407 ], [ 14.496416176681896, 65.388081474277286 ], [ 14.496523025400581, 65.387951997413538 ], [ 14.496962279569187, 65.387859427658739 ], [ 14.497772605641021, 65.387525741513045 ], [ 14.498006061741368, 65.387177574557882 ], [ 14.498355135880837, 65.386983670306051 ], [ 14.498249956025822, 65.386868651948447 ], [ 14.498250378459646, 65.386745101308094 ], [ 14.499176013376033, 65.386308516419007 ], [ 14.499120020042499, 65.386028656410119 ], [ 14.499703023304994, 65.38565077933491 ], [ 14.49969534653887, 65.385534110742299 ], [ 14.499850522093041, 65.385465316775807 ] ] ] } },
{ "type": "Feature", "properties": { "fid": 705029, "elvelengde_m": 24.9, "elvID": "151-3-820", "elvenavn": null, "regulert": null, "fid_2": 859, "id": 859, "left": 14.486919847, "top": 65.446110046000001, "right": 14.986919847, "bottom": 64.946110046000001, "row_index": 18, "col_index": 21, "tile_id": 859 }, "geometry": { "type": "MultiLineString", "coordinates": [ [ [ 14.499998149462012, 65.38537261992299 ], [ 14.500525058439782, 65.385397497072901 ] ] ] } },
{ "type": "Feature", "properties": { "fid": 705030, "elvelengde_m": 12.59, "elvID": "151-3-842", "elvenavn": null, "regulert": null, "fid_2": 859, "id": 859, "left": 14.486919847, "top": 65.446110046000001, "right": 14.986919847, "bottom": 64.946110046000001, "row_index": 18, "col_index": 21, "tile_id": 859 }, "geometry": { "type": "MultiLineString", "coordinates": [ [ [ 14.499850522093041, 65.385465316775807 ], [ 14.499998149462012, 65.38537261992299 ] ] ] } },
{ "type": "Feature", "properties": { "fid": 705032, "elvelengde_m": 1785.55, "elvID": "151-3-820", "elvenavn": null, "regulert": null, "fid_2": 859, "id": 859, "left": 14.486919847, "top": 65.446110046000001, "right": 14.986919847, "bottom": 64.946110046000001, "row_index": 18, "col_index": 21, "tile_id": 859 }, "geometry": { "type": "MultiLineString", "coordinates": [ [ [ 14.498771957506246, 65.3985682493512 ], [ 14.497830050049004, 65.398335426795072 ], [ 14.497660287706534, 65.398206914431711 ], [ 14.497641982500269, 65.398060960121967 ], [ 14.497323106344556, 65.397906559537859 ], [ 14.496776276339537, 65.397256833249287 ], [ 14.496177892318505, 65.397063186821086 ], [ 14.49607844684658, 65.396916961850664 ], [ 14.495826082858377, 65.396741425058892 ], [ 14.495587773974229, 65.396686077076964 ], [ 14.495193322964855, 65.396377091976731 ], [ 14.494590435046952, 65.396385485814292 ], [ 14.494348274013525, 65.396284542457025 ], [ 14.494320851264096, 65.39588642865337 ], [ 14.494177668587263, 65.39578779000594 ], [ 14.49418733166674, 65.395666154624621 ], [ 14.494505689477075, 65.395375342570404 ], [ 14.494512690347706, 65.395257735909638 ], [ 14.494157873346371, 65.39512788277392 ], [ 14.494127544500978, 65.394635098773918 ], [ 14.494266753392331, 65.394503668116798 ], [ 14.49414311981459, 65.394217389116051 ], [ 14.49419766508421, 65.393843865039642 ], [ 14.493893605006042, 65.393560929908702 ], [ 14.493868771274785, 65.39340876207261 ], [ 14.493526780979185, 65.393251404570549 ], [ 14.49341085443108, 65.393113197768344 ], [ 14.493445633133325, 65.39281632293968 ], [ 14.493366684284915, 65.392736202668843 ], [ 14.493322478610668, 65.392383433299997 ], [ 14.493401852789606, 65.391861048285477 ], [ 14.493318547488238, 65.39140424568518 ], [ 14.493572882201695, 65.391206176550511 ], [ 14.493554491493693, 65.390619489518841 ], [ 14.493786251133049, 65.39031914702241 ], [ 14.493870201956256, 65.389927148174451 ], [ 14.493990597521009, 65.389855053050766 ], [ 14.493817360183604, 65.389441556122918 ], [ 14.494243652813926, 65.3891074993914 ], [ 14.494251636886631, 65.388457913242831 ], [ 14.494698851640203, 65.388164750367864 ], [ 14.495094751278295, 65.388033279635749 ], [ 14.496016079759366, 65.388039405292048 ], [ 14.496042544517243, 65.387770316952711 ], [ 14.496156826974234, 65.387657195174171 ], [ 14.496127143205078, 65.387454675418084 ], [ 14.496676541812802, 65.387071134872556 ], [ 14.497009460114898, 65.386945909656845 ], [ 14.497045012106794, 65.386808658183099 ], [ 14.497283852690682, 65.386741710038962 ], [ 14.497290354738269, 65.386604182426566 ], [ 14.497820082071584, 65.386370144799699 ], [ 14.498098791935774, 65.385882694560081 ], [ 14.498593180683928, 65.385571103761166 ], [ 14.499018590458004, 65.385367043082709 ], [ 14.4995599366965, 65.385300376050864 ], [ 14.499998149462012, 65.38537261992299 ] ] ] } },
{ "type": "Feature", "properties": { "fid": 705039, "elvelengde_m": 69.8, "elvID": "151-3-820", "elvenavn": null, "regulert": null, "fid_2": 859, "id": 859, "left": 14.486919847, "top": 65.446110046000001, "right": 14.986919847, "bottom": 64.946110046000001, "row_index": 18, "col_index": 21, "tile_id": 859 }, "geometry": { "type": "MultiLineString", "coordinates": [ [ [ 14.500525058439782, 65.385397497072901 ], [ 14.501211115255357, 65.385369719201876 ], [ 14.501809302841734, 65.385175731769195 ] ] ] } },
{ "type": "Feature", "properties": { "fid": 706701, "elvelengde_m": 1132.61, "elvID": "151-3-634", "elvenavn": null, "regulert": null, "fid_2": 859, "id": 859, "left": 14.486919847, "top": 65.446110046000001, "right": 14.986919847, "bottom": 64.946110046000001, "row_index": 18, "col_index": 21, "tile_id": 859 }, "geometry": { "type": "MultiLineString", "coordinates": [ [ [ 14.489290017434003, 65.391562602436125 ], [ 14.489607358451266, 65.391158294275627 ], [ 14.490403818168378, 65.390539901284896 ], [ 14.490462140274802, 65.390340279104052 ], [ 14.490872093517316, 65.390052654522123 ], [ 14.490960981045438, 65.389707959158002 ], [ 14.491180721342383, 65.389440419636401 ], [ 14.491188710269082, 65.389227796964661 ], [ 14.490986854356096, 65.389061035306398 ], [ 14.490959502850071, 65.388851075104427 ], [ 14.490187487942055, 65.388534702750562 ], [ 14.489707860201529, 65.388100247992497 ], [ 14.489664767107168, 65.387482700728867 ], [ 14.489534621742616, 65.387347583110326 ], [ 14.489667284519724, 65.387120397285088 ], [ 14.489635944251051, 65.38697242367536 ], [ 14.48887629704303, 65.386753887031077 ], [ 14.488239987630138, 65.386357030787764 ], [ 14.487277240283369, 65.386138785126249 ], [ 14.486919847, 65.385906306494732 ] ] ] } },
{ "type": "Feature", "properties": { "fid": 709327, "elvelengde_m": 354.52, "elvID": "151-3-786", "elvenavn": null, "regulert": null, "fid_2": 859, "id": 859, "left": 14.486919847, "top": 65.446110046000001, "right": 14.986919847, "bottom": 64.946110046000001, "row_index": 18, "col_index": 21, "tile_id": 859 }, "geometry": { "type": "MultiLineString", "coordinates": [ [ [ 14.487802978504117, 65.368459484867117 ], [ 14.487663220704386, 65.367906927820357 ], [ 14.487756399281656, 65.367196525419999 ], [ 14.487932448327165, 65.366967424178128 ], [ 14.487890822736752, 65.366388641021771 ], [ 14.4879616833729, 65.365697633223562 ], [ 14.487868330323646, 65.365578071042734 ], [ 14.487860875821944, 65.365309406514314 ] ] ] } },
{ "type": "Feature", "properties": { "fid": 709343, "elvelengde_m": 467.51, "elvID": "151-3-791", "elvenavn": null, "regulert": null, "fid_2": 859, "id": 859, "left": 14.486919847, "top": 65.446110046000001, "right": 14.986919847, "bottom": 64.946110046000001, "row_index": 18, "col_index": 21, "tile_id": 859 }, "geometry": { "type": "MultiLineString", "coordinates": [ [ [ 14.494076337519616, 65.368568827083223 ], [ 14.493546769555824, 65.368197561693762 ], [ 14.493470898777892, 65.36797236474348 ], [ 14.493138163925765, 65.367742627270957 ], [ 14.493071315543705, 65.367596329344508 ], [ 14.492653346879111, 65.367449570238904 ], [ 14.492333385473978, 65.367138043908312 ], [ 14.491882117130759, 65.366923517441037 ], [ 14.491872871095364, 65.36661177884919 ], [ 14.492059609947363, 65.366439325838712 ], [ 14.491553730975095, 65.366136414184936 ], [ 14.491505812885858, 65.365879188371778 ], [ 14.491341705106873, 65.36574862306469 ], [ 14.491465261907313, 65.365463262334316 ], [ 14.491248158401181, 65.365182496863568 ], [ 14.49122660174069, 65.36480745994966 ] ] ] } },
{ "type": "Feature", "properties": { "fid": 709373, "elvelengde_m": 135.0, "elvID": "151-3-712", "elvenavn": null, "regulert": null, "fid_2": 859, "id": 859, "left": 14.486919847, "top": 65.446110046000001, "right": 14.986919847, "bottom": 64.946110046000001, "row_index": 18, "col_index": 21, "tile_id": 859 }, "geometry": { "type": "MultiLineString", "coordinates": [ [ [ 14.487702185576323, 65.363709504504001 ], [ 14.487736270522253, 65.363891225317545 ], [ 14.487628367380402, 65.364033613186024 ], [ 14.487653567769129, 65.364583179992039 ], [ 14.487802429862805, 65.364777582518869 ], [ 14.487639092703731, 65.364873662389456 ] ] ] } },
{ "type": "Feature", "properties": { "fid": 709416, "elvelengde_m": 290.77, "elvID": "151-3-807", "elvenavn": null, "regulert": null, "fid_2": 859, "id": 859, "left": 14.486919847, "top": 65.446110046000001, "right": 14.986919847, "bottom": 64.946110046000001, "row_index": 18, "col_index": 21, "tile_id": 859 }, "geometry": { "type": "MultiLineString", "coordinates": [ [ [ 14.492541101795785, 65.361977622023531 ], [ 14.492526340922142, 65.362274654766964 ], [ 14.492257157143692, 65.362476620194712 ], [ 14.492246216936852, 65.362664738549199 ], [ 14.492894504231439, 65.36298248254748 ], [ 14.493338783563209, 65.363355887284953 ], [ 14.493359862431875, 65.363478164595776 ], [ 14.493176104228542, 65.363564402670761 ], [ 14.493122059478658, 65.363680236813835 ], [ 14.493111273279432, 65.364117165453408 ], [ 14.493343228269346, 65.364341719083598 ] ] ] } },
{ "type": "Feature", "properties": { "fid": 709417, "elvelengde_m": 266.3, "elvID": "151-3-712", "elvenavn": null, "regulert": null, "fid_2": 859, "id": 859, "left": 14.486919847, "top": 65.446110046000001, "right": 14.986919847, "bottom": 64.946110046000001, "row_index": 18, "col_index": 21, "tile_id": 859 }, "geometry": { "type": "MultiLineString", "coordinates": [ [ [ 14.488143094845524, 65.361866324689814 ], [ 14.488466765167949, 65.361937048654625 ], [ 14.488803107181933, 65.362130290667636 ], [ 14.489188426696629, 65.36236981668786 ], [ 14.489199663164374, 65.362488651774626 ], [ 14.488481154131346, 65.363109904606134 ], [ 14.487896256089869, 65.363282259889701 ], [ 14.487814199832448, 65.36338911435179 ], [ 14.48755663133459, 65.363411748824717 ], [ 14.487529449963912, 65.363526864645721 ], [ 14.487785640326086, 65.363663399274785 ], [ 14.487702185576323, 65.363709504504001 ] ] ] } },
{ "type": "Feature", "properties": { "fid": 709419, "elvelengde_m": 544.91, "elvID": "151-3-810", "elvenavn": null, "regulert": null, "fid_2": 859, "id": 859, "left": 14.486919847, "top": 65.446110046000001, "right": 14.986919847, "bottom": 64.946110046000001, "row_index": 18, "col_index": 21, "tile_id": 859 }, "geometry": { "type": "MultiLineString", "coordinates": [ [ [ 14.502944322019852, 65.361760718644049 ], [ 14.50216760568328, 65.361806701906843 ], [ 14.501873075705438, 65.362000256228256 ], [ 14.501688639716711, 65.362249264912904 ], [ 14.50143902979358, 65.362386349637745 ], [ 14.500917055427744, 65.362918852924466 ], [ 14.500731766578937, 65.363007966290397 ], [ 14.500697383554929, 65.363120458478946 ], [ 14.500834821444762, 65.363321180726672 ], [ 14.500843888953467, 65.363579890106905 ], [ 14.500562829380115, 65.363741813225147 ], [ 14.500529300097417, 65.363990422189602 ], [ 14.50068694414484, 65.364134863578499 ], [ 14.500429789698538, 65.364305838059991 ], [ 14.500535561012953, 65.364475949031785 ], [ 14.500469803408107, 65.364678063161563 ], [ 14.500103499877406, 65.364991878379257 ], [ 14.500207043078058, 65.365188989643485 ], [ 14.500142672695613, 65.365453647067099 ], [ 14.499694426211514, 65.365621026830254 ], [ 14.498963421479223, 65.365698817609982 ] ] ] } },
{ "type": "Feature", "properties": { "fid": 709445, "elvelengde_m": 248.11, "elvID": "151-3-712", "elvenavn": null, "regulert": null, "fid_2": 859, "id": 859, "left": 14.486919847, "top": 65.446110046000001, "right": 14.986919847, "bottom": 64.946110046000001, "row_index": 18, "col_index": 21, "tile_id": 859 }, "geometry": { "type": "MultiLineString", "coordinates": [ [ [ 14.489773409791413, 65.359797288796756 ], [ 14.489463473435567, 65.360471069925282 ], [ 14.489438741331869, 65.360682111384321 ], [ 14.489096648267184, 65.361018323872756 ], [ 14.488667706730505, 65.361276628650273 ], [ 14.488641053469802, 65.361387170451692 ], [ 14.488142953824351, 65.361796338002449 ], [ 14.488143094845524, 65.361866324689814 ] ] ] } },
{ "type": "Feature", "properties": { "fid": 709527, "elvelengde_m": 821.01, "elvID": "151-3-733", "elvenavn": null, "regulert": null, "fid_2": 859, "id": 859, "left": 14.486919847, "top": 65.446110046000001, "right": 14.986919847, "bottom": 64.946110046000001, "row_index": 18, "col_index": 21, "tile_id": 859 }, "geometry": { "type": "MultiLineString", "coordinates": [ [ [ 14.49583486254283, 65.353963301220531 ], [ 14.495586820488413, 65.354525682446692 ], [ 14.495669685654173, 65.354698861115395 ], [ 14.495631191853688, 65.355159744331246 ], [ 14.495357896789498, 65.35546919314065 ], [ 14.495260100010432, 65.355884117807094 ], [ 14.494974639595616, 65.356143458198076 ], [ 14.494875830955177, 65.356599563410029 ], [ 14.494763216826172, 65.356677337916977 ], [ 14.494809208012869, 65.356968562642365 ], [ 14.493985293395129, 65.357340589015735 ], [ 14.49392841710965, 65.357749907453737 ], [ 14.493644248979507, 65.358074390691328 ], [ 14.493778452976418, 65.358349671084937 ], [ 14.493544697882532, 65.358656826571732 ], [ 14.493454436708289, 65.359046562296754 ], [ 14.492593254150586, 65.359596831263403 ], [ 14.492094810990904, 65.359772633480262 ], [ 14.491658382200979, 65.359775741019604 ], [ 14.490874111068379, 65.359625230659745 ], [ 14.489773409791413, 65.359797288796756 ] ] ] } },
{ "type": "Feature", "properties": { "fid": 709611, "elvelengde_m": 1134.49, "elvID": "151-3-712", "elvenavn": null, "regulert": null, "fid_2": 859, "id": 859, "left": 14.486919847, "top": 65.446110046000001, "right": 14.986919847, "bottom": 64.946110046000001, "row_index": 18, "col_index": 21, "tile_id": 859 }, "geometry": { "type": "MultiLineString", "coordinates": [ [ [ 14.488796254987024, 65.349947454392819 ], [ 14.488837470553811, 65.350292500857122 ], [ 14.488715642297777, 65.350601732877209 ], [ 14.488594191061967, 65.35067032084082 ], [ 14.488564976623508, 65.35086887532232 ], [ 14.488703987361351, 65.351135473586339 ], [ 14.48867929317567, 65.351510534483069 ], [ 14.48818569878336, 65.351929766781964 ], [ 14.488102953698059, 65.35223966912352 ], [ 14.488664759660898, 65.352723222150019 ], [ 14.488706917621665, 65.353097432660363 ], [ 14.488834653320078, 65.353292391156231 ], [ 14.488825498554869, 65.353597877201935 ], [ 14.488545075703488, 65.354049415764308 ], [ 14.488494521860757, 65.354593881302137 ], [ 14.48860638985729, 65.354787260840013 ], [ 14.488608281964446, 65.355674118871548 ], [ 14.48876209833081, 65.355854899228788 ], [ 14.488805746369909, 65.356130595468372 ], [ 14.489033830685264, 65.356360707043564 ], [ 14.488796384351161, 65.357143480195305 ], [ 14.488998428062537, 65.357530793206408 ], [ 14.489034926538693, 65.358064247757639 ], [ 14.489208109683906, 65.358255860202149 ], [ 14.489047191496175, 65.358484206674518 ], [ 14.489062858615391, 65.358596147933028 ], [ 14.489278330604712, 65.358768612275966 ], [ 14.489301373848296, 65.358987980390992 ], [ 14.489543588271651, 65.359289112025607 ], [ 14.489537793320407, 65.359565538013015 ], [ 14.489773409791413, 65.359797288796756 ] ] ] } },
{ "type": "Feature", "properties": { "fid": 715865, "elvelengde_m": 1401.25, "elvID": "151-3-908", "elvenavn": null, "regulert": null, "fid_2": 859, "id": 859, "left": 14.486919847, "top": 65.446110046000001, "right": 14.986919847, "bottom": 64.946110046000001, "row_index": 18, "col_index": 21, "tile_id": 859 }, "geometry": { "type": "MultiLineString", "coordinates": [ [ [ 14.489217296303032, 65.318168207745387 ], [ 14.48923726642006, 65.317935166135058 ], [ 14.489493755550265, 65.3177234726286 ], [ 14.489475381394175, 65.3174976587527 ], [ 14.489168490887293, 65.317187063442915 ], [ 14.488685142513384, 65.316868152865169 ], [ 14.488674678806451, 65.316677358976975 ], [ 14.489038520543776, 65.316396402440049 ], [ 14.48920856649776, 65.31609343390295 ], [ 14.489271577734021, 65.315787500670623 ], [ 14.489627104424027, 65.315602432142342 ], [ 14.490207425303597, 65.315478239547289 ], [ 14.491002699077281, 65.314979444671323 ], [ 14.492234595669053, 65.31468346250098 ], [ 14.493034162345232, 65.314114505409378 ], [ 14.493692874590838, 65.313794062136665 ], [ 14.493708588020878, 65.313702235026341 ], [ 14.493614404233435, 65.313623049260357 ], [ 14.493647569915245, 65.313449091341994 ], [ 14.493165672445373, 65.313267660709826 ], [ 14.493128311106718, 65.313001137325031 ], [ 14.493262995068031, 65.312569287945436 ], [ 14.4935418467561, 65.31228381790514 ], [ 14.494383173923403, 65.311892921544697 ], [ 14.494430165279788, 65.311713715929997 ], [ 14.494627029081235, 65.311641069319336 ], [ 14.494647631937589, 65.311484206807592 ], [ 14.494857405930942, 65.311331028813996 ], [ 14.494770346236962, 65.31086918427215 ], [ 14.494658642583799, 65.31076409918839 ], [ 14.491901746372198, 65.309417192319486 ], [ 14.49177649215089, 65.309158806505707 ], [ 14.491259660695087, 65.308891203961437 ], [ 14.491248782863739, 65.308543118114088 ], [ 14.491051934283803, 65.30832675124438 ], [ 14.490977430535578, 65.307862793070825 ], [ 14.490989580846769, 65.307766916432982 ], [ 14.49128063036618, 65.307547512419404 ] ] ] } },
{ "type": "Feature", "properties": { "fid": 715868, "elvelengde_m": 4.54, "elvID": "151-3-908", "elvenavn": null, "regulert": null, "fid_2": 859, "id": 859, "left": 14.486919847, "top": 65.446110046000001, "right": 14.986919847, "bottom": 64.946110046000001, "row_index": 18, "col_index": 21, "tile_id": 859 }, "geometry": { "type": "MultiLineString", "coordinates": [ [ [ 14.49128063036618, 65.307547512419404 ], [ 14.491282741796763, 65.30750678280279 ] ] ] } },
{ "type": "Feature", "properties": { "fid": 715881, "elvelengde_m": 51.89, "elvID": "151-3-908", "elvenavn": null, "regulert": null, "fid_2": 859, "id": 859, "left": 14.486919847, "top": 65.446110046000001, "right": 14.986919847, "bottom": 64.946110046000001, "row_index": 18, "col_index": 21, "tile_id": 859 }, "geometry": { "type": "MultiLineString", "coordinates": [ [ [ 14.491282741796763, 65.30750678280279 ], [ 14.491454839347236, 65.307381136981533 ], [ 14.491337329932406, 65.307222462993792 ], [ 14.491428125040413, 65.307086564406021 ] ] ] } },
{ "type": "Feature", "properties": { "fid": 715945, "elvelengde_m": 36.0, "elvID": "151-3-669", "elvenavn": "Harvassbekken", "regulert": null, "fid_2": 859, "id": 859, "left": 14.486919847, "top": 65.446110046000001, "right": 14.986919847, "bottom": 64.946110046000001, "row_index": 18, "col_index": 21, "tile_id": 859 }, "geometry": { "type": "MultiLineString", "coordinates": [ [ [ 14.487127185016568, 65.305157409844639 ], [ 14.486919847, 65.305241891310658 ] ] ] } },
{ "type": "Feature", "properties": { "fid": 742628, "elvelengde_m": 188.81, "elvID": "151-3-48", "elvenavn": "Unkerelva", "regulert": null, "fid_2": 859, "id": 859, "left": 14.486919847, "top": 65.446110046000001, "right": 14.986919847, "bottom": 64.946110046000001, "row_index": 18, "col_index": 21, "tile_id": 859 }, "geometry": { "type": "MultiLineString", "coordinates": [ [ [ 14.496224739386852, 65.445624409694503 ], [ 14.494801308619694, 65.446110046 ] ] ] } },
{ "type": "Feature", "properties": { "fid": 742630, "elvelengde_m": 24.12, "elvID": "151-3-1376", "elvenavn": null, "regulert": null, "fid_2": 859, "id": 859, "left": 14.486919847, "top": 65.446110046000001, "right": 14.986919847, "bottom": 64.946110046000001, "row_index": 18, "col_index": 21, "tile_id": 859 }, "geometry": { "type": "MultiLineString", "coordinates": [ [ [ 14.495944804730867, 65.445442022064299 ], [ 14.496224739386852, 65.445624409694503 ] ] ] } },
{ "type": "Feature", "properties": { "fid": 747555, "elvelengde_m": 172.31, "elvID": "151-3-985", "elvenavn": null, "regulert": null, "fid_2": 859, "id": 859, "left": 14.486919847, "top": 65.446110046000001, "right": 14.986919847, "bottom": 64.946110046000001, "row_index": 18, "col_index": 21, "tile_id": 859 }, "geometry": { "type": "MultiLineString", "coordinates": [ [ [ 14.491333702721283, 65.303271605754873 ], [ 14.490589857181066, 65.303433332346131 ], [ 14.489144501891897, 65.304216616070462 ], [ 14.488966138372767, 65.30440023551256 ] ] ] } },
{ "type": "Feature", "properties": { "fid": 752057, "elvelengde_m": 123.96, "elvID": "151-3-669", "elvenavn": "Harvassbekken", "regulert": null, "fid_2": 859, "id": 859, "left": 14.486919847, "top": 65.446110046000001, "right": 14.986919847, "bottom": 64.946110046000001, "row_index": 18, "col_index": 21, "tile_id": 859 }, "geometry": { "type": "MultiLineString", "coordinates": [ [ [ 14.488966138372767, 65.30440023551256 ], [ 14.487856246431896, 65.304738328464154 ], [ 14.487630237444119, 65.304978286219338 ], [ 14.487127185016568, 65.305157409844639 ] ] ] } },
{ "type": "Feature", "properties": { "fid": 752069, "elvelengde_m": 236.69, "elvID": "151-3-48", "elvenavn": "Unkerelva", "regulert": null, "fid_2": 859, "id": 859, "left": 14.486919847, "top": 65.446110046000001, "right": 14.986919847, "bottom": 64.946110046000001, "row_index": 18, "col_index": 21, "tile_id": 859 }, "geometry": { "type": "MultiLineString", "coordinates": [ [ [ 14.500687237120426, 65.44463748732683 ], [ 14.500332298897796, 65.444659731826903 ], [ 14.498741103059984, 65.445116768456501 ], [ 14.496224739386852, 65.445624409694503 ] ] ] } },
{ "type": "Feature", "properties": { "fid": 752134, "elvelengde_m": 225.87, "elvID": "151-3-444", "elvenavn": null, "regulert": null, "fid_2": 859, "id": 859, "left": 14.486919847, "top": 65.446110046000001, "right": 14.986919847, "bottom": 64.946110046000001, "row_index": 18, "col_index": 21, "tile_id": 859 }, "geometry": { "type": "MultiLineString", "coordinates": [ [ [ 14.486919847, 65.38176410212462 ], [ 14.487402339789849, 65.381599554353329 ], [ 14.48789908922452, 65.381258960251145 ] ] ] } },
{ "type": "Feature", "properties": { "fid": 752135, "elvelengde_m": 8.51, "elvID": "151-3-810", "elvenavn": null, "regulert": null, "fid_2": 859, "id": 859, "left": 14.486919847, "top": 65.446110046000001, "right": 14.986919847, "bottom": 64.946110046000001, "row_index": 18, "col_index": 21, "tile_id": 859 }, "geometry": { "type": "MultiLineString", "coordinates": [ [ [ 14.498963421479223, 65.365698817609982 ], [ 14.498875465718021, 65.365765751049409 ] ] ] } },
{ "type": "Feature", "properties": { "fid": 752136, "elvelengde_m": 108.59, "elvID": "151-3-404", "elvenavn": "Darnekenjukke", "regulert": null, "fid_2": 859, "id": 859, "left": 14.486919847, "top": 65.446110046000001, "right": 14.986919847, "bottom": 64.946110046000001, "row_index": 18, "col_index": 21, "tile_id": 859 }, "geometry": { "type": "MultiLineString", "coordinates": [ [ [ 14.491270614003408, 65.36469054109503 ], [ 14.491878368558472, 65.364621053033176 ], [ 14.492488071735981, 65.364372502327896 ], [ 14.49331623194346, 65.36439469237672 ] ] ] } },
{ "type": "Feature", "properties": { "fid": 752137, "elvelengde_m": 6.04, "elvID": "151-3-807", "elvenavn": null, "regulert": null, "fid_2": 859, "id": 859, "left": 14.486919847, "top": 65.446110046000001, "right": 14.986919847, "bottom": 64.946110046000001, "row_index": 18, "col_index": 21, "tile_id": 859 }, "geometry": { "type": "MultiLineString", "coordinates": [ [ [ 14.493343228269346, 65.364341719083598 ], [ 14.49331623194346, 65.36439469237672 ] ] ] } },
{ "type": "Feature", "properties": { "fid": 752184, "elvelengde_m": 92.85, "elvID": "151-3-829", "elvenavn": null, "regulert": null, "fid_2": 859, "id": 859, "left": 14.486919847, "top": 65.446110046000001, "right": 14.986919847, "bottom": 64.946110046000001, "row_index": 18, "col_index": 21, "tile_id": 859 }, "geometry": { "type": "MultiLineString", "coordinates": [ [ [ 14.486919847, 65.381041693442342 ], [ 14.487144059146466, 65.381066902568634 ], [ 14.487555010593823, 65.381243023165169 ], [ 14.48789908922452, 65.381258960251145 ] ] ] } },
{ "type": "Feature", "properties": { "fid": 752185, "elvelengde_m": 243.21, "elvID": "151-3-404", "elvenavn": "Darnekenjukke", "regulert": null, "fid_2": 859, "id": 859, "left": 14.486919847, "top": 65.446110046000001, "right": 14.986919847, "bottom": 64.946110046000001, "row_index": 18, "col_index": 21, "tile_id": 859 }, "geometry": { "type": "MultiLineString", "coordinates": [ [ [ 14.488185597773523, 65.365234406235814 ], [ 14.488661529867766, 65.365157986361822 ], [ 14.488774612294218, 65.365082595668426 ], [ 14.488809187668737, 65.36481770196437 ], [ 14.489424900071926, 65.364453254472565 ], [ 14.489569122230956, 65.364292305377504 ], [ 14.48974832370881, 65.364242682358679 ], [ 14.490374498318371, 65.364200546430368 ], [ 14.491270614003408, 65.36469054109503 ] ] ] } },
{ "type": "Feature", "properties": { "fid": 752186, "elvelengde_m": 13.19, "elvID": "151-3-791", "elvenavn": null, "regulert": null, "fid_2": 859, "id": 859, "left": 14.486919847, "top": 65.446110046000001, "right": 14.986919847, "bottom": 64.946110046000001, "row_index": 18, "col_index": 21, "tile_id": 859 }, "geometry": { "type": "MultiLineString", "coordinates": [ [ [ 14.49122660174069, 65.36480745994966 ], [ 14.491270614003408, 65.36469054109503 ] ] ] } },
{ "type": "Feature", "properties": { "fid": 756343, "elvelengde_m": 316.03, "elvID": "151-3-404", "elvenavn": "Darnekenjukke", "regulert": null, "fid_2": 859, "id": 859, "left": 14.486919847, "top": 65.446110046000001, "right": 14.986919847, "bottom": 64.946110046000001, "row_index": 18, "col_index": 21, "tile_id": 859 }, "geometry": { "type": "MultiLineString", "coordinates": [ [ [ 14.49331623194346, 65.36439469237672 ], [ 14.494435316042647, 65.364614308464937 ], [ 14.49550562301128, 65.364620876114756 ], [ 14.496146857430563, 65.364963759339915 ], [ 14.496898578798142, 65.365128657205958 ], [ 14.497115708251055, 65.365281072514293 ], [ 14.497880202709723, 65.365426507872058 ], [ 14.498875465718021, 65.365765751049409 ] ] ] } },
{ "type": "Feature", "properties": { "fid": 756376, "elvelengde_m": 1014.88, "elvID": "151-3-444", "elvenavn": null, "regulert": null, "fid_2": 859, "id": 859, "left": 14.486919847, "top": 65.446110046000001, "right": 14.986919847, "bottom": 64.946110046000001, "row_index": 18, "col_index": 21, "tile_id": 859 }, "geometry": { "type": "MultiLineString", "coordinates": [ [ [ 14.48789908922452, 65.381258960251145 ], [ 14.488743058912151, 65.380988049745895 ], [ 14.488787064627239, 65.380903089336002 ], [ 14.488644858272426, 65.380741707600691 ], [ 14.48797886353702, 65.380535582166644 ], [ 14.487986515771354, 65.380359864181955 ], [ 14.488302581358834, 65.380243550286664 ], [ 14.488927771691511, 65.380249531485816 ], [ 14.489950844051162, 65.380571198566173 ], [ 14.491009730964008, 65.381014621249264 ], [ 14.492288907341047, 65.381322799277186 ], [ 14.492664787522118, 65.381244406880228 ], [ 14.492916484549799, 65.381100146515436 ], [ 14.492976332664618, 65.381015613137421 ], [ 14.492954673261506, 65.380481061866263 ], [ 14.493051984879404, 65.380306489757956 ], [ 14.493406650956745, 65.380085480835305 ], [ 14.493951779235564, 65.379953007894485 ], [ 14.495594069550583, 65.379773030721822 ], [ 14.49636833339315, 65.379882494495646 ], [ 14.496738232658574, 65.380291301932857 ], [ 14.497220765799423, 65.38042302293637 ], [ 14.497921269137628, 65.380756338167473 ], [ 14.498487515544761, 65.380882903011411 ], [ 14.500403518694654, 65.380813785247867 ], [ 14.501894768811107, 65.380586998281188 ] ] ] } },
{ "type": "Feature", "properties": { "fid": 756382, "elvelengde_m": 435.28, "elvID": "151-3-404", "elvenavn": "Darnekenjukke", "regulert": null, "fid_2": 859, "id": 859, "left": 14.486919847, "top": 65.446110046000001, "right": 14.986919847, "bottom": 64.946110046000001, "row_index": 18, "col_index": 21, "tile_id": 859 }, "geometry": { "type": "MultiLineString", "coordinates": [ [ [ 14.498875465718021, 65.365765751049409 ], [ 14.499513389124306, 65.366029670727116 ], [ 14.499736037972324, 65.366553845033096 ], [ 14.499686167953445, 65.366730265509077 ], [ 14.499560992542351, 65.366802434475332 ], [ 14.498938162160329, 65.366867140856698 ], [ 14.498968804620205, 65.367036779309885 ], [ 14.499242466725415, 65.367276507145917 ], [ 14.500494652769413, 65.367748989263347 ], [ 14.500882913838309, 65.368162272583191 ], [ 14.501574350442418, 65.368498465455488 ], [ 14.501966657459107, 65.368519472170576 ], [ 14.502440470618415, 65.368389761335806 ] ] ] } },
{ "type": "Feature", "properties": { "fid": 763199, "elvelengde_m": 68.34, "elvID": "151-3-985", "elvenavn": null, "regulert": null, "fid_2": 859, "id": 859, "left": 14.486919847, "top": 65.446110046000001, "right": 14.986919847, "bottom": 64.946110046000001, "row_index": 18, "col_index": 21, "tile_id": 859 }, "geometry": { "type": "MultiLineString", "coordinates": [ [ [ 14.492760620927616, 65.303288714168772 ], [ 14.492001639840936, 65.303210189775399 ], [ 14.491333702721283, 65.303271605754873 ] ] ] } },
{ "type": "Feature", "properties": { "fid": 763200, "elvelengde_m": 191.93, "elvID": "151-3-878", "elvenavn": null, "regulert": null, "fid_2": 859, "id": 859, "left": 14.486919847, "top": 65.446110046000001, "right": 14.986919847, "bottom": 64.946110046000001, "row_index": 18, "col_index": 21, "tile_id": 859 }, "geometry": { "type": "MultiLineString", "coordinates": [ [ [ 14.499234199389354, 65.382826521168425 ], [ 14.499158090954921, 65.383235782673268 ], [ 14.499470278695187, 65.383432671732464 ], [ 14.501409098275253, 65.383407031826479 ], [ 14.501838565460217, 65.383604304624825 ] ] ] } },
{ "type": "Feature", "properties": { "fid": 763340, "elvelengde_m": 258.45, "elvID": "151-3-669", "elvenavn": "Harvassbekken", "regulert": null, "fid_2": 859, "id": 859, "left": 14.486919847, "top": 65.446110046000001, "right": 14.986919847, "bottom": 64.946110046000001, "row_index": 18, "col_index": 21, "tile_id": 859 }, "geometry": { "type": "MultiLineString", "coordinates": [ [ [ 14.497779276414219, 65.305346703923135 ], [ 14.495717153077072, 65.305521086124116 ], [ 14.492284793297657, 65.305618008237346 ] ] ] } },
{ "type": "Feature", "properties": { "fid": 777222, "elvelengde_m": 200.66, "elvID": "151-3-669", "elvenavn": "Harvassbekken", "regulert": null, "fid_2": 859, "id": 859, "left": 14.486919847, "top": 65.446110046000001, "right": 14.986919847, "bottom": 64.946110046000001, "row_index": 18, "col_index": 21, "tile_id": 859 }, "geometry": { "type": "MultiLineString", "coordinates": [ [ [ 14.492284793297657, 65.305618008237346 ], [ 14.490326138657974, 65.304686873289043 ], [ 14.489191084630265, 65.304400479221428 ] ] ] } },
{ "type": "Feature", "properties": { "fid": 790680, "elvelengde_m": 13.13, "elvID": "151-3-786", "elvenavn": null, "regulert": null, "fid_2": 859, "id": 859, "left": 14.486919847, "top": 65.446110046000001, "right": 14.986919847, "bottom": 64.946110046000001, "row_index": 18, "col_index": 21, "tile_id": 859 }, "geometry": { "type": "MultiLineString", "coordinates": [ [ [ 14.487860875821944, 65.365309406514314 ], [ 14.487851341251002, 65.365191643970959 ] ] ] } },
{ "type": "Feature", "properties": { "fid": 793099, "elvelengde_m": 16.26, "elvID": "151-3-404", "elvenavn": "Darnekenjukke", "regulert": null, "fid_2": 859, "id": 859, "left": 14.486919847, "top": 65.446110046000001, "right": 14.986919847, "bottom": 64.946110046000001, "row_index": 18, "col_index": 21, "tile_id": 859 }, "geometry": { "type": "MultiLineString", "coordinates": [ [ [ 14.487851341251002, 65.365191643970959 ], [ 14.488185597773523, 65.365234406235814 ] ] ] } },
{ "type": "Feature", "properties": { "fid": 793100, "elvelengde_m": 23.79, "elvID": "151-3-712", "elvenavn": null, "regulert": null, "fid_2": 859, "id": 859, "left": 14.486919847, "top": 65.446110046000001, "right": 14.986919847, "bottom": 64.946110046000001, "row_index": 18, "col_index": 21, "tile_id": 859 }, "geometry": { "type": "MultiLineString", "coordinates": [ [ [ 14.487639092703731, 65.364873662389456 ], [ 14.487386566565297, 65.36505923975794 ] ] ] } },
{ "type": "Feature", "properties": { "fid": 793382, "elvelengde_m": 26.2, "elvID": "151-3-404", "elvenavn": "Darnekenjukke", "regulert": null, "fid_2": 859, "id": 859, "left": 14.486919847, "top": 65.446110046000001, "right": 14.986919847, "bottom": 64.946110046000001, "row_index": 18, "col_index": 21, "tile_id": 859 }, "geometry": { "type": "MultiLineString", "coordinates": [ [ [ 14.487386566565297, 65.36505923975794 ], [ 14.487851341251002, 65.365191643970959 ] ] ] } },
{ "type": "Feature", "properties": { "fid": 793384, "elvelengde_m": 377.96, "elvID": "151-3-404", "elvenavn": "Darnekenjukke", "regulert": null, "fid_2": 859, "id": 859, "left": 14.486919847, "top": 65.446110046000001, "right": 14.986919847, "bottom": 64.946110046000001, "row_index": 18, "col_index": 21, "tile_id": 859 }, "geometry": { "type": "MultiLineString", "coordinates": [ [ [ 14.486919847, 65.364957711528731 ], [ 14.487386566565297, 65.36505923975794 ] ] ] } },
{ "type": "Feature", "properties": { "fid": 795973, "elvelengde_m": 15.72, "elvID": "151-3-634", "elvenavn": null, "regulert": null, "fid_2": 859, "id": 859, "left": 14.486919847, "top": 65.446110046000001, "right": 14.986919847, "bottom": 64.946110046000001, "row_index": 18, "col_index": 21, "tile_id": 859 }, "geometry": { "type": "MultiLineString", "coordinates": [ [ [ 14.48927313003977, 65.418855349003081 ], [ 14.489482326209245, 65.41874439026914 ] ] ] } },
{ "type": "Feature", "properties": { "fid": 796006, "elvelengde_m": 129.08, "elvID": "151-3-712", "elvenavn": null, "regulert": null, "fid_2": 859, "id": 859, "left": 14.486919847, "top": 65.446110046000001, "right": 14.986919847, "bottom": 64.946110046000001, "row_index": 18, "col_index": 21, "tile_id": 859 }, "geometry": { "type": "MultiLineString", "coordinates": [ [ [ 14.488066880934833, 65.348892789593435 ], [ 14.488138312962274, 65.349241306209009 ], [ 14.48885703902153, 65.349682597801745 ], [ 14.488796254987024, 65.349947454392819 ] ] ] } },
{ "type": "Feature", "properties": { "fid": 798982, "elvelengde_m": 10.49, "elvID": "151-3-669", "elvenavn": "Harvassbekken", "regulert": null, "fid_2": 859, "id": 859, "left": 14.486919847, "top": 65.446110046000001, "right": 14.986919847, "bottom": 64.946110046000001, "row_index": 18, "col_index": 21, "tile_id": 859 }, "geometry": { "type": "MultiLineString", "coordinates": [ [ [ 14.489191084630265, 65.304400479221428 ], [ 14.488966138372767, 65.30440023551256 ] ] ] } },
{ "type": "Feature", "properties": { "fid": 798983, "elvelengde_m": 176.31, "elvID": "151-3-908", "elvenavn": null, "regulert": null, "fid_2": 859, "id": 859, "left": 14.486919847, "top": 65.446110046000001, "right": 14.986919847, "bottom": 64.946110046000001, "row_index": 18, "col_index": 21, "tile_id": 859 }, "geometry": { "type": "MultiLineString", "coordinates": [ [ [ 14.491428125040413, 65.307086564406021 ], [ 14.492104625916152, 65.30676859106498 ], [ 14.492257029017811, 65.306223079855542 ], [ 14.492284793297657, 65.305618008237346 ] ] ] } },
{ "type": "Feature", "properties": { "fid": 1209596, "elvelengde_m": 241.92, "elvID": "307-1-2", "elvenavn": null, "regulert": null, "fid_2": 859, "id": 859, "left": 14.486919847, "top": 65.446110046000001, "right": 14.986919847, "bottom": 64.946110046000001, "row_index": 18, "col_index": 21, "tile_id": 859 }, "geometry": { "type": "MultiLineString", "coordinates": [ [ [ 14.486919847, 65.338602399959527 ], [ 14.487098057018096, 65.338367651866591 ] ] ] } },
{ "type": "Feature", "properties": { "fid": 1209597, "elvelengde_m": 1026.21, "elvID": "307-1-4", "elvenavn": null, "regulert": null, "fid_2": 859, "id": 859, "left": 14.486919847, "top": 65.446110046000001, "right": 14.986919847, "bottom": 64.946110046000001, "row_index": 18, "col_index": 21, "tile_id": 859 }, "geometry": { "type": "MultiLineString", "coordinates": [ [ [ 14.49400370978247, 65.345517548066766 ], [ 14.49369065287771, 65.345016365300609 ], [ 14.493639471790255, 65.344784341476455 ], [ 14.492883068205334, 65.344659595236493 ], [ 14.492251208214149, 65.344415838769379 ], [ 14.492247243799392, 65.344108962236163 ], [ 14.491836288478284, 65.343963299715256 ], [ 14.491682510080313, 65.343760898216004 ], [ 14.491051049472993, 65.343375909070005 ], [ 14.490557814024864, 65.343220185396248 ], [ 14.490309840894838, 65.342579870216753 ], [ 14.489692763561871, 65.342430634306638 ], [ 14.489393762167708, 65.342229892722713 ], [ 14.489516975674171, 65.341813531617603 ], [ 14.488802943072191, 65.340695549710532 ], [ 14.488874666131142, 65.340287179707119 ], [ 14.488447376880758, 65.340157064711036 ], [ 14.48869280372706, 65.339862966479558 ], [ 14.488521473470566, 65.339704108974701 ], [ 14.488504702853753, 65.339439539385708 ], [ 14.487822540933518, 65.339195324097901 ], [ 14.487503222809972, 65.338749826279496 ], [ 14.488424792152394, 65.338632719919175 ], [ 14.48884785080806, 65.338415131797603 ], [ 14.489255798451961, 65.337990672513953 ] ] ] } },
{ "type": "Feature", "properties": { "fid": 1209598, "elvelengde_m": 1757.97, "elvID": "307-1-1", "elvenavn": null, "regulert": null, "fid_2": 859, "id": 859, "left": 14.486919847, "top": 65.446110046000001, "right": 14.986919847, "bottom": 64.946110046000001, "row_index": 18, "col_index": 21, "tile_id": 859 }, "geometry": { "type": "MultiLineString", "coordinates": [ [ [ 14.504000155738687, 65.346612543265195 ], [ 14.504076879389574, 65.346463132461309 ], [ 14.503923467675291, 65.346406549661921 ], [ 14.503707473804189, 65.346056895444107 ], [ 14.503790206125359, 65.345919258630488 ], [ 14.503659363919637, 65.345759744335894 ], [ 14.503733938804437, 65.345268380975028 ], [ 14.503177070284858, 65.344892661009524 ], [ 14.50327555603687, 65.344796798888396 ], [ 14.503240379656322, 65.344509111367188 ], [ 14.502918050761147, 65.344308320189967 ], [ 14.502853780980965, 65.344059836717804 ], [ 14.503164782515475, 65.343915773801498 ], [ 14.503120820548755, 65.343581489503947 ], [ 14.503692538423104, 65.343327471946196 ], [ 14.503790883973538, 65.343158841249561 ], [ 14.504058527981886, 65.34305761271952 ], [ 14.50394706150322, 65.342896547176082 ], [ 14.503449386050276, 65.342790469681759 ], [ 14.503331537535647, 65.34264912238983 ], [ 14.502753804592356, 65.342425955857394 ], [ 14.502704597022765, 65.34218784035653 ], [ 14.502474014819196, 65.342124092794407 ], [ 14.502458121768809, 65.341953381521904 ], [ 14.502145197282113, 65.341802507198778 ], [ 14.502123173874192, 65.341660757161847 ], [ 14.501241439400522, 65.341453001466192 ], [ 14.501068651502987, 65.341275849536984 ], [ 14.500504764595279, 65.341174657692207 ], [ 14.500108783403268, 65.340930458265717 ], [ 14.499886744220488, 65.340926761719828 ], [ 14.499725258997632, 65.340731969626844 ], [ 14.499015146024425, 65.340414227034543 ], [ 14.499065362017108, 65.3401908860817 ], [ 14.498918776699904, 65.340082817918216 ], [ 14.498901861712941, 65.339775180779853 ], [ 14.498698631470219, 65.339618920850782 ], [ 14.49865854753525, 65.339434041703967 ], [ 14.498692756822994, 65.33935205597534 ], [ 14.498906155726939, 65.339289866683288 ], [ 14.498909679010188, 65.339172426941261 ], [ 14.499138138199759, 65.338905532409598 ], [ 14.49890090362976, 65.338696670103175 ], [ 14.498395748011072, 65.338548738428827 ], [ 14.497981435018536, 65.338097474133136 ], [ 14.497470127379142, 65.337867598901838 ], [ 14.497516222255067, 65.337635541211313 ], [ 14.497399990868876, 65.337502359508605 ], [ 14.497653202365141, 65.337266505107905 ], [ 14.497456354977468, 65.337148577683593 ], [ 14.497454345744256, 65.337062523644107 ], [ 14.497612041932079, 65.336969733542986 ], [ 14.497547790048891, 65.336768892022704 ], [ 14.497415284674153, 65.336700887014132 ], [ 14.496775023138774, 65.336668605347612 ], [ 14.496406438947336, 65.336490794764984 ], [ 14.49647809602002, 65.336404896784828 ], [ 14.496437251322373, 65.336350745360548 ], [ 14.49599854121232, 65.336224023088377 ], [ 14.49602867276748, 65.335928834978418 ], [ 14.49555596066204, 65.33568284149834 ], [ 14.495754783644861, 65.335528279754087 ], [ 14.495756058283229, 65.335147575934641 ], [ 14.494997857964474, 65.334805606373507 ], [ 14.494491360124439, 65.334676678756225 ], [ 14.494308387735328, 65.334520121594451 ], [ 14.493824799008436, 65.334484673440699 ], [ 14.492576854370363, 65.334195422024749 ] ] ] } },
{ "type": "Feature", "properties": { "fid": 1209599, "elvelengde_m": 565.05, "elvID": "307-1-2", "elvenavn": null, "regulert": null, "fid_2": 859, "id": 859, "left": 14.486919847, "top": 65.446110046000001, "right": 14.986919847, "bottom": 64.946110046000001, "row_index": 18, "col_index": 21, "tile_id": 859 }, "geometry": { "type": "MultiLineString", "coordinates": [ [ [ 14.489556106785942, 65.337899808952429 ], [ 14.490098447893857, 65.33787669849464 ], [ 14.490395297668965, 65.337686853615608 ], [ 14.490872353913428, 65.337651945243735 ], [ 14.491531585740024, 65.337247618560681 ], [ 14.491985729657532, 65.337130709499945 ], [ 14.491985532322291, 65.336918237265976 ], [ 14.492227968125631, 65.336575132785526 ], [ 14.492106530233976, 65.336156689867877 ], [ 14.492419689079737, 65.335999197367457 ], [ 14.492312426232592, 65.335714404549933 ], [ 14.492538312861937, 65.335605249763702 ], [ 14.492978866300733, 65.335601347057107 ], [ 14.493323545230124, 65.33550165253375 ], [ 14.493393999110991, 65.335266537315235 ], [ 14.492932871344816, 65.335090022457635 ], [ 14.492736235094116, 65.334907307145428 ], [ 14.492694791225411, 65.334661766693145 ], [ 14.492240551544175, 65.334529777016044 ], [ 14.492226958792104, 65.334254541025388 ], [ 14.492482195980344, 65.334271012049257 ], [ 14.492576854370363, 65.334195422024749 ] ] ] } },
{ "type": "Feature", "properties": { "fid": 1209600, "elvelengde_m": 302.66, "elvID": "307-1-1", "elvenavn": null, "regulert": null, "fid_2": 859, "id": 859, "left": 14.486919847, "top": 65.446110046000001, "right": 14.986919847, "bottom": 64.946110046000001, "row_index": 18, "col_index": 21, "tile_id": 859 }, "geometry": { "type": "MultiLineString", "coordinates": [ [ [ 14.492576854370363, 65.334195422024749 ], [ 14.492573649351325, 65.333982760154925 ], [ 14.492420626485808, 65.333732716926278 ], [ 14.491884053741208, 65.333695110290293 ], [ 14.49166747735624, 65.333545076425438 ], [ 14.491719852762616, 65.333245746752823 ], [ 14.492049073955116, 65.333022001477957 ], [ 14.492045431258648, 65.332876812195337 ], [ 14.492276556861144, 65.332695176673624 ], [ 14.492296693383137, 65.332541722867759 ], [ 14.491913265311801, 65.33236986269047 ], [ 14.492065780487, 65.332278047892686 ], [ 14.491665407658514, 65.33226126667482 ], [ 14.491422790320723, 65.332126039216845 ] ] ] } },
{ "type": "Feature", "properties": { "fid": 1209602, "elvelengde_m": 471.42, "elvID": "307-1-6", "elvenavn": null, "regulert": null, "fid_2": 859, "id": 859, "left": 14.486919847, "top": 65.446110046000001, "right": 14.986919847, "bottom": 64.946110046000001, "row_index": 18, "col_index": 21, "tile_id": 859 }, "geometry": { "type": "MultiLineString", "coordinates": [ [ [ 14.486919847, 65.333114632393759 ], [ 14.488106623089113, 65.33302240647221 ], [ 14.488856568720346, 65.332797582462746 ], [ 14.489707254094485, 65.332792386414326 ], [ 14.491509415380097, 65.332622158311409 ], [ 14.491562772652731, 65.332572360605511 ], [ 14.49119258165056, 65.33230462584693 ], [ 14.491422790320723, 65.332126039216845 ] ] ] } },
{ "type": "Feature", "properties": { "fid": 1209603, "elvelengde_m": 175.16, "elvID": "307-1-1", "elvenavn": null, "regulert": null, "fid_2": 859, "id": 859, "left": 14.486919847, "top": 65.446110046000001, "right": 14.986919847, "bottom": 64.946110046000001, "row_index": 18, "col_index": 21, "tile_id": 859 }, "geometry": { "type": "MultiLineString", "coordinates": [ [ [ 14.491422790320723, 65.332126039216845 ], [ 14.491671850001504, 65.332038677600863 ], [ 14.491643399262008, 65.331932884247365 ], [ 14.492173087658927, 65.33191358224542 ], [ 14.492176569460476, 65.331822073209949 ], [ 14.492341568327801, 65.331773099563748 ], [ 14.492540709058565, 65.331467713279181 ], [ 14.492804574497033, 65.331424993542711 ], [ 14.492818813440135, 65.330964207481287 ] ] ] } },
{ "type": "Feature", "properties": { "fid": 1209605, "elvelengde_m": 467.74, "elvID": "307-1-7", "elvenavn": null, "regulert": null, "fid_2": 859, "id": 859, "left": 14.486919847, "top": 65.446110046000001, "right": 14.986919847, "bottom": 64.946110046000001, "row_index": 18, "col_index": 21, "tile_id": 859 }, "geometry": { "type": "MultiLineString", "coordinates": [ [ [ 14.486919847, 65.331102568376906 ], [ 14.487012827407893, 65.331054404249514 ], [ 14.487206347193984, 65.331040705870848 ], [ 14.487792355919176, 65.331172081655026 ], [ 14.488541393878915, 65.331179467800752 ], [ 14.489718305435332, 65.331323874266275 ], [ 14.490466496095197, 65.331253186137573 ], [ 14.490691022574268, 65.331346093055558 ], [ 14.491471304435418, 65.331125665443849 ], [ 14.492085149974065, 65.331150882443382 ], [ 14.492818813440135, 65.330964207481287 ] ] ] } },
{ "type": "Feature", "properties": { "fid": 1209606, "elvelengde_m": 783.13, "elvID": "307-1-1", "elvenavn": null, "regulert": null, "fid_2": 859, "id": 859, "left": 14.486919847, "top": 65.446110046000001, "right": 14.986919847, "bottom": 64.946110046000001, "row_index": 18, "col_index": 21, "tile_id": 859 }, "geometry": { "type": "MultiLineString", "coordinates": [ [ [ 14.492818813440135, 65.330964207481287 ], [ 14.493163171247357, 65.330900402835539 ], [ 14.493340969264363, 65.330754925679614 ], [ 14.493932413969521, 65.330682796729505 ], [ 14.494739544895477, 65.330336287302728 ], [ 14.495278591158678, 65.330308661284178 ], [ 14.496104538052991, 65.330110704444806 ], [ 14.498606717688441, 65.329723258104409 ], [ 14.499695742660746, 65.329633199085578 ], [ 14.501882923124079, 65.328968925231337 ], [ 14.502005488124196, 65.328891178338182 ], [ 14.501878022514733, 65.328592148825436 ], [ 14.502121745808678, 65.328488153135368 ], [ 14.502116486888413, 65.328391500683679 ], [ 14.501767828184862, 65.328038443576986 ], [ 14.50127969528006, 65.327953923765108 ], [ 14.501209271140217, 65.327840635943772 ], [ 14.501604365196814, 65.327872179389757 ], [ 14.501702843010987, 65.327807722370366 ], [ 14.501117185360533, 65.32764679205755 ], [ 14.501859546762564, 65.327434350814755 ], [ 14.501896793897266, 65.327235730270843 ] ] ] } },
{ "type": "Feature", "properties": { "fid": 1209607, "elvelengde_m": 654.92, "elvID": "307-1-8", "elvenavn": null, "regulert": null, "fid_2": 859, "id": 859, "left": 14.486919847, "top": 65.446110046000001, "right": 14.986919847, "bottom": 64.946110046000001, "row_index": 18, "col_index": 21, "tile_id": 859 }, "geometry": { "type": "MultiLineString", "coordinates": [ [ [ 14.492365943189021, 65.32881418942155 ], [ 14.494080313908984, 65.328370419439594 ], [ 14.494246205501245, 65.328273622655416 ], [ 14.494367221542483, 65.327941951416264 ], [ 14.495573821644083, 65.327449265981045 ], [ 14.498847795146078, 65.327095529724616 ], [ 14.498928360882848, 65.327047434896201 ], [ 14.498939214537206, 65.326894398001542 ], [ 14.49907038928656, 65.326826731406641 ], [ 14.499438906062956, 65.326708080350514 ], [ 14.499910891353059, 65.326725616921323 ], [ 14.499616114644001, 65.326601624836599 ], [ 14.499562399874234, 65.32649081422754 ], [ 14.499623825805218, 65.326478187126227 ], [ 14.499892547524286, 65.326493075470196 ], [ 14.500810246154295, 65.326894678692469 ], [ 14.501589210385852, 65.327004835898066 ], [ 14.501640638652601, 65.327146234834359 ], [ 14.501896793897266, 65.327235730270843 ] ] ] } },
{ "type": "Feature", "properties": { "fid": 1209608, "elvelengde_m": 258.8, "elvID": "307-1-1", "elvenavn": null, "regulert": null, "fid_2": 859, "id": 859, "left": 14.486919847, "top": 65.446110046000001, "right": 14.986919847, "bottom": 64.946110046000001, "row_index": 18, "col_index": 21, "tile_id": 859 }, "geometry": { "type": "MultiLineString", "coordinates": [ [ [ 14.501896793897266, 65.327235730270843 ], [ 14.502390348004718, 65.327214478823748 ], [ 14.502636989473196, 65.327057463766153 ], [ 14.503329304317148, 65.326992808833808 ], [ 14.503907659087332, 65.326834550530862 ], [ 14.504920225024403, 65.326201628470599 ], [ 14.505067751170284, 65.325948187437234 ], [ 14.505631500836261, 65.325880049485406 ] ] ] } },
{ "type": "Feature", "properties": { "fid": 1247373, "elvelengde_m": 4.76, "elvID": "307-1-1", "elvenavn": null, "regulert": null, "fid_2": 859, "id": 859, "left": 14.486919847, "top": 65.446110046000001, "right": 14.986919847, "bottom": 64.946110046000001, "row_index": 18, "col_index": 21, "tile_id": 859 }, "geometry": { "type": "MultiLineString", "coordinates": [ [ [ 14.503942911814809, 65.346647935987988 ], [ 14.504000155738687, 65.346612543265195 ] ] ] } },
{ "type": "Feature", "properties": { "fid": 1247374, "elvelengde_m": 9.72, "elvID": "307-1-4", "elvenavn": null, "regulert": null, "fid_2": 859, "id": 859, "left": 14.486919847, "top": 65.446110046000001, "right": 14.986919847, "bottom": 64.946110046000001, "row_index": 18, "col_index": 21, "tile_id": 859 }, "geometry": { "type": "MultiLineString", "coordinates": [ [ [ 14.489255798451961, 65.337990672513953 ], [ 14.489218057124388, 65.337904943308601 ] ] ] } },
{ "type": "Feature", "properties": { "fid": 1247375, "elvelengde_m": 15.75, "elvID": "307-1-2", "elvenavn": null, "regulert": null, "fid_2": 859, "id": 859, "left": 14.486919847, "top": 65.446110046000001, "right": 14.986919847, "bottom": 64.946110046000001, "row_index": 18, "col_index": 21, "tile_id": 859 }, "geometry": { "type": "MultiLineString", "coordinates": [ [ [ 14.489218057124388, 65.337904943308601 ], [ 14.489556106785942, 65.337899808952429 ] ] ] } },
{ "type": "Feature", "properties": { "fid": 1253746, "elvelengde_m": 168.73, "elvID": "307-1-2", "elvenavn": null, "regulert": null, "fid_2": 859, "id": 859, "left": 14.486919847, "top": 65.446110046000001, "right": 14.986919847, "bottom": 64.946110046000001, "row_index": 18, "col_index": 21, "tile_id": 859 }, "geometry": { "type": "MultiLineString", "coordinates": [ [ [ 14.487098057018096, 65.338367651866591 ], [ 14.48696406728493, 65.338115054140545 ], [ 14.487155460781889, 65.337767707868466 ], [ 14.489218057124388, 65.337904943308601 ] ] ] } }
]
}
