{
"type": "FeatureCollection",
"name": "elvis_tile_id_592",
"crs": { "type": "name", "properties": { "name": "urn:ogc:def:crs:OGC:1.3:CRS84" } },
"xy_coordinate_resolution": 1e-15,
"features": [
{ "type": "Feature", "properties": { "fid": 78102, "elvelengde_m": 104.84, "elvID": "001-1-1130", "elvenavn": null, "regulert": null, "fid_2": 592, "id": 592, "left": 10.986919847, "top": 58.946110046000001, "right": 11.486919847, "bottom": 58.446110046000001, "row_index": 31, "col_index": 14, "tile_id": 592 }, "geometry": { "type": "MultiLineString", "coordinates": [ [ [ 11.473383845121154, 58.944148649983347 ], [ 11.473837303302856, 58.944413573291563 ], [ 11.47418534168516, 58.94482434163946 ], [ 11.474172174265849, 58.944960172794808 ] ] ] } },
{ "type": "Feature", "properties": { "fid": 84200, "elvelengde_m": 164.06, "elvID": "001-1-1130", "elvenavn": null, "regulert": null, "fid_2": 592, "id": 592, "left": 10.986919847, "top": 58.946110046000001, "right": 11.486919847, "bottom": 58.446110046000001, "row_index": 31, "col_index": 14, "tile_id": 592 }, "geometry": { "type": "MultiLineString", "coordinates": [ [ [ 11.470137605104188, 58.941559737105571 ], [ 11.472161584349566, 58.941984444699102 ], [ 11.471988939852178, 58.942313831495625 ] ] ] } },
{ "type": "Feature", "properties": { "fid": 88484, "elvelengde_m": 719.89, "elvID": "001-1-1106", "elvenavn": null, "regulert": null, "fid_2": 592, "id": 592, "left": 10.986919847, "top": 58.946110046000001, "right": 11.486919847, "bottom": 58.446110046000001, "row_index": 31, "col_index": 14, "tile_id": 592 }, "geometry": { "type": "MultiLineString", "coordinates": [ [ [ 11.485124871327006, 58.914261741393929 ], [ 11.48625821361451, 58.915012433648791 ], [ 11.486744586380274, 58.915881833352138 ], [ 11.486508227496874, 58.91752829202229 ], [ 11.485570653471804, 58.918608678676783 ], [ 11.484780239723621, 58.919371998330689 ], [ 11.485121635819281, 58.920257892639256 ] ] ] } },
{ "type": "Feature", "properties": { "fid": 88611, "elvelengde_m": 85.94, "elvID": "001-1-1128", "elvenavn": null, "regulert": null, "fid_2": 592, "id": 592, "left": 10.986919847, "top": 58.946110046000001, "right": 11.486919847, "bottom": 58.446110046000001, "row_index": 31, "col_index": 14, "tile_id": 592 }, "geometry": { "type": "MultiLineString", "coordinates": [ [ [ 11.470904536663991, 58.938676270518179 ], [ 11.472290307784711, 58.93895938391266 ] ] ] } },
{ "type": "Feature", "properties": { "fid": 88612, "elvelengde_m": 125.36, "elvID": "001-1-1126", "elvenavn": null, "regulert": null, "fid_2": 592, "id": 592, "left": 10.986919847, "top": 58.946110046000001, "right": 11.486919847, "bottom": 58.446110046000001, "row_index": 31, "col_index": 14, "tile_id": 592 }, "geometry": { "type": "MultiLineString", "coordinates": [ [ [ 11.472693273994278, 58.936955463257299 ], [ 11.472554483663428, 58.937181323899374 ], [ 11.472559943442757, 58.937442832968564 ], [ 11.472668633494022, 58.937701438267688 ], [ 11.472473375911635, 58.938042409471471 ] ] ] } },
{ "type": "Feature", "properties": { "fid": 88613, "elvelengde_m": 132.35, "elvID": "001-1-1129", "elvenavn": null, "regulert": null, "fid_2": 592, "id": 592, "left": 10.986919847, "top": 58.946110046000001, "right": 11.486919847, "bottom": 58.446110046000001, "row_index": 31, "col_index": 14, "tile_id": 592 }, "geometry": { "type": "MultiLineString", "coordinates": [ [ [ 11.478361682960855, 58.935280693621827 ], [ 11.478646506435368, 58.935727951791442 ], [ 11.479240854194101, 58.936372584826074 ] ] ] } },
{ "type": "Feature", "properties": { "fid": 93243, "elvelengde_m": 653.12, "elvID": "001-1-1034", "elvenavn": null, "regulert": null, "fid_2": 592, "id": 592, "left": 10.986919847, "top": 58.946110046000001, "right": 11.486919847, "bottom": 58.446110046000001, "row_index": 31, "col_index": 14, "tile_id": 592 }, "geometry": { "type": "MultiLineString", "coordinates": [ [ [ 11.483772035990105, 58.898646936022025 ], [ 11.484464555592311, 58.898804422748292 ], [ 11.485384707371898, 58.898551528431383 ], [ 11.48657191705199, 58.897900542895449 ], [ 11.486919847, 58.897840576245407 ] ] ] } },
{ "type": "Feature", "properties": { "fid": 93263, "elvelengde_m": 457.98, "elvID": "001-1-1106", "elvenavn": null, "regulert": null, "fid_2": 592, "id": 592, "left": 10.986919847, "top": 58.946110046000001, "right": 11.486919847, "bottom": 58.446110046000001, "row_index": 31, "col_index": 14, "tile_id": 592 }, "geometry": { "type": "MultiLineString", "coordinates": [ [ [ 11.479047246597592, 58.912108644685397 ], [ 11.478821899736904, 58.912398679818018 ], [ 11.481364620365063, 58.913143017437072 ], [ 11.483654592327204, 58.914061034614932 ], [ 11.485124871327006, 58.914261741393929 ] ] ] } },
{ "type": "Feature", "properties": { "fid": 95976, "elvelengde_m": 1584.12, "elvID": "001-1-1130", "elvenavn": null, "regulert": null, "fid_2": 592, "id": 592, "left": 10.986919847, "top": 58.946110046000001, "right": 11.486919847, "bottom": 58.446110046000001, "row_index": 31, "col_index": 14, "tile_id": 592 }, "geometry": { "type": "MultiLineString", "coordinates": [ [ [ 11.474172174265849, 58.944960172794808 ], [ 11.475128287545505, 58.945687547389824 ], [ 11.47543177973713, 58.945798564003653 ], [ 11.475657823729927, 58.946110046 ] ] ] } },
{ "type": "Feature", "properties": { "fid": 95985, "elvelengde_m": 228.18, "elvID": "001-1-1130", "elvenavn": null, "regulert": null, "fid_2": 592, "id": 592, "left": 10.986919847, "top": 58.946110046000001, "right": 11.486919847, "bottom": 58.446110046000001, "row_index": 31, "col_index": 14, "tile_id": 592 }, "geometry": { "type": "MultiLineString", "coordinates": [ [ [ 11.471988939852178, 58.942313831495625 ], [ 11.471868566949833, 58.94240762368625 ], [ 11.471946259082701, 58.942765517268789 ], [ 11.472780144443341, 58.943486338945227 ], [ 11.473383845121154, 58.944148649983347 ] ] ] } },
{ "type": "Feature", "properties": { "fid": 95991, "elvelengde_m": 276.19, "elvID": "001-1-1130", "elvenavn": null, "regulert": null, "fid_2": 592, "id": 592, "left": 10.986919847, "top": 58.946110046000001, "right": 11.486919847, "bottom": 58.446110046000001, "row_index": 31, "col_index": 14, "tile_id": 592 }, "geometry": { "type": "MultiLineString", "coordinates": [ [ [ 11.468380282494575, 58.939329629023085 ], [ 11.468514504817255, 58.940234505761964 ], [ 11.469129658019975, 58.940815804356596 ], [ 11.470137605104188, 58.941559737105571 ] ] ] } },
{ "type": "Feature", "properties": { "fid": 95992, "elvelengde_m": 1174.23, "elvID": "001-1-1126", "elvenavn": null, "regulert": null, "fid_2": 592, "id": 592, "left": 10.986919847, "top": 58.946110046000001, "right": 11.486919847, "bottom": 58.446110046000001, "row_index": 31, "col_index": 14, "tile_id": 592 }, "geometry": { "type": "MultiLineString", "coordinates": [ [ [ 11.473674102244122, 58.939219528496068 ], [ 11.474629471632115, 58.939695386232259 ], [ 11.47659428145611, 58.940187883133511 ], [ 11.478986798190931, 58.940097131511521 ], [ 11.480588833350978, 58.940138249263171 ], [ 11.481370147209569, 58.940365812427139 ], [ 11.484839170628653, 58.941709809760162 ], [ 11.486490686447516, 58.942918024733643 ], [ 11.486919847, 58.943064242136536 ] ] ] } },
{ "type": "Feature", "properties": { "fid": 95994, "elvelengde_m": 84.85, "elvID": "001-1-1128", "elvenavn": null, "regulert": null, "fid_2": 592, "id": 592, "left": 10.986919847, "top": 58.946110046000001, "right": 11.486919847, "bottom": 58.446110046000001, "row_index": 31, "col_index": 14, "tile_id": 592 }, "geometry": { "type": "MultiLineString", "coordinates": [ [ [ 11.472290307784711, 58.93895938391266 ], [ 11.473674102244122, 58.939219528496068 ] ] ] } },
{ "type": "Feature", "properties": { "fid": 95995, "elvelengde_m": 153.87, "elvID": "001-1-1126", "elvenavn": null, "regulert": null, "fid_2": 592, "id": 592, "left": 10.986919847, "top": 58.946110046000001, "right": 11.486919847, "bottom": 58.446110046000001, "row_index": 31, "col_index": 14, "tile_id": 592 }, "geometry": { "type": "MultiLineString", "coordinates": [ [ [ 11.472473375911635, 58.938042409471471 ], [ 11.472515083974736, 58.938325253836773 ], [ 11.473645834737075, 58.939067207781655 ], [ 11.473674102244122, 58.939219528496068 ] ] ] } },
{ "type": "Feature", "properties": { "fid": 96003, "elvelengde_m": 1064.0, "elvID": "001-1-1129", "elvenavn": null, "regulert": null, "fid_2": 592, "id": 592, "left": 10.986919847, "top": 58.946110046000001, "right": 11.486919847, "bottom": 58.446110046000001, "row_index": 31, "col_index": 14, "tile_id": 592 }, "geometry": { "type": "MultiLineString", "coordinates": [ [ [ 11.479240854194101, 58.936372584826074 ], [ 11.479851103162741, 58.936881967422607 ], [ 11.480540804106699, 58.937291039686542 ], [ 11.481100940954413, 58.937828354085909 ], [ 11.482010132906295, 58.938385954083223 ], [ 11.483447825919265, 58.939041073337478 ], [ 11.483454158714588, 58.939130862517437 ], [ 11.484717698131146, 58.939780418988846 ], [ 11.485269457290448, 58.939958568937136 ], [ 11.486919847, 58.94019747830302 ] ] ] } },
{ "type": "Feature", "properties": { "fid": 96032, "elvelengde_m": 161.89, "elvID": "001-1-1115", "elvenavn": null, "regulert": null, "fid_2": 592, "id": 592, "left": 10.986919847, "top": 58.946110046000001, "right": 11.486919847, "bottom": 58.446110046000001, "row_index": 31, "col_index": 14, "tile_id": 592 }, "geometry": { "type": "MultiLineString", "coordinates": [ [ [ 11.482797053932286, 58.924073061634516 ], [ 11.483691310820477, 58.924050031480476 ], [ 11.485552810103702, 58.923843512878136 ] ] ] } },
{ "type": "Feature", "properties": { "fid": 96035, "elvelengde_m": 723.72, "elvID": "001-1-1106", "elvenavn": null, "regulert": null, "fid_2": 592, "id": 592, "left": 10.986919847, "top": 58.946110046000001, "right": 11.486919847, "bottom": 58.446110046000001, "row_index": 31, "col_index": 14, "tile_id": 592 }, "geometry": { "type": "MultiLineString", "coordinates": [ [ [ 11.485552810103702, 58.923843512878136 ], [ 11.486919847, 58.923763049201845 ] ] ] } },
{ "type": "Feature", "properties": { "fid": 96037, "elvelengde_m": 256.67, "elvID": "001-1-1106", "elvenavn": null, "regulert": null, "fid_2": 592, "id": 592, "left": 10.986919847, "top": 58.946110046000001, "right": 11.486919847, "bottom": 58.446110046000001, "row_index": 31, "col_index": 14, "tile_id": 592 }, "geometry": { "type": "MultiLineString", "coordinates": [ [ [ 11.485250862235642, 58.9215761796751 ], [ 11.485036587791136, 58.922703460954075 ], [ 11.485552810103702, 58.923843512878136 ] ] ] } },
{ "type": "Feature", "properties": { "fid": 96062, "elvelengde_m": 348.02, "elvID": "001-1-1106", "elvenavn": null, "regulert": null, "fid_2": 592, "id": 592, "left": 10.986919847, "top": 58.946110046000001, "right": 11.486919847, "bottom": 58.446110046000001, "row_index": 31, "col_index": 14, "tile_id": 592 }, "geometry": { "type": "MultiLineString", "coordinates": [ [ [ 11.480472399009008, 58.909215191094049 ], [ 11.480395400145072, 58.909836638674719 ], [ 11.480175767798604, 58.910164314337642 ], [ 11.479868133920954, 58.910475659085193 ], [ 11.479436191449816, 58.910753503144043 ], [ 11.479234127599472, 58.911080847268806 ], [ 11.478917371792308, 58.911266638938557 ], [ 11.478853601205079, 58.91158220168407 ], [ 11.479047246597592, 58.912108644685397 ] ] ] } },
{ "type": "Feature", "properties": { "fid": 98440, "elvelengde_m": 328.5, "elvID": "001-1-1081", "elvenavn": null, "regulert": null, "fid_2": 592, "id": 592, "left": 10.986919847, "top": 58.946110046000001, "right": 11.486919847, "bottom": 58.446110046000001, "row_index": 31, "col_index": 14, "tile_id": 592 }, "geometry": { "type": "MultiLineString", "coordinates": [ [ [ 11.486797982574574, 58.909749453797275 ], [ 11.486756947224277, 58.909472773143591 ], [ 11.486849523933069, 58.908742788639231 ], [ 11.486919847, 58.908696803270338 ] ] ] } },
{ "type": "Feature", "properties": { "fid": 98442, "elvelengde_m": 155.42, "elvID": "001-1-1106", "elvenavn": null, "regulert": null, "fid_2": 592, "id": 592, "left": 10.986919847, "top": 58.946110046000001, "right": 11.486919847, "bottom": 58.446110046000001, "row_index": 31, "col_index": 14, "tile_id": 592 }, "geometry": { "type": "MultiLineString", "coordinates": [ [ [ 11.485121635819281, 58.920257892639256 ], [ 11.485586475167963, 58.920713864128849 ], [ 11.485250862235642, 58.9215761796751 ] ] ] } },
{ "type": "Feature", "properties": { "fid": 521569, "elvelengde_m": 156.83, "elvID": "315-1-32", "elvenavn": null, "regulert": null, "fid_2": 592, "id": 592, "left": 10.986919847, "top": 58.946110046000001, "right": 11.486919847, "bottom": 58.446110046000001, "row_index": 31, "col_index": 14, "tile_id": 592 }, "geometry": { "type": "MultiLineString", "coordinates": [ [ [ 11.46392503924182, 58.927962976894705 ], [ 11.46455719327254, 58.928135870218604 ], [ 11.466082176357975, 58.928807427614686 ] ] ] } },
{ "type": "Feature", "properties": { "fid": 521570, "elvelengde_m": 33.43, "elvID": "315-1-32", "elvenavn": null, "regulert": null, "fid_2": 592, "id": 592, "left": 10.986919847, "top": 58.946110046000001, "right": 11.486919847, "bottom": 58.446110046000001, "row_index": 31, "col_index": 14, "tile_id": 592 }, "geometry": { "type": "MultiLineString", "coordinates": [ [ [ 11.468249277742492, 58.927032076460847 ], [ 11.467937192450206, 58.926780761018243 ] ] ] } },
{ "type": "Feature", "properties": { "fid": 521571, "elvelengde_m": 192.92, "elvID": "315-1-29", "elvenavn": null, "regulert": null, "fid_2": 592, "id": 592, "left": 10.986919847, "top": 58.946110046000001, "right": 11.486919847, "bottom": 58.446110046000001, "row_index": 31, "col_index": 14, "tile_id": 592 }, "geometry": { "type": "MultiLineString", "coordinates": [ [ [ 11.476742371048488, 58.922611121106115 ], [ 11.476619637311313, 58.922837974727365 ], [ 11.476629275717841, 58.924185463546046 ], [ 11.476760412278013, 58.924317756742617 ] ] ] } },
{ "type": "Feature", "properties": { "fid": 521572, "elvelengde_m": 274.61, "elvID": "315-1-37", "elvenavn": null, "regulert": null, "fid_2": 592, "id": 592, "left": 10.986919847, "top": 58.946110046000001, "right": 11.486919847, "bottom": 58.446110046000001, "row_index": 31, "col_index": 14, "tile_id": 592 }, "geometry": { "type": "MultiLineString", "coordinates": [ [ [ 11.461166694264884, 58.915415275060944 ], [ 11.461076750047013, 58.915372091950182 ], [ 11.461214536753683, 58.914381168675739 ], [ 11.461168450719049, 58.914220265527533 ], [ 11.461468077498619, 58.913792248097046 ], [ 11.461429035394191, 58.913002413612574 ] ] ] } },
{ "type": "Feature", "properties": { "fid": 521573, "elvelengde_m": 188.74, "elvID": "315-1-37", "elvenavn": null, "regulert": null, "fid_2": 592, "id": 592, "left": 10.986919847, "top": 58.946110046000001, "right": 11.486919847, "bottom": 58.446110046000001, "row_index": 31, "col_index": 14, "tile_id": 592 }, "geometry": { "type": "MultiLineString", "coordinates": [ [ [ 11.459344502374561, 58.911532707132402 ], [ 11.45757220118619, 58.911036384157036 ], [ 11.456318990107931, 58.91097478011374 ] ] ] } },
{ "type": "Feature", "properties": { "fid": 521574, "elvelengde_m": 278.82, "elvID": "315-1-35", "elvenavn": null, "regulert": null, "fid_2": 592, "id": 592, "left": 10.986919847, "top": 58.946110046000001, "right": 11.486919847, "bottom": 58.446110046000001, "row_index": 31, "col_index": 14, "tile_id": 592 }, "geometry": { "type": "MultiLineString", "coordinates": [ [ [ 11.456446989328834, 58.898934095408428 ], [ 11.456737598136526, 58.900261536276354 ], [ 11.456503911146706, 58.901421511503138 ] ] ] } },
{ "type": "Feature", "properties": { "fid": 521575, "elvelengde_m": 404.57, "elvID": "315-1-26", "elvenavn": null, "regulert": null, "fid_2": 592, "id": 592, "left": 10.986919847, "top": 58.946110046000001, "right": 11.486919847, "bottom": 58.446110046000001, "row_index": 31, "col_index": 14, "tile_id": 592 }, "geometry": { "type": "MultiLineString", "coordinates": [ [ [ 11.463898196146072, 58.896944710794763 ], [ 11.463591934830815, 58.896788819366975 ], [ 11.461984662901962, 58.896648794601035 ], [ 11.460473110129708, 58.896632632015375 ], [ 11.459658039129964, 58.89636049055833 ], [ 11.45824170028515, 58.896164349264644 ], [ 11.45723307905638, 58.896140636599128 ] ] ] } },
{ "type": "Feature", "properties": { "fid": 521576, "elvelengde_m": 585.77, "elvID": "315-1-26", "elvenavn": null, "regulert": null, "fid_2": 592, "id": 592, "left": 10.986919847, "top": 58.946110046000001, "right": 11.486919847, "bottom": 58.446110046000001, "row_index": 31, "col_index": 14, "tile_id": 592 }, "geometry": { "type": "MultiLineString", "coordinates": [ [ [ 11.47212502189682, 58.893508153165413 ], [ 11.4720813329882, 58.893868396078304 ], [ 11.471486935138085, 58.8942930536763 ], [ 11.471747961351237, 58.895033847182624 ], [ 11.472226861215564, 58.895905175940833 ], [ 11.472175325471181, 58.89640021627131 ], [ 11.471789309941057, 58.896830028976375 ], [ 11.471262096792394, 58.896983803363547 ], [ 11.46852735019386, 58.89709897903758 ] ] ] } },
{ "type": "Feature", "properties": { "fid": 521577, "elvelengde_m": 49.66, "elvID": "315-1-32", "elvenavn": null, "regulert": null, "fid_2": 592, "id": 592, "left": 10.986919847, "top": 58.946110046000001, "right": 11.486919847, "bottom": 58.446110046000001, "row_index": 31, "col_index": 14, "tile_id": 592 }, "geometry": { "type": "MultiLineString", "coordinates": [ [ [ 11.467937192450206, 58.926780761018243 ], [ 11.467375564923172, 58.926447437965869 ] ] ] } },
{ "type": "Feature", "properties": { "fid": 521578, "elvelengde_m": 713.9, "elvID": "315-1-29", "elvenavn": null, "regulert": null, "fid_2": 592, "id": 592, "left": 10.986919847, "top": 58.946110046000001, "right": 11.486919847, "bottom": 58.446110046000001, "row_index": 31, "col_index": 14, "tile_id": 592 }, "geometry": { "type": "MultiLineString", "coordinates": [ [ [ 11.476760412278013, 58.924317756742617 ], [ 11.476777169696035, 58.92455874400401 ], [ 11.476222561963668, 58.92475329363041 ], [ 11.475013228090702, 58.924798963961571 ], [ 11.474551600622314, 58.924693749499966 ], [ 11.47058240653687, 58.924592492835743 ], [ 11.468895537939586, 58.924750545946473 ], [ 11.468501100027762, 58.925039387987383 ], [ 11.468059925712163, 58.925182843083945 ], [ 11.467663742572036, 58.926225620121365 ], [ 11.467375564923172, 58.926447437965869 ] ] ] } },
{ "type": "Feature", "properties": { "fid": 521579, "elvelengde_m": 290.07, "elvID": "315-1-26", "elvenavn": null, "regulert": null, "fid_2": 592, "id": 592, "left": 10.986919847, "top": 58.946110046000001, "right": 11.486919847, "bottom": 58.446110046000001, "row_index": 31, "col_index": 14, "tile_id": 592 }, "geometry": { "type": "MultiLineString", "coordinates": [ [ [ 11.46852735019386, 58.89709897903758 ], [ 11.468043962085231, 58.896999291073428 ], [ 11.467354154202773, 58.897013133143055 ], [ 11.466210271894669, 58.89734772104358 ], [ 11.464536902603864, 58.897115687081737 ], [ 11.463898196146072, 58.896944710794763 ] ] ] } },
{ "type": "Feature", "properties": { "fid": 521580, "elvelengde_m": 375.39, "elvID": "315-1-32", "elvenavn": null, "regulert": null, "fid_2": 592, "id": 592, "left": 10.986919847, "top": 58.946110046000001, "right": 11.486919847, "bottom": 58.446110046000001, "row_index": 31, "col_index": 14, "tile_id": 592 }, "geometry": { "type": "MultiLineString", "coordinates": [ [ [ 11.466082176357975, 58.928807427614686 ], [ 11.466331596947134, 58.928921189612986 ], [ 11.467195006106468, 58.928967723262254 ], [ 11.468850019084067, 58.92876838777881 ], [ 11.468858033226194, 58.928410831132723 ], [ 11.468506684912263, 58.928102480581444 ], [ 11.46836733005248, 58.927843729874674 ], [ 11.468354476603508, 58.927754516868667 ], [ 11.468589721591941, 58.927519615124247 ], [ 11.468581925722157, 58.927430546662976 ], [ 11.468249277742492, 58.927032076460847 ] ] ] } },
{ "type": "Feature", "properties": { "fid": 521581, "elvelengde_m": 227.58, "elvID": "315-1-37", "elvenavn": null, "regulert": null, "fid_2": 592, "id": 592, "left": 10.986919847, "top": 58.946110046000001, "right": 11.486919847, "bottom": 58.446110046000001, "row_index": 31, "col_index": 14, "tile_id": 592 }, "geometry": { "type": "MultiLineString", "coordinates": [ [ [ 11.461429035394191, 58.913002413612574 ], [ 11.461243086844032, 58.912713583638983 ], [ 11.461474753549604, 58.912472186638603 ], [ 11.460039996238224, 58.91170710305115 ], [ 11.459344502374561, 58.911532707132402 ] ] ] } },
{ "type": "Feature", "properties": { "fid": 521582, "elvelengde_m": 588.49, "elvID": "315-1-29", "elvenavn": null, "regulert": null, "fid_2": 592, "id": 592, "left": 10.986919847, "top": 58.946110046000001, "right": 11.486919847, "bottom": 58.446110046000001, "row_index": 31, "col_index": 14, "tile_id": 592 }, "geometry": { "type": "MultiLineString", "coordinates": [ [ [ 11.467375564923172, 58.926447437965869 ], [ 11.466862861778484, 58.926497161391652 ], [ 11.466392360380391, 58.926384041847371 ], [ 11.464936539801775, 58.925905055887299 ], [ 11.46446009494958, 58.925644582833399 ], [ 11.464246843827087, 58.925399278083717 ], [ 11.462292051478617, 58.925047395626024 ], [ 11.461420777135203, 58.924612902227253 ], [ 11.460388100675299, 58.92428377788071 ], [ 11.460008306948623, 58.923888329630323 ], [ 11.459356795006357, 58.923593494607125 ] ] ] } },
{ "type": "Feature", "properties": { "fid": 521583, "elvelengde_m": 143.43, "elvID": "315-1-32", "elvenavn": null, "regulert": null, "fid_2": 592, "id": 592, "left": 10.986919847, "top": 58.946110046000001, "right": 11.486919847, "bottom": 58.446110046000001, "row_index": 31, "col_index": 14, "tile_id": 592 }, "geometry": { "type": "MultiLineString", "coordinates": [ [ [ 11.461663381329966, 58.927533812024805 ], [ 11.462142697922189, 58.92773822021438 ], [ 11.463274527886654, 58.92795510760547 ], [ 11.46392503924182, 58.927962976894705 ] ] ] } },
{ "type": "Feature", "properties": { "fid": 521584, "elvelengde_m": 119.55, "elvID": "315-1-29", "elvenavn": null, "regulert": null, "fid_2": 592, "id": 592, "left": 10.986919847, "top": 58.946110046000001, "right": 11.486919847, "bottom": 58.446110046000001, "row_index": 31, "col_index": 14, "tile_id": 592 }, "geometry": { "type": "MultiLineString", "coordinates": [ [ [ 11.476375990560591, 58.921657761948687 ], [ 11.476828154659321, 58.92192710137347 ], [ 11.476950610085497, 58.922370413026762 ], [ 11.476742371048488, 58.922611121106115 ] ] ] } },
{ "type": "Feature", "properties": { "fid": 521585, "elvelengde_m": 198.47, "elvID": "315-1-26", "elvenavn": null, "regulert": null, "fid_2": 592, "id": 592, "left": 10.986919847, "top": 58.946110046000001, "right": 11.486919847, "bottom": 58.446110046000001, "row_index": 31, "col_index": 14, "tile_id": 592 }, "geometry": { "type": "MultiLineString", "coordinates": [ [ [ 11.470308015142558, 58.892074636251436 ], [ 11.470477178323884, 58.892115540590574 ], [ 11.470877316466872, 58.89251364870325 ], [ 11.472098627028755, 58.893260368328491 ], [ 11.47212502189682, 58.893508153165413 ] ] ] } },
{ "type": "Feature", "properties": { "fid": 521586, "elvelengde_m": 46.13, "elvID": "315-1-26", "elvenavn": null, "regulert": null, "fid_2": 592, "id": 592, "left": 10.986919847, "top": 58.946110046000001, "right": 11.486919847, "bottom": 58.446110046000001, "row_index": 31, "col_index": 14, "tile_id": 592 }, "geometry": { "type": "MultiLineString", "coordinates": [ [ [ 11.45723307905638, 58.896140636599128 ], [ 11.456472872896436, 58.896063783733666 ] ] ] } },
{ "type": "Feature", "properties": { "fid": 521587, "elvelengde_m": 76.08, "elvID": "315-1-35", "elvenavn": null, "regulert": null, "fid_2": 592, "id": 592, "left": 10.986919847, "top": 58.946110046000001, "right": 11.486919847, "bottom": 58.446110046000001, "row_index": 31, "col_index": 14, "tile_id": 592 }, "geometry": { "type": "MultiLineString", "coordinates": [ [ [ 11.456503911146706, 58.901421511503138 ], [ 11.456753837478292, 58.901671179593016 ], [ 11.456411144387697, 58.902022328261481 ] ] ] } },
{ "type": "Feature", "properties": { "fid": 521588, "elvelengde_m": 439.62, "elvID": "315-1-1", "elvenavn": "Strömsån", "regulert": null, "fid_2": 592, "id": 592, "left": 10.986919847, "top": 58.946110046000001, "right": 11.486919847, "bottom": 58.446110046000001, "row_index": 31, "col_index": 14, "tile_id": 592 }, "geometry": { "type": "MultiLineString", "coordinates": [ [ [ 11.455815851870472, 58.889181707021983 ], [ 11.455634536464833, 58.889412416924614 ], [ 11.455667895010302, 58.88959023263434 ], [ 11.456996620629054, 58.890962976253782 ], [ 11.456963915018198, 58.892938898838366 ] ] ] } },
{ "type": "Feature", "properties": { "fid": 521589, "elvelengde_m": 75.85, "elvID": "315-1-29", "elvenavn": null, "regulert": null, "fid_2": 592, "id": 592, "left": 10.986919847, "top": 58.946110046000001, "right": 11.486919847, "bottom": 58.446110046000001, "row_index": 31, "col_index": 14, "tile_id": 592 }, "geometry": { "type": "MultiLineString", "coordinates": [ [ [ 11.459356795006357, 58.923593494607125 ], [ 11.459057611326568, 58.923584332775647 ], [ 11.458816934880288, 58.923825503207063 ], [ 11.458417587252644, 58.923954405631427 ] ] ] } },
{ "type": "Feature", "properties": { "fid": 521590, "elvelengde_m": 114.13, "elvID": "315-1-1", "elvenavn": "Strömsån", "regulert": null, "fid_2": 592, "id": 592, "left": 10.986919847, "top": 58.946110046000001, "right": 11.486919847, "bottom": 58.446110046000001, "row_index": 31, "col_index": 14, "tile_id": 592 }, "geometry": { "type": "MultiLineString", "coordinates": [ [ [ 11.456483539325367, 58.895039346333668 ], [ 11.456472872896436, 58.896063783733666 ] ] ] } },
{ "type": "Feature", "properties": { "fid": 521591, "elvelengde_m": 245.44, "elvID": "315-1-1", "elvenavn": "Strömsån", "regulert": null, "fid_2": 592, "id": 592, "left": 10.986919847, "top": 58.946110046000001, "right": 11.486919847, "bottom": 58.446110046000001, "row_index": 31, "col_index": 14, "tile_id": 592 }, "geometry": { "type": "MultiLineString", "coordinates": [ [ [ 11.456963915018198, 58.892938898838366 ], [ 11.457184191371596, 58.89329442760355 ], [ 11.456927141606696, 58.893647196184737 ], [ 11.457041132845555, 58.894041696694217 ], [ 11.456843661041136, 58.894202751352964 ], [ 11.456483539325367, 58.895039346333668 ] ] ] } },
{ "type": "Feature", "properties": { "fid": 521593, "elvelengde_m": 249.98, "elvID": "315-1-2", "elvenavn": null, "regulert": null, "fid_2": 592, "id": 592, "left": 10.986919847, "top": 58.946110046000001, "right": 11.486919847, "bottom": 58.446110046000001, "row_index": 31, "col_index": 14, "tile_id": 592 }, "geometry": { "type": "MultiLineString", "coordinates": [ [ [ 11.465507308288473, 58.943640964374303 ], [ 11.463345940749173, 58.943781819468079 ], [ 11.463012348512956, 58.943992020855575 ], [ 11.461461618214882, 58.944237795304439 ] ] ] } }
]
}
