{
"type": "FeatureCollection",
"name": "elvis_tile_id_1850",
"crs": { "type": "name", "properties": { "name": "urn:ogc:def:crs:OGC:1.3:CRS84" } },
"xy_coordinate_resolution": 1e-15,
"features": [
{ "type": "Feature", "properties": { "fid": 6313, "elvelengde_m": 4161.13, "elvID": "234-62-1", "elvenavn": "Tana", "regulert": null, "fid_2": 1850, "id": 1850, "left": 26.986919847, "top": 69.946110046000001, "right": 27.486919847, "bottom": 69.446110046000001, "row_index": 9, "col_index": 46, "tile_id": 1850 }, "geometry": { "type": "MultiLineString", "coordinates": [ [ [ 27.157404635850128, 69.933498061309564 ], [ 27.167177467185429, 69.934613855349639 ], [ 27.170388991113064, 69.935174191320769 ], [ 27.173900691025086, 69.935939021966561 ], [ 27.179054360533392, 69.937527366614219 ], [ 27.181116435979405, 69.938057292730164 ], [ 27.183096703478192, 69.938464989601755 ], [ 27.194746114713414, 69.939835449867886 ], [ 27.199844572853394, 69.940725491850728 ], [ 27.201657954241409, 69.941115761609339 ], [ 27.203854904821601, 69.941767125361821 ], [ 27.208464164596805, 69.942764832212248 ], [ 27.210332577858068, 69.943082729107331 ], [ 27.214254808148706, 69.943590210429633 ], [ 27.216347915451276, 69.94397179976869 ], [ 27.218367529385677, 69.944455883059135 ], [ 27.221700070321926, 69.94560412548735 ], [ 27.22339312448328, 69.946110046 ] ] ] } },
{ "type": "Feature", "properties": { "fid": 6315, "elvelengde_m": 1797.14, "elvID": "234-62-1", "elvenavn": "Tana", "regulert": null, "fid_2": 1850, "id": 1850, "left": 26.986919847, "top": 69.946110046000001, "right": 27.486919847, "bottom": 69.446110046000001, "row_index": 9, "col_index": 46, "tile_id": 1850 }, "geometry": { "type": "MultiLineString", "coordinates": [ [ [ 27.115352566975808, 69.923332624863463 ], [ 27.116129009762304, 69.923995598696365 ], [ 27.116968047505193, 69.924884503827514 ], [ 27.118128990512666, 69.925856849930199 ], [ 27.119475611437888, 69.92668821510685 ], [ 27.120709026461327, 69.927263562303111 ], [ 27.122542116313902, 69.928376256802352 ], [ 27.123401846184134, 69.928772588160669 ], [ 27.12407569566415, 69.929245875551487 ], [ 27.125537759301984, 69.930602072874635 ], [ 27.126248062046969, 69.930921679053455 ], [ 27.128228085243588, 69.931573269045387 ], [ 27.130835856135011, 69.932207728696838 ], [ 27.132979818312265, 69.932500373760533 ], [ 27.135217955164759, 69.932629459518168 ], [ 27.146690206894437, 69.932468069938125 ] ] ] } },
{ "type": "Feature", "properties": { "fid": 6316, "elvelengde_m": 1150.95, "elvID": "234-62-1", "elvenavn": "Tana", "regulert": null, "fid_2": 1850, "id": 1850, "left": 26.986919847, "top": 69.946110046000001, "right": 27.486919847, "bottom": 69.446110046000001, "row_index": 9, "col_index": 46, "tile_id": 1850 }, "geometry": { "type": "MultiLineString", "coordinates": [ [ [ 27.093325902027416, 69.916941710338989 ], [ 27.095815268074904, 69.917052137028918 ], [ 27.097770215874448, 69.917232562630659 ], [ 27.099937120527478, 69.917558041972427 ], [ 27.105066789891364, 69.918879991297729 ], [ 27.107250196408017, 69.919615361101592 ], [ 27.110610495807101, 69.920868100822744 ], [ 27.111917772956982, 69.921430664203825 ], [ 27.113225306741391, 69.922018817028999 ], [ 27.115352566975808, 69.923332624863463 ] ] ] } },
{ "type": "Feature", "properties": { "fid": 6318, "elvelengde_m": 3061.09, "elvID": "234-62-1", "elvenavn": "Tana", "regulert": null, "fid_2": 1850, "id": 1850, "left": 26.986919847, "top": 69.946110046000001, "right": 27.486919847, "bottom": 69.446110046000001, "row_index": 9, "col_index": 46, "tile_id": 1850 }, "geometry": { "type": "MultiLineString", "coordinates": [ [ [ 26.986919847, 69.93468724004039 ], [ 26.98704897821063, 69.93463405806115 ], [ 26.98849919965615, 69.933572902492259 ], [ 26.989511437263936, 69.933028248588542 ], [ 26.992000665435505, 69.93192956841672 ], [ 26.993121009947259, 69.931530111590433 ], [ 26.994407584788306, 69.930877796701481 ], [ 26.99643150548583, 69.92955363114595 ], [ 26.997963613355015, 69.928357566612746 ], [ 27.00362255004298, 69.925421323883086 ], [ 27.004223911507623, 69.924848423632255 ], [ 27.004606509379087, 69.924294305332111 ], [ 27.005071013732838, 69.923308180069995 ], [ 27.005754265980766, 69.922688309497985 ], [ 27.008790242128299, 69.920852353167106 ], [ 27.010381550128905, 69.919342511848384 ], [ 27.011765923179428, 69.918574484750877 ], [ 27.016137604080075, 69.916949390535763 ], [ 27.017503540576161, 69.916376370905212 ], [ 27.019388260207737, 69.91539005864459 ], [ 27.020565734921941, 69.915053049545079 ], [ 27.022202248860289, 69.914769882641522 ], [ 27.023677320890496, 69.914318887296574 ], [ 27.026080801653176, 69.913398170465541 ], [ 27.027500083318291, 69.912663763905229 ] ] ] } },
{ "type": "Feature", "properties": { "fid": 6319, "elvelengde_m": 1690.23, "elvID": "234-62-1", "elvenavn": "Tana", "regulert": null, "fid_2": 1850, "id": 1850, "left": 26.986919847, "top": 69.946110046000001, "right": 27.486919847, "bottom": 69.446110046000001, "row_index": 9, "col_index": 46, "tile_id": 1850 }, "geometry": { "type": "MultiLineString", "coordinates": [ [ [ 27.048367360329575, 69.91219646655783 ], [ 27.049710711777159, 69.912718935046456 ], [ 27.051516805068196, 69.913571033875499 ], [ 27.053683877712931, 69.914407495638926 ], [ 27.056689206440034, 69.915438418250616 ], [ 27.05969000142488, 69.916978930488028 ], [ 27.060935950368599, 69.91749439141357 ], [ 27.062161438548387, 69.917756304057605 ], [ 27.067765155431914, 69.918101743495782 ], [ 27.076538423275274, 69.918182711947267 ], [ 27.081375379313485, 69.918049077180996 ], [ 27.084484738651788, 69.917712607235146 ] ] ] } },
{ "type": "Feature", "properties": { "fid": 6320, "elvelengde_m": 476.77, "elvID": "234-62-1", "elvenavn": "Tana", "regulert": null, "fid_2": 1850, "id": 1850, "left": 26.986919847, "top": 69.946110046000001, "right": 27.486919847, "bottom": 69.446110046000001, "row_index": 9, "col_index": 46, "tile_id": 1850 }, "geometry": { "type": "MultiLineString", "coordinates": [ [ [ 27.037369668109523, 69.910387660264959 ], [ 27.039764746361691, 69.910559370816344 ], [ 27.043754610742685, 69.911093752128778 ], [ 27.046087270472366, 69.91150361220258 ], [ 27.047679396302296, 69.911928883088549 ], [ 27.048367360329575, 69.91219646655783 ] ] ] } },
{ "type": "Feature", "properties": { "fid": 6321, "elvelengde_m": 493.96, "elvID": "234-62-1", "elvenavn": "Tana", "regulert": null, "fid_2": 1850, "id": 1850, "left": 26.986919847, "top": 69.946110046000001, "right": 27.486919847, "bottom": 69.446110046000001, "row_index": 9, "col_index": 46, "tile_id": 1850 }, "geometry": { "type": "MultiLineString", "coordinates": [ [ [ 27.027500083318291, 69.912663763905229 ], [ 27.029220772432289, 69.911744759713642 ], [ 27.03161260820103, 69.910792489738071 ], [ 27.034191179951335, 69.910410261859994 ], [ 27.035611701970037, 69.910344238780283 ], [ 27.037369668109523, 69.910387660264959 ] ] ] } },
{ "type": "Feature", "properties": { "fid": 6382, "elvelengde_m": 336.35, "elvID": "234-62-1", "elvenavn": "Tana", "regulert": null, "fid_2": 1850, "id": 1850, "left": 26.986919847, "top": 69.946110046000001, "right": 27.486919847, "bottom": 69.446110046000001, "row_index": 9, "col_index": 46, "tile_id": 1850 }, "geometry": { "type": "MultiLineString", "coordinates": [ [ [ 27.084858131918931, 69.917667019937952 ], [ 27.090538892628338, 69.917079999858075 ], [ 27.093325902027416, 69.916941710338989 ] ] ] } },
{ "type": "Feature", "properties": { "fid": 6385, "elvelengde_m": 394.53, "elvID": "234-62-1", "elvenavn": "Tana", "regulert": null, "fid_2": 1850, "id": 1850, "left": 26.986919847, "top": 69.946110046000001, "right": 27.486919847, "bottom": 69.446110046000001, "row_index": 9, "col_index": 46, "tile_id": 1850 }, "geometry": { "type": "MultiLineString", "coordinates": [ [ [ 27.146690206894437, 69.932468069938125 ], [ 27.150903983076041, 69.932528557724368 ], [ 27.153105554885176, 69.932757152161201 ], [ 27.15645350779468, 69.933340249056599 ] ] ] } },
{ "type": "Feature", "properties": { "fid": 6676, "elvelengde_m": 15.22, "elvID": "234-62-1", "elvenavn": "Tana", "regulert": null, "fid_2": 1850, "id": 1850, "left": 26.986919847, "top": 69.946110046000001, "right": 27.486919847, "bottom": 69.446110046000001, "row_index": 9, "col_index": 46, "tile_id": 1850 }, "geometry": { "type": "MultiLineString", "coordinates": [ [ [ 27.084484738651788, 69.917712607235146 ], [ 27.084858131918931, 69.917667019937952 ] ] ] } },
{ "type": "Feature", "properties": { "fid": 6677, "elvelengde_m": 40.61, "elvID": "234-62-1", "elvenavn": "Tana", "regulert": null, "fid_2": 1850, "id": 1850, "left": 26.986919847, "top": 69.946110046000001, "right": 27.486919847, "bottom": 69.446110046000001, "row_index": 9, "col_index": 46, "tile_id": 1850 }, "geometry": { "type": "MultiLineString", "coordinates": [ [ [ 27.15645350779468, 69.933340249056599 ], [ 27.157404635850128, 69.933498061309564 ] ] ] } },
{ "type": "Feature", "properties": { "fid": 12312, "elvelengde_m": 118.0, "elvID": "234-62-5391", "elvenavn": null, "regulert": null, "fid_2": 1850, "id": 1850, "left": 26.986919847, "top": 69.946110046000001, "right": 27.486919847, "bottom": 69.446110046000001, "row_index": 9, "col_index": 46, "tile_id": 1850 }, "geometry": { "type": "MultiLineString", "coordinates": [ [ [ 27.155792324077559, 69.934341490672722 ], [ 27.155705487702722, 69.934073802913971 ], [ 27.155743265464977, 69.933898169252899 ], [ 27.15645350779468, 69.933340249056599 ] ] ] } },
{ "type": "Feature", "properties": { "fid": 12317, "elvelengde_m": 54.11, "elvID": "234-62-5080", "elvenavn": "Tana", "regulert": null, "fid_2": 1850, "id": 1850, "left": 26.986919847, "top": 69.946110046000001, "right": 27.486919847, "bottom": 69.446110046000001, "row_index": 9, "col_index": 46, "tile_id": 1850 }, "geometry": { "type": "MultiLineString", "coordinates": [ [ [ 27.084877380533779, 69.918177418338132 ], [ 27.084484738651788, 69.917712607235146 ] ] ] } },
{ "type": "Feature", "properties": { "fid": 13160, "elvelengde_m": 966.24, "elvID": "234-62-5080", "elvenavn": "Levsejåkka", "regulert": null, "fid_2": 1850, "id": 1850, "left": 26.986919847, "top": 69.946110046000001, "right": 27.486919847, "bottom": 69.446110046000001, "row_index": 9, "col_index": 46, "tile_id": 1850 }, "geometry": { "type": "MultiLineString", "coordinates": [ [ [ 27.052331336587581, 69.946110046 ], [ 27.053158593742864, 69.945555122938501 ], [ 27.053538640704804, 69.945072477168765 ], [ 27.053696537843098, 69.944709118267312 ], [ 27.053707166054707, 69.944428511646848 ], [ 27.054430683710745, 69.944462627366931 ], [ 27.054744331165335, 69.944363949019106 ], [ 27.054439155780507, 69.944091035708624 ], [ 27.054870979577906, 69.943823027385449 ], [ 27.054899408115443, 69.943710232646211 ], [ 27.054611001940241, 69.943224069510094 ], [ 27.054655216647031, 69.943107360018473 ], [ 27.054798246059629, 69.943036483145022 ] ] ] } },
{ "type": "Feature", "properties": { "fid": 13173, "elvelengde_m": 3598.88, "elvID": "234-62-5391", "elvenavn": null, "regulert": null, "fid_2": 1850, "id": 1850, "left": 26.986919847, "top": 69.946110046000001, "right": 27.486919847, "bottom": 69.446110046000001, "row_index": 9, "col_index": 46, "tile_id": 1850 }, "geometry": { "type": "MultiLineString", "coordinates": [ [ [ 27.137375536289014, 69.946110046 ], [ 27.136875061665691, 69.945873971514303 ], [ 27.136340219402452, 69.945454091334071 ], [ 27.136198826246012, 69.945131667830339 ], [ 27.135758664069066, 69.944591623302216 ], [ 27.135253097110752, 69.944224096107433 ], [ 27.135168164221, 69.94373826244022 ], [ 27.135022636883743, 69.943622888560057 ], [ 27.135001643193068, 69.942980060628784 ], [ 27.135202151836278, 69.94283741298058 ], [ 27.135085282407189, 69.942645140371411 ], [ 27.135177005830112, 69.942524086056522 ], [ 27.135204757536538, 69.942184098066733 ], [ 27.135109232987876, 69.941757944112553 ], [ 27.135706465994737, 69.941053547786993 ], [ 27.135736153103785, 69.939695947427069 ], [ 27.135901306145879, 69.939367691639504 ], [ 27.135932165448779, 69.939110703324445 ], [ 27.135888999033824, 69.938553084763612 ], [ 27.135757990033646, 69.938350297565293 ], [ 27.135678203720055, 69.937242089831386 ], [ 27.135383529016455, 69.936903839063731 ], [ 27.135523949550102, 69.936788804537429 ], [ 27.137009227985374, 69.936317075957703 ], [ 27.137437209196037, 69.936256277445253 ], [ 27.137951065148826, 69.936294454051804 ], [ 27.138132919808847, 69.9361559208198 ], [ 27.137920590774367, 69.936073289202398 ], [ 27.138076239715229, 69.9359444207807 ], [ 27.139222864223541, 69.93608195748611 ], [ 27.14030943462323, 69.935964787682153 ], [ 27.141564511618519, 69.935967314186257 ], [ 27.143561138917743, 69.936222773973469 ], [ 27.144349169757717, 69.936402501604462 ], [ 27.144980012955251, 69.936650165647848 ], [ 27.147471667438964, 69.937225639882712 ], [ 27.148370581497772, 69.937711278608703 ], [ 27.149198022266816, 69.937952311471676 ], [ 27.150286352950516, 69.93842050635827 ], [ 27.151732632959426, 69.938829807415999 ], [ 27.153172288737146, 69.93879426009569 ], [ 27.153732298865567, 69.938630448204776 ], [ 27.155170869107888, 69.93859578012524 ], [ 27.155739477816361, 69.938202597950379 ], [ 27.155649891637594, 69.938097494916448 ], [ 27.155048955435671, 69.937949616910842 ], [ 27.15524522375285, 69.937591696278815 ], [ 27.155556659346427, 69.937369677413912 ], [ 27.156138644075455, 69.937231064530806 ], [ 27.156183555359547, 69.937083129793137 ], [ 27.155941325109456, 69.936908877721294 ], [ 27.155255837808088, 69.936677450414194 ], [ 27.155267097060474, 69.936531032566279 ], [ 27.154717225790069, 69.935890142617154 ], [ 27.154431893517952, 69.935682383999378 ], [ 27.153568619503467, 69.935305166658338 ], [ 27.153408890443846, 69.935131935974411 ], [ 27.153401355246242, 69.935008176948983 ], [ 27.153555998591514, 69.934874157193335 ], [ 27.154291739637692, 69.934719209898915 ], [ 27.154606990747805, 69.934491542175792 ], [ 27.155792324077559, 69.934341490672722 ] ] ] } },
{ "type": "Feature", "properties": { "fid": 13183, "elvelengde_m": 463.92, "elvID": "234-62-5360", "elvenavn": null, "regulert": null, "fid_2": 1850, "id": 1850, "left": 26.986919847, "top": 69.946110046000001, "right": 27.486919847, "bottom": 69.446110046000001, "row_index": 9, "col_index": 46, "tile_id": 1850 }, "geometry": { "type": "MultiLineString", "coordinates": [ [ [ 27.044479807797128, 69.941050657647637 ], [ 27.045337123501948, 69.941325088733564 ], [ 27.047257107752081, 69.941644345269978 ], [ 27.049596099857364, 69.94221169874632 ], [ 27.052097430651479, 69.942453954133867 ], [ 27.053503168840802, 69.942730557754615 ], [ 27.054160385786542, 69.942974671929349 ], [ 27.054798246059629, 69.943036483145022 ] ] ] } },
{ "type": "Feature", "properties": { "fid": 13207, "elvelengde_m": 340.85, "elvID": "234-62-5360", "elvenavn": null, "regulert": null, "fid_2": 1850, "id": 1850, "left": 26.986919847, "top": 69.946110046000001, "right": 27.486919847, "bottom": 69.446110046000001, "row_index": 9, "col_index": 46, "tile_id": 1850 }, "geometry": { "type": "MultiLineString", "coordinates": [ [ [ 27.036967110888988, 69.938263470900239 ], [ 27.036873606415622, 69.938512634884333 ], [ 27.037003034746327, 69.939010914687145 ], [ 27.036907843746953, 69.939386533296044 ], [ 27.037174272006666, 69.939696512540323 ], [ 27.037497276919755, 69.939888486117752 ], [ 27.037662948371633, 69.940135063272024 ], [ 27.038608594016456, 69.940410834634108 ], [ 27.040485659096014, 69.940612329376705 ] ] ] } },
{ "type": "Feature", "properties": { "fid": 13282, "elvelengde_m": 1498.17, "elvID": "234-62-5274", "elvenavn": null, "regulert": null, "fid_2": 1850, "id": 1850, "left": 26.986919847, "top": 69.946110046000001, "right": 27.486919847, "bottom": 69.446110046000001, "row_index": 9, "col_index": 46, "tile_id": 1850 }, "geometry": { "type": "MultiLineString", "coordinates": [ [ [ 26.988809665498913, 69.946110046 ], [ 26.988918888637468, 69.945869858444695 ], [ 26.988955438346242, 69.945622283228374 ], [ 26.988821213785272, 69.945446686743395 ], [ 26.987657667068422, 69.944769413188055 ], [ 26.987523932845118, 69.944585027356922 ], [ 26.98754710182201, 69.944407686343865 ], [ 26.988423507767738, 69.943307477834381 ], [ 26.988600682754317, 69.942974938592073 ], [ 26.988606037009184, 69.942328463281044 ], [ 26.988438425704949, 69.942111830837291 ], [ 26.9880919062449, 69.941146966713561 ], [ 26.987703015946675, 69.940743371084636 ], [ 26.987278406567452, 69.940447929165714 ], [ 26.986919847, 69.940264935098185 ] ], [ [ 26.986919847, 69.937284792551907 ], [ 26.987110016706307, 69.937002193778497 ], [ 26.986948008619105, 69.936674364718655 ] ] ] } },
{ "type": "Feature", "properties": { "fid": 13286, "elvelengde_m": 1308.98, "elvID": "234-62-5300", "elvenavn": null, "regulert": null, "fid_2": 1850, "id": 1850, "left": 26.986919847, "top": 69.946110046000001, "right": 27.486919847, "bottom": 69.446110046000001, "row_index": 9, "col_index": 46, "tile_id": 1850 }, "geometry": { "type": "MultiLineString", "coordinates": [ [ [ 27.018397125251802, 69.935615101374196 ], [ 27.01696137447292, 69.935935597342151 ], [ 27.015208440361675, 69.93611612899582 ], [ 27.013280803100514, 69.93675046683569 ], [ 27.010464215252885, 69.936956870370565 ], [ 27.003870056471662, 69.9368929996661 ], [ 27.001353400224431, 69.936656838243053 ], [ 26.998683469500801, 69.936774643840067 ], [ 26.995919427420763, 69.937084282881628 ], [ 26.992805378737955, 69.937024472222291 ], [ 26.991679436315767, 69.936877596236229 ], [ 26.99061981987154, 69.93684483154604 ], [ 26.990135673325085, 69.936732607624364 ], [ 26.989660304874445, 69.936490085372583 ], [ 26.988177703134575, 69.936402731258084 ], [ 26.987769428654943, 69.93640369230782 ], [ 26.987187716095228, 69.936653026163555 ], [ 26.986948008619105, 69.936674364718655 ] ] ] } },
{ "type": "Feature", "properties": { "fid": 13302, "elvelengde_m": 111.89, "elvID": "234-62-5274", "elvenavn": null, "regulert": null, "fid_2": 1850, "id": 1850, "left": 26.986919847, "top": 69.946110046000001, "right": 27.486919847, "bottom": 69.446110046000001, "row_index": 9, "col_index": 46, "tile_id": 1850 }, "geometry": { "type": "MultiLineString", "coordinates": [ [ [ 26.986948008619105, 69.936674364718655 ], [ 26.986919847, 69.936653783484957 ] ] ] } },
{ "type": "Feature", "properties": { "fid": 13310, "elvelengde_m": 110.75, "elvID": "234-62-5411", "elvenavn": null, "regulert": null, "fid_2": 1850, "id": 1850, "left": 26.986919847, "top": 69.946110046000001, "right": 27.486919847, "bottom": 69.446110046000001, "row_index": 9, "col_index": 46, "tile_id": 1850 }, "geometry": { "type": "MultiLineString", "coordinates": [ [ [ 27.041382167996328, 69.931450798123208 ], [ 27.042289123251138, 69.9317500797234 ], [ 27.043345082343585, 69.931844895334279 ], [ 27.043847048759012, 69.93180925579928 ] ] ] } },
{ "type": "Feature", "properties": { "fid": 13370, "elvelengde_m": 2715.15, "elvID": "234-62-5080", "elvenavn": "Levsejåkka", "regulert": null, "fid_2": 1850, "id": 1850, "left": 26.986919847, "top": 69.946110046000001, "right": 27.486919847, "bottom": 69.446110046000001, "row_index": 9, "col_index": 46, "tile_id": 1850 }, "geometry": { "type": "MultiLineString", "coordinates": [ [ [ 27.054798246059629, 69.943036483145022 ], [ 27.055741275493819, 69.942486327528457 ], [ 27.057461831798108, 69.941898306655531 ], [ 27.057547250971083, 69.941743909633317 ], [ 27.057471204417482, 69.941628821650184 ], [ 27.057077425162724, 69.941384365944117 ], [ 27.057029950418322, 69.940758002954084 ], [ 27.05729096654979, 69.94052801962836 ], [ 27.057729192627427, 69.940327063413136 ], [ 27.059041912707567, 69.939958677561208 ], [ 27.059560707797818, 69.939498741052489 ], [ 27.061414576311815, 69.938601617516909 ], [ 27.06212060790817, 69.938070747006094 ], [ 27.062392620499661, 69.937689287879067 ], [ 27.062708298799954, 69.937502505336937 ], [ 27.063025878955791, 69.93702768123957 ], [ 27.06298163380173, 69.936632072568869 ], [ 27.063552062095635, 69.936315703923455 ], [ 27.065958454284164, 69.935372302467911 ], [ 27.065964332942766, 69.935049319184628 ], [ 27.066234822340995, 69.93483535426256 ], [ 27.066856252426973, 69.934001206197038 ], [ 27.067547260156047, 69.933526890378118 ], [ 27.068356272001086, 69.933156733241447 ], [ 27.068991452553526, 69.9326229462377 ], [ 27.069266612670141, 69.932487927730776 ], [ 27.070508832696085, 69.932212221453611 ], [ 27.071623539489305, 69.931506037153397 ], [ 27.072413597558899, 69.931275827227054 ], [ 27.074689705608492, 69.930827305476114 ], [ 27.076056860220437, 69.930292321710041 ], [ 27.075767982933986, 69.930100515187348 ], [ 27.075718099690839, 69.929952608551019 ], [ 27.075788938654814, 69.929856216783278 ], [ 27.077659354349436, 69.929147356077152 ], [ 27.079515834318133, 69.927943776791878 ], [ 27.080032055958984, 69.927770651163769 ], [ 27.08069493637726, 69.927349376669383 ], [ 27.080889042564802, 69.927154607290902 ], [ 27.080906598644056, 69.927027132042809 ], [ 27.080473752251315, 69.926312945969386 ], [ 27.080506339500566, 69.925995130049614 ], [ 27.080084061146813, 69.925733720929159 ], [ 27.079994307758405, 69.925397896583888 ], [ 27.080696658865119, 69.924734686456304 ], [ 27.081344538934797, 69.924582474463833 ], [ 27.082042093693051, 69.924187530624593 ], [ 27.080397060914155, 69.923778847356829 ], [ 27.079989123600569, 69.923480141051712 ], [ 27.079736538469554, 69.922972646142952 ], [ 27.079508429493142, 69.922758864002176 ] ] ] } },
{ "type": "Feature", "properties": { "fid": 13371, "elvelengde_m": 1627.58, "elvID": "234-62-5411", "elvenavn": null, "regulert": null, "fid_2": 1850, "id": 1850, "left": 26.986919847, "top": 69.946110046000001, "right": 27.486919847, "bottom": 69.446110046000001, "row_index": 9, "col_index": 46, "tile_id": 1850 }, "geometry": { "type": "MultiLineString", "coordinates": [ [ [ 27.049214484446654, 69.930957576900823 ], [ 27.050320648838603, 69.930453666114687 ], [ 27.050654868256029, 69.930193562977763 ], [ 27.051551739594416, 69.929949990069389 ], [ 27.051829757531536, 69.929657812223056 ], [ 27.052392635487166, 69.92932083560666 ], [ 27.053432919312623, 69.928953159974512 ], [ 27.056253021966135, 69.928931650686479 ], [ 27.057917644764725, 69.928811290677785 ], [ 27.061523571830172, 69.928201415510657 ], [ 27.061690561092185, 69.92796357370618 ], [ 27.061698086443755, 69.927817367915097 ], [ 27.061843606150106, 69.927700511116313 ], [ 27.063881085859826, 69.926958585114306 ], [ 27.064410875537924, 69.926555416238941 ], [ 27.066168999850781, 69.925936987648157 ], [ 27.066972989392802, 69.925491449891993 ], [ 27.069085824875078, 69.924872234213211 ], [ 27.070880452917535, 69.924645509822867 ], [ 27.073131978544748, 69.923929084362172 ], [ 27.074063005956116, 69.923393722135458 ], [ 27.074550413386529, 69.922781415955342 ], [ 27.075158067304947, 69.922734817501208 ], [ 27.078750444707296, 69.922812665696171 ], [ 27.079508429493142, 69.922758864002176 ] ] ] } },
{ "type": "Feature", "properties": { "fid": 13387, "elvelengde_m": 718.6, "elvID": "234-62-5080", "elvenavn": "Levsejåkka", "regulert": null, "fid_2": 1850, "id": 1850, "left": 26.986919847, "top": 69.946110046000001, "right": 27.486919847, "bottom": 69.446110046000001, "row_index": 9, "col_index": 46, "tile_id": 1850 }, "geometry": { "type": "MultiLineString", "coordinates": [ [ [ 27.079508429493142, 69.922758864002176 ], [ 27.079109391784101, 69.922472132874262 ], [ 27.079095218918685, 69.922351228534168 ], [ 27.080153755731814, 69.922174399009975 ], [ 27.080334997976369, 69.92208388019408 ], [ 27.080408278799094, 69.921892800874872 ], [ 27.080622532052637, 69.921688974505543 ], [ 27.081026330321805, 69.92151685012027 ], [ 27.083064027910023, 69.921109428063957 ], [ 27.083234491655492, 69.921006877258904 ], [ 27.083246574923884, 69.920830149393069 ], [ 27.083340238073152, 69.920722047531129 ], [ 27.084176886998947, 69.920307349550555 ], [ 27.08427559298546, 69.920197894820902 ], [ 27.084220857097218, 69.920076233860328 ], [ 27.083622832904009, 69.919964009749677 ], [ 27.083444916721799, 69.919858248890833 ], [ 27.083462367132196, 69.919752857605602 ], [ 27.083744917696642, 69.919666281648531 ], [ 27.083669197659681, 69.919507844858643 ], [ 27.083112511733034, 69.919419950881831 ], [ 27.083084376995007, 69.919296999707854 ], [ 27.085630309627753, 69.918762183521565 ], [ 27.085575463412674, 69.918638979490851 ], [ 27.085084772711024, 69.918543612746959 ], [ 27.084900257250286, 69.918364412439502 ], [ 27.084877380533779, 69.918177418338132 ] ] ] } },
{ "type": "Feature", "properties": { "fid": 19175, "elvelengde_m": 269.87, "elvID": "234-62-5411", "elvenavn": null, "regulert": null, "fid_2": 1850, "id": 1850, "left": 26.986919847, "top": 69.946110046000001, "right": 27.486919847, "bottom": 69.446110046000001, "row_index": 9, "col_index": 46, "tile_id": 1850 }, "geometry": { "type": "MultiLineString", "coordinates": [ [ [ 27.043847048759012, 69.93180925579928 ], [ 27.044101083616106, 69.931995723638025 ], [ 27.045351740896496, 69.931993114103904 ], [ 27.045541063132298, 69.931826477375765 ], [ 27.045741405155049, 69.931785395988285 ], [ 27.047696737417219, 69.931557061066243 ], [ 27.049214484446654, 69.930957576900823 ] ] ] } },
{ "type": "Feature", "properties": { "fid": 19599, "elvelengde_m": 150.49, "elvID": "234-62-5360", "elvenavn": null, "regulert": null, "fid_2": 1850, "id": 1850, "left": 26.986919847, "top": 69.946110046000001, "right": 27.486919847, "bottom": 69.446110046000001, "row_index": 9, "col_index": 46, "tile_id": 1850 }, "geometry": { "type": "MultiLineString", "coordinates": [ [ [ 27.039757037892183, 69.93784095811958 ], [ 27.038733902714121, 69.937896958408643 ], [ 27.037512817738666, 69.937755372595362 ], [ 27.036967110888988, 69.938263470900239 ] ] ] } },
{ "type": "Feature", "properties": { "fid": 24940, "elvelengde_m": 167.36, "elvID": "234-62-5360", "elvenavn": null, "regulert": null, "fid_2": 1850, "id": 1850, "left": 26.986919847, "top": 69.946110046000001, "right": 27.486919847, "bottom": 69.446110046000001, "row_index": 9, "col_index": 46, "tile_id": 1850 }, "geometry": { "type": "MultiLineString", "coordinates": [ [ [ 27.040485659096014, 69.940612329376705 ], [ 27.041974794743282, 69.940604877003679 ], [ 27.043898109286769, 69.940872432305198 ], [ 27.044479807797128, 69.941050657647637 ] ] ] } },
{ "type": "Feature", "properties": { "fid": 26548, "elvelengde_m": 117.1, "elvID": "234-62-5411", "elvenavn": null, "regulert": null, "fid_2": 1850, "id": 1850, "left": 26.986919847, "top": 69.946110046000001, "right": 27.486919847, "bottom": 69.446110046000001, "row_index": 9, "col_index": 46, "tile_id": 1850 }, "geometry": { "type": "MultiLineString", "coordinates": [ [ [ 27.038673805559547, 69.93099887499875 ], [ 27.040540973651456, 69.931252830539677 ], [ 27.041382167996328, 69.931450798123208 ] ] ] } }
]
}
