{
"type": "FeatureCollection",
"name": "elvis_tile_id_1213",
"crs": { "type": "name", "properties": { "name": "urn:ogc:def:crs:OGC:1.3:CRS84" } },
"xy_coordinate_resolution": 1e-15,
"features": [
{ "type": "Feature", "properties": { "fid": 1050787, "elvelengde_m": 683.72, "elvID": "196-74-189", "elvenavn": null, "regulert": null, "fid_2": 1213, "id": 1213, "left": 18.986919847, "top": 68.446110046000001, "right": 19.486919847, "bottom": 67.946110046000001, "row_index": 12, "col_index": 30, "tile_id": 1213 }, "geometry": { "type": "MultiLineString", "coordinates": [ [ [ 19.479259197087831, 68.444282606869436 ], [ 19.481143530466454, 68.444559935253466 ], [ 19.483321218101842, 68.445189653792269 ], [ 19.484598969037506, 68.445416513205501 ], [ 19.486077857995657, 68.445555537636068 ], [ 19.486919847, 68.445767769806764 ] ] ] } },
{ "type": "Feature", "properties": { "fid": 1050793, "elvelengde_m": 167.39, "elvID": "196-74-190", "elvenavn": null, "regulert": null, "fid_2": 1213, "id": 1213, "left": 18.986919847, "top": 68.446110046000001, "right": 19.486919847, "bottom": 67.946110046000001, "row_index": 12, "col_index": 30, "tile_id": 1213 }, "geometry": { "type": "MultiLineString", "coordinates": [ [ [ 19.475666912219214, 68.44364891939864 ], [ 19.476888054159858, 68.443991957878978 ], [ 19.478164335708474, 68.444236790732731 ], [ 19.479259197087831, 68.444282606869436 ] ] ] } },
{ "type": "Feature", "properties": { "fid": 1050798, "elvelengde_m": 173.21, "elvID": "196-74-189", "elvenavn": null, "regulert": null, "fid_2": 1213, "id": 1213, "left": 18.986919847, "top": 68.446110046000001, "right": 19.486919847, "bottom": 67.946110046000001, "row_index": 12, "col_index": 30, "tile_id": 1213 }, "geometry": { "type": "MultiLineString", "coordinates": [ [ [ 19.477400835401244, 68.44289326588472 ], [ 19.478162618187277, 68.443537050904766 ], [ 19.479259197087831, 68.444282606869436 ] ] ] } },
{ "type": "Feature", "properties": { "fid": 1050803, "elvelengde_m": 442.89, "elvID": "196-74-91", "elvenavn": null, "regulert": null, "fid_2": 1213, "id": 1213, "left": 18.986919847, "top": 68.446110046000001, "right": 19.486919847, "bottom": 67.946110046000001, "row_index": 12, "col_index": 30, "tile_id": 1213 }, "geometry": { "type": "MultiLineString", "coordinates": [ [ [ 19.420128465234633, 68.443190579979941 ], [ 19.42055253320116, 68.443363179981688 ], [ 19.420990597029384, 68.443662325004354 ], [ 19.421274913935449, 68.444050115829199 ], [ 19.421239125918845, 68.444270828407994 ], [ 19.422005702263363, 68.44506724064351 ], [ 19.423273808972667, 68.446110046 ] ] ] } }
]
}
