{
"type": "FeatureCollection",
"name": "elvis_tile_id_461",
"crs": { "type": "name", "properties": { "name": "urn:ogc:def:crs:OGC:1.3:CRS84" } },
"xy_coordinate_resolution": 1e-15,
"features": [
{ "type": "Feature", "properties": { "fid": 518859, "elvelengde_m": 183.29, "elvID": "136-24-1", "elvenavn": null, "regulert": null, "fid_2": 461, "id": 461, "left": 9.486919847, "top": 64.446110046000001, "right": 9.986919847, "bottom": 63.946110046000001, "row_index": 20, "col_index": 11, "tile_id": 461 }, "geometry": { "type": "MultiLineString", "coordinates": [ [ [ 9.986919847, 64.05827929239949 ], [ 9.986674672262957, 64.058498875630818 ] ] ] } },
{ "type": "Feature", "properties": { "fid": 518887, "elvelengde_m": 46.74, "elvID": "136-14-1", "elvenavn": null, "regulert": null, "fid_2": 461, "id": 461, "left": 9.486919847, "top": 64.446110046000001, "right": 9.986919847, "bottom": 63.946110046000001, "row_index": 20, "col_index": 11, "tile_id": 461 }, "geometry": { "type": "MultiLineString", "coordinates": [ [ [ 9.856020468551572, 64.007255849096182 ], [ 9.85581327244328, 64.007009233947514 ], [ 9.855559711681115, 64.006899514463939 ] ] ] } },
{ "type": "Feature", "properties": { "fid": 519034, "elvelengde_m": 29.46, "elvID": "136-24-2", "elvenavn": null, "regulert": null, "fid_2": 461, "id": 461, "left": 9.486919847, "top": 64.446110046000001, "right": 9.986919847, "bottom": 63.946110046000001, "row_index": 20, "col_index": 11, "tile_id": 461 }, "geometry": { "type": "MultiLineString", "coordinates": [ [ [ 9.969987878153781, 64.065925422436649 ], [ 9.969542767993847, 64.066089991302519 ] ] ] } },
{ "type": "Feature", "properties": { "fid": 519062, "elvelengde_m": 228.33, "elvID": "136-14-1", "elvenavn": null, "regulert": null, "fid_2": 461, "id": 461, "left": 9.486919847, "top": 64.446110046000001, "right": 9.986919847, "bottom": 63.946110046000001, "row_index": 20, "col_index": 11, "tile_id": 461 }, "geometry": { "type": "MultiLineString", "coordinates": [ [ [ 9.858269960678435, 64.009916941171269 ], [ 9.856653914370996, 64.009396816384566 ], [ 9.856413851864952, 64.0092530888775 ], [ 9.856571290995131, 64.00872584822288 ], [ 9.856829468147714, 64.008292076587153 ] ] ] } },
{ "type": "Feature", "properties": { "fid": 521437, "elvelengde_m": 50.53, "elvID": "136-24-2", "elvenavn": null, "regulert": null, "fid_2": 461, "id": 461, "left": 9.486919847, "top": 64.446110046000001, "right": 9.986919847, "bottom": 63.946110046000001, "row_index": 20, "col_index": 11, "tile_id": 461 }, "geometry": { "type": "MultiLineString", "coordinates": [ [ [ 9.96522838669245, 64.068155775868803 ], [ 9.964357564165073, 64.068388307328661 ] ] ] } },
{ "type": "Feature", "properties": { "fid": 521438, "elvelengde_m": 37.13, "elvID": "136-24-2", "elvenavn": null, "regulert": null, "fid_2": 461, "id": 461, "left": 9.486919847, "top": 64.446110046000001, "right": 9.986919847, "bottom": 63.946110046000001, "row_index": 20, "col_index": 11, "tile_id": 461 }, "geometry": { "type": "MultiLineString", "coordinates": [ [ [ 9.96713664391504, 64.067030511710968 ], [ 9.967159639494112, 64.067104237626992 ], [ 9.966984211095756, 64.067149029028542 ], [ 9.967002997545961, 64.067318497315426 ] ] ] } },
{ "type": "Feature", "properties": { "fid": 521481, "elvelengde_m": 29.94, "elvID": "136-23-1", "elvenavn": null, "regulert": null, "fid_2": 461, "id": 461, "left": 9.486919847, "top": 64.446110046000001, "right": 9.986919847, "bottom": 63.946110046000001, "row_index": 20, "col_index": 11, "tile_id": 461 }, "geometry": { "type": "MultiLineString", "coordinates": [ [ [ 9.933885150136513, 64.046381623431117 ], [ 9.933763476157148, 64.046642491759783 ] ] ] } },
{ "type": "Feature", "properties": { "fid": 521493, "elvelengde_m": 343.0, "elvID": "136-12-1", "elvenavn": null, "regulert": null, "fid_2": 461, "id": 461, "left": 9.486919847, "top": 64.446110046000001, "right": 9.986919847, "bottom": 63.946110046000001, "row_index": 20, "col_index": 11, "tile_id": 461 }, "geometry": { "type": "MultiLineString", "coordinates": [ [ [ 9.872009254594582, 64.030510797066867 ], [ 9.872210240753395, 64.03049243564395 ], [ 9.872428316407573, 64.030347144245994 ], [ 9.872720420840579, 64.029555013361232 ], [ 9.873060958222426, 64.029229468171565 ], [ 9.873645143593675, 64.02886232669087 ], [ 9.873675991145124, 64.028785434751143 ], [ 9.873439230729845, 64.028443215383774 ], [ 9.873394739301267, 64.028175197101191 ], [ 9.873572192980882, 64.027685258440329 ] ] ] } },
{ "type": "Feature", "properties": { "fid": 521497, "elvelengde_m": 349.92, "elvID": "136-8-1", "elvenavn": null, "regulert": null, "fid_2": 461, "id": 461, "left": 9.486919847, "top": 64.446110046000001, "right": 9.986919847, "bottom": 63.946110046000001, "row_index": 20, "col_index": 11, "tile_id": 461 }, "geometry": { "type": "MultiLineString", "coordinates": [ [ [ 9.910685338811279, 64.025593042261946 ], [ 9.912165537518765, 64.025903931651811 ], [ 9.915562383655258, 64.026201981056531 ], [ 9.917276215801733, 64.025908860575925 ], [ 9.917416661077555, 64.025969980432663 ] ] ] } },
{ "type": "Feature", "properties": { "fid": 521500, "elvelengde_m": 13.59, "elvID": "136-15-1", "elvenavn": null, "regulert": null, "fid_2": 461, "id": 461, "left": 9.486919847, "top": 64.446110046000001, "right": 9.986919847, "bottom": 63.946110046000001, "row_index": 20, "col_index": 11, "tile_id": 461 }, "geometry": { "type": "MultiLineString", "coordinates": [ [ [ 9.870784541787764, 64.012916216305669 ], [ 9.870679885800172, 64.01302907499047 ] ] ] } },
{ "type": "Feature", "properties": { "fid": 521502, "elvelengde_m": 29.85, "elvID": "136-14-1", "elvenavn": null, "regulert": null, "fid_2": 461, "id": 461, "left": 9.486919847, "top": 64.446110046000001, "right": 9.986919847, "bottom": 63.946110046000001, "row_index": 20, "col_index": 11, "tile_id": 461 }, "geometry": { "type": "MultiLineString", "coordinates": [ [ [ 9.860443572264373, 64.010525821215268 ], [ 9.859861298815915, 64.010445986501523 ] ] ] } },
{ "type": "Feature", "properties": { "fid": 521507, "elvelengde_m": 32.03, "elvID": "136-13-1", "elvenavn": null, "regulert": null, "fid_2": 461, "id": 461, "left": 9.486919847, "top": 64.446110046000001, "right": 9.986919847, "bottom": 63.946110046000001, "row_index": 20, "col_index": 11, "tile_id": 461 }, "geometry": { "type": "MultiLineString", "coordinates": [ [ [ 9.853438316864736, 63.99459422749235 ], [ 9.853266675975151, 63.99443373393585 ], [ 9.853034916783058, 63.994475395747209 ] ] ] } },
{ "type": "Feature", "properties": { "fid": 521526, "elvelengde_m": 61.2, "elvID": "136-24-1", "elvenavn": null, "regulert": null, "fid_2": 461, "id": 461, "left": 9.486919847, "top": 64.446110046000001, "right": 9.986919847, "bottom": 63.946110046000001, "row_index": 20, "col_index": 11, "tile_id": 461 }, "geometry": { "type": "MultiLineString", "coordinates": [ [ [ 9.943992879249073, 64.067875277647971 ], [ 9.943904150371775, 64.067981682634297 ], [ 9.943401960270622, 64.068150119290223 ], [ 9.943111152285296, 64.068112535300116 ] ] ] } },
{ "type": "Feature", "properties": { "fid": 521528, "elvelengde_m": 349.32, "elvID": "136-24-1", "elvenavn": null, "regulert": null, "fid_2": 461, "id": 461, "left": 9.486919847, "top": 64.446110046000001, "right": 9.986919847, "bottom": 63.946110046000001, "row_index": 20, "col_index": 11, "tile_id": 461 }, "geometry": { "type": "MultiLineString", "coordinates": [ [ [ 9.95171002360615, 64.067832145931561 ], [ 9.949767080651656, 64.067783316594713 ], [ 9.948289414996051, 64.068065547758877 ], [ 9.946873216577922, 64.067723701191582 ], [ 9.946118499331957, 64.067784030629923 ], [ 9.945638799143124, 64.067616908251424 ], [ 9.945399450616453, 64.067410896567225 ] ] ] } },
{ "type": "Feature", "properties": { "fid": 546519, "elvelengde_m": 48.45, "elvID": "136-24-1", "elvenavn": null, "regulert": null, "fid_2": 461, "id": 461, "left": 9.486919847, "top": 64.446110046000001, "right": 9.986919847, "bottom": 63.946110046000001, "row_index": 20, "col_index": 11, "tile_id": 461 }, "geometry": { "type": "MultiLineString", "coordinates": [ [ [ 9.943111152285296, 64.068112535300116 ], [ 9.942206273169962, 64.067937971355178 ] ] ] } },
{ "type": "Feature", "properties": { "fid": 546522, "elvelengde_m": 138.16, "elvID": "136-24-2", "elvenavn": null, "regulert": null, "fid_2": 461, "id": 461, "left": 9.486919847, "top": 64.446110046000001, "right": 9.986919847, "bottom": 63.946110046000001, "row_index": 20, "col_index": 11, "tile_id": 461 }, "geometry": { "type": "MultiLineString", "coordinates": [ [ [ 9.964357564165073, 64.068388307328661 ], [ 9.963904633526381, 64.068491240617973 ], [ 9.963409847640822, 64.068865101803411 ], [ 9.962397945454661, 64.069242331439071 ] ] ] } },
{ "type": "Feature", "properties": { "fid": 546524, "elvelengde_m": 1195.95, "elvID": "136-24-3", "elvenavn": null, "regulert": null, "fid_2": 461, "id": 461, "left": 9.486919847, "top": 64.446110046000001, "right": 9.986919847, "bottom": 63.946110046000001, "row_index": 20, "col_index": 11, "tile_id": 461 }, "geometry": { "type": "MultiLineString", "coordinates": [ [ [ 9.980997273036536, 64.068723003112481 ], [ 9.979312808299209, 64.069021674017506 ], [ 9.978325516728532, 64.068932555241147 ], [ 9.978021188517417, 64.069811660201466 ], [ 9.977938021404253, 64.070460222798474 ], [ 9.977529346958566, 64.070856447529508 ], [ 9.97684454275797, 64.070930527851701 ], [ 9.975520836694852, 64.070869957313803 ], [ 9.974082534773313, 64.070555515714986 ], [ 9.973546689138963, 64.070350935422596 ], [ 9.973231228225673, 64.070399199326232 ], [ 9.972429592974951, 64.070149967162109 ], [ 9.971513380773809, 64.06964695920729 ], [ 9.970660110276082, 64.069340335840749 ], [ 9.969897285075431, 64.069210813250095 ], [ 9.968298189035375, 64.069203507084723 ], [ 9.965969828944754, 64.069443360054592 ], [ 9.965189523596464, 64.069403698913021 ], [ 9.964313382196275, 64.069553030528979 ], [ 9.964062316577728, 64.069411186718241 ], [ 9.962696516229775, 64.069446276595869 ], [ 9.962397945454661, 64.069242331439071 ] ] ] } },
{ "type": "Feature", "properties": { "fid": 546525, "elvelengde_m": 93.73, "elvID": "136-24-1", "elvenavn": null, "regulert": null, "fid_2": 461, "id": 461, "left": 9.486919847, "top": 64.446110046000001, "right": 9.986919847, "bottom": 63.946110046000001, "row_index": 20, "col_index": 11, "tile_id": 461 }, "geometry": { "type": "MultiLineString", "coordinates": [ [ [ 9.945399450616453, 64.067410896567225 ], [ 9.944974177715226, 64.067405349094543 ], [ 9.944641261622776, 64.067623049975595 ], [ 9.94414637803065, 64.067752977799714 ], [ 9.943992879249073, 64.067875277647971 ] ] ] } },
{ "type": "Feature", "properties": { "fid": 546529, "elvelengde_m": 422.97, "elvID": "136-24-2", "elvenavn": null, "regulert": null, "fid_2": 461, "id": 461, "left": 9.486919847, "top": 64.446110046000001, "right": 9.986919847, "bottom": 63.946110046000001, "row_index": 20, "col_index": 11, "tile_id": 461 }, "geometry": { "type": "MultiLineString", "coordinates": [ [ [ 9.962397945454661, 64.069242331439071 ], [ 9.960684690671142, 64.068347535716569 ], [ 9.959279597467571, 64.068015741801929 ], [ 9.957262380385915, 64.067768721591193 ], [ 9.956821636139384, 64.067466539874573 ], [ 9.957203136944688, 64.067230711803191 ], [ 9.956968808856299, 64.066980950175804 ], [ 9.956803784789606, 64.066946159990437 ] ] ] } },
{ "type": "Feature", "properties": { "fid": 546530, "elvelengde_m": 293.09, "elvID": "136-24-1", "elvenavn": null, "regulert": null, "fid_2": 461, "id": 461, "left": 9.486919847, "top": 64.446110046000001, "right": 9.986919847, "bottom": 63.946110046000001, "row_index": 20, "col_index": 11, "tile_id": 461 }, "geometry": { "type": "MultiLineString", "coordinates": [ [ [ 9.956803784789606, 64.066946159990437 ], [ 9.95607494311254, 64.067211204438081 ], [ 9.954749485423827, 64.067408368817709 ], [ 9.954350184870361, 64.067716165983441 ], [ 9.953690360014283, 64.067603808336415 ], [ 9.952891292005674, 64.067609034097302 ], [ 9.952261787042973, 64.067783692124266 ], [ 9.95171002360615, 64.067832145931561 ] ] ] } },
{ "type": "Feature", "properties": { "fid": 546537, "elvelengde_m": 158.99, "elvID": "136-24-2", "elvenavn": null, "regulert": null, "fid_2": 461, "id": 461, "left": 9.486919847, "top": 64.446110046000001, "right": 9.986919847, "bottom": 63.946110046000001, "row_index": 20, "col_index": 11, "tile_id": 461 }, "geometry": { "type": "MultiLineString", "coordinates": [ [ [ 9.969542767993847, 64.066089991302519 ], [ 9.96801007579603, 64.066809288328898 ], [ 9.96713664391504, 64.067030511710968 ] ] ] } },
{ "type": "Feature", "properties": { "fid": 546610, "elvelengde_m": 1818.25, "elvID": "136-24-2", "elvenavn": null, "regulert": null, "fid_2": 461, "id": 461, "left": 9.486919847, "top": 64.446110046000001, "right": 9.986919847, "bottom": 63.946110046000001, "row_index": 20, "col_index": 11, "tile_id": 461 }, "geometry": { "type": "MultiLineString", "coordinates": [ [ [ 9.986919847, 64.062449587329979 ], [ 9.986876050288846, 64.062464277500993 ], [ 9.983095961422631, 64.063469557486343 ], [ 9.981810560637594, 64.063413777824451 ], [ 9.980396334794294, 64.063714691369171 ], [ 9.980149981118364, 64.063569351071664 ], [ 9.979921466753094, 64.063601834750031 ], [ 9.980085176867259, 64.063982152128872 ], [ 9.97997201557642, 64.064261049541102 ], [ 9.979462551628856, 64.064928596325657 ], [ 9.979083929066281, 64.065236269257767 ], [ 9.978739500524602, 64.065346418289792 ], [ 9.978195967101909, 64.065044797849069 ], [ 9.977597797097054, 64.064932164691399 ], [ 9.975977255327797, 64.064898287940977 ], [ 9.975475988213198, 64.064623306509375 ], [ 9.974943327206111, 64.064626901004587 ], [ 9.973583404089224, 64.065003933670837 ], [ 9.972849448003416, 64.065116588317252 ], [ 9.971823264498465, 64.065069611314598 ], [ 9.971278671035193, 64.06532446955211 ], [ 9.97062919671925, 64.065508315826307 ], [ 9.970372549422041, 64.065788352409371 ], [ 9.969987878153781, 64.065925422436649 ] ] ] } },
{ "type": "Feature", "properties": { "fid": 546617, "elvelengde_m": 2298.28, "elvID": "136-24-1", "elvenavn": null, "regulert": null, "fid_2": 461, "id": 461, "left": 9.486919847, "top": 64.446110046000001, "right": 9.986919847, "bottom": 63.946110046000001, "row_index": 20, "col_index": 11, "tile_id": 461 }, "geometry": { "type": "MultiLineString", "coordinates": [ [ [ 9.986674672262957, 64.058498875630818 ], [ 9.985506391996218, 64.059072159524817 ], [ 9.984167678904317, 64.059458109284179 ], [ 9.981793743775793, 64.059537040261105 ], [ 9.981073131102645, 64.059425221218973 ], [ 9.979252472741086, 64.058943860472581 ], [ 9.979098474503186, 64.058639707496837 ], [ 9.978879014269696, 64.057549707764565 ], [ 9.97787751122568, 64.057756748748346 ], [ 9.977263883678168, 64.057707891489741 ], [ 9.976176061314428, 64.057939098814998 ], [ 9.975299402243289, 64.057812670785182 ], [ 9.972846249185658, 64.059148418572448 ], [ 9.972092997752565, 64.059288012627164 ], [ 9.971507362020709, 64.059534250183304 ], [ 9.971149709370257, 64.059850815375128 ], [ 9.969283219633237, 64.060387364330865 ], [ 9.969660557701157, 64.060632527569368 ], [ 9.969364891131043, 64.06083888584007 ], [ 9.969832160943039, 64.060855805135134 ], [ 9.970413382229159, 64.061067284908063 ], [ 9.970526610835183, 64.061380650636281 ], [ 9.970210085222005, 64.0617058362389 ], [ 9.969266250067763, 64.062259615532128 ], [ 9.968637629348658, 64.062452270201717 ], [ 9.966376032149844, 64.063418651053354 ], [ 9.96549335884556, 64.063971922232739 ], [ 9.962392059021939, 64.065554085906399 ], [ 9.960083438631916, 64.065766817793531 ], [ 9.959446616101181, 64.065726078927483 ], [ 9.958700284898171, 64.066072116541648 ], [ 9.958050946100787, 64.066264819396977 ], [ 9.957610782634418, 64.066572823612162 ], [ 9.956941052452553, 64.066765713031927 ], [ 9.956803784789606, 64.066946159990437 ] ] ] } },
{ "type": "Feature", "properties": { "fid": 546684, "elvelengde_m": 27.77, "elvID": "136-23-1", "elvenavn": null, "regulert": null, "fid_2": 461, "id": 461, "left": 9.486919847, "top": 64.446110046000001, "right": 9.986919847, "bottom": 63.946110046000001, "row_index": 20, "col_index": 11, "tile_id": 461 }, "geometry": { "type": "MultiLineString", "coordinates": [ [ [ 9.933763476157148, 64.046642491759783 ], [ 9.93351696184884, 64.046866869228424 ] ] ] } },
{ "type": "Feature", "properties": { "fid": 546706, "elvelengde_m": 372.89, "elvID": "136-22-1", "elvenavn": null, "regulert": null, "fid_2": 461, "id": 461, "left": 9.486919847, "top": 64.446110046000001, "right": 9.986919847, "bottom": 63.946110046000001, "row_index": 20, "col_index": 11, "tile_id": 461 }, "geometry": { "type": "MultiLineString", "coordinates": [ [ [ 9.970162746745062, 64.044429824104142 ], [ 9.969847586870609, 64.044207502266715 ], [ 9.97049392463215, 64.043359614498371 ], [ 9.97073267385843, 64.041975858896038 ], [ 9.970680286047344, 64.041644181529875 ], [ 9.970407665770862, 64.041195482368352 ] ] ] } },
{ "type": "Feature", "properties": { "fid": 546710, "elvelengde_m": 844.68, "elvID": "136-21-1", "elvenavn": null, "regulert": null, "fid_2": 461, "id": 461, "left": 9.486919847, "top": 64.446110046000001, "right": 9.986919847, "bottom": 63.946110046000001, "row_index": 20, "col_index": 11, "tile_id": 461 }, "geometry": { "type": "MultiLineString", "coordinates": [ [ [ 9.983988081294884, 64.045647139268212 ], [ 9.9838305118002, 64.045244368922766 ], [ 9.983964351806572, 64.044974192334706 ], [ 9.984094101871085, 64.04400404260592 ], [ 9.983983657809388, 64.04319712554053 ], [ 9.984065609446581, 64.042613198688073 ], [ 9.984564079073175, 64.042232847249537 ], [ 9.98511208263219, 64.041511128193306 ], [ 9.985200074273035, 64.041106685755636 ], [ 9.985088325302671, 64.040838181012163 ], [ 9.984671615910488, 64.040634600059064 ], [ 9.984118872020547, 64.04063833113284 ], [ 9.979819394549647, 64.03965587449045 ] ] ] } },
{ "type": "Feature", "properties": { "fid": 546721, "elvelengde_m": 321.29, "elvID": "136-8-1", "elvenavn": null, "regulert": null, "fid_2": 461, "id": 461, "left": 9.486919847, "top": 64.446110046000001, "right": 9.986919847, "bottom": 63.946110046000001, "row_index": 20, "col_index": 11, "tile_id": 461 }, "geometry": { "type": "MultiLineString", "coordinates": [ [ [ 9.917416661077555, 64.025969980432663 ], [ 9.918037584480304, 64.026181653169957 ], [ 9.918276465840449, 64.026601947290146 ], [ 9.919595160071365, 64.026871807214704 ], [ 9.921062475127105, 64.026683037794797 ], [ 9.921513501012637, 64.026707116209565 ], [ 9.921742998979402, 64.026840288072222 ], [ 9.922029916698424, 64.026847460713256 ], [ 9.922513316849445, 64.026639768791753 ] ] ] } },
{ "type": "Feature", "properties": { "fid": 546722, "elvelengde_m": 369.71, "elvID": "136-12-1", "elvenavn": null, "regulert": null, "fid_2": 461, "id": 461, "left": 9.486919847, "top": 64.446110046000001, "right": 9.986919847, "bottom": 63.946110046000001, "row_index": 20, "col_index": 11, "tile_id": 461 }, "geometry": { "type": "MultiLineString", "coordinates": [ [ [ 9.873572192980882, 64.027685258440329 ], [ 9.873955470765861, 64.026857306643123 ], [ 9.874391144933305, 64.026387997217853 ], [ 9.874393374489555, 64.025804671443467 ], [ 9.874571264930834, 64.024951013794009 ], [ 9.874768413852616, 64.024435485170059 ] ] ] } },
{ "type": "Feature", "properties": { "fid": 546733, "elvelengde_m": 1381.02, "elvID": "136-11-1", "elvenavn": null, "regulert": null, "fid_2": 461, "id": 461, "left": 9.486919847, "top": 64.446110046000001, "right": 9.986919847, "bottom": 63.946110046000001, "row_index": 20, "col_index": 11, "tile_id": 461 }, "geometry": { "type": "MultiLineString", "coordinates": [ [ [ 9.911357379992907, 64.015884844091971 ], [ 9.910754936206132, 64.01622964102215 ], [ 9.90942803798, 64.017286293967317 ], [ 9.909350019310519, 64.017692327714101 ], [ 9.908432807656261, 64.01835557999776 ], [ 9.907856371440987, 64.019262716807248 ], [ 9.907516151820307, 64.019982401253756 ], [ 9.906462000480262, 64.021381108219174 ], [ 9.90601726227723, 64.021545396406552 ], [ 9.904830416084254, 64.021543709229931 ], [ 9.90146426536119, 64.021223731466819 ], [ 9.899148280349216, 64.021103465876777 ], [ 9.89794134814171, 64.020781206557203 ], [ 9.897270530929164, 64.020785297342812 ], [ 9.896555489904356, 64.020295925114937 ], [ 9.894493721099519, 64.019856358613751 ], [ 9.894009345807484, 64.019599549220189 ], [ 9.89364932647902, 64.019650376568819 ], [ 9.893498710718063, 64.019599279675404 ] ] ] } },
{ "type": "Feature", "properties": { "fid": 546737, "elvelengde_m": 22.77, "elvID": "136-15-1", "elvenavn": null, "regulert": null, "fid_2": 461, "id": 461, "left": 9.486919847, "top": 64.446110046000001, "right": 9.986919847, "bottom": 63.946110046000001, "row_index": 20, "col_index": 11, "tile_id": 461 }, "geometry": { "type": "MultiLineString", "coordinates": [ [ [ 9.870679885800172, 64.01302907499047 ], [ 9.870513176603309, 64.0132197414339 ] ] ] } },
{ "type": "Feature", "properties": { "fid": 546742, "elvelengde_m": 103.81, "elvID": "136-14-1", "elvenavn": null, "regulert": null, "fid_2": 461, "id": 461, "left": 9.486919847, "top": 64.446110046000001, "right": 9.986919847, "bottom": 63.946110046000001, "row_index": 20, "col_index": 11, "tile_id": 461 }, "geometry": { "type": "MultiLineString", "coordinates": [ [ [ 9.859861298815915, 64.010445986501523 ], [ 9.859226479522182, 64.010413926775939 ], [ 9.858269960678435, 64.009916941171269 ] ] ] } },
{ "type": "Feature", "properties": { "fid": 546749, "elvelengde_m": 130.47, "elvID": "136-14-1", "elvenavn": null, "regulert": null, "fid_2": 461, "id": 461, "left": 9.486919847, "top": 64.446110046000001, "right": 9.986919847, "bottom": 63.946110046000001, "row_index": 20, "col_index": 11, "tile_id": 461 }, "geometry": { "type": "MultiLineString", "coordinates": [ [ [ 9.856829468147714, 64.008292076587153 ], [ 9.856658674055208, 64.008059754241458 ], [ 9.856163457096438, 64.007919101395728 ], [ 9.856020468551572, 64.007255849096182 ] ] ] } },
{ "type": "Feature", "properties": { "fid": 546751, "elvelengde_m": 13.39, "elvID": "136-14-1", "elvenavn": null, "regulert": null, "fid_2": 461, "id": 461, "left": 9.486919847, "top": 64.446110046000001, "right": 9.986919847, "bottom": 63.946110046000001, "row_index": 20, "col_index": 11, "tile_id": 461 }, "geometry": { "type": "MultiLineString", "coordinates": [ [ [ 9.855559711681115, 64.006899514463939 ], [ 9.855498678504652, 64.006782463229172 ] ] ] } },
{ "type": "Feature", "properties": { "fid": 546757, "elvelengde_m": 355.42, "elvID": "136-10-2", "elvenavn": null, "regulert": null, "fid_2": 461, "id": 461, "left": 9.486919847, "top": 64.446110046000001, "right": 9.986919847, "bottom": 63.946110046000001, "row_index": 20, "col_index": 11, "tile_id": 461 }, "geometry": { "type": "MultiLineString", "coordinates": [ [ [ 9.885066010151535, 64.005732860377165 ], [ 9.885974803561449, 64.005307582182851 ], [ 9.886761963081158, 64.004633131561576 ], [ 9.886663988599524, 64.004413856517587 ], [ 9.886918128359667, 64.004172465083442 ], [ 9.886544206214367, 64.003150352040151 ], [ 9.88715741959733, 64.002973992756793 ] ] ] } },
{ "type": "Feature", "properties": { "fid": 546758, "elvelengde_m": 418.23, "elvID": "136-10-1", "elvenavn": null, "regulert": null, "fid_2": 461, "id": 461, "left": 9.486919847, "top": 64.446110046000001, "right": 9.986919847, "bottom": 63.946110046000001, "row_index": 20, "col_index": 11, "tile_id": 461 }, "geometry": { "type": "MultiLineString", "coordinates": [ [ [ 9.895078760860619, 64.003924199825079 ], [ 9.893190313075683, 64.003693370412122 ], [ 9.892113138000919, 64.003269101171483 ], [ 9.890614780190694, 64.003089954411806 ], [ 9.889085136551149, 64.003216004800947 ], [ 9.88715741959733, 64.002973992756793 ] ] ] } },
{ "type": "Feature", "properties": { "fid": 546760, "elvelengde_m": 143.48, "elvID": "136-10-1", "elvenavn": null, "regulert": null, "fid_2": 461, "id": 461, "left": 9.486919847, "top": 64.446110046000001, "right": 9.986919847, "bottom": 63.946110046000001, "row_index": 20, "col_index": 11, "tile_id": 461 }, "geometry": { "type": "MultiLineString", "coordinates": [ [ [ 9.88715741959733, 64.002973992756793 ], [ 9.885907877075516, 64.002718024889035 ], [ 9.884829856662986, 64.00223204411482 ] ] ] } },
{ "type": "Feature", "properties": { "fid": 546763, "elvelengde_m": 955.39, "elvID": "136-9-1", "elvenavn": null, "regulert": null, "fid_2": 461, "id": 461, "left": 9.486919847, "top": 64.446110046000001, "right": 9.986919847, "bottom": 63.946110046000001, "row_index": 20, "col_index": 11, "tile_id": 461 }, "geometry": { "type": "MultiLineString", "coordinates": [ [ [ 9.904709559620066, 64.002868352620197 ], [ 9.904369190886756, 64.002554745408347 ], [ 9.903486937647592, 64.002317250280015 ], [ 9.902992528708705, 64.002354460090771 ], [ 9.901907234070878, 64.002148043245128 ], [ 9.902642934066879, 64.001328491897581 ], [ 9.899168476617811, 64.000739830503562 ], [ 9.898746883391555, 64.000347421004875 ], [ 9.898191257323077, 64.00023420335161 ], [ 9.897518255172034, 64.000292181182431 ], [ 9.896870242280476, 64.000484717329869 ], [ 9.896154768350289, 64.000489105698861 ], [ 9.894654319580447, 64.000247041364617 ], [ 9.89408591728551, 64.000376250534885 ], [ 9.893652206721992, 64.000235286539265 ], [ 9.892442478633345, 64.000135059482702 ], [ 9.891968142532418, 64.000003362892286 ], [ 9.891354245917869, 63.999989179013021 ], [ 9.890920768106014, 63.999857120628448 ], [ 9.890587640993814, 63.999565411833395 ] ] ] } },
{ "type": "Feature", "properties": { "fid": 546769, "elvelengde_m": 170.67, "elvID": "136-13-1", "elvenavn": null, "regulert": null, "fid_2": 461, "id": 461, "left": 9.486919847, "top": 64.446110046000001, "right": 9.986919847, "bottom": 63.946110046000001, "row_index": 20, "col_index": 11, "tile_id": 461 }, "geometry": { "type": "MultiLineString", "coordinates": [ [ [ 9.853034916783058, 63.994475395747209 ], [ 9.852496815685603, 63.994403101266414 ], [ 9.85227893672737, 63.994114488488613 ], [ 9.851411983335657, 63.993993164579166 ], [ 9.851509552331276, 63.99375858801249 ], [ 9.851261477480806, 63.993692640860544 ], [ 9.851343286018759, 63.99351796002486 ] ] ] } },
{ "type": "Feature", "properties": { "fid": 546783, "elvelengde_m": 564.77, "elvID": "136-2-1", "elvenavn": null, "regulert": null, "fid_2": 461, "id": 461, "left": 9.486919847, "top": 64.446110046000001, "right": 9.986919847, "bottom": 63.946110046000001, "row_index": 20, "col_index": 11, "tile_id": 461 }, "geometry": { "type": "MultiLineString", "coordinates": [ [ [ 9.986919847, 63.967709782590262 ], [ 9.986382263800577, 63.967884064282885 ], [ 9.98577188248762, 63.967951252601644 ], [ 9.984196315140197, 63.968446360778984 ], [ 9.982971782055355, 63.968472643128528 ], [ 9.982506038831939, 63.968583511635778 ], [ 9.981802336493875, 63.968902375696864 ], [ 9.980942176762824, 63.969419825086561 ], [ 9.980678997609619, 63.969484370246967 ], [ 9.980022032760932, 63.969390073248832 ], [ 9.979848643202171, 63.969104034979978 ], [ 9.978026382196342, 63.968972813842818 ], [ 9.977622825575354, 63.969100847296339 ] ] ] } },
{ "type": "Feature", "properties": { "fid": 546785, "elvelengde_m": 260.93, "elvID": "136-1-1", "elvenavn": null, "regulert": null, "fid_2": 461, "id": 461, "left": 9.486919847, "top": 64.446110046000001, "right": 9.986919847, "bottom": 63.946110046000001, "row_index": 20, "col_index": 11, "tile_id": 461 }, "geometry": { "type": "MultiLineString", "coordinates": [ [ [ 9.972555150451171, 63.96198226814257 ], [ 9.969320691309838, 63.961151305522925 ], [ 9.9677592532014, 63.961197671731838 ] ] ] } },
{ "type": "Feature", "properties": { "fid": 546786, "elvelengde_m": 133.99, "elvID": "136-24-2", "elvenavn": null, "regulert": null, "fid_2": 461, "id": 461, "left": 9.486919847, "top": 64.446110046000001, "right": 9.986919847, "bottom": 63.946110046000001, "row_index": 20, "col_index": 11, "tile_id": 461 }, "geometry": { "type": "MultiLineString", "coordinates": [ [ [ 9.967002997545961, 64.067318497315426 ], [ 9.966948437100992, 64.067478728402634 ], [ 9.965825682770468, 64.068053198612972 ], [ 9.96522838669245, 64.068155775868803 ] ] ] } },
{ "type": "Feature", "properties": { "fid": 1631176, "elvelengde_m": 363.29, "elvID": "135-52-1", "elvenavn": null, "regulert": null, "fid_2": 461, "id": 461, "left": 9.486919847, "top": 64.446110046000001, "right": 9.986919847, "bottom": 63.946110046000001, "row_index": 20, "col_index": 11, "tile_id": 461 }, "geometry": { "type": "MultiLineString", "coordinates": [ [ [ 9.978057015742106, 63.955806496216169 ], [ 9.976618574645149, 63.955537883826032 ], [ 9.976160207836443, 63.955271627697471 ], [ 9.975291086082299, 63.954936593094473 ], [ 9.973458490633094, 63.954482176108954 ], [ 9.97258633536965, 63.954057334301055 ], [ 9.972108149976236, 63.953976759538214 ] ] ] } }
]
}
