{
"type": "FeatureCollection",
"name": "elvis_tile_id_1967",
"crs": { "type": "name", "properties": { "name": "urn:ogc:def:crs:OGC:1.3:CRS84" } },
"xy_coordinate_resolution": 1e-15,
"features": [
{ "type": "Feature", "properties": { "fid": 409223, "elvelengde_m": 1217.21, "elvID": "232-1-1", "elvenavn": null, "regulert": null, "fid_2": 1967, "id": 1967, "left": 28.486919847, "top": 71.446110046000001, "right": 28.986919847, "bottom": 70.946110046000001, "row_index": 6, "col_index": 49, "tile_id": 1967 }, "geometry": { "type": "MultiLineString", "coordinates": [ [ [ 28.499186664265302, 70.958131577401673 ], [ 28.500263002894325, 70.957673208192602 ], [ 28.502260004474056, 70.957099387316774 ], [ 28.502978177921374, 70.956667171700502 ], [ 28.504782262994887, 70.956420227918329 ], [ 28.506719895768615, 70.956014111703468 ], [ 28.50780475584428, 70.955953936881372 ], [ 28.509804909133251, 70.956191676748034 ], [ 28.511595345314404, 70.956188801753854 ], [ 28.514815627496603, 70.955816902713707 ], [ 28.516693832901357, 70.95545962922067 ], [ 28.518394657209992, 70.954936718081001 ], [ 28.525915732780192, 70.954795197725744 ], [ 28.527153792598828, 70.954370909847455 ], [ 28.527765419370368, 70.95432796332986 ] ] ] } },
{ "type": "Feature", "properties": { "fid": 431318, "elvelengde_m": 2.48, "elvID": "231-112-4", "elvenavn": null, "regulert": null, "fid_2": 1967, "id": 1967, "left": 28.486919847, "top": 71.446110046000001, "right": 28.986919847, "bottom": 70.946110046000001, "row_index": 6, "col_index": 49, "tile_id": 1967 }, "geometry": { "type": "MultiLineString", "coordinates": [ [ [ 28.501972170804329, 70.976909115934475 ], [ 28.501991115971581, 70.976930377470964 ] ] ] } },
{ "type": "Feature", "properties": { "fid": 440010, "elvelengde_m": 285.84, "elvID": "231-112-4", "elvenavn": null, "regulert": null, "fid_2": 1967, "id": 1967, "left": 28.486919847, "top": 71.446110046000001, "right": 28.986919847, "bottom": 70.946110046000001, "row_index": 6, "col_index": 49, "tile_id": 1967 }, "geometry": { "type": "MultiLineString", "coordinates": [ [ [ 28.499094233345918, 70.974745419872974 ], [ 28.500246102947347, 70.975298294497279 ], [ 28.500267257037383, 70.975831566835737 ], [ 28.500651681867385, 70.97611342845525 ], [ 28.500705124638799, 70.976579587670003 ], [ 28.501274708063068, 70.976753497258017 ], [ 28.501837954691531, 70.976796318925139 ], [ 28.501972170804329, 70.976909115934475 ] ] ] } },
{ "type": "Feature", "properties": { "fid": 440012, "elvelengde_m": 571.17, "elvID": "231-112-4", "elvenavn": null, "regulert": null, "fid_2": 1967, "id": 1967, "left": 28.486919847, "top": 71.446110046000001, "right": 28.986919847, "bottom": 70.946110046000001, "row_index": 6, "col_index": 49, "tile_id": 1967 }, "geometry": { "type": "MultiLineString", "coordinates": [ [ [ 28.488175379614407, 70.971647744260309 ], [ 28.488479044798403, 70.971791571519205 ], [ 28.489350603327946, 70.972476327974235 ], [ 28.489761677838565, 70.972651351953957 ], [ 28.491194009231243, 70.972972474816714 ], [ 28.49242499208372, 70.973411714441127 ], [ 28.493739635331536, 70.973612730997118 ], [ 28.494114087269232, 70.973921278862079 ], [ 28.494615141342255, 70.974152434469403 ], [ 28.4962759699869, 70.974124205843751 ], [ 28.497144240849366, 70.974421866596543 ], [ 28.497925059892619, 70.974458031840399 ], [ 28.499094233345918, 70.974745419872974 ] ] ] } },
{ "type": "Feature", "properties": { "fid": 440017, "elvelengde_m": 1763.71, "elvID": "231-112-3", "elvenavn": null, "regulert": null, "fid_2": 1967, "id": 1967, "left": 28.486919847, "top": 71.446110046000001, "right": 28.986919847, "bottom": 70.946110046000001, "row_index": 6, "col_index": 49, "tile_id": 1967 }, "geometry": { "type": "MultiLineString", "coordinates": [ [ [ 28.486919847, 70.975022333273614 ], [ 28.487334223013942, 70.975119166635054 ], [ 28.487653552126066, 70.97535580407677 ], [ 28.489124012542746, 70.975685867984879 ], [ 28.489872563068914, 70.976028077752346 ], [ 28.492068262167656, 70.976562715632213 ], [ 28.494281745712261, 70.976858857612541 ], [ 28.49891108317393, 70.977176101866789 ] ] ] } },
{ "type": "Feature", "properties": { "fid": 443349, "elvelengde_m": 2004.54, "elvID": "231-111-1", "elvenavn": null, "regulert": null, "fid_2": 1967, "id": 1967, "left": 28.486919847, "top": 71.446110046000001, "right": 28.986919847, "bottom": 70.946110046000001, "row_index": 6, "col_index": 49, "tile_id": 1967 }, "geometry": { "type": "MultiLineString", "coordinates": [ [ [ 28.486919847, 70.982154091373019 ], [ 28.488161598158626, 70.98246309302607 ], [ 28.488402585980328, 70.982706539948239 ], [ 28.489111639742266, 70.983021897623502 ], [ 28.489228485725683, 70.983461538139849 ], [ 28.489893500024134, 70.983716347621083 ], [ 28.490002302707321, 70.984233314639638 ], [ 28.491258912807051, 70.98465302082279 ], [ 28.491385299995315, 70.984941796732485 ], [ 28.491661375665032, 70.985071082136898 ], [ 28.491688690680586, 70.985295038196469 ], [ 28.491767001789555, 70.985359101998128 ], [ 28.493620215734598, 70.986107882350069 ], [ 28.493759536107781, 70.986320621599361 ], [ 28.494059812664318, 70.98649028610555 ], [ 28.493884902806638, 70.986955363172655 ], [ 28.493922524269141, 70.987132262903629 ], [ 28.495478751928008, 70.987927484456179 ], [ 28.495077365326004, 70.988304715232587 ], [ 28.495019817366803, 70.988462436004724 ], [ 28.495481031444246, 70.988748909282975 ], [ 28.49584364422314, 70.989224193079977 ], [ 28.497442413930013, 70.98921566254387 ], [ 28.498710191428746, 70.989380030671256 ], [ 28.500920696350516, 70.989811731471391 ], [ 28.500858693031628, 70.98998601347391 ], [ 28.500085008830826, 70.990282903222663 ], [ 28.49998087127517, 70.990444350091806 ] ] ] } },
{ "type": "Feature", "properties": { "fid": 445098, "elvelengde_m": 1067.1, "elvID": "231-112-1", "elvenavn": null, "regulert": null, "fid_2": 1967, "id": 1967, "left": 28.486919847, "top": 71.446110046000001, "right": 28.986919847, "bottom": 70.946110046000001, "row_index": 6, "col_index": 49, "tile_id": 1967 }, "geometry": { "type": "MultiLineString", "coordinates": [ [ [ 28.502066010468823, 70.977836007343356 ], [ 28.502813028130021, 70.978036199002162 ], [ 28.503333487594727, 70.978489142012094 ], [ 28.503755879401762, 70.978668722572294 ], [ 28.505095628134807, 70.978987011138116 ], [ 28.506180845556361, 70.97905552683028 ], [ 28.507091983115274, 70.979362092251847 ], [ 28.508182806490399, 70.979848329492683 ], [ 28.509168330743655, 70.980023045670123 ], [ 28.511081140764894, 70.980186269917851 ], [ 28.511878951987811, 70.980366263096073 ], [ 28.513884944186188, 70.980431519262382 ], [ 28.515786545862579, 70.981061820502973 ], [ 28.516378959211188, 70.981176891576141 ], [ 28.516890959761589, 70.98152712473113 ], [ 28.518257369280104, 70.981801103251414 ], [ 28.51844903662009, 70.981972827679371 ], [ 28.51896108920797, 70.982136298561144 ], [ 28.519579938336094, 70.982555805671041 ], [ 28.520093873832963, 70.982712259298324 ], [ 28.520216054484941, 70.982877032376919 ], [ 28.52272282275759, 70.983789007542001 ] ] ] } },
{ "type": "Feature", "properties": { "fid": 458440, "elvelengde_m": 173.01, "elvID": "231-112-5", "elvenavn": null, "regulert": null, "fid_2": 1967, "id": 1967, "left": 28.486919847, "top": 71.446110046000001, "right": 28.986919847, "bottom": 70.946110046000001, "row_index": 6, "col_index": 49, "tile_id": 1967 }, "geometry": { "type": "MultiLineString", "coordinates": [ [ [ 28.49330651162456, 70.972682300961893 ], [ 28.495593958200764, 70.973514905437497 ], [ 28.496846101219809, 70.973561747426757 ] ] ] } },
{ "type": "Feature", "properties": { "fid": 459771, "elvelengde_m": 139.29, "elvID": "231-112-1", "elvenavn": null, "regulert": null, "fid_2": 1967, "id": 1967, "left": 28.486919847, "top": 71.446110046000001, "right": 28.986919847, "bottom": 70.946110046000001, "row_index": 6, "col_index": 49, "tile_id": 1967 }, "geometry": { "type": "MultiLineString", "coordinates": [ [ [ 28.49891108317393, 70.977176101866789 ], [ 28.500039626004085, 70.977326880745622 ], [ 28.502066010468823, 70.977836007343356 ] ] ] } },
{ "type": "Feature", "properties": { "fid": 466594, "elvelengde_m": 103.11, "elvID": "231-112-4", "elvenavn": null, "regulert": null, "fid_2": 1967, "id": 1967, "left": 28.486919847, "top": 71.446110046000001, "right": 28.986919847, "bottom": 70.946110046000001, "row_index": 6, "col_index": 49, "tile_id": 1967 }, "geometry": { "type": "MultiLineString", "coordinates": [ [ [ 28.501991115971581, 70.976930377470964 ], [ 28.502065459474512, 70.977140588136379 ], [ 28.502042090242533, 70.977398188316698 ], [ 28.501902601384671, 70.977684005012009 ], [ 28.502066010468823, 70.977836007343356 ] ] ] } },
{ "type": "Feature", "properties": { "fid": 466598, "elvelengde_m": 504.98, "elvID": "231-112-5", "elvenavn": null, "regulert": null, "fid_2": 1967, "id": 1967, "left": 28.486919847, "top": 71.446110046000001, "right": 28.986919847, "bottom": 70.946110046000001, "row_index": 6, "col_index": 49, "tile_id": 1967 }, "geometry": { "type": "MultiLineString", "coordinates": [ [ [ 28.496846101219809, 70.973561747426757 ], [ 28.498181760382518, 70.973508064285781 ], [ 28.49871586599928, 70.97358751634701 ], [ 28.499533246985102, 70.973813210032432 ], [ 28.499811277752173, 70.974076727903523 ], [ 28.500587299418068, 70.974352786297885 ], [ 28.502304347228119, 70.974825296278482 ], [ 28.502379571982246, 70.974924512163284 ], [ 28.502370524508397, 70.97521964791197 ], [ 28.502275996665094, 70.975541374146474 ], [ 28.502170389475634, 70.975797913345545 ], [ 28.501931014398391, 70.976057298382216 ], [ 28.501847255246965, 70.976329087723144 ], [ 28.50183676048356, 70.976403664519751 ], [ 28.50200727946055, 70.976567515982467 ], [ 28.501972170804329, 70.976909115934475 ] ] ] } },
{ "type": "Feature", "properties": { "fid": 480765, "elvelengde_m": 1793.29, "elvID": "231-112-1", "elvenavn": null, "regulert": null, "fid_2": 1967, "id": 1967, "left": 28.486919847, "top": 71.446110046000001, "right": 28.986919847, "bottom": 70.946110046000001, "row_index": 6, "col_index": 49, "tile_id": 1967 }, "geometry": { "type": "MultiLineString", "coordinates": [ [ [ 28.486919847, 70.972765428807165 ], [ 28.48777114545549, 70.972829602719429 ], [ 28.488719379808749, 70.973444337706752 ], [ 28.4911831905277, 70.974149260013164 ], [ 28.491627014361164, 70.974454969981778 ], [ 28.491986690724389, 70.974596393483424 ], [ 28.492102033192381, 70.974939701938766 ], [ 28.493009492701887, 70.975363282678344 ], [ 28.493819948632527, 70.975458604271381 ], [ 28.495032791198255, 70.975920726947479 ], [ 28.497461251483127, 70.976495196385258 ], [ 28.49891108317393, 70.977176101866789 ] ] ] } }
]
}
