{
"type": "FeatureCollection",
"name": "elvis_tile_id_617",
"crs": { "type": "name", "properties": { "name": "urn:ogc:def:crs:OGC:1.3:CRS84" } },
"xy_coordinate_resolution": 1e-15,
"features": [
{ "type": "Feature", "properties": { "fid": 192646, "elvelengde_m": 73.01, "elvID": "154-168-1", "elvenavn": null, "regulert": null, "fid_2": 617, "id": 617, "left": 11.486919847, "top": 66.446110046000001, "right": 11.986919847, "bottom": 65.946110046000001, "row_index": 16, "col_index": 15, "tile_id": 617 }, "geometry": { "type": "MultiLineString", "coordinates": [ [ [ 11.787415313596565, 66.027615348789766 ], [ 11.786955951553256, 66.028241173204464 ] ] ] } },
{ "type": "Feature", "properties": { "fid": 192653, "elvelengde_m": 73.63, "elvID": "154-169-1", "elvenavn": null, "regulert": null, "fid_2": 617, "id": 617, "left": 11.486919847, "top": 66.446110046000001, "right": 11.986919847, "bottom": 65.946110046000001, "row_index": 16, "col_index": 15, "tile_id": 617 }, "geometry": { "type": "MultiLineString", "coordinates": [ [ [ 11.785435257531645, 66.02525386792108 ], [ 11.784111587254477, 66.025259819030197 ], [ 11.7838772088304, 66.025183883951968 ] ] ] } },
{ "type": "Feature", "properties": { "fid": 192838, "elvelengde_m": 13.2, "elvID": "154-169-1", "elvenavn": null, "regulert": null, "fid_2": 617, "id": 617, "left": 11.486919847, "top": 66.446110046000001, "right": 11.986919847, "bottom": 65.946110046000001, "row_index": 16, "col_index": 15, "tile_id": 617 }, "geometry": { "type": "MultiLineString", "coordinates": [ [ [ 11.785726232920744, 66.025255390315863 ], [ 11.785435257531645, 66.02525386792108 ] ] ] } },
{ "type": "Feature", "properties": { "fid": 194484, "elvelengde_m": 34.57, "elvID": "154-168-1", "elvenavn": null, "regulert": null, "fid_2": 617, "id": 617, "left": 11.486919847, "top": 66.446110046000001, "right": 11.986919847, "bottom": 65.946110046000001, "row_index": 16, "col_index": 15, "tile_id": 617 }, "geometry": { "type": "MultiLineString", "coordinates": [ [ [ 11.787750748505591, 66.027338510511427 ], [ 11.787415313596565, 66.027615348789766 ] ] ] } }
]
}
