{
"type": "FeatureCollection",
"name": "elvis_tile_id_2169",
"crs": { "type": "name", "properties": { "name": "urn:ogc:def:crs:OGC:1.3:CRS84" } },
"xy_coordinate_resolution": 1e-15,
"features": [
{ "type": "Feature", "properties": { "fid": 393799, "elvelengde_m": 55.78, "elvID": "239-32-30", "elvenavn": null, "regulert": null, "fid_2": 2169, "id": 2169, "left": 30.986919847, "top": 70.446110046000001, "right": 31.486919847, "bottom": 69.946110046000001, "row_index": 8, "col_index": 54, "tile_id": 2169 }, "geometry": { "type": "MultiLineString", "coordinates": [ [ [ 31.005604001763505, 70.300288464034452 ], [ 31.005323425283997, 70.300251207670087 ], [ 31.005251182834503, 70.299856389536785 ] ] ] } },
{ "type": "Feature", "properties": { "fid": 393800, "elvelengde_m": 144.11, "elvID": "239-32-15", "elvenavn": null, "regulert": null, "fid_2": 2169, "id": 2169, "left": 30.986919847, "top": 70.446110046000001, "right": 31.486919847, "bottom": 69.946110046000001, "row_index": 8, "col_index": 54, "tile_id": 2169 }, "geometry": { "type": "MultiLineString", "coordinates": [ [ [ 30.991902976218636, 70.314580409166865 ], [ 30.992777567771878, 70.314197989556959 ], [ 30.994020472510083, 70.313512428434464 ] ] ] } },
{ "type": "Feature", "properties": { "fid": 396169, "elvelengde_m": 5.68, "elvID": "239-32-17", "elvenavn": null, "regulert": null, "fid_2": 2169, "id": 2169, "left": 30.986919847, "top": 70.446110046000001, "right": 31.486919847, "bottom": 69.946110046000001, "row_index": 8, "col_index": 54, "tile_id": 2169 }, "geometry": { "type": "MultiLineString", "coordinates": [ [ [ 30.994084670511665, 70.313558286004067 ], [ 30.994020472510083, 70.313512428434464 ] ] ] } },
{ "type": "Feature", "properties": { "fid": 396424, "elvelengde_m": 153.71, "elvID": "239-32-22", "elvenavn": null, "regulert": null, "fid_2": 2169, "id": 2169, "left": 30.986919847, "top": 70.446110046000001, "right": 31.486919847, "bottom": 69.946110046000001, "row_index": 8, "col_index": 54, "tile_id": 2169 }, "geometry": { "type": "MultiLineString", "coordinates": [ [ [ 30.990920272400622, 70.314323575300705 ], [ 30.99389708779632, 70.313389862401721 ] ] ] } },
{ "type": "Feature", "properties": { "fid": 396454, "elvelengde_m": 223.19, "elvID": "239-32-15", "elvenavn": null, "regulert": null, "fid_2": 2169, "id": 2169, "left": 30.986919847, "top": 70.446110046000001, "right": 31.486919847, "bottom": 69.946110046000001, "row_index": 8, "col_index": 54, "tile_id": 2169 }, "geometry": { "type": "MultiLineString", "coordinates": [ [ [ 30.990294930887025, 70.308757164025053 ], [ 30.988937285927069, 70.307991096490568 ], [ 30.988322706521458, 70.307402697094432 ], [ 30.987224285158153, 70.307110681534922 ] ] ] } },
{ "type": "Feature", "properties": { "fid": 398292, "elvelengde_m": 1831.14, "elvID": "239-32-1", "elvenavn": "Kibergselva", "regulert": null, "fid_2": 2169, "id": 2169, "left": 30.986919847, "top": 70.446110046000001, "right": 31.486919847, "bottom": 69.946110046000001, "row_index": 8, "col_index": 54, "tile_id": 2169 }, "geometry": { "type": "MultiLineString", "coordinates": [ [ [ 31.005251182834503, 70.299856389536785 ], [ 31.00526410852067, 70.299410643125583 ], [ 31.005054456317808, 70.299152885985791 ], [ 31.003568998316833, 70.298211430054963 ], [ 31.001966162720883, 70.297398230990538 ], [ 31.001458719268911, 70.296986206902872 ], [ 31.001284557294067, 70.296725657008707 ], [ 31.000953331601998, 70.295664720268803 ], [ 30.999551167354024, 70.295134980805486 ], [ 30.99917452787523, 70.294812097866455 ], [ 30.999108418023777, 70.294728158621282 ], [ 30.999143235585773, 70.294282907265199 ], [ 30.998868400398241, 70.294034480167312 ], [ 30.998812350020369, 70.292976778515069 ], [ 30.998409548969473, 70.292551592441981 ], [ 30.99711665047889, 70.292258359560009 ], [ 30.99505910368503, 70.292155463006921 ], [ 30.994025472057675, 70.291763984949114 ], [ 30.993903250832421, 70.291144566469981 ], [ 30.994043926105821, 70.290801073230739 ], [ 30.994380883937207, 70.29056039131612 ], [ 30.995748897669205, 70.289905505694136 ], [ 30.995912798577358, 70.289560712765947 ], [ 30.995842088985846, 70.289207985832903 ], [ 30.995580604052403, 70.288961061343969 ], [ 30.99530495176581, 70.288811974734685 ], [ 30.994877265456456, 70.288717596200712 ], [ 30.994772905303513, 70.288550768916551 ], [ 30.994799080645166, 70.288464423457953 ], [ 30.995553887082391, 70.287998082117511 ], [ 30.995762124188609, 70.287557778678007 ], [ 30.995805193154705, 70.287203720046534 ], [ 30.995686040169662, 70.286672164485708 ], [ 30.995435047205916, 70.286328291237368 ], [ 30.995305849075855, 70.285974293980132 ], [ 30.994640381524633, 70.285544964015003 ] ] ] } },
{ "type": "Feature", "properties": { "fid": 398563, "elvelengde_m": 647.46, "elvID": "239-32-1", "elvenavn": "Kibergselva", "regulert": null, "fid_2": 2169, "id": 2169, "left": 30.986919847, "top": 70.446110046000001, "right": 31.486919847, "bottom": 69.946110046000001, "row_index": 8, "col_index": 54, "tile_id": 2169 }, "geometry": { "type": "MultiLineString", "coordinates": [ [ [ 30.991930588577056, 70.301637072741798 ], [ 30.994240405157797, 70.301628382083223 ], [ 30.99577083697401, 70.301752751024878 ], [ 30.997175432764848, 70.301983804979898 ], [ 30.998202641482404, 70.301990029207346 ], [ 30.998501756093283, 70.301848022112125 ], [ 30.999036745324908, 70.301259784515565 ], [ 30.99942345424855, 70.30102703568727 ], [ 31.000145166237129, 70.300766403839972 ], [ 31.000892233095776, 70.30071289861786 ], [ 31.002126150112144, 70.300812202154319 ], [ 31.002829120668522, 70.300579822816175 ], [ 31.003786547010396, 70.300451396757367 ], [ 31.005251182834503, 70.299856389536785 ] ] ] } },
{ "type": "Feature", "properties": { "fid": 400438, "elvelengde_m": 41.19, "elvID": "239-33-1", "elvenavn": null, "regulert": null, "fid_2": 2169, "id": 2169, "left": 30.986919847, "top": 70.446110046000001, "right": 31.486919847, "bottom": 69.946110046000001, "row_index": 8, "col_index": 54, "tile_id": 2169 }, "geometry": { "type": "MultiLineString", "coordinates": [ [ [ 31.030918711710566, 70.28583998766139 ], [ 31.031956189827593, 70.285739126365527 ] ] ] } },
{ "type": "Feature", "properties": { "fid": 403269, "elvelengde_m": 10.31, "elvID": "239-32-29", "elvenavn": null, "regulert": null, "fid_2": 2169, "id": 2169, "left": 30.986919847, "top": 70.446110046000001, "right": 31.486919847, "bottom": 69.946110046000001, "row_index": 8, "col_index": 54, "tile_id": 2169 }, "geometry": { "type": "MultiLineString", "coordinates": [ [ [ 30.988366113699659, 70.302575582876699 ], [ 30.988519657927252, 70.302651637538702 ] ] ] } },
{ "type": "Feature", "properties": { "fid": 403283, "elvelengde_m": 145.91, "elvID": "239-32-19", "elvenavn": null, "regulert": null, "fid_2": 2169, "id": 2169, "left": 30.986919847, "top": 70.446110046000001, "right": 31.486919847, "bottom": 69.946110046000001, "row_index": 8, "col_index": 54, "tile_id": 2169 }, "geometry": { "type": "MultiLineString", "coordinates": [ [ [ 30.993902915283833, 70.314859550345503 ], [ 30.994084670511665, 70.313558286004067 ] ] ] } },
{ "type": "Feature", "properties": { "fid": 403317, "elvelengde_m": 271.33, "elvID": "239-32-15", "elvenavn": null, "regulert": null, "fid_2": 2169, "id": 2169, "left": 30.986919847, "top": 70.446110046000001, "right": 31.486919847, "bottom": 69.946110046000001, "row_index": 8, "col_index": 54, "tile_id": 2169 }, "geometry": { "type": "MultiLineString", "coordinates": [ [ [ 30.99389708779632, 70.313389862401721 ], [ 30.993587591986284, 70.31305020689004 ], [ 30.993493820842005, 70.312695240932896 ], [ 30.993792576127863, 70.310989942341408 ] ] ] } },
{ "type": "Feature", "properties": { "fid": 404699, "elvelengde_m": 14.5, "elvID": "239-32-15", "elvenavn": null, "regulert": null, "fid_2": 2169, "id": 2169, "left": 30.986919847, "top": 70.446110046000001, "right": 31.486919847, "bottom": 69.946110046000001, "row_index": 8, "col_index": 54, "tile_id": 2169 }, "geometry": { "type": "MultiLineString", "coordinates": [ [ [ 30.994020472510083, 70.313512428434464 ], [ 30.99389708779632, 70.313389862401721 ] ] ] } },
{ "type": "Feature", "properties": { "fid": 407045, "elvelengde_m": 173.77, "elvID": "239-32-1", "elvenavn": "Kibergselva", "regulert": null, "fid_2": 2169, "id": 2169, "left": 30.986919847, "top": 70.446110046000001, "right": 31.486919847, "bottom": 69.946110046000001, "row_index": 8, "col_index": 54, "tile_id": 2169 }, "geometry": { "type": "MultiLineString", "coordinates": [ [ [ 30.988519657927252, 70.302651637538702 ], [ 30.990217919863955, 70.302051675565778 ], [ 30.991930588577056, 70.301637072741798 ] ] ] } },
{ "type": "Feature", "properties": { "fid": 407082, "elvelengde_m": 191.63, "elvID": "239-32-19", "elvenavn": null, "regulert": null, "fid_2": 2169, "id": 2169, "left": 30.986919847, "top": 70.446110046000001, "right": 31.486919847, "bottom": 69.946110046000001, "row_index": 8, "col_index": 54, "tile_id": 2169 }, "geometry": { "type": "MultiLineString", "coordinates": [ [ [ 30.997083665658199, 70.32141783940375 ], [ 30.997446417746666, 70.321160816898427 ], [ 31.001641411165817, 70.321048327131649 ] ] ] } },
{ "type": "Feature", "properties": { "fid": 409108, "elvelengde_m": 324.3, "elvID": "239-32-1", "elvenavn": "Kibergselva", "regulert": null, "fid_2": 2169, "id": 2169, "left": 30.986919847, "top": 70.446110046000001, "right": 31.486919847, "bottom": 69.946110046000001, "row_index": 8, "col_index": 54, "tile_id": 2169 }, "geometry": { "type": "MultiLineString", "coordinates": [ [ [ 30.986923756167997, 70.305293743116508 ], [ 30.987026343604928, 70.305141643438361 ], [ 30.986972930604693, 70.304617796515387 ], [ 30.986919847, 70.304504715399673 ] ], [ [ 30.986919847, 70.303634875533447 ], [ 30.986976286546088, 70.303554999899745 ], [ 30.988094079082973, 70.302755514909308 ], [ 30.988519657927252, 70.302651637538702 ] ] ] } },
{ "type": "Feature", "properties": { "fid": 409157, "elvelengde_m": 744.44, "elvID": "239-33-1", "elvenavn": null, "regulert": null, "fid_2": 2169, "id": 2169, "left": 30.986919847, "top": 70.446110046000001, "right": 31.486919847, "bottom": 69.946110046000001, "row_index": 8, "col_index": 54, "tile_id": 2169 }, "geometry": { "type": "MultiLineString", "coordinates": [ [ [ 31.031956189827593, 70.285739126365527 ], [ 31.033767263334852, 70.285474025320354 ], [ 31.036693983269949, 70.285471213851309 ], [ 31.037465821763707, 70.285202313943429 ], [ 31.037727657483817, 70.284908970562142 ], [ 31.037923701621853, 70.284823727503536 ], [ 31.038520616759605, 70.284747457111123 ], [ 31.040836347336814, 70.284749427952605 ], [ 31.04263967462985, 70.28458315397377 ], [ 31.043934513868003, 70.28399698947311 ], [ 31.043943598322226, 70.283772235871069 ], [ 31.043145196388497, 70.283502525882909 ], [ 31.042361239225777, 70.283439414685148 ], [ 31.041820748193413, 70.283262761620861 ], [ 31.041820720266539, 70.283128096925168 ], [ 31.043112411178576, 70.282819973759629 ] ] ] } },
{ "type": "Feature", "properties": { "fid": 409428, "elvelengde_m": 304.33, "elvID": "239-32-17", "elvenavn": null, "regulert": null, "fid_2": 2169, "id": 2169, "left": 30.986919847, "top": 70.446110046000001, "right": 31.486919847, "bottom": 69.946110046000001, "row_index": 8, "col_index": 54, "tile_id": 2169 }, "geometry": { "type": "MultiLineString", "coordinates": [ [ [ 31.021136424865578, 70.319501292443476 ], [ 31.018618263577295, 70.319265786234354 ], [ 31.0176515583391, 70.318966264221075 ], [ 31.017205695924794, 70.318646494450235 ], [ 31.017183747823299, 70.318378989102868 ], [ 31.017350680799709, 70.318119805944292 ], [ 31.017301858590514, 70.317941948212578 ], [ 31.017021030049509, 70.317642756478605 ] ] ] } },
{ "type": "Feature", "properties": { "fid": 411244, "elvelengde_m": 160.63, "elvID": "239-32-25", "elvenavn": null, "regulert": null, "fid_2": 2169, "id": 2169, "left": 30.986919847, "top": 70.446110046000001, "right": 31.486919847, "bottom": 69.946110046000001, "row_index": 8, "col_index": 54, "tile_id": 2169 }, "geometry": { "type": "MultiLineString", "coordinates": [ [ [ 30.987447009382127, 70.309486398503282 ], [ 30.987709269213617, 70.309034976934271 ], [ 30.987936474190061, 70.308895163753888 ], [ 30.990294930887025, 70.308757164025053 ] ] ] } },
{ "type": "Feature", "properties": { "fid": 414231, "elvelengde_m": 12.09, "elvID": "239-32-27", "elvenavn": null, "regulert": null, "fid_2": 2169, "id": 2169, "left": 30.986919847, "top": 70.446110046000001, "right": 31.486919847, "bottom": 69.946110046000001, "row_index": 8, "col_index": 54, "tile_id": 2169 }, "geometry": { "type": "MultiLineString", "coordinates": [ [ [ 30.991685533111383, 70.301567646444624 ], [ 30.991930588577056, 70.301637072741798 ] ] ] } },
{ "type": "Feature", "properties": { "fid": 416823, "elvelengde_m": 153.05, "elvID": "239-32-17", "elvenavn": null, "regulert": null, "fid_2": 2169, "id": 2169, "left": 30.986919847, "top": 70.446110046000001, "right": 31.486919847, "bottom": 69.946110046000001, "row_index": 8, "col_index": 54, "tile_id": 2169 }, "geometry": { "type": "MultiLineString", "coordinates": [ [ [ 30.996903754742966, 70.314532408942156 ], [ 30.995679738579145, 70.314191319481239 ], [ 30.994084670511665, 70.313558286004067 ] ] ] } },
{ "type": "Feature", "properties": { "fid": 417083, "elvelengde_m": 211.87, "elvID": "239-32-26", "elvenavn": null, "regulert": null, "fid_2": 2169, "id": 2169, "left": 30.986919847, "top": 70.446110046000001, "right": 31.486919847, "bottom": 69.946110046000001, "row_index": 8, "col_index": 54, "tile_id": 2169 }, "geometry": { "type": "MultiLineString", "coordinates": [ [ [ 30.999368804390574, 70.311189539174549 ], [ 30.993792576127863, 70.310989942341408 ] ] ] } },
{ "type": "Feature", "properties": { "fid": 417094, "elvelengde_m": 286.41, "elvID": "239-32-15", "elvenavn": null, "regulert": null, "fid_2": 2169, "id": 2169, "left": 30.986919847, "top": 70.446110046000001, "right": 31.486919847, "bottom": 69.946110046000001, "row_index": 8, "col_index": 54, "tile_id": 2169 }, "geometry": { "type": "MultiLineString", "coordinates": [ [ [ 30.993792576127863, 70.310989942341408 ], [ 30.993363402325279, 70.310475390537064 ], [ 30.991764901964618, 70.309349292309633 ], [ 30.990294930887025, 70.308757164025053 ] ] ] } },
{ "type": "Feature", "properties": { "fid": 424604, "elvelengde_m": 92.65, "elvID": "239-32-19", "elvenavn": null, "regulert": null, "fid_2": 2169, "id": 2169, "left": 30.986919847, "top": 70.446110046000001, "right": 31.486919847, "bottom": 69.946110046000001, "row_index": 8, "col_index": 54, "tile_id": 2169 }, "geometry": { "type": "MultiLineString", "coordinates": [ [ [ 30.995337337899802, 70.315519437480916 ], [ 30.994127044880031, 70.315052131283124 ], [ 30.993902915283833, 70.314859550345503 ] ] ] } },
{ "type": "Feature", "properties": { "fid": 431452, "elvelengde_m": 1713.87, "elvID": "239-32-15", "elvenavn": null, "regulert": null, "fid_2": 2169, "id": 2169, "left": 30.986919847, "top": 70.446110046000001, "right": 31.486919847, "bottom": 69.946110046000001, "row_index": 8, "col_index": 54, "tile_id": 2169 }, "geometry": { "type": "MultiLineString", "coordinates": [ [ [ 30.986919847, 70.316121171828343 ], [ 30.986926188187798, 70.316118975428623 ], [ 30.987867792912073, 70.315891495426854 ], [ 30.989667427775967, 70.315690006190337 ], [ 30.990515765295367, 70.31539266486476 ], [ 30.991062342042575, 70.31532667348047 ], [ 30.991845070032568, 70.314967969051196 ], [ 30.991902976218636, 70.314580409166865 ] ] ] } },
{ "type": "Feature", "properties": { "fid": 433355, "elvelengde_m": 582.95, "elvID": "239-32-25", "elvenavn": null, "regulert": null, "fid_2": 2169, "id": 2169, "left": 30.986919847, "top": 70.446110046000001, "right": 31.486919847, "bottom": 69.946110046000001, "row_index": 8, "col_index": 54, "tile_id": 2169 }, "geometry": { "type": "MultiLineString", "coordinates": [ [ [ 30.986919847, 70.309463160934669 ], [ 30.987447009382127, 70.309486398503282 ] ] ] } },
{ "type": "Feature", "properties": { "fid": 433836, "elvelengde_m": 930.32, "elvID": "239-32-17", "elvenavn": null, "regulert": null, "fid_2": 2169, "id": 2169, "left": 30.986919847, "top": 70.446110046000001, "right": 31.486919847, "bottom": 69.946110046000001, "row_index": 8, "col_index": 54, "tile_id": 2169 }, "geometry": { "type": "MultiLineString", "coordinates": [ [ [ 31.017021030049509, 70.317642756478605 ], [ 31.016143698291021, 70.316700919759768 ], [ 31.0147999164701, 70.316102152267746 ], [ 31.013219483187459, 70.315517447416653 ], [ 31.01233704082351, 70.315366344594992 ], [ 31.00700223847371, 70.315341140536532 ], [ 31.00521098195993, 70.315039707309523 ], [ 31.001298415972823, 70.314929051018339 ], [ 31.000298688094201, 70.31499609441633 ], [ 30.999625028206111, 70.314957161289485 ], [ 30.998847348027628, 70.314659877143498 ], [ 30.996903754742966, 70.314532408942156 ] ] ] } },
{ "type": "Feature", "properties": { "fid": 433838, "elvelengde_m": 585.39, "elvID": "239-32-22", "elvenavn": null, "regulert": null, "fid_2": 2169, "id": 2169, "left": 30.986919847, "top": 70.446110046000001, "right": 31.486919847, "bottom": 69.946110046000001, "row_index": 8, "col_index": 54, "tile_id": 2169 }, "geometry": { "type": "MultiLineString", "coordinates": [ [ [ 30.986919847, 70.315154833469634 ], [ 30.988105968636905, 70.314924938207938 ], [ 30.989932141440182, 70.314722782886562 ], [ 30.990920272400622, 70.314323575300705 ] ] ] } },
{ "type": "Feature", "properties": { "fid": 440783, "elvelengde_m": 141.56, "elvID": "239-32-24", "elvenavn": null, "regulert": null, "fid_2": 2169, "id": 2169, "left": 30.986919847, "top": 70.446110046000001, "right": 31.486919847, "bottom": 69.946110046000001, "row_index": 8, "col_index": 54, "tile_id": 2169 }, "geometry": { "type": "MultiLineString", "coordinates": [ [ [ 30.995196359047078, 70.316708380076065 ], [ 30.995264051952873, 70.31637457707852 ], [ 30.994935784886472, 70.31619313441017 ], [ 30.994856471064086, 70.316060156241576 ], [ 30.995127406985251, 70.315946266449259 ], [ 30.995337337899802, 70.315519437480916 ] ] ] } },
{ "type": "Feature", "properties": { "fid": 447157, "elvelengde_m": 772.43, "elvID": "239-32-19", "elvenavn": null, "regulert": null, "fid_2": 2169, "id": 2169, "left": 30.986919847, "top": 70.446110046000001, "right": 31.486919847, "bottom": 69.946110046000001, "row_index": 8, "col_index": 54, "tile_id": 2169 }, "geometry": { "type": "MultiLineString", "coordinates": [ [ [ 31.001641411165817, 70.321048327131649 ], [ 31.001903126681693, 70.321024602883014 ], [ 31.001889114396874, 70.320953004405183 ], [ 31.001247534564783, 70.320670788895839 ], [ 31.001234146463904, 70.320329742568148 ], [ 31.001017078337298, 70.320172861381721 ], [ 31.001067080349578, 70.319884216035348 ], [ 31.001872413784568, 70.319093750910369 ], [ 31.001875082358989, 70.318698437367857 ], [ 31.001130384821195, 70.317888403472111 ], [ 31.001065587253017, 70.317557493251329 ], [ 31.000778257812598, 70.317177569830932 ], [ 30.999997397663932, 70.316727797398968 ], [ 30.999757819712652, 70.316319762357324 ], [ 30.998055944710856, 70.31565676734094 ], [ 30.997024522876892, 70.315697634944684 ], [ 30.995337337899802, 70.315519437480916 ] ] ] } },
{ "type": "Feature", "properties": { "fid": 447336, "elvelengde_m": 151.85, "elvID": "239-32-29", "elvenavn": null, "regulert": null, "fid_2": 2169, "id": 2169, "left": 30.986919847, "top": 70.446110046000001, "right": 31.486919847, "bottom": 69.946110046000001, "row_index": 8, "col_index": 54, "tile_id": 2169 }, "geometry": { "type": "MultiLineString", "coordinates": [ [ [ 30.986919847, 70.302242659013544 ], [ 30.987104878758931, 70.302253131688389 ], [ 30.988366113699659, 70.302575582876699 ] ] ] } },
{ "type": "Feature", "properties": { "fid": 454354, "elvelengde_m": 203.44, "elvID": "239-32-1", "elvenavn": "Kibergselva", "regulert": null, "fid_2": 2169, "id": 2169, "left": 30.986919847, "top": 70.446110046000001, "right": 31.486919847, "bottom": 69.946110046000001, "row_index": 8, "col_index": 54, "tile_id": 2169 }, "geometry": { "type": "MultiLineString", "coordinates": [ [ [ 30.986919847, 70.306666279151628 ], [ 30.987541649266621, 70.306277110570562 ], [ 30.987609457579822, 70.30607804302403 ], [ 30.987061272128209, 70.305587040080468 ], [ 30.986923756167997, 70.305293743116508 ] ] ] } },
{ "type": "Feature", "properties": { "fid": 459920, "elvelengde_m": 33.75, "elvID": "239-32-15", "elvenavn": null, "regulert": null, "fid_2": 2169, "id": 2169, "left": 30.986919847, "top": 70.446110046000001, "right": 31.486919847, "bottom": 69.946110046000001, "row_index": 8, "col_index": 54, "tile_id": 2169 }, "geometry": { "type": "MultiLineString", "coordinates": [ [ [ 30.987224285158153, 70.307110681534922 ], [ 30.986919847, 70.307059212842105 ] ] ] } },
{ "type": "Feature", "properties": { "fid": 465346, "elvelengde_m": 206.01, "elvID": "239-32-26", "elvenavn": null, "regulert": null, "fid_2": 2169, "id": 2169, "left": 30.986919847, "top": 70.446110046000001, "right": 31.486919847, "bottom": 69.946110046000001, "row_index": 8, "col_index": 54, "tile_id": 2169 }, "geometry": { "type": "MultiLineString", "coordinates": [ [ [ 31.004553216993997, 70.31167645714828 ], [ 31.001921855290153, 70.311573216457404 ], [ 30.999368804390574, 70.311189539174549 ] ] ] } },
{ "type": "Feature", "properties": { "fid": 466735, "elvelengde_m": 360.6, "elvID": "239-32-30", "elvenavn": null, "regulert": null, "fid_2": 2169, "id": 2169, "left": 30.986919847, "top": 70.446110046000001, "right": 31.486919847, "bottom": 69.946110046000001, "row_index": 8, "col_index": 54, "tile_id": 2169 }, "geometry": { "type": "MultiLineString", "coordinates": [ [ [ 31.010999785501021, 70.302279627101782 ], [ 31.010081355545946, 70.302210172914087 ], [ 31.00861603745102, 70.301937427103823 ], [ 31.008342394007332, 70.301763805390181 ], [ 31.00834287545166, 70.301494274007098 ], [ 31.007608506354291, 70.301007508574742 ], [ 31.007959690074109, 70.300622328646938 ], [ 31.007807668347141, 70.300526961701777 ], [ 31.006540410417728, 70.300447294921398 ], [ 31.005604001763505, 70.300288464034452 ] ] ] } },
{ "type": "Feature", "properties": { "fid": 484020, "elvelengde_m": 530.26, "elvID": "238-25-19", "elvenavn": null, "regulert": null, "fid_2": 2169, "id": 2169, "left": 30.986919847, "top": 70.446110046000001, "right": 31.486919847, "bottom": 69.946110046000001, "row_index": 8, "col_index": 54, "tile_id": 2169 }, "geometry": { "type": "MultiLineString", "coordinates": [ [ [ 30.986919847, 70.384246772731132 ], [ 30.991671266310679, 70.383930985403111 ], [ 30.992477179567594, 70.383949074203983 ], [ 30.992886609983341, 70.384128710999306 ] ] ] } },
{ "type": "Feature", "properties": { "fid": 484028, "elvelengde_m": 509.53, "elvID": "238-6-28", "elvenavn": null, "regulert": null, "fid_2": 2169, "id": 2169, "left": 30.986919847, "top": 70.446110046000001, "right": 31.486919847, "bottom": 69.946110046000001, "row_index": 8, "col_index": 54, "tile_id": 2169 }, "geometry": { "type": "MultiLineString", "coordinates": [ [ [ 30.993612180058083, 70.367070542350021 ], [ 30.993740925040893, 70.367319277506567 ], [ 30.99432754581386, 70.367584710970775 ], [ 30.994558883125357, 70.367813221010252 ], [ 30.995942429132896, 70.367917433399555 ], [ 30.998749946588166, 70.368475067334174 ], [ 31.000040936025535, 70.368518388489406 ], [ 31.001090623765506, 70.368692743379796 ], [ 31.002436493195962, 70.368743734935919 ], [ 31.004087610476208, 70.368716217885307 ], [ 31.004740726577566, 70.368504110513186 ] ] ] } },
{ "type": "Feature", "properties": { "fid": 484050, "elvelengde_m": 81.17, "elvID": "238-3-2", "elvenavn": null, "regulert": null, "fid_2": 2169, "id": 2169, "left": 30.986919847, "top": 70.446110046000001, "right": 31.486919847, "bottom": 69.946110046000001, "row_index": 8, "col_index": 54, "tile_id": 2169 }, "geometry": { "type": "MultiLineString", "coordinates": [ [ [ 30.99051872131939, 70.340026031202598 ], [ 30.990367701426354, 70.340209077159557 ], [ 30.990791564570671, 70.340603909454231 ], [ 30.990596267715503, 70.340698132162132 ] ] ] } },
{ "type": "Feature", "properties": { "fid": 484058, "elvelengde_m": 954.05, "elvID": "238-3-4", "elvenavn": null, "regulert": null, "fid_2": 2169, "id": 2169, "left": 30.986919847, "top": 70.446110046000001, "right": 31.486919847, "bottom": 69.946110046000001, "row_index": 8, "col_index": 54, "tile_id": 2169 }, "geometry": { "type": "MultiLineString", "coordinates": [ [ [ 31.024198163940405, 70.327850343145215 ], [ 31.023638186447879, 70.328258086808077 ], [ 31.02303590773549, 70.328855303077006 ], [ 31.021919370808057, 70.32955411185317 ], [ 31.021465362264486, 70.33036384887572 ], [ 31.02127619231814, 70.331437188176253 ], [ 31.020359839380465, 70.332203290429419 ], [ 31.019906160027919, 70.332473788316747 ], [ 31.018828046690199, 70.333773638709019 ], [ 31.018924750260481, 70.333996049177827 ], [ 31.019207973539359, 70.334214424329289 ], [ 31.019197796673513, 70.33497827204485 ], [ 31.018940127008179, 70.335567935340123 ], [ 31.019183676403632, 70.335993765189315 ] ] ] } },
{ "type": "Feature", "properties": { "fid": 484059, "elvelengde_m": 298.09, "elvID": "238-3-1", "elvenavn": null, "regulert": null, "fid_2": 2169, "id": 2169, "left": 30.986919847, "top": 70.446110046000001, "right": 31.486919847, "bottom": 69.946110046000001, "row_index": 8, "col_index": 54, "tile_id": 2169 }, "geometry": { "type": "MultiLineString", "coordinates": [ [ [ 31.006971747981087, 70.328126012394478 ], [ 31.007067027504377, 70.328339667177559 ], [ 31.007418696262768, 70.328637175446431 ], [ 31.007407578304615, 70.328853022434274 ], [ 31.007199944896854, 70.329154172362763 ], [ 31.007131914075039, 70.329488026119407 ], [ 31.006890899339751, 70.329619179506793 ], [ 31.005339630306807, 70.329869279654076 ], [ 31.003776657872049, 70.329921964749232 ] ] ] } },
{ "type": "Feature", "properties": { "fid": 484144, "elvelengde_m": 5.41, "elvID": "238-3-2", "elvenavn": null, "regulert": null, "fid_2": 2169, "id": 2169, "left": 30.986919847, "top": 70.446110046000001, "right": 31.486919847, "bottom": 69.946110046000001, "row_index": 8, "col_index": 54, "tile_id": 2169 }, "geometry": { "type": "MultiLineString", "coordinates": [ [ [ 30.990596267715503, 70.340698132162132 ], [ 30.990658624571921, 70.340741663949572 ] ] ] } },
{ "type": "Feature", "properties": { "fid": 484151, "elvelengde_m": 80.73, "elvID": "238-25-17", "elvenavn": null, "regulert": null, "fid_2": 2169, "id": 2169, "left": 30.986919847, "top": 70.446110046000001, "right": 31.486919847, "bottom": 69.946110046000001, "row_index": 8, "col_index": 54, "tile_id": 2169 }, "geometry": { "type": "MultiLineString", "coordinates": [ [ [ 30.995422896956597, 70.393802111881669 ], [ 30.997524575680128, 70.393694000970328 ] ] ] } },
{ "type": "Feature", "properties": { "fid": 484156, "elvelengde_m": 250.63, "elvID": "238-3-3", "elvenavn": null, "regulert": null, "fid_2": 2169, "id": 2169, "left": 30.986919847, "top": 70.446110046000001, "right": 31.486919847, "bottom": 69.946110046000001, "row_index": 8, "col_index": 54, "tile_id": 2169 }, "geometry": { "type": "MultiLineString", "coordinates": [ [ [ 30.992393305541903, 70.332267509237553 ], [ 30.993191556684497, 70.332334261397605 ], [ 30.996848259761844, 70.333856935662709 ] ] ] } },
{ "type": "Feature", "properties": { "fid": 484159, "elvelengde_m": 32.52, "elvID": "238-3-2", "elvenavn": null, "regulert": null, "fid_2": 2169, "id": 2169, "left": 30.986919847, "top": 70.446110046000001, "right": 31.486919847, "bottom": 69.946110046000001, "row_index": 8, "col_index": 54, "tile_id": 2169 }, "geometry": { "type": "MultiLineString", "coordinates": [ [ [ 30.99166578774841, 70.340979738087412 ], [ 30.991782194031053, 70.341083711082106 ], [ 30.992257209136366, 70.341002753789908 ] ] ] } },
{ "type": "Feature", "properties": { "fid": 484166, "elvelengde_m": 139.99, "elvID": "238-1-1", "elvenavn": null, "regulert": null, "fid_2": 2169, "id": 2169, "left": 30.986919847, "top": 70.446110046000001, "right": 31.486919847, "bottom": 69.946110046000001, "row_index": 8, "col_index": 54, "tile_id": 2169 }, "geometry": { "type": "MultiLineString", "coordinates": [ [ [ 31.034480615045876, 70.312595965115577 ], [ 31.037304927209806, 70.312869771715114 ], [ 31.037818124987581, 70.312677001160196 ] ] ] } },
{ "type": "Feature", "properties": { "fid": 487847, "elvelengde_m": 310.28, "elvID": "239-32-27", "elvenavn": null, "regulert": null, "fid_2": 2169, "id": 2169, "left": 30.986919847, "top": 70.446110046000001, "right": 31.486919847, "bottom": 69.946110046000001, "row_index": 8, "col_index": 54, "tile_id": 2169 }, "geometry": { "type": "MultiLineString", "coordinates": [ [ [ 30.986919847, 70.299920372026151 ], [ 30.987411865105443, 70.300135133654308 ], [ 30.988551014256977, 70.300514178921276 ], [ 30.989069548367798, 70.300853065607399 ], [ 30.989618628833767, 70.301074505307326 ], [ 30.991685533111383, 70.301567646444624 ] ] ] } },
{ "type": "Feature", "properties": { "fid": 496722, "elvelengde_m": 311.26, "elvID": "238-25-17", "elvenavn": null, "regulert": null, "fid_2": 2169, "id": 2169, "left": 30.986919847, "top": 70.446110046000001, "right": 31.486919847, "bottom": 69.946110046000001, "row_index": 8, "col_index": 54, "tile_id": 2169 }, "geometry": { "type": "MultiLineString", "coordinates": [ [ [ 30.992921809878432, 70.396741086118837 ], [ 30.992904434705434, 70.396651659864034 ], [ 30.992125745702708, 70.396228587984837 ], [ 30.991633518463949, 70.395763363412982 ], [ 30.991643212457078, 70.395403752510902 ], [ 30.992228473442815, 70.394977628404817 ], [ 30.992303664550136, 70.394814241768316 ], [ 30.991904425289832, 70.39468831747989 ], [ 30.991904846313417, 70.39455353507806 ], [ 30.992229961289311, 70.394438608341346 ], [ 30.992292824378637, 70.394212620068842 ] ] ] } },
{ "type": "Feature", "properties": { "fid": 496728, "elvelengde_m": 224.86, "elvID": "238-27-1", "elvenavn": null, "regulert": null, "fid_2": 2169, "id": 2169, "left": 30.986919847, "top": 70.446110046000001, "right": 31.486919847, "bottom": 69.946110046000001, "row_index": 8, "col_index": 54, "tile_id": 2169 }, "geometry": { "type": "MultiLineString", "coordinates": [ [ [ 30.999783731923046, 70.37743601666827 ], [ 31.000761715804103, 70.378061206960737 ], [ 31.001308091215304, 70.378803632708667 ], [ 31.002876786596811, 70.37889474710606 ] ] ] } },
{ "type": "Feature", "properties": { "fid": 498414, "elvelengde_m": 242.68, "elvID": "238-3-2", "elvenavn": null, "regulert": null, "fid_2": 2169, "id": 2169, "left": 30.986919847, "top": 70.446110046000001, "right": 31.486919847, "bottom": 69.946110046000001, "row_index": 8, "col_index": 54, "tile_id": 2169 }, "geometry": { "type": "MultiLineString", "coordinates": [ [ [ 30.986919847, 70.339169172227955 ], [ 30.987024580648036, 70.339218254235888 ], [ 30.989967332472485, 70.339394003747799 ], [ 30.990159901988285, 70.339520497699297 ] ] ] } },
{ "type": "Feature", "properties": { "fid": 498448, "elvelengde_m": 42.17, "elvID": "238-6-1", "elvenavn": "Storelva", "regulert": null, "fid_2": 2169, "id": 2169, "left": 30.986919847, "top": 70.446110046000001, "right": 31.486919847, "bottom": 69.946110046000001, "row_index": 8, "col_index": 54, "tile_id": 2169 }, "geometry": { "type": "MultiLineString", "coordinates": [ [ [ 31.004740726577566, 70.368504110513186 ], [ 31.005804616900065, 70.368615278919009 ] ] ] } },
{ "type": "Feature", "properties": { "fid": 498464, "elvelengde_m": 411.37, "elvID": "238-3-1", "elvenavn": null, "regulert": null, "fid_2": 2169, "id": 2169, "left": 30.986919847, "top": 70.446110046000001, "right": 31.486919847, "bottom": 69.946110046000001, "row_index": 8, "col_index": 54, "tile_id": 2169 }, "geometry": { "type": "MultiLineString", "coordinates": [ [ [ 31.012125631198757, 70.338908844701649 ], [ 31.013614077166434, 70.338606369106671 ], [ 31.013474312373884, 70.338438743254443 ], [ 31.013850151771958, 70.338313627025286 ], [ 31.014769625758014, 70.338104442878091 ], [ 31.015387567406027, 70.338126627909418 ], [ 31.015761064721207, 70.338262066039121 ], [ 31.016385430680803, 70.338724357831566 ], [ 31.017541380529885, 70.339039949693699 ], [ 31.017608023093064, 70.339379874372824 ], [ 31.018868412814033, 70.33981895148159 ] ] ] } },
{ "type": "Feature", "properties": { "fid": 498469, "elvelengde_m": 257.94, "elvID": "238-2-1", "elvenavn": null, "regulert": null, "fid_2": 2169, "id": 2169, "left": 30.986919847, "top": 70.446110046000001, "right": 31.486919847, "bottom": 69.946110046000001, "row_index": 8, "col_index": 54, "tile_id": 2169 }, "geometry": { "type": "MultiLineString", "coordinates": [ [ [ 31.048917738718565, 70.327979653693831 ], [ 31.050638234935366, 70.328587867589818 ], [ 31.051898365125247, 70.328487655282544 ], [ 31.053365789277695, 70.328625379283352 ], [ 31.054728634126615, 70.328468872819641 ] ] ] } },
{ "type": "Feature", "properties": { "fid": 498542, "elvelengde_m": 10.56, "elvID": "238-25-16", "elvenavn": null, "regulert": null, "fid_2": 2169, "id": 2169, "left": 30.986919847, "top": 70.446110046000001, "right": 31.486919847, "bottom": 69.946110046000001, "row_index": 8, "col_index": 54, "tile_id": 2169 }, "geometry": { "type": "MultiLineString", "coordinates": [ [ [ 30.99763897099211, 70.393780092658503 ], [ 30.997524575680128, 70.393694000970328 ] ] ] } },
{ "type": "Feature", "properties": { "fid": 498556, "elvelengde_m": 49.65, "elvID": "238-3-5", "elvenavn": null, "regulert": null, "fid_2": 2169, "id": 2169, "left": 30.986919847, "top": 70.446110046000001, "right": 31.486919847, "bottom": 69.946110046000001, "row_index": 8, "col_index": 54, "tile_id": 2169 }, "geometry": { "type": "MultiLineString", "coordinates": [ [ [ 31.015267543711737, 70.332312395008827 ], [ 31.015082101150238, 70.332477799811414 ], [ 31.015051241355732, 70.332743812739992 ] ] ] } },
{ "type": "Feature", "properties": { "fid": 498587, "elvelengde_m": 154.22, "elvID": "238-27-4", "elvenavn": null, "regulert": null, "fid_2": 2169, "id": 2169, "left": 30.986919847, "top": 70.446110046000001, "right": 31.486919847, "bottom": 69.946110046000001, "row_index": 8, "col_index": 54, "tile_id": 2169 }, "geometry": { "type": "MultiLineString", "coordinates": [ [ [ 31.000459385722674, 70.379792828642934 ], [ 31.001236212465219, 70.379389378256946 ], [ 31.002222602305775, 70.379376414249037 ], [ 31.002776439649551, 70.379202301305583 ], [ 31.002876786596811, 70.37889474710606 ] ] ] } },
{ "type": "Feature", "properties": { "fid": 498588, "elvelengde_m": 1093.87, "elvID": "238-27-1", "elvenavn": null, "regulert": null, "fid_2": 2169, "id": 2169, "left": 30.986919847, "top": 70.446110046000001, "right": 31.486919847, "bottom": 69.946110046000001, "row_index": 8, "col_index": 54, "tile_id": 2169 }, "geometry": { "type": "MultiLineString", "coordinates": [ [ [ 31.002876786596811, 70.37889474710606 ], [ 31.004087571164703, 70.378526607011381 ], [ 31.005019438273077, 70.37837124680749 ], [ 31.005638722134059, 70.378393257054526 ], [ 31.006351459957763, 70.37862014141345 ], [ 31.007495642206187, 70.378729509404323 ], [ 31.008109117434056, 70.378994444022709 ], [ 31.009386636773261, 70.379100849357627 ], [ 31.009698918660575, 70.379057966545304 ], [ 31.009809086557166, 70.378938642018014 ], [ 31.010238718728559, 70.378812405331402 ], [ 31.012705436614784, 70.378712825126854 ], [ 31.014435824095479, 70.378539527863083 ], [ 31.01503218073923, 70.378310635135975 ], [ 31.015212084327587, 70.378001287136712 ], [ 31.014743971341609, 70.377796045042459 ], [ 31.015265606168249, 70.377730521043105 ], [ 31.015523492715531, 70.377545141883814 ], [ 31.016280949082365, 70.377456336190477 ], [ 31.017299392296554, 70.377604350100128 ], [ 31.017260285208049, 70.377811934095263 ], [ 31.018159001141896, 70.378303970885014 ], [ 31.019164592319228, 70.378389421446442 ], [ 31.019565480842505, 70.378659127369303 ], [ 31.019564918158775, 70.378928600829937 ], [ 31.020184181766453, 70.378950842398837 ], [ 31.020632768403903, 70.379057499945205 ], [ 31.022104066563667, 70.379060838093537 ], [ 31.023772165671055, 70.378843995094542 ], [ 31.024151758324702, 70.378871448795849 ] ] ] } },
{ "type": "Feature", "properties": { "fid": 498594, "elvelengde_m": 106.5, "elvID": "238-6-1", "elvenavn": "Storelva", "regulert": null, "fid_2": 2169, "id": 2169, "left": 30.986919847, "top": 70.446110046000001, "right": 31.486919847, "bottom": 69.946110046000001, "row_index": 8, "col_index": 54, "tile_id": 2169 }, "geometry": { "type": "MultiLineString", "coordinates": [ [ [ 30.992540028479212, 70.365549019711437 ], [ 30.993320242515459, 70.365576777157457 ], [ 30.994523012426214, 70.366125023948484 ] ] ] } },
{ "type": "Feature", "properties": { "fid": 498599, "elvelengde_m": 206.43, "elvID": "238-4-3", "elvenavn": null, "regulert": null, "fid_2": 2169, "id": 2169, "left": 30.986919847, "top": 70.446110046000001, "right": 31.486919847, "bottom": 69.946110046000001, "row_index": 8, "col_index": 54, "tile_id": 2169 }, "geometry": { "type": "MultiLineString", "coordinates": [ [ [ 31.039570547480743, 70.353443752329056 ], [ 31.03979570146678, 70.353097379042211 ], [ 31.041283242278073, 70.351842187265859 ], [ 31.0413362607746, 70.351706197249428 ] ] ] } },
{ "type": "Feature", "properties": { "fid": 498613, "elvelengde_m": 83.98, "elvID": "238-3-1", "elvenavn": null, "regulert": null, "fid_2": 2169, "id": 2169, "left": 30.986919847, "top": 70.446110046000001, "right": 31.486919847, "bottom": 69.946110046000001, "row_index": 8, "col_index": 54, "tile_id": 2169 }, "geometry": { "type": "MultiLineString", "coordinates": [ [ [ 31.008191320429379, 70.337756647670744 ], [ 31.00827038167461, 70.338159153454285 ], [ 31.008522777175774, 70.338494932559954 ] ] ] } },
{ "type": "Feature", "properties": { "fid": 498688, "elvelengde_m": 21.31, "elvID": "238-25-16", "elvenavn": null, "regulert": null, "fid_2": 2169, "id": 2169, "left": 30.986919847, "top": 70.446110046000001, "right": 31.486919847, "bottom": 69.946110046000001, "row_index": 8, "col_index": 54, "tile_id": 2169 }, "geometry": { "type": "MultiLineString", "coordinates": [ [ [ 31.001483915529423, 70.39742331427405 ], [ 31.00158238721048, 70.397340946221306 ], [ 31.001501973631772, 70.397243089163908 ] ] ] } },
{ "type": "Feature", "properties": { "fid": 498689, "elvelengde_m": 81.39, "elvID": "238-25-1", "elvenavn": null, "regulert": null, "fid_2": 2169, "id": 2169, "left": 30.986919847, "top": 70.446110046000001, "right": 31.486919847, "bottom": 69.946110046000001, "row_index": 8, "col_index": 54, "tile_id": 2169 }, "geometry": { "type": "MultiLineString", "coordinates": [ [ [ 31.026114419975077, 70.380687329002726 ], [ 31.026930419953469, 70.38070870520967 ], [ 31.027294235595416, 70.3809378076798 ], [ 31.027803346777002, 70.380982266587992 ] ] ] } },
{ "type": "Feature", "properties": { "fid": 498723, "elvelengde_m": 150.92, "elvID": "238-25-16", "elvenavn": null, "regulert": null, "fid_2": 2169, "id": 2169, "left": 30.986919847, "top": 70.446110046000001, "right": 31.486919847, "bottom": 69.946110046000001, "row_index": 8, "col_index": 54, "tile_id": 2169 }, "geometry": { "type": "MultiLineString", "coordinates": [ [ [ 31.000878724945522, 70.39870334336365 ], [ 31.000901461771726, 70.39813694297672 ], [ 31.001470510665982, 70.39789962201219 ], [ 31.001483915529423, 70.39742331427405 ] ] ] } },
{ "type": "Feature", "properties": { "fid": 498727, "elvelengde_m": 1138.42, "elvID": "238-25-1", "elvenavn": null, "regulert": null, "fid_2": 2169, "id": 2169, "left": 30.986919847, "top": 70.446110046000001, "right": 31.486919847, "bottom": 69.946110046000001, "row_index": 8, "col_index": 54, "tile_id": 2169 }, "geometry": { "type": "MultiLineString", "coordinates": [ [ [ 30.986919847, 70.385494485586534 ], [ 30.987371901627203, 70.385463253752988 ], [ 30.988185473486318, 70.385112884779403 ], [ 30.988188100878407, 70.384852319324921 ], [ 30.988304374419474, 70.38462528394021 ], [ 30.989413027978024, 70.384690567852687 ], [ 30.990349556146906, 70.384418276348924 ], [ 30.992096218924758, 70.38432589614608 ], [ 30.992886609983341, 70.384128710999306 ] ] ] } },
{ "type": "Feature", "properties": { "fid": 498756, "elvelengde_m": 46.58, "elvID": "238-3-2", "elvenavn": null, "regulert": null, "fid_2": 2169, "id": 2169, "left": 30.986919847, "top": 70.446110046000001, "right": 31.486919847, "bottom": 69.946110046000001, "row_index": 8, "col_index": 54, "tile_id": 2169 }, "geometry": { "type": "MultiLineString", "coordinates": [ [ [ 30.990658624571921, 70.340741663949572 ], [ 30.99166578774841, 70.340979738087412 ] ] ] } },
{ "type": "Feature", "properties": { "fid": 498758, "elvelengde_m": 506.31, "elvID": "238-3-4", "elvenavn": null, "regulert": null, "fid_2": 2169, "id": 2169, "left": 30.986919847, "top": 70.446110046000001, "right": 31.486919847, "bottom": 69.946110046000001, "row_index": 8, "col_index": 54, "tile_id": 2169 }, "geometry": { "type": "MultiLineString", "coordinates": [ [ [ 31.019183676403632, 70.335993765189315 ], [ 31.01939231993153, 70.336375420596298 ], [ 31.01994244874458, 70.336731533737364 ], [ 31.021093013589347, 70.337155057955769 ], [ 31.021292812468886, 70.337357355083995 ], [ 31.021896310299383, 70.33757736770562 ], [ 31.021892656795931, 70.337694234869247 ], [ 31.020305266072636, 70.338169875787784 ], [ 31.019381839371331, 70.338630647015535 ], [ 31.019128425062682, 70.338833974208413 ], [ 31.01938990145376, 70.339214337486538 ], [ 31.019341887369102, 70.339377231037588 ], [ 31.019020628687493, 70.339779661049675 ], [ 31.018868412814033, 70.33981895148159 ] ] ] } },
{ "type": "Feature", "properties": { "fid": 498877, "elvelengde_m": 137.42, "elvID": "238-25-17", "elvenavn": null, "regulert": null, "fid_2": 2169, "id": 2169, "left": 30.986919847, "top": 70.446110046000001, "right": 31.486919847, "bottom": 69.946110046000001, "row_index": 8, "col_index": 54, "tile_id": 2169 }, "geometry": { "type": "MultiLineString", "coordinates": [ [ [ 30.992292824378637, 70.394212620068842 ], [ 30.993296966697571, 70.393875950117803 ], [ 30.994028730791143, 70.393787959615821 ], [ 30.995165027879644, 70.393852685333854 ], [ 30.995422896956597, 70.393802111881669 ] ] ] } },
{ "type": "Feature", "properties": { "fid": 498887, "elvelengde_m": 192.23, "elvID": "238-7-1", "elvenavn": null, "regulert": null, "fid_2": 2169, "id": 2169, "left": 30.986919847, "top": 70.446110046000001, "right": 31.486919847, "bottom": 69.946110046000001, "row_index": 8, "col_index": 54, "tile_id": 2169 }, "geometry": { "type": "MultiLineString", "coordinates": [ [ [ 31.015446412152528, 70.371446746025228 ], [ 31.016248268542604, 70.371312175089315 ], [ 31.016787437489814, 70.371336047720789 ], [ 31.017388158554162, 70.37153837552188 ], [ 31.020178191923545, 70.371471381260221 ] ] ] } },
{ "type": "Feature", "properties": { "fid": 498893, "elvelengde_m": 194.3, "elvID": "238-6-27", "elvenavn": null, "regulert": null, "fid_2": 2169, "id": 2169, "left": 30.986919847, "top": 70.446110046000001, "right": 31.486919847, "bottom": 69.946110046000001, "row_index": 8, "col_index": 54, "tile_id": 2169 }, "geometry": { "type": "MultiLineString", "coordinates": [ [ [ 30.986919847, 70.366605092535252 ], [ 30.989073739993582, 70.366541955059205 ], [ 30.989478783164685, 70.366290371062846 ], [ 30.990249156240242, 70.366129734443774 ], [ 30.990788798795322, 70.365884147699589 ] ] ] } },
{ "type": "Feature", "properties": { "fid": 498911, "elvelengde_m": 108.7, "elvID": "238-3-1", "elvenavn": null, "regulert": null, "fid_2": 2169, "id": 2169, "left": 30.986919847, "top": 70.446110046000001, "right": 31.486919847, "bottom": 69.946110046000001, "row_index": 8, "col_index": 54, "tile_id": 2169 }, "geometry": { "type": "MultiLineString", "coordinates": [ [ [ 31.000084313992112, 70.332591195493649 ], [ 30.999686756120806, 70.333013175238889 ], [ 30.998614794262995, 70.333396419166533 ] ] ] } },
{ "type": "Feature", "properties": { "fid": 500041, "elvelengde_m": 363.73, "elvID": "238-25-1", "elvenavn": null, "regulert": null, "fid_2": 2169, "id": 2169, "left": 30.986919847, "top": 70.446110046000001, "right": 31.486919847, "bottom": 69.946110046000001, "row_index": 8, "col_index": 54, "tile_id": 2169 }, "geometry": { "type": "MultiLineString", "coordinates": [ [ [ 30.992886609983341, 70.384128710999306 ], [ 30.993772117729591, 70.384145123895493 ], [ 30.995082689195151, 70.383873551044076 ], [ 31.002220553859328, 70.384272584260884 ] ] ] } },
{ "type": "Feature", "properties": { "fid": 500153, "elvelengde_m": 41.95, "elvID": "238-3-1", "elvenavn": null, "regulert": null, "fid_2": 2169, "id": 2169, "left": 30.986919847, "top": 70.446110046000001, "right": 31.486919847, "bottom": 69.946110046000001, "row_index": 8, "col_index": 54, "tile_id": 2169 }, "geometry": { "type": "MultiLineString", "coordinates": [ [ [ 31.007221914551689, 70.327773521602253 ], [ 31.006953430784876, 70.327949366581805 ], [ 31.006971747981087, 70.328126012394478 ] ] ] } },
{ "type": "Feature", "properties": { "fid": 500191, "elvelengde_m": 415.93, "elvID": "238-27-1", "elvenavn": null, "regulert": null, "fid_2": 2169, "id": 2169, "left": 30.986919847, "top": 70.446110046000001, "right": 31.486919847, "bottom": 69.946110046000001, "row_index": 8, "col_index": 54, "tile_id": 2169 }, "geometry": { "type": "MultiLineString", "coordinates": [ [ [ 30.991854889352624, 70.375985316436356 ], [ 30.992581716117783, 70.376148904327678 ], [ 30.992991239813023, 70.376328518847032 ], [ 30.993206809755282, 70.376611275532539 ], [ 30.995113399318768, 70.376928415906491 ], [ 30.996083704626852, 70.376969927850951 ], [ 30.99699110341593, 70.376689297967758 ], [ 30.997399088213154, 70.376725145028161 ], [ 30.997875689981448, 70.376975147017376 ], [ 30.99858656464307, 70.377193064686594 ], [ 30.999076606754489, 70.377101234332272 ], [ 30.999484603153057, 70.377137076527575 ], [ 30.999815933495405, 70.377327478872033 ], [ 30.999783731923046, 70.37743601666827 ] ] ] } },
{ "type": "Feature", "properties": { "fid": 500197, "elvelengde_m": 511.65, "elvID": "238-6-1", "elvenavn": "Storelva", "regulert": null, "fid_2": 2169, "id": 2169, "left": 30.986919847, "top": 70.446110046000001, "right": 31.486919847, "bottom": 69.946110046000001, "row_index": 8, "col_index": 54, "tile_id": 2169 }, "geometry": { "type": "MultiLineString", "coordinates": [ [ [ 30.986919847, 70.36490025756423 ], [ 30.987425846549737, 70.364943306967234 ], [ 30.988424439261223, 70.364858419040459 ], [ 30.989659091417373, 70.365298273930733 ], [ 30.990788798795322, 70.365884147699589 ] ] ] } },
{ "type": "Feature", "properties": { "fid": 500203, "elvelengde_m": 186.63, "elvID": "238-4-2", "elvenavn": null, "regulert": null, "fid_2": 2169, "id": 2169, "left": 30.986919847, "top": 70.446110046000001, "right": 31.486919847, "bottom": 69.946110046000001, "row_index": 8, "col_index": 54, "tile_id": 2169 }, "geometry": { "type": "MultiLineString", "coordinates": [ [ [ 31.021920076339185, 70.348959561058891 ], [ 31.022791933435801, 70.348913225414975 ], [ 31.02319741928218, 70.349074798823651 ], [ 31.023455789430962, 70.349437330579164 ], [ 31.023459090402692, 70.349590192013423 ], [ 31.024475607307604, 70.349872893680001 ], [ 31.024535588886806, 70.350042238902333 ] ] ] } },
{ "type": "Feature", "properties": { "fid": 500294, "elvelengde_m": 110.06, "elvID": "238-3-1", "elvenavn": null, "regulert": null, "fid_2": 2169, "id": 2169, "left": 30.986919847, "top": 70.446110046000001, "right": 31.486919847, "bottom": 69.946110046000001, "row_index": 8, "col_index": 54, "tile_id": 2169 }, "geometry": { "type": "MultiLineString", "coordinates": [ [ [ 31.008522777175774, 70.338494932559954 ], [ 31.008750192339264, 70.338751955706599 ], [ 31.010100879374122, 70.339301413384703 ] ] ] } },
{ "type": "Feature", "properties": { "fid": 500337, "elvelengde_m": 560.95, "elvID": "238-25-1", "elvenavn": null, "regulert": null, "fid_2": 2169, "id": 2169, "left": 30.986919847, "top": 70.446110046000001, "right": 31.486919847, "bottom": 69.946110046000001, "row_index": 8, "col_index": 54, "tile_id": 2169 }, "geometry": { "type": "MultiLineString", "coordinates": [ [ [ 31.002220553859328, 70.384272584260884 ], [ 31.003049274959704, 70.384137530681784 ], [ 31.003227605969744, 70.383819106616286 ], [ 31.00407752797274, 70.383243191457169 ], [ 31.004878416610037, 70.382965080907795 ], [ 31.005680646968699, 70.382965222590869 ], [ 31.006963465649331, 70.383098466740904 ], [ 31.008527190937642, 70.383027883764541 ], [ 31.011012816030103, 70.382478645739241 ], [ 31.014212804993345, 70.382434566320484 ] ] ] } },
{ "type": "Feature", "properties": { "fid": 500343, "elvelengde_m": 259.05, "elvID": "238-6-1", "elvenavn": "Storelva", "regulert": null, "fid_2": 2169, "id": 2169, "left": 30.986919847, "top": 70.446110046000001, "right": 31.486919847, "bottom": 69.946110046000001, "row_index": 8, "col_index": 54, "tile_id": 2169 }, "geometry": { "type": "MultiLineString", "coordinates": [ [ [ 31.006549599465423, 70.368733494858347 ], [ 31.008423695729824, 70.368889609196373 ], [ 31.009943421064559, 70.368873790936306 ], [ 31.010870733457679, 70.369104811557207 ], [ 31.011356020708252, 70.369399488846923 ], [ 31.012437673892709, 70.369600016794593 ] ] ] } },
{ "type": "Feature", "properties": { "fid": 500348, "elvelengde_m": 425.5, "elvID": "238-5-4", "elvenavn": null, "regulert": null, "fid_2": 2169, "id": 2169, "left": 30.986919847, "top": 70.446110046000001, "right": 31.486919847, "bottom": 69.946110046000001, "row_index": 8, "col_index": 54, "tile_id": 2169 }, "geometry": { "type": "MultiLineString", "coordinates": [ [ [ 31.005499571215953, 70.359701037465896 ], [ 31.007007404068514, 70.359766453527882 ], [ 31.009633102782619, 70.359672260539227 ], [ 31.010567651698366, 70.359534683841389 ], [ 31.010812055195583, 70.359556211485227 ], [ 31.011226698761863, 70.359762585637085 ], [ 31.013647888457669, 70.359987318622146 ], [ 31.014028582102807, 70.36015857924059 ], [ 31.0152212469402, 70.360383547941666 ], [ 31.015749744577928, 70.360353803143639 ] ] ] } },
{ "type": "Feature", "properties": { "fid": 500377, "elvelengde_m": 477.07, "elvID": "238-1-1", "elvenavn": null, "regulert": null, "fid_2": 2169, "id": 2169, "left": 30.986919847, "top": 70.446110046000001, "right": 31.486919847, "bottom": 69.946110046000001, "row_index": 8, "col_index": 54, "tile_id": 2169 }, "geometry": { "type": "MultiLineString", "coordinates": [ [ [ 31.037818124987581, 70.312677001160196 ], [ 31.038609248425999, 70.312497517587531 ], [ 31.041622766950638, 70.312376117038326 ], [ 31.043840797164979, 70.31186814326874 ], [ 31.046364617534934, 70.311829464744449 ], [ 31.047528371186466, 70.312054891456498 ], [ 31.049586530849304, 70.312087732191642 ] ] ] } },
{ "type": "Feature", "properties": { "fid": 500460, "elvelengde_m": 27.52, "elvID": "238-25-16", "elvenavn": null, "regulert": null, "fid_2": 2169, "id": 2169, "left": 30.986919847, "top": 70.446110046000001, "right": 31.486919847, "bottom": 69.946110046000001, "row_index": 8, "col_index": 54, "tile_id": 2169 }, "geometry": { "type": "MultiLineString", "coordinates": [ [ [ 31.001538329627042, 70.397017829198575 ], [ 31.001618599448125, 70.396935401960192 ], [ 31.001387592333774, 70.396796591955237 ] ] ] } },
{ "type": "Feature", "properties": { "fid": 500479, "elvelengde_m": 43.78, "elvID": "238-2-1", "elvenavn": null, "regulert": null, "fid_2": 2169, "id": 2169, "left": 30.986919847, "top": 70.446110046000001, "right": 31.486919847, "bottom": 69.946110046000001, "row_index": 8, "col_index": 54, "tile_id": 2169 }, "geometry": { "type": "MultiLineString", "coordinates": [ [ [ 31.045402554076304, 70.324100060194397 ], [ 31.04617334631514, 70.324252194344226 ], [ 31.04625097786418, 70.324337984893589 ] ] ] } },
{ "type": "Feature", "properties": { "fid": 501542, "elvelengde_m": 26.81, "elvID": "238-25-16", "elvenavn": null, "regulert": null, "fid_2": 2169, "id": 2169, "left": 30.986919847, "top": 70.446110046000001, "right": 31.486919847, "bottom": 69.946110046000001, "row_index": 8, "col_index": 54, "tile_id": 2169 }, "geometry": { "type": "MultiLineString", "coordinates": [ [ [ 31.001501973631772, 70.397243089163908 ], [ 31.001413253208788, 70.397200270163324 ], [ 31.001538329627042, 70.397017829198575 ] ] ] } },
{ "type": "Feature", "properties": { "fid": 501556, "elvelengde_m": 1791.05, "elvID": "238-8-1", "elvenavn": null, "regulert": null, "fid_2": 2169, "id": 2169, "left": 30.986919847, "top": 70.446110046000001, "right": 31.486919847, "bottom": 69.946110046000001, "row_index": 8, "col_index": 54, "tile_id": 2169 }, "geometry": { "type": "MultiLineString", "coordinates": [ [ [ 30.987155886310305, 70.372729131420016 ], [ 30.98849729520925, 70.372753463393522 ], [ 30.992007373834117, 70.373484528528181 ], [ 30.994177704082279, 70.373786876682743 ], [ 30.995091118608066, 70.373811534384046 ], [ 30.997173037990038, 70.374205756831017 ], [ 30.997847015649597, 70.374235766162442 ], [ 30.998714131097071, 70.374432186784745 ], [ 30.99982787912807, 70.374524275600848 ], [ 31.000579896324357, 70.374678423593949 ], [ 31.0008421131249, 70.374789364538941 ], [ 31.000847042974048, 70.374950946352811 ], [ 31.001100573037832, 70.375017174528324 ], [ 31.001902559667691, 70.375017422646295 ], [ 31.002293236754735, 70.37482907671793 ], [ 31.003442659598697, 70.374830602421568 ], [ 31.005250879847942, 70.374646700283634 ], [ 31.007973778986674, 70.373813688724255 ], [ 31.010084807691875, 70.373946638085542 ], [ 31.011367380125613, 70.373945075975513 ], [ 31.014039695809906, 70.373535322464406 ], [ 31.014290134781451, 70.373448840623155 ], [ 31.014830016622138, 70.373068488305876 ], [ 31.015136942145251, 70.372998883180756 ], [ 31.017038727926167, 70.372884674015211 ], [ 31.01742023112547, 70.372786365780286 ], [ 31.017626493096067, 70.372611126894739 ], [ 31.018669801091228, 70.372480126800895 ], [ 31.020079378756257, 70.37258348567147 ], [ 31.02052995280987, 70.372699292396135 ], [ 31.021611394866753, 70.373169321483047 ], [ 31.022499617331718, 70.373742469802707 ], [ 31.023017162310815, 70.373793730361371 ], [ 31.023622384564359, 70.373744341563409 ], [ 31.024418798986535, 70.373987224962292 ], [ 31.025473469383275, 70.374126338776591 ], [ 31.026206904553455, 70.374132985924234 ], [ 31.026956036303424, 70.373937957306723 ] ] ] } },
{ "type": "Feature", "properties": { "fid": 501573, "elvelengde_m": 390.23, "elvID": "238-2-2", "elvenavn": null, "regulert": null, "fid_2": 2169, "id": 2169, "left": 30.986919847, "top": 70.446110046000001, "right": 31.486919847, "bottom": 69.946110046000001, "row_index": 8, "col_index": 54, "tile_id": 2169 }, "geometry": { "type": "MultiLineString", "coordinates": [ [ [ 31.040044535355378, 70.328421214385642 ], [ 31.040856963912262, 70.328349151178244 ], [ 31.042960028818882, 70.327520401672331 ], [ 31.044230775337628, 70.327608703219923 ], [ 31.046229206759261, 70.327599800794161 ], [ 31.047177952813382, 70.327812086572763 ], [ 31.048917738718565, 70.327979653693831 ] ] ] } },
{ "type": "Feature", "properties": { "fid": 501687, "elvelengde_m": 329.46, "elvID": "238-4-1", "elvenavn": null, "regulert": null, "fid_2": 2169, "id": 2169, "left": 30.986919847, "top": 70.446110046000001, "right": 31.486919847, "bottom": 69.946110046000001, "row_index": 8, "col_index": 54, "tile_id": 2169 }, "geometry": { "type": "MultiLineString", "coordinates": [ [ [ 31.017550210903856, 70.350494441419585 ], [ 31.019088084435232, 70.350576761928551 ], [ 31.019350205236606, 70.350822604953109 ], [ 31.01981432328774, 70.350875173272058 ], [ 31.021136206889164, 70.350674973641077 ], [ 31.022703180301566, 70.350226783037897 ], [ 31.023158839748866, 70.350369363952737 ], [ 31.023546940133922, 70.350172091419822 ], [ 31.024535588886806, 70.350042238902333 ] ] ] } },
{ "type": "Feature", "properties": { "fid": 501762, "elvelengde_m": 170.41, "elvID": "238-25-1", "elvenavn": null, "regulert": null, "fid_2": 2169, "id": 2169, "left": 30.986919847, "top": 70.446110046000001, "right": 31.486919847, "bottom": 69.946110046000001, "row_index": 8, "col_index": 54, "tile_id": 2169 }, "geometry": { "type": "MultiLineString", "coordinates": [ [ [ 31.02973581240343, 70.381020019916804 ], [ 31.0311245415872, 70.380775053939004 ], [ 31.031247659712616, 70.380334047182743 ], [ 31.032114514555172, 70.379879634443512 ] ] ] } },
{ "type": "Feature", "properties": { "fid": 501769, "elvelengde_m": 84.27, "elvID": "238-3-1", "elvenavn": null, "regulert": null, "fid_2": 2169, "id": 2169, "left": 30.986919847, "top": 70.446110046000001, "right": 31.486919847, "bottom": 69.946110046000001, "row_index": 8, "col_index": 54, "tile_id": 2169 }, "geometry": { "type": "MultiLineString", "coordinates": [ [ [ 30.998614794262995, 70.333396419166533 ], [ 30.996848259761844, 70.333856935662709 ] ] ] } },
{ "type": "Feature", "properties": { "fid": 501779, "elvelengde_m": 122.05, "elvID": "238-3-2", "elvenavn": null, "regulert": null, "fid_2": 2169, "id": 2169, "left": 30.986919847, "top": 70.446110046000001, "right": 31.486919847, "bottom": 69.946110046000001, "row_index": 8, "col_index": 54, "tile_id": 2169 }, "geometry": { "type": "MultiLineString", "coordinates": [ [ [ 31.008670025100319, 70.340198575346818 ], [ 31.009988138521752, 70.339763536525439 ], [ 31.009956588017637, 70.33967593870473 ], [ 31.010100879374122, 70.339301413384703 ] ] ] } },
{ "type": "Feature", "properties": { "fid": 501780, "elvelengde_m": 89.67, "elvID": "238-3-1", "elvenavn": null, "regulert": null, "fid_2": 2169, "id": 2169, "left": 30.986919847, "top": 70.446110046000001, "right": 31.486919847, "bottom": 69.946110046000001, "row_index": 8, "col_index": 54, "tile_id": 2169 }, "geometry": { "type": "MultiLineString", "coordinates": [ [ [ 31.010100879374122, 70.339301413384703 ], [ 31.011323018332646, 70.339144174595532 ], [ 31.012125631198757, 70.338908844701649 ] ] ] } },
{ "type": "Feature", "properties": { "fid": 501826, "elvelengde_m": 349.08, "elvID": "238-27-5", "elvenavn": null, "regulert": null, "fid_2": 2169, "id": 2169, "left": 30.986919847, "top": 70.446110046000001, "right": 31.486919847, "bottom": 69.946110046000001, "row_index": 8, "col_index": 54, "tile_id": 2169 }, "geometry": { "type": "MultiLineString", "coordinates": [ [ [ 30.990839642691576, 70.377627836687111 ], [ 30.99191740621723, 70.377755156262978 ], [ 30.99507994156885, 70.377441297457608 ], [ 30.999783731923046, 70.37743601666827 ] ] ] } },
{ "type": "Feature", "properties": { "fid": 501829, "elvelengde_m": 155.74, "elvID": "238-6-1", "elvenavn": "Storelva", "regulert": null, "fid_2": 2169, "id": 2169, "left": 30.986919847, "top": 70.446110046000001, "right": 31.486919847, "bottom": 69.946110046000001, "row_index": 8, "col_index": 54, "tile_id": 2169 }, "geometry": { "type": "MultiLineString", "coordinates": [ [ [ 30.994523012426214, 70.366125023948484 ], [ 30.995512284919776, 70.366130187737909 ], [ 30.995800864965382, 70.366240580434038 ], [ 30.995933198849468, 70.366507115854461 ], [ 30.996737133502126, 70.366929449250549 ], [ 30.996684110113804, 70.367065493236481 ] ] ] } },
{ "type": "Feature", "properties": { "fid": 501832, "elvelengde_m": 336.47, "elvID": "238-5-1", "elvenavn": null, "regulert": null, "fid_2": 2169, "id": 2169, "left": 30.986919847, "top": 70.446110046000001, "right": 31.486919847, "bottom": 69.946110046000001, "row_index": 8, "col_index": 54, "tile_id": 2169 }, "geometry": { "type": "MultiLineString", "coordinates": [ [ [ 31.022145562660263, 70.360687631997791 ], [ 31.022643782024286, 70.360640735701438 ], [ 31.023848890083801, 70.360928157654087 ], [ 31.025958586793916, 70.361060846740514 ], [ 31.027359462985221, 70.360850037757501 ], [ 31.027765109460745, 70.360876757128494 ], [ 31.028561051951815, 70.361119626033258 ], [ 31.027654467284716, 70.361406165081334 ], [ 31.027581172291185, 70.361554346778675 ] ] ] } },
{ "type": "Feature", "properties": { "fid": 501845, "elvelengde_m": 730.34, "elvID": "238-3-2", "elvenavn": null, "regulert": null, "fid_2": 2169, "id": 2169, "left": 30.986919847, "top": 70.446110046000001, "right": 31.486919847, "bottom": 69.946110046000001, "row_index": 8, "col_index": 54, "tile_id": 2169 }, "geometry": { "type": "MultiLineString", "coordinates": [ [ [ 30.992257209136366, 70.341002753789908 ], [ 30.992778173060341, 70.340937196018459 ], [ 30.993250079716297, 70.340621319185132 ], [ 30.994177132507502, 70.340313366582947 ], [ 30.994852932985825, 70.339947971907165 ], [ 30.99589178039108, 70.339529783613656 ], [ 30.996554387171297, 70.339371342121353 ], [ 30.997358599687164, 70.339389513805756 ], [ 30.998158698729085, 70.339524487149092 ], [ 31.001100093432939, 70.339558083647745 ], [ 31.003909813252498, 70.340007842773758 ], [ 31.005492901941807, 70.340053546590184 ], [ 31.006709345109414, 70.340269090456715 ], [ 31.008670025100319, 70.340198575346818 ] ] ] } },
{ "type": "Feature", "properties": { "fid": 501954, "elvelengde_m": 1710.66, "elvID": "238-25-16", "elvenavn": null, "regulert": null, "fid_2": 2169, "id": 2169, "left": 30.986919847, "top": 70.446110046000001, "right": 31.486919847, "bottom": 69.946110046000001, "row_index": 8, "col_index": 54, "tile_id": 2169 }, "geometry": { "type": "MultiLineString", "coordinates": [ [ [ 30.997982331166462, 70.393619752779642 ], [ 30.99807268917888, 70.393536923875146 ], [ 30.997605523668927, 70.392927292210402 ], [ 30.997610193345736, 70.392406099428271 ], [ 30.997273912635624, 70.392054370068308 ], [ 30.997554505492403, 70.391985175928596 ], [ 30.997608480735472, 70.391579738609209 ], [ 30.997869053053776, 70.391133643254264 ], [ 30.997864967452397, 70.390702582860001 ], [ 30.99831684263248, 70.390279362483611 ], [ 30.998184674766311, 70.389878047063107 ], [ 30.998169067023451, 70.388979977745848 ], [ 30.998745956469403, 70.388374319080597 ], [ 31.000284114000539, 70.387899976464197 ], [ 31.000885912878644, 70.387832794081092 ], [ 31.001131528567036, 70.38771950353042 ], [ 31.001119357527006, 70.387522230833568 ], [ 31.001860431444875, 70.387344095850153 ], [ 31.002403220977474, 70.387386028448404 ], [ 31.004205043460463, 70.386618396342101 ], [ 31.004347280728727, 70.386390644792442 ], [ 31.004134744882982, 70.386260572760548 ], [ 31.003595444966503, 70.386236642779963 ], [ 31.002534124532907, 70.386008623629337 ], [ 31.002379905919078, 70.385904147801 ], [ 31.00285427528604, 70.385731988469161 ], [ 31.003057067798935, 70.385538788498451 ], [ 31.003664864554576, 70.385228922297685 ], [ 31.005125787206229, 70.385178534783535 ], [ 31.005572658595195, 70.385276512623093 ], [ 31.007177695925581, 70.385142089482443 ], [ 31.007580940459317, 70.384881572300984 ], [ 31.00878179259286, 70.384459662962186 ], [ 31.010365393862308, 70.384217923904856 ], [ 31.010505835361325, 70.384116013410221 ], [ 31.010305707143679, 70.383913791260767 ], [ 31.010441014647949, 70.383784970865307 ], [ 31.011172080794587, 70.383696938755449 ], [ 31.012010174127933, 70.383471643055231 ], [ 31.012976360422286, 70.383081918208802 ], [ 31.014029427245241, 70.382860760257188 ], [ 31.014274653571515, 70.382747476630342 ], [ 31.014356245965693, 70.382620015541946 ], [ 31.014212804993345, 70.382434566320484 ] ] ] } },
{ "type": "Feature", "properties": { "fid": 501955, "elvelengde_m": 73.39, "elvID": "238-25-1", "elvenavn": null, "regulert": null, "fid_2": 2169, "id": 2169, "left": 30.986919847, "top": 70.446110046000001, "right": 31.486919847, "bottom": 69.946110046000001, "row_index": 8, "col_index": 54, "tile_id": 2169 }, "geometry": { "type": "MultiLineString", "coordinates": [ [ [ 31.027803346777002, 70.380982266587992 ], [ 31.02973581240343, 70.381020019916804 ] ] ] } },
{ "type": "Feature", "properties": { "fid": 501958, "elvelengde_m": 338.09, "elvID": "238-27-6", "elvenavn": null, "regulert": null, "fid_2": 2169, "id": 2169, "left": 30.986919847, "top": 70.446110046000001, "right": 31.486919847, "bottom": 69.946110046000001, "row_index": 8, "col_index": 54, "tile_id": 2169 }, "geometry": { "type": "MultiLineString", "coordinates": [ [ [ 30.993949643941903, 70.381634727587098 ], [ 30.994412588200163, 70.381543621266658 ], [ 30.994861000353453, 70.381237149397734 ], [ 30.996737118154698, 70.380989053850698 ], [ 30.997245047830301, 70.380852239310556 ], [ 30.997399846624905, 70.380686984801386 ], [ 30.99818435540217, 70.380597758956995 ], [ 30.998500784201571, 70.380438088263929 ], [ 31.000178711141274, 70.37999661069837 ], [ 31.000450249860325, 70.379882811212312 ], [ 31.000459385722674, 70.379792828642934 ] ] ] } },
{ "type": "Feature", "properties": { "fid": 501974, "elvelengde_m": 775.02, "elvID": "238-5-1", "elvenavn": null, "regulert": null, "fid_2": 2169, "id": 2169, "left": 30.986919847, "top": 70.446110046000001, "right": 31.486919847, "bottom": 69.946110046000001, "row_index": 8, "col_index": 54, "tile_id": 2169 }, "geometry": { "type": "MultiLineString", "coordinates": [ [ [ 31.001510399165117, 70.35501918547817 ], [ 31.001715232712094, 70.35538289089132 ], [ 31.002644766376918, 70.355766565863163 ], [ 31.003257088213658, 70.356166303252763 ], [ 31.004190329868731, 70.356567857671564 ], [ 31.004986113975846, 70.356675969615338 ], [ 31.005807977969017, 70.356918213419618 ], [ 31.006858575199107, 70.357101561829282 ], [ 31.007730600823432, 70.357189879280639 ], [ 31.008517620370014, 70.357118616528055 ], [ 31.009593596385404, 70.357157588376126 ], [ 31.009715679351064, 70.357235645015578 ], [ 31.00940148272986, 70.357539256916155 ], [ 31.009654491104154, 70.357740254288501 ], [ 31.013272073973045, 70.358072993191712 ], [ 31.013680883934345, 70.35825260800388 ], [ 31.014105045464721, 70.359051779399053 ], [ 31.01394706792847, 70.359199046726332 ] ] ] } },
{ "type": "Feature", "properties": { "fid": 501986, "elvelengde_m": 242.11, "elvID": "238-3-1", "elvenavn": null, "regulert": null, "fid_2": 2169, "id": 2169, "left": 30.986919847, "top": 70.446110046000001, "right": 31.486919847, "bottom": 69.946110046000001, "row_index": 8, "col_index": 54, "tile_id": 2169 }, "geometry": { "type": "MultiLineString", "coordinates": [ [ [ 31.000434457583633, 70.335062957668526 ], [ 31.001297180579268, 70.334837178765611 ], [ 31.003576580113808, 70.33475970315466 ], [ 31.004161578017825, 70.335025180287914 ], [ 31.005278788883146, 70.335144120387554 ], [ 31.006091624771095, 70.335072210338055 ] ] ] } },
{ "type": "Feature", "properties": { "fid": 501989, "elvelengde_m": 412.41, "elvID": "238-3-5", "elvenavn": null, "regulert": null, "fid_2": 2169, "id": 2169, "left": 30.986919847, "top": 70.446110046000001, "right": 31.486919847, "bottom": 69.946110046000001, "row_index": 8, "col_index": 54, "tile_id": 2169 }, "geometry": { "type": "MultiLineString", "coordinates": [ [ [ 31.015051241355732, 70.332743812739992 ], [ 31.015264888101989, 70.333152383244439 ], [ 31.015650308450425, 70.333350358031083 ], [ 31.016235592773814, 70.333885280748717 ], [ 31.016519858363662, 70.334382129120229 ], [ 31.016598702226307, 70.334919321147353 ], [ 31.017212544322778, 70.335327901102374 ], [ 31.018606883541043, 70.3359078282312 ], [ 31.019183676403632, 70.335993765189315 ] ] ] } },
{ "type": "Feature", "properties": { "fid": 503124, "elvelengde_m": 113.81, "elvID": "238-3-4", "elvenavn": null, "regulert": null, "fid_2": 2169, "id": 2169, "left": 30.986919847, "top": 70.446110046000001, "right": 31.486919847, "bottom": 69.946110046000001, "row_index": 8, "col_index": 54, "tile_id": 2169 }, "geometry": { "type": "MultiLineString", "coordinates": [ [ [ 31.025172570799967, 70.326908674486845 ], [ 31.02498275478824, 70.327347507987469 ], [ 31.024198163940405, 70.327850343145215 ] ] ] } },
{ "type": "Feature", "properties": { "fid": 503156, "elvelengde_m": 151.01, "elvID": "238-27-1", "elvenavn": null, "regulert": null, "fid_2": 2169, "id": 2169, "left": 30.986919847, "top": 70.446110046000001, "right": 31.486919847, "bottom": 69.946110046000001, "row_index": 8, "col_index": 54, "tile_id": 2169 }, "geometry": { "type": "MultiLineString", "coordinates": [ [ [ 30.989031392974443, 70.375077442253996 ], [ 30.99150440149733, 70.375696582866254 ], [ 30.991854889352624, 70.375985316436356 ] ] ] } },
{ "type": "Feature", "properties": { "fid": 503159, "elvelengde_m": 458.81, "elvID": "238-27-1", "elvenavn": null, "regulert": null, "fid_2": 2169, "id": 2169, "left": 30.986919847, "top": 70.446110046000001, "right": 31.486919847, "bottom": 69.946110046000001, "row_index": 8, "col_index": 54, "tile_id": 2169 }, "geometry": { "type": "MultiLineString", "coordinates": [ [ [ 30.986919847, 70.374732193340421 ], [ 30.989031392974443, 70.375077442253996 ] ] ] } },
{ "type": "Feature", "properties": { "fid": 503164, "elvelengde_m": 382.7, "elvID": "238-5-1", "elvenavn": null, "regulert": null, "fid_2": 2169, "id": 2169, "left": 30.986919847, "top": 70.446110046000001, "right": 31.486919847, "bottom": 69.946110046000001, "row_index": 8, "col_index": 54, "tile_id": 2169 }, "geometry": { "type": "MultiLineString", "coordinates": [ [ [ 31.015749744577928, 70.360353803143639 ], [ 31.016309845014362, 70.360485162591701 ], [ 31.017761626032751, 70.360533672499756 ], [ 31.018162062446578, 70.360668541981866 ], [ 31.017807269333851, 70.360901044824331 ], [ 31.018099278621168, 70.361164067780777 ], [ 31.018102330787858, 70.361451427610916 ], [ 31.018382240101008, 70.361517072225865 ], [ 31.018992364511821, 70.361494416856161 ], [ 31.020599145115064, 70.360973602458472 ], [ 31.021356547061089, 70.360884822224989 ], [ 31.022145562660263, 70.360687631997791 ] ] ] } },
{ "type": "Feature", "properties": { "fid": 503167, "elvelengde_m": 399.38, "elvID": "238-5-3", "elvenavn": null, "regulert": null, "fid_2": 2169, "id": 2169, "left": 30.986919847, "top": 70.446110046000001, "right": 31.486919847, "bottom": 69.946110046000001, "row_index": 8, "col_index": 54, "tile_id": 2169 }, "geometry": { "type": "MultiLineString", "coordinates": [ [ [ 31.003746538674207, 70.359344651107691 ], [ 31.007618062838695, 70.359339630557798 ], [ 31.010695891053032, 70.359100554334034 ], [ 31.011597007020612, 70.358927904966777 ], [ 31.01394706792847, 70.359199046726332 ] ] ] } },
{ "type": "Feature", "properties": { "fid": 503262, "elvelengde_m": 83.93, "elvID": "238-4-3", "elvenavn": null, "regulert": null, "fid_2": 2169, "id": 2169, "left": 30.986919847, "top": 70.446110046000001, "right": 31.486919847, "bottom": 69.946110046000001, "row_index": 8, "col_index": 54, "tile_id": 2169 }, "geometry": { "type": "MultiLineString", "coordinates": [ [ [ 31.040834122938538, 70.353970768619163 ], [ 31.039916690725551, 70.353808718151882 ], [ 31.039572761863894, 70.353570455910798 ], [ 31.039570547480743, 70.353443752329056 ] ] ] } },
{ "type": "Feature", "properties": { "fid": 503283, "elvelengde_m": 430.32, "elvID": "238-25-16", "elvenavn": null, "regulert": null, "fid_2": 2169, "id": 2169, "left": 30.986919847, "top": 70.446110046000001, "right": 31.486919847, "bottom": 69.946110046000001, "row_index": 8, "col_index": 54, "tile_id": 2169 }, "geometry": { "type": "MultiLineString", "coordinates": [ [ [ 31.001387592333774, 70.396796591955237 ], [ 31.001201432452536, 70.396665872935174 ], [ 31.001597897017774, 70.396504409881928 ], [ 31.0011368752069, 70.396200152184988 ], [ 31.000118304869105, 70.395099778016274 ], [ 31.000656902152585, 70.39484523971646 ], [ 31.000293735410313, 70.394628660842002 ], [ 31.000249383951953, 70.394405081608852 ], [ 30.999964123914694, 70.394177829397208 ], [ 30.998650072666564, 70.394161992965039 ], [ 30.99817258798495, 70.394046691853106 ], [ 30.99763897099211, 70.393780092658503 ] ] ] } },
{ "type": "Feature", "properties": { "fid": 503286, "elvelengde_m": 300.04, "elvID": "238-25-20", "elvenavn": null, "regulert": null, "fid_2": 2169, "id": 2169, "left": 30.986919847, "top": 70.446110046000001, "right": 31.486919847, "bottom": 69.946110046000001, "row_index": 8, "col_index": 54, "tile_id": 2169 }, "geometry": { "type": "MultiLineString", "coordinates": [ [ [ 30.998249632407845, 70.385842878729818 ], [ 30.999403189552869, 70.385862139587019 ], [ 30.999641637520671, 70.385713247117124 ], [ 30.999498236265335, 70.385527698564673 ], [ 30.999500049987748, 70.384719142442876 ], [ 30.999844718461201, 70.384567823640936 ], [ 31.000226779732884, 70.384469525095696 ], [ 31.001279403042101, 70.384518088450818 ], [ 31.002220553859328, 70.384272584260884 ] ] ] } },
{ "type": "Feature", "properties": { "fid": 503288, "elvelengde_m": 543.65, "elvID": "238-25-1", "elvenavn": null, "regulert": null, "fid_2": 2169, "id": 2169, "left": 30.986919847, "top": 70.446110046000001, "right": 31.486919847, "bottom": 69.946110046000001, "row_index": 8, "col_index": 54, "tile_id": 2169 }, "geometry": { "type": "MultiLineString", "coordinates": [ [ [ 31.014212804993345, 70.382434566320484 ], [ 31.014850177248238, 70.382276687524623 ], [ 31.016550730282631, 70.382086124874121 ], [ 31.017140498424311, 70.38168681745411 ], [ 31.017465314785518, 70.381571567360155 ], [ 31.017995907978577, 70.381550917980746 ], [ 31.018934623857824, 70.381700820423418 ], [ 31.022014230944404, 70.381317821228947 ], [ 31.023347082779026, 70.381027599756834 ], [ 31.023864123621699, 70.380665667672616 ], [ 31.025258588913864, 70.380823313030206 ], [ 31.026114419975077, 70.380687329002726 ] ] ] } },
{ "type": "Feature", "properties": { "fid": 503298, "elvelengde_m": 404.59, "elvID": "238-4-1", "elvenavn": null, "regulert": null, "fid_2": 2169, "id": 2169, "left": 30.986919847, "top": 70.446110046000001, "right": 31.486919847, "bottom": 69.946110046000001, "row_index": 8, "col_index": 54, "tile_id": 2169 }, "geometry": { "type": "MultiLineString", "coordinates": [ [ [ 31.0413362607746, 70.351706197249428 ], [ 31.04522090323708, 70.351367534571381 ], [ 31.045863824927071, 70.351380157306863 ], [ 31.046604600629461, 70.350941349341298 ], [ 31.047326133753458, 70.350134483570301 ], [ 31.048380368186013, 70.349931168293153 ], [ 31.048731200340733, 70.349815564281712 ], [ 31.048723953460438, 70.349710961886174 ] ] ] } },
{ "type": "Feature", "properties": { "fid": 503300, "elvelengde_m": 760.59, "elvID": "238-4-1", "elvenavn": null, "regulert": null, "fid_2": 2169, "id": 2169, "left": 30.986919847, "top": 70.446110046000001, "right": 31.486919847, "bottom": 69.946110046000001, "row_index": 8, "col_index": 54, "tile_id": 2169 }, "geometry": { "type": "MultiLineString", "coordinates": [ [ [ 31.024535588886806, 70.350042238902333 ], [ 31.026001016974575, 70.35016226264446 ], [ 31.027206057232771, 70.350045528690686 ], [ 31.028488639027024, 70.350187636774294 ], [ 31.029999921177641, 70.350674993752577 ], [ 31.030621597088821, 70.350714946414612 ], [ 31.03134786638633, 70.350878468480133 ], [ 31.03241252123529, 70.351267931368582 ], [ 31.03363650123929, 70.352058081783909 ], [ 31.034157665314982, 70.352262106006805 ], [ 31.0413362607746, 70.351706197249428 ] ] ] } },
{ "type": "Feature", "properties": { "fid": 503313, "elvelengde_m": 425.1, "elvID": "238-2-1", "elvenavn": null, "regulert": null, "fid_2": 2169, "id": 2169, "left": 30.986919847, "top": 70.446110046000001, "right": 31.486919847, "bottom": 69.946110046000001, "row_index": 8, "col_index": 54, "tile_id": 2169 }, "geometry": { "type": "MultiLineString", "coordinates": [ [ [ 31.04625097786418, 70.324337984893589 ], [ 31.046272285284463, 70.324714902876494 ], [ 31.046459751025836, 70.325124016269044 ], [ 31.047452256184165, 70.326098814076232 ], [ 31.048070257303607, 70.326390480495576 ], [ 31.048358690545925, 70.327039845893253 ], [ 31.048917738718565, 70.327979653693831 ] ] ] } },
{ "type": "Feature", "properties": { "fid": 503392, "elvelengde_m": 158.74, "elvID": "238-25-16", "elvenavn": null, "regulert": null, "fid_2": 2169, "id": 2169, "left": 30.986919847, "top": 70.446110046000001, "right": 31.486919847, "bottom": 69.946110046000001, "row_index": 8, "col_index": 54, "tile_id": 2169 }, "geometry": { "type": "MultiLineString", "coordinates": [ [ [ 30.999952443214678, 70.400036841346022 ], [ 31.000068727514218, 70.399863737999297 ], [ 31.000555155686396, 70.399546385364232 ], [ 31.000552416086169, 70.399192638967278 ], [ 31.00064101079214, 70.399016806559288 ], [ 31.00059025129417, 70.398840360482581 ], [ 31.000878724945522, 70.39870334336365 ] ] ] } },
{ "type": "Feature", "properties": { "fid": 503394, "elvelengde_m": 257.18, "elvID": "238-27-1", "elvenavn": null, "regulert": null, "fid_2": 2169, "id": 2169, "left": 30.986919847, "top": 70.446110046000001, "right": 31.486919847, "bottom": 69.946110046000001, "row_index": 8, "col_index": 54, "tile_id": 2169 }, "geometry": { "type": "MultiLineString", "coordinates": [ [ [ 31.024151758324702, 70.378871448795849 ], [ 31.02441100622335, 70.378875944613142 ], [ 31.025177685845858, 70.378517957869363 ], [ 31.025995346746882, 70.378293731520031 ], [ 31.026739069612045, 70.378200674272875 ], [ 31.027114640271677, 70.378075568169365 ], [ 31.027278731990453, 70.378005838598568 ], [ 31.027419205829457, 70.377743598715568 ], [ 31.027691135991244, 70.377509332229508 ], [ 31.028510875788772, 70.377275737597202 ] ] ] } },
{ "type": "Feature", "properties": { "fid": 503430, "elvelengde_m": 338.1, "elvID": "238-27-3", "elvenavn": null, "regulert": null, "fid_2": 2169, "id": 2169, "left": 30.986919847, "top": 70.446110046000001, "right": 31.486919847, "bottom": 69.946110046000001, "row_index": 8, "col_index": 54, "tile_id": 2169 }, "geometry": { "type": "MultiLineString", "coordinates": [ [ [ 30.986919847, 70.37525771150915 ], [ 30.987512035742071, 70.375236720280341 ], [ 30.988574472352269, 70.375338989553242 ], [ 30.989664074415643, 70.375854017366649 ], [ 30.99129942647588, 70.37601555198583 ], [ 30.991854889352624, 70.375985316436356 ] ] ] } },
{ "type": "Feature", "properties": { "fid": 503443, "elvelengde_m": 1678.86, "elvID": "238-6-26", "elvenavn": null, "regulert": null, "fid_2": 2169, "id": 2169, "left": 30.986919847, "top": 70.446110046000001, "right": 31.486919847, "bottom": 69.946110046000001, "row_index": 8, "col_index": 54, "tile_id": 2169 }, "geometry": { "type": "MultiLineString", "coordinates": [ [ [ 30.986919847, 70.360056962880137 ], [ 30.988654549803254, 70.360154766243483 ], [ 30.989042300643529, 70.360361859161998 ], [ 30.989059475305652, 70.361134057392334 ], [ 30.989338172033907, 70.361604068642208 ], [ 30.989332229067987, 70.361846806467113 ], [ 30.989713509375047, 70.362979172359687 ], [ 30.989710096134878, 70.363644119198412 ], [ 30.991842626876061, 70.365124222320077 ], [ 30.992107677986041, 70.365387956582822 ], [ 30.992540028479212, 70.365549019711437 ] ] ] } },
{ "type": "Feature", "properties": { "fid": 503463, "elvelengde_m": 219.53, "elvID": "238-3-3", "elvenavn": null, "regulert": null, "fid_2": 2169, "id": 2169, "left": 30.986919847, "top": 70.446110046000001, "right": 31.486919847, "bottom": 69.946110046000001, "row_index": 8, "col_index": 54, "tile_id": 2169 }, "geometry": { "type": "MultiLineString", "coordinates": [ [ [ 30.987798565988381, 70.331138381798027 ], [ 30.990140349905058, 70.331931032271086 ], [ 30.992393305541903, 70.332267509237553 ] ] ] } },
{ "type": "Feature", "properties": { "fid": 503576, "elvelengde_m": 933.91, "elvID": "238-5-2", "elvenavn": null, "regulert": null, "fid_2": 2169, "id": 2169, "left": 30.986919847, "top": 70.446110046000001, "right": 31.486919847, "bottom": 69.946110046000001, "row_index": 8, "col_index": 54, "tile_id": 2169 }, "geometry": { "type": "MultiLineString", "coordinates": [ [ [ 31.012216385807392, 70.354467066763817 ], [ 31.013231969658179, 70.354606202898708 ], [ 31.013889234779636, 70.354555585525361 ], [ 31.014303911509668, 70.354627283314272 ], [ 31.014631595928631, 70.354799748370183 ], [ 31.014627543487986, 70.35505130946828 ], [ 31.01336992716967, 70.355717173929378 ], [ 31.013386992877606, 70.356076131742526 ], [ 31.013907740479294, 70.356280153276359 ], [ 31.015588953051857, 70.356683010243358 ], [ 31.015845378235085, 70.357036665143241 ], [ 31.015921049471181, 70.357421279842427 ], [ 31.016186769186184, 70.357550086944329 ], [ 31.017055335205033, 70.357620643102706 ], [ 31.017797454105533, 70.357864642389316 ], [ 31.019390745464936, 70.35808976114545 ], [ 31.0201951326132, 70.358377293870419 ], [ 31.02062165267499, 70.358915715435046 ], [ 31.020954530033347, 70.359114991055392 ], [ 31.02069191921704, 70.359408392500555 ], [ 31.020753571140478, 70.35958665187357 ], [ 31.021144964178394, 70.359811496596464 ], [ 31.021424624217282, 70.360146671052803 ], [ 31.022145562660263, 70.360687631997791 ] ] ] } },
{ "type": "Feature", "properties": { "fid": 504684, "elvelengde_m": 277.25, "elvID": "238-6-1", "elvenavn": "Storelva", "regulert": null, "fid_2": 2169, "id": 2169, "left": 30.986919847, "top": 70.446110046000001, "right": 31.486919847, "bottom": 69.946110046000001, "row_index": 8, "col_index": 54, "tile_id": 2169 }, "geometry": { "type": "MultiLineString", "coordinates": [ [ [ 31.012437673892709, 70.369600016794593 ], [ 31.012716609335531, 70.369667262282761 ], [ 31.015554601934596, 70.369736989540471 ], [ 31.019699418804077, 70.36972536450574 ] ] ] } },
{ "type": "Feature", "properties": { "fid": 504746, "elvelengde_m": 612.57, "elvID": "238-27-4", "elvenavn": null, "regulert": null, "fid_2": 2169, "id": 2169, "left": 30.986919847, "top": 70.446110046000001, "right": 31.486919847, "bottom": 69.946110046000001, "row_index": 8, "col_index": 54, "tile_id": 2169 }, "geometry": { "type": "MultiLineString", "coordinates": [ [ [ 30.986919847, 70.379233252161868 ], [ 30.987840365919293, 70.379380005186292 ], [ 30.989899058389156, 70.379379258714209 ], [ 30.992424549636741, 70.379170972251771 ], [ 30.995231065070804, 70.379441259042324 ], [ 30.997987741559616, 70.379865481212775 ], [ 31.000459385722674, 70.379792828642934 ] ] ] } },
{ "type": "Feature", "properties": { "fid": 504749, "elvelengde_m": 209.42, "elvID": "238-27-2", "elvenavn": null, "regulert": null, "fid_2": 2169, "id": 2169, "left": 30.986919847, "top": 70.446110046000001, "right": 31.486919847, "bottom": 69.946110046000001, "row_index": 8, "col_index": 54, "tile_id": 2169 }, "geometry": { "type": "MultiLineString", "coordinates": [ [ [ 30.986919847, 70.374392851080117 ], [ 30.987239190305324, 70.374524052903027 ], [ 30.988560430932257, 70.374719458151631 ], [ 30.989102660992788, 70.374896193186217 ], [ 30.989031392974443, 70.375077442253996 ] ] ] } },
{ "type": "Feature", "properties": { "fid": 504826, "elvelengde_m": 31.02, "elvID": "238-6-1", "elvenavn": "Storelva", "regulert": null, "fid_2": 2169, "id": 2169, "left": 30.986919847, "top": 70.446110046000001, "right": 31.486919847, "bottom": 69.946110046000001, "row_index": 8, "col_index": 54, "tile_id": 2169 }, "geometry": { "type": "MultiLineString", "coordinates": [ [ [ 31.005804616900065, 70.368615278919009 ], [ 31.006549599465423, 70.368733494858347 ] ] ] } },
{ "type": "Feature", "properties": { "fid": 504836, "elvelengde_m": 249.8, "elvID": "238-3-1", "elvenavn": null, "regulert": null, "fid_2": 2169, "id": 2169, "left": 30.986919847, "top": 70.446110046000001, "right": 31.486919847, "bottom": 69.946110046000001, "row_index": 8, "col_index": 54, "tile_id": 2169 }, "geometry": { "type": "MultiLineString", "coordinates": [ [ [ 30.996848259761844, 70.333856935662709 ], [ 30.997149454803314, 70.334013775061095 ], [ 30.997719494079405, 70.334699975749572 ], [ 30.998730872964359, 70.335313876650218 ], [ 31.000434457583633, 70.335062957668526 ] ] ] } },
{ "type": "Feature", "properties": { "fid": 504839, "elvelengde_m": 396.54, "elvID": "238-3-1", "elvenavn": null, "regulert": null, "fid_2": 2169, "id": 2169, "left": 30.986919847, "top": 70.446110046000001, "right": 31.486919847, "bottom": 69.946110046000001, "row_index": 8, "col_index": 54, "tile_id": 2169 }, "geometry": { "type": "MultiLineString", "coordinates": [ [ [ 31.006091624771095, 70.335072210338055 ], [ 31.007353804567853, 70.335151988471409 ], [ 31.007771945704427, 70.335467959169577 ], [ 31.009723737132692, 70.335933195515807 ], [ 31.009642721511209, 70.33609765999195 ], [ 31.009073665169478, 70.336597753533979 ], [ 31.008109013185532, 70.337232425211965 ], [ 31.008068672526594, 70.337320315506744 ], [ 31.008228228285553, 70.337489264816483 ], [ 31.008191320429379, 70.337756647670744 ] ] ] } },
{ "type": "Feature", "properties": { "fid": 504846, "elvelengde_m": 22.64, "elvID": "238-3-2", "elvenavn": null, "regulert": null, "fid_2": 2169, "id": 2169, "left": 30.986919847, "top": 70.446110046000001, "right": 31.486919847, "bottom": 69.946110046000001, "row_index": 8, "col_index": 54, "tile_id": 2169 }, "geometry": { "type": "MultiLineString", "coordinates": [ [ [ 30.990159901988285, 70.339520497699297 ], [ 30.990279925192137, 70.339718562692013 ] ] ] } },
{ "type": "Feature", "properties": { "fid": 504876, "elvelengde_m": 349.1, "elvID": "238-6-1", "elvenavn": "Storelva", "regulert": null, "fid_2": 2169, "id": 2169, "left": 30.986919847, "top": 70.446110046000001, "right": 31.486919847, "bottom": 69.946110046000001, "row_index": 8, "col_index": 54, "tile_id": 2169 }, "geometry": { "type": "MultiLineString", "coordinates": [ [ [ 30.996684110113804, 70.367065493236481 ], [ 30.997204730544905, 70.367269586037779 ], [ 30.999215043314734, 70.367575440183259 ], [ 31.000673644804227, 70.367929530804687 ], [ 31.00213789902941, 70.368175543048309 ], [ 31.003767597005663, 70.368310058970692 ], [ 31.004740726577566, 70.368504110513186 ] ] ] } },
{ "type": "Feature", "properties": { "fid": 504881, "elvelengde_m": 150.76, "elvID": "238-5-1", "elvenavn": null, "regulert": null, "fid_2": 2169, "id": 2169, "left": 30.986919847, "top": 70.446110046000001, "right": 31.486919847, "bottom": 69.946110046000001, "row_index": 8, "col_index": 54, "tile_id": 2169 }, "geometry": { "type": "MultiLineString", "coordinates": [ [ [ 31.01394706792847, 70.359199046726332 ], [ 31.014706959334042, 70.359532544089546 ], [ 31.014777376086354, 70.359890445722314 ], [ 31.015749744577928, 70.360353803143639 ] ] ] } },
{ "type": "Feature", "properties": { "fid": 504970, "elvelengde_m": 19.12, "elvID": "238-25-16", "elvenavn": null, "regulert": null, "fid_2": 2169, "id": 2169, "left": 30.986919847, "top": 70.446110046000001, "right": 31.486919847, "bottom": 69.946110046000001, "row_index": 8, "col_index": 54, "tile_id": 2169 }, "geometry": { "type": "MultiLineString", "coordinates": [ [ [ 30.997524575680128, 70.393694000970328 ], [ 30.997982331166462, 70.393619752779642 ] ] ] } },
{ "type": "Feature", "properties": { "fid": 504986, "elvelengde_m": 387.51, "elvID": "238-3-1", "elvenavn": null, "regulert": null, "fid_2": 2169, "id": 2169, "left": 30.986919847, "top": 70.446110046000001, "right": 31.486919847, "bottom": 69.946110046000001, "row_index": 8, "col_index": 54, "tile_id": 2169 }, "geometry": { "type": "MultiLineString", "coordinates": [ [ [ 31.003776657872049, 70.329921964749232 ], [ 31.003560367551042, 70.329770950572566 ], [ 31.002135555276617, 70.329968329651862 ], [ 31.001923003514317, 70.330316972278126 ], [ 31.001998360090244, 70.33067288181114 ], [ 31.001935322856664, 70.330849846336804 ], [ 31.00137449715189, 70.331350883131435 ], [ 31.000652674778085, 70.331722829607457 ], [ 31.000245314469534, 70.332240531651593 ], [ 31.000084313992112, 70.332591195493649 ] ] ] } },
{ "type": "Feature", "properties": { "fid": 505013, "elvelengde_m": 278.66, "elvID": "238-25-18", "elvenavn": null, "regulert": null, "fid_2": 2169, "id": 2169, "left": 30.986919847, "top": 70.446110046000001, "right": 31.486919847, "bottom": 69.946110046000001, "row_index": 8, "col_index": 54, "tile_id": 2169 }, "geometry": { "type": "MultiLineString", "coordinates": [ [ [ 30.986919847, 70.395167199376601 ], [ 30.987015881964997, 70.395137435309366 ], [ 30.987430302512035, 70.394930733256984 ], [ 30.987544906682189, 70.394694697873035 ], [ 30.987953433155344, 70.394595803519891 ], [ 30.98883072046867, 70.394567522576807 ], [ 30.990362527993462, 70.394327037439467 ], [ 30.992292824378637, 70.394212620068842 ] ] ] } },
{ "type": "Feature", "properties": { "fid": 505030, "elvelengde_m": 76.39, "elvID": "238-6-1", "elvenavn": "Storelva", "regulert": null, "fid_2": 2169, "id": 2169, "left": 30.986919847, "top": 70.446110046000001, "right": 31.486919847, "bottom": 69.946110046000001, "row_index": 8, "col_index": 54, "tile_id": 2169 }, "geometry": { "type": "MultiLineString", "coordinates": [ [ [ 30.990788798795322, 70.365884147699589 ], [ 30.992540028479212, 70.365549019711437 ] ] ] } },
{ "type": "Feature", "properties": { "fid": 505047, "elvelengde_m": 1135.19, "elvID": "238-3-1", "elvenavn": null, "regulert": null, "fid_2": 2169, "id": 2169, "left": 30.986919847, "top": 70.446110046000001, "right": 31.486919847, "bottom": 69.946110046000001, "row_index": 8, "col_index": 54, "tile_id": 2169 }, "geometry": { "type": "MultiLineString", "coordinates": [ [ [ 31.018868412814033, 70.33981895148159 ], [ 31.018947422645454, 70.340356228682538 ], [ 31.019747425676705, 70.340625881878424 ], [ 31.021836968008984, 70.340938690186363 ], [ 31.023022998933158, 70.341271595063148 ], [ 31.024151181027541, 70.341444207843566 ], [ 31.025932951947109, 70.34141338218484 ], [ 31.027011298628562, 70.341604946238547 ], [ 31.028398190517674, 70.341735661408421 ], [ 31.029425165232837, 70.34207210906203 ], [ 31.032621952272216, 70.342315126295787 ], [ 31.033620897659052, 70.342238913435537 ], [ 31.03553417503608, 70.341926582034191 ], [ 31.037270261117371, 70.341393590250149 ], [ 31.04136348784359, 70.341041400772511 ], [ 31.043465896349812, 70.341012242393731 ], [ 31.044695434584469, 70.340907534670649 ] ] ] } },
{ "type": "Feature", "properties": { "fid": 505138, "elvelengde_m": 36.71, "elvID": "238-3-2", "elvenavn": null, "regulert": null, "fid_2": 2169, "id": 2169, "left": 30.986919847, "top": 70.446110046000001, "right": 31.486919847, "bottom": 69.946110046000001, "row_index": 8, "col_index": 54, "tile_id": 2169 }, "geometry": { "type": "MultiLineString", "coordinates": [ [ [ 30.990279925192137, 70.339718562692013 ], [ 30.990269334692258, 70.339825737657691 ], [ 30.99051872131939, 70.340026031202598 ] ] ] } }
]
}
