{
"type": "FeatureCollection",
"name": "elvis_tile_id_472",
"crs": { "type": "name", "properties": { "name": "urn:ogc:def:crs:OGC:1.3:CRS84" } },
"xy_coordinate_resolution": 1e-15,
"features": [
{ "type": "Feature", "properties": { "fid": 1119417, "elvelengde_m": 740.68, "elvID": "017-15-81", "elvenavn": null, "regulert": null, "fid_2": 472, "id": 472, "left": 9.486919847, "top": 58.946110046000001, "right": 9.986919847, "bottom": 58.446110046000001, "row_index": 31, "col_index": 11, "tile_id": 472 }, "geometry": { "type": "MultiLineString", "coordinates": [ [ [ 9.529259011818363, 58.94548260527614 ], [ 9.528314238121007, 58.945230233439332 ], [ 9.526959789699839, 58.945141736930431 ], [ 9.525330587067391, 58.945426678263836 ], [ 9.524143571049482, 58.945081286016745 ], [ 9.522837049906483, 58.944871029459819 ], [ 9.521014403276901, 58.94501315426573 ], [ 9.519827894770474, 58.944694472358321 ], [ 9.517912675109361, 58.944450748922662 ], [ 9.517220302541354, 58.944633189824287 ] ] ] } },
{ "type": "Feature", "properties": { "fid": 1119426, "elvelengde_m": 968.72, "elvID": "017-9-1", "elvenavn": null, "regulert": null, "fid_2": 472, "id": 472, "left": 9.486919847, "top": 58.946110046000001, "right": 9.986919847, "bottom": 58.446110046000001, "row_index": 31, "col_index": 11, "tile_id": 472 }, "geometry": { "type": "MultiLineString", "coordinates": [ [ [ 9.569141587057866, 58.946110046 ], [ 9.568732981260453, 58.945916806585139 ], [ 9.568328682592927, 58.945631237054158 ], [ 9.568131907622941, 58.945290864546578 ], [ 9.568109194608727, 58.944967629059256 ], [ 9.568349610139478, 58.944786956161686 ], [ 9.568801010167409, 58.944766988859413 ], [ 9.56968914410065, 58.944879787050226 ] ] ] } },
{ "type": "Feature", "properties": { "fid": 1119430, "elvelengde_m": 239.76, "elvID": "017-9-3", "elvenavn": null, "regulert": null, "fid_2": 472, "id": 472, "left": 9.486919847, "top": 58.946110046000001, "right": 9.986919847, "bottom": 58.446110046000001, "row_index": 31, "col_index": 11, "tile_id": 472 }, "geometry": { "type": "MultiLineString", "coordinates": [ [ [ 9.551080849994348, 58.944246847369669 ], [ 9.553076653962895, 58.944213219440577 ], [ 9.553396471596058, 58.944312938484828 ], [ 9.554244254778496, 58.944075759276075 ], [ 9.554675586596229, 58.943885258331207 ], [ 9.554673683863612, 58.943759540867028 ] ] ] } },
{ "type": "Feature", "properties": { "fid": 1119431, "elvelengde_m": 225.14, "elvID": "017-9-4", "elvenavn": null, "regulert": null, "fid_2": 472, "id": 472, "left": 9.486919847, "top": 58.946110046000001, "right": 9.986919847, "bottom": 58.446110046000001, "row_index": 31, "col_index": 11, "tile_id": 472 }, "geometry": { "type": "MultiLineString", "coordinates": [ [ [ 9.550780261268669, 58.943744742362433 ], [ 9.553353997336304, 58.943828035922998 ], [ 9.554673683863612, 58.943759540867028 ] ] ] } },
{ "type": "Feature", "properties": { "fid": 1119446, "elvelengde_m": 1338.19, "elvID": "017-9-1", "elvenavn": null, "regulert": null, "fid_2": 472, "id": 472, "left": 9.486919847, "top": 58.946110046000001, "right": 9.986919847, "bottom": 58.446110046000001, "row_index": 31, "col_index": 11, "tile_id": 472 }, "geometry": { "type": "MultiLineString", "coordinates": [ [ [ 9.56968914410065, 58.944879787050226 ], [ 9.572501137634099, 58.945738593434513 ], [ 9.574452489341859, 58.946026210396127 ], [ 9.575129173200134, 58.945951435492482 ], [ 9.575404531223878, 58.945797508317476 ], [ 9.575642300238007, 58.945464167373686 ], [ 9.576002469827081, 58.945175209880986 ], [ 9.577548083612502, 58.944072559427205 ], [ 9.578523167829383, 58.943152283193818 ], [ 9.578851697027595, 58.943051971664175 ], [ 9.579546175570989, 58.9430219311824 ], [ 9.580903427935951, 58.943123580475763 ], [ 9.582090514785991, 58.943432620641197 ], [ 9.582442777921042, 58.943727389298203 ], [ 9.584411665549608, 58.944032781708437 ], [ 9.585513705499718, 58.944458993447846 ], [ 9.587304866149644, 58.944522623094748 ], [ 9.588176862496947, 58.944839355418623 ] ] ] } },
{ "type": "Feature", "properties": { "fid": 1119448, "elvelengde_m": 1267.21, "elvID": "017-9-3", "elvenavn": null, "regulert": null, "fid_2": 472, "id": 472, "left": 9.486919847, "top": 58.946110046000001, "right": 9.986919847, "bottom": 58.446110046000001, "row_index": 31, "col_index": 11, "tile_id": 472 }, "geometry": { "type": "MultiLineString", "coordinates": [ [ [ 9.554673683863612, 58.943759540867028 ], [ 9.554671781118799, 58.943633823401662 ], [ 9.556438682583773, 58.943293940814492 ], [ 9.55668015919732, 58.943185151393088 ], [ 9.556572550805312, 58.942970106592355 ], [ 9.555592836480692, 58.942561217876921 ], [ 9.55530956757546, 58.942239041529199 ], [ 9.55520119163574, 58.94198814370116 ], [ 9.555615687066554, 58.9418246492911 ], [ 9.556880065085155, 58.941567774428272 ], [ 9.557538515805605, 58.941457134919531 ], [ 9.558233451643735, 58.941445138560823 ], [ 9.559945771649764, 58.942021515179327 ], [ 9.560971941756023, 58.942079987866961 ], [ 9.561987625214433, 58.942551458600626 ], [ 9.564309975461518, 58.943250950535173 ], [ 9.565411613903988, 58.943668145007607 ], [ 9.56968914410065, 58.944879787050226 ] ] ] } },
{ "type": "Feature", "properties": { "fid": 1119451, "elvelengde_m": 324.81, "elvID": "017-14-1", "elvenavn": null, "regulert": null, "fid_2": 472, "id": 472, "left": 9.486919847, "top": 58.946110046000001, "right": 9.986919847, "bottom": 58.446110046000001, "row_index": 31, "col_index": 11, "tile_id": 472 }, "geometry": { "type": "MultiLineString", "coordinates": [ [ [ 9.512135081501089, 58.939219885922057 ], [ 9.511827363044221, 58.939562389537272 ], [ 9.511150433069114, 58.939610001377886 ], [ 9.510631166917728, 58.939746759437398 ], [ 9.511121058005454, 58.939969385805256 ], [ 9.510400158226338, 58.940573940058826 ], [ 9.509917463135913, 58.940836273423002 ], [ 9.509156436494518, 58.941072719336901 ] ] ] } },
{ "type": "Feature", "properties": { "fid": 1119453, "elvelengde_m": 847.89, "elvID": "017-14-1", "elvenavn": null, "regulert": null, "fid_2": 472, "id": 472, "left": 9.486919847, "top": 58.946110046000001, "right": 9.986919847, "bottom": 58.446110046000001, "row_index": 31, "col_index": 11, "tile_id": 472 }, "geometry": { "type": "MultiLineString", "coordinates": [ [ [ 9.501773847915139, 58.941218387204614 ], [ 9.496483590823718, 58.939487531984277 ], [ 9.495110474771487, 58.939447846966267 ], [ 9.493762868049087, 58.939991820839715 ], [ 9.493380625900485, 58.939984325817761 ], [ 9.49233169299152, 58.939548217917803 ], [ 9.492032082346629, 58.939235088220613 ], [ 9.49111394328788, 58.938819764035117 ], [ 9.491297820735767, 58.938550678448742 ], [ 9.491184970890242, 58.938449466845206 ], [ 9.49135108102425, 58.938131381209693 ], [ 9.491310343571932, 58.938008228311574 ] ] ] } },
{ "type": "Feature", "properties": { "fid": 1119458, "elvelengde_m": 640.83, "elvID": "017-10-1", "elvenavn": null, "regulert": null, "fid_2": 472, "id": 472, "left": 9.486919847, "top": 58.946110046000001, "right": 9.986919847, "bottom": 58.446110046000001, "row_index": 31, "col_index": 11, "tile_id": 472 }, "geometry": { "type": "MultiLineString", "coordinates": [ [ [ 9.582665830480599, 58.94045730011608 ], [ 9.584439963414997, 58.941589861398846 ], [ 9.586866178376372, 58.942234528345452 ], [ 9.587598308278931, 58.942365946966163 ], [ 9.58879323719697, 58.94240895650826 ], [ 9.589104438372829, 58.942569600163253 ], [ 9.588394933067431, 58.942804161440961 ], [ 9.58802414341036, 58.943052926628297 ], [ 9.587982969836618, 58.943520256844124 ], [ 9.58819851337933, 58.943643591851981 ], [ 9.588295172322162, 58.943880824520058 ] ] ] } },
{ "type": "Feature", "properties": { "fid": 1119469, "elvelengde_m": 710.73, "elvID": "017-12-1", "elvenavn": null, "regulert": null, "fid_2": 472, "id": 472, "left": 9.486919847, "top": 58.946110046000001, "right": 9.986919847, "bottom": 58.446110046000001, "row_index": 31, "col_index": 11, "tile_id": 472 }, "geometry": { "type": "MultiLineString", "coordinates": [ [ [ 9.540210245883625, 58.94101866735415 ], [ 9.54091410389576, 58.940938292908342 ], [ 9.543341380072851, 58.940323055102461 ], [ 9.543756382642174, 58.939090794248067 ], [ 9.543942451385062, 58.938757928197575 ], [ 9.544180465659238, 58.938433468648917 ], [ 9.544592899541183, 58.938144464098038 ], [ 9.545861547997017, 58.935956689475518 ] ] ] } },
{ "type": "Feature", "properties": { "fid": 1119472, "elvelengde_m": 401.38, "elvID": "017-10-1", "elvenavn": null, "regulert": null, "fid_2": 472, "id": 472, "left": 9.486919847, "top": 58.946110046000001, "right": 9.986919847, "bottom": 58.446110046000001, "row_index": 31, "col_index": 11, "tile_id": 472 }, "geometry": { "type": "MultiLineString", "coordinates": [ [ [ 9.575853723958735, 58.93624877579051 ], [ 9.577364314974368, 58.937229971654332 ], [ 9.579398929221938, 58.938361500054853 ], [ 9.580330248365524, 58.938994960720756 ] ] ] } },
{ "type": "Feature", "properties": { "fid": 1119485, "elvelengde_m": 742.54, "elvID": "017-13-1", "elvenavn": null, "regulert": null, "fid_2": 472, "id": 472, "left": 9.486919847, "top": 58.946110046000001, "right": 9.986919847, "bottom": 58.446110046000001, "row_index": 31, "col_index": 11, "tile_id": 472 }, "geometry": { "type": "MultiLineString", "coordinates": [ [ [ 9.526800918822705, 58.934202254693794 ], [ 9.528521879575024, 58.934780339769212 ], [ 9.530280029146217, 58.935024548207785 ], [ 9.531672760305083, 58.934597055435383 ], [ 9.532131514367572, 58.934564121494866 ], [ 9.533136514145223, 58.934292347761428 ], [ 9.533462449119195, 58.934397599591797 ], [ 9.533885052681214, 58.934312637901293 ], [ 9.534787410795884, 58.933710794776339 ], [ 9.534292796149908, 58.933478070082757 ], [ 9.534341230477859, 58.933201124068106 ], [ 9.534282387934098, 58.932678434211297 ], [ 9.534035728907881, 58.932474033924173 ], [ 9.533675902125044, 58.932378416827973 ], [ 9.533512833522833, 58.932250727192027 ] ] ] } },
{ "type": "Feature", "properties": { "fid": 1121623, "elvelengde_m": 262.4, "elvID": "017-21-1", "elvenavn": null, "regulert": null, "fid_2": 472, "id": 472, "left": 9.486919847, "top": 58.946110046000001, "right": 9.986919847, "bottom": 58.446110046000001, "row_index": 31, "col_index": 11, "tile_id": 472 }, "geometry": { "type": "MultiLineString", "coordinates": [ [ [ 9.494381388618553, 58.910958917942182 ], [ 9.493174457795709, 58.910568607758456 ], [ 9.492838450631771, 58.910583057412197 ], [ 9.492382521898053, 58.910813609689797 ], [ 9.492328096424149, 58.910886436898679 ], [ 9.492382190016624, 58.911030411349941 ], [ 9.492101977947874, 58.911204296762953 ], [ 9.491608229363278, 58.911269516587161 ], [ 9.491155031747599, 58.911549323032098 ] ] ] } },
{ "type": "Feature", "properties": { "fid": 1121674, "elvelengde_m": 151.28, "elvID": "017-22-1", "elvenavn": null, "regulert": null, "fid_2": 472, "id": 472, "left": 9.486919847, "top": 58.946110046000001, "right": 9.986919847, "bottom": 58.446110046000001, "row_index": 31, "col_index": 11, "tile_id": 472 }, "geometry": { "type": "MultiLineString", "coordinates": [ [ [ 9.517934101663474, 58.897157066196549 ], [ 9.516548484114583, 58.897351214881326 ], [ 9.51552479386441, 58.897651378669892 ] ] ] } },
{ "type": "Feature", "properties": { "fid": 1121873, "elvelengde_m": 810.34, "elvID": "017-15-66", "elvenavn": null, "regulert": null, "fid_2": 472, "id": 472, "left": 9.486919847, "top": 58.946110046000001, "right": 9.986919847, "bottom": 58.446110046000001, "row_index": 31, "col_index": 11, "tile_id": 472 }, "geometry": { "type": "MultiLineString", "coordinates": [ [ [ 9.504162789677999, 58.946110046 ], [ 9.503962834898251, 58.945969779556826 ], [ 9.503145771070026, 58.945954952638012 ], [ 9.502627668096043, 58.946110046 ] ] ] } },
{ "type": "Feature", "properties": { "fid": 1121960, "elvelengde_m": 379.22, "elvID": "017-12-1", "elvenavn": null, "regulert": null, "fid_2": 472, "id": 472, "left": 9.486919847, "top": 58.946110046000001, "right": 9.986919847, "bottom": 58.446110046000001, "row_index": 31, "col_index": 11, "tile_id": 472 }, "geometry": { "type": "MultiLineString", "coordinates": [ [ [ 9.545861547997017, 58.935956689475518 ], [ 9.545620239037659, 58.934965823455023 ], [ 9.548693105928244, 58.933162943489265 ] ] ] } },
{ "type": "Feature", "properties": { "fid": 1136806, "elvelengde_m": 470.06, "elvID": "017-14-1", "elvenavn": null, "regulert": null, "fid_2": 472, "id": 472, "left": 9.486919847, "top": 58.946110046000001, "right": 9.986919847, "bottom": 58.446110046000001, "row_index": 31, "col_index": 11, "tile_id": 472 }, "geometry": { "type": "MultiLineString", "coordinates": [ [ [ 9.509156436494518, 58.941072719336901 ], [ 9.508945439658344, 58.940924454938589 ], [ 9.507627791462614, 58.941490513405824 ], [ 9.507006433084859, 58.941426788843017 ], [ 9.505515401355945, 58.941654022623233 ], [ 9.50396457454355, 58.941586330417302 ], [ 9.501773847915139, 58.941218387204614 ] ] ] } },
{ "type": "Feature", "properties": { "fid": 1136807, "elvelengde_m": 241.54, "elvID": "017-10-1", "elvenavn": null, "regulert": null, "fid_2": 472, "id": 472, "left": 9.486919847, "top": 58.946110046000001, "right": 9.986919847, "bottom": 58.446110046000001, "row_index": 31, "col_index": 11, "tile_id": 472 }, "geometry": { "type": "MultiLineString", "coordinates": [ [ [ 9.580330248365524, 58.938994960720756 ], [ 9.58044780339052, 58.939123909037718 ], [ 9.580292814054358, 58.939470849399299 ], [ 9.581081370927681, 58.940038634410826 ], [ 9.582505893322891, 58.940344607087916 ], [ 9.582660043849012, 58.940385783011642 ], [ 9.582665830480599, 58.94045730011608 ] ] ] } },
{ "type": "Feature", "properties": { "fid": 1136871, "elvelengde_m": 23.62, "elvID": "017-21-1", "elvenavn": null, "regulert": null, "fid_2": 472, "id": 472, "left": 9.486919847, "top": 58.946110046000001, "right": 9.986919847, "bottom": 58.446110046000001, "row_index": 31, "col_index": 11, "tile_id": 472 }, "geometry": { "type": "MultiLineString", "coordinates": [ [ [ 9.494782655574781, 58.910942066433947 ], [ 9.494381388618553, 58.910958917942182 ] ] ] } },
{ "type": "Feature", "properties": { "fid": 1136873, "elvelengde_m": 44.71, "elvID": "017-22-1", "elvenavn": null, "regulert": null, "fid_2": 472, "id": 472, "left": 9.486919847, "top": 58.946110046000001, "right": 9.986919847, "bottom": 58.446110046000001, "row_index": 31, "col_index": 11, "tile_id": 472 }, "geometry": { "type": "MultiLineString", "coordinates": [ [ [ 9.518634047253576, 58.897326562890903 ], [ 9.517934101663474, 58.897157066196549 ] ] ] } },
{ "type": "Feature", "properties": { "fid": 1136929, "elvelengde_m": 1751.71, "elvID": "017-15-66", "elvenavn": null, "regulert": null, "fid_2": 472, "id": 472, "left": 9.486919847, "top": 58.946110046000001, "right": 9.986919847, "bottom": 58.446110046000001, "row_index": 31, "col_index": 11, "tile_id": 472 }, "geometry": { "type": "MultiLineString", "coordinates": [ [ [ 9.488278107864449, 58.946110046 ], [ 9.486919847, 58.945923533497627 ] ] ] } },
{ "type": "Feature", "properties": { "fid": 1138282, "elvelengde_m": 221.18, "elvID": "017-15-81", "elvenavn": null, "regulert": null, "fid_2": 472, "id": 472, "left": 9.486919847, "top": 58.946110046000001, "right": 9.986919847, "bottom": 58.446110046000001, "row_index": 31, "col_index": 11, "tile_id": 472 }, "geometry": { "type": "MultiLineString", "coordinates": [ [ [ 9.517220302541354, 58.944633189824287 ], [ 9.516641143104986, 58.944832451116817 ], [ 9.517082941416989, 58.945489702591459 ], [ 9.517702984312937, 58.945795883402305 ], [ 9.51797590480615, 58.946110046 ] ] ] } },
{ "type": "Feature", "properties": { "fid": 1141258, "elvelengde_m": 744.99, "elvID": "017-11-1", "elvenavn": null, "regulert": null, "fid_2": 472, "id": 472, "left": 9.486919847, "top": 58.946110046000001, "right": 9.986919847, "bottom": 58.446110046000001, "row_index": 31, "col_index": 11, "tile_id": 472 }, "geometry": { "type": "MultiLineString", "coordinates": [ [ [ 9.56298656215834, 58.937226113156676 ], [ 9.56346528860354, 58.936973775629845 ], [ 9.563844714783192, 58.936997773963292 ], [ 9.564063094276415, 58.936633126852129 ], [ 9.564059033091402, 58.936390592955185 ], [ 9.562942937995992, 58.936135036182471 ], [ 9.562383557929431, 58.935921925265632 ], [ 9.561505919683174, 58.935377794279376 ], [ 9.560957124699934, 58.934733584634735 ], [ 9.56030455231838, 58.934143674555401 ], [ 9.559040316657423, 58.933313949122066 ], [ 9.558421916909118, 58.93267003061851 ], [ 9.558200941258356, 58.932052774306911 ] ] ] } }
]
}
