{
"type": "FeatureCollection",
"name": "elvis_tile_id_1807",
"crs": { "type": "name", "properties": { "name": "urn:ogc:def:crs:OGC:1.3:CRS84" } },
"xy_coordinate_resolution": 1e-15,
"features": [
{ "type": "Feature", "properties": { "fid": 325567, "elvelengde_m": 1736.81, "elvID": "226-71-1", "elvenavn": null, "regulert": null, "fid_2": 1807, "id": 1807, "left": 26.486919847, "top": 71.446110046000001, "right": 26.986919847, "bottom": 70.946110046000001, "row_index": 6, "col_index": 45, "tile_id": 1807 }, "geometry": { "type": "MultiLineString", "coordinates": [ [ [ 26.654250710486128, 70.951664328146194 ], [ 26.656938825655704, 70.951803880055451 ], [ 26.658171841392914, 70.951958514188277 ], [ 26.660631523418175, 70.952590667030918 ], [ 26.6628144188047, 70.953392751508659 ], [ 26.664757098281409, 70.953781792554878 ], [ 26.666314819004835, 70.954223885145865 ], [ 26.669690779216292, 70.955951492044605 ], [ 26.670556866485086, 70.956697267714588 ], [ 26.670716013100694, 70.957029231600373 ], [ 26.670377621510383, 70.957566567071723 ], [ 26.670015054524271, 70.957906630266777 ], [ 26.669871803743099, 70.95826516366192 ], [ 26.670097670125518, 70.959538804340724 ], [ 26.670686684577465, 70.960463415141461 ], [ 26.670984121888917, 70.960732874887015 ], [ 26.670896429753359, 70.961046573871968 ], [ 26.670424057301439, 70.961359541725685 ], [ 26.668992267240291, 70.96158114924576 ], [ 26.665005746935101, 70.961807179122715 ], [ 26.663138485824, 70.9617769063466 ], [ 26.661358027892078, 70.961989025950473 ] ] ] } },
{ "type": "Feature", "properties": { "fid": 325568, "elvelengde_m": 391.68, "elvID": "226-70-1", "elvenavn": null, "regulert": null, "fid_2": 1807, "id": 1807, "left": 26.486919847, "top": 71.446110046000001, "right": 26.986919847, "bottom": 70.946110046000001, "row_index": 6, "col_index": 45, "tile_id": 1807 }, "geometry": { "type": "MultiLineString", "coordinates": [ [ [ 26.625575896699569, 70.950909344050615 ], [ 26.625293622298972, 70.951312175607598 ], [ 26.624405313411899, 70.951830511703662 ], [ 26.623846158863422, 70.952367404491582 ], [ 26.623429195558248, 70.952635504803396 ], [ 26.622545848547574, 70.952884819256127 ], [ 26.621929907297183, 70.953511164631976 ], [ 26.621786385720451, 70.95382469600635 ], [ 26.621482386712479, 70.954078234417111 ] ] ] } },
{ "type": "Feature", "properties": { "fid": 325569, "elvelengde_m": 580.19, "elvID": "226-68-1", "elvenavn": null, "regulert": null, "fid_2": 1807, "id": 1807, "left": 26.486919847, "top": 71.446110046000001, "right": 26.986919847, "bottom": 70.946110046000001, "row_index": 6, "col_index": 45, "tile_id": 1807 }, "geometry": { "type": "MultiLineString", "coordinates": [ [ [ 26.604777058490008, 70.95040883658433 ], [ 26.608148426180072, 70.950658137539577 ], [ 26.60888650871123, 70.950812109019452 ], [ 26.611286496604972, 70.951624238350604 ], [ 26.612801890086086, 70.952748119791863 ], [ 26.612987483254241, 70.953080312814464 ], [ 26.613005158371628, 70.953591405388011 ], [ 26.613467025742423, 70.954137936075909 ] ] ] } },
{ "type": "Feature", "properties": { "fid": 325570, "elvelengde_m": 713.74, "elvID": "226-69-1", "elvenavn": null, "regulert": null, "fid_2": 1807, "id": 1807, "left": 26.486919847, "top": 71.446110046000001, "right": 26.986919847, "bottom": 70.946110046000001, "row_index": 6, "col_index": 45, "tile_id": 1807 }, "geometry": { "type": "MultiLineString", "coordinates": [ [ [ 26.61569712381867, 70.947858586803193 ], [ 26.616595258466365, 70.948263852680981 ], [ 26.617218570949827, 70.948668606040954 ], [ 26.617351475040039, 70.948892947109812 ], [ 26.61707175872014, 70.949179298146973 ], [ 26.616655515729601, 70.94940267609276 ], [ 26.616651060946044, 70.949626894958755 ], [ 26.617328335252729, 70.950103509239597 ], [ 26.617397322156549, 70.950793999463571 ], [ 26.618373091144292, 70.951441517797491 ], [ 26.618555997844666, 70.951917247563486 ], [ 26.618565360014856, 70.952858704000192 ], [ 26.618424889124448, 70.95303769203322 ], [ 26.618437510651336, 70.953128307033168 ], [ 26.618472834732266, 70.953378530226516 ], [ 26.618720310566026, 70.95390503112408 ] ] ] } },
{ "type": "Feature", "properties": { "fid": 325571, "elvelengde_m": 315.6, "elvID": "226-67-1", "elvenavn": null, "regulert": null, "fid_2": 1807, "id": 1807, "left": 26.486919847, "top": 71.446110046000001, "right": 26.986919847, "bottom": 70.946110046000001, "row_index": 6, "col_index": 45, "tile_id": 1807 }, "geometry": { "type": "MultiLineString", "coordinates": [ [ [ 26.570336365262207, 70.94858389640639 ], [ 26.570543824391031, 70.949149276203215 ], [ 26.571297420320125, 70.949841525170811 ], [ 26.572029615908054, 70.950246607721496 ], [ 26.572731942839233, 70.950786263760776 ], [ 26.573883460362616, 70.951055566940099 ] ] ] } },
{ "type": "Feature", "properties": { "fid": 325572, "elvelengde_m": 497.58, "elvID": "226-67-20", "elvenavn": null, "regulert": null, "fid_2": 1807, "id": 1807, "left": 26.486919847, "top": 71.446110046000001, "right": 26.986919847, "bottom": 70.946110046000001, "row_index": 6, "col_index": 45, "tile_id": 1807 }, "geometry": { "type": "MultiLineString", "coordinates": [ [ [ 26.57317185900769, 70.946110046 ], [ 26.573484796147792, 70.946421250691074 ], [ 26.573451159990061, 70.946708161472642 ], [ 26.572261231210241, 70.947153757494334 ], [ 26.572006639597237, 70.947511775963733 ], [ 26.571857714481347, 70.948049565911134 ], [ 26.570336365262207, 70.94858389640639 ] ] ] } },
{ "type": "Feature", "properties": { "fid": 325574, "elvelengde_m": 681.96, "elvID": "226-67-1", "elvenavn": null, "regulert": null, "fid_2": 1807, "id": 1807, "left": 26.486919847, "top": 71.446110046000001, "right": 26.986919847, "bottom": 70.946110046000001, "row_index": 6, "col_index": 45, "tile_id": 1807 }, "geometry": { "type": "MultiLineString", "coordinates": [ [ [ 26.569440663007931, 70.946110046 ], [ 26.568629288703015, 70.946302470463309 ], [ 26.56848813573643, 70.946481440293184 ], [ 26.569248931350057, 70.946841884548888 ], [ 26.569728263666157, 70.947515471551966 ], [ 26.569794549143559, 70.948250891695963 ], [ 26.570336365262207, 70.94858389640639 ] ] ] } },
{ "type": "Feature", "properties": { "fid": 325582, "elvelengde_m": 1320.83, "elvID": "226-66-1", "elvenavn": null, "regulert": null, "fid_2": 1807, "id": 1807, "left": 26.486919847, "top": 71.446110046000001, "right": 26.986919847, "bottom": 70.946110046000001, "row_index": 6, "col_index": 45, "tile_id": 1807 }, "geometry": { "type": "MultiLineString", "coordinates": [ [ [ 26.552007146525671, 70.946110046 ], [ 26.552431635164634, 70.946488297397295 ], [ 26.552859993503073, 70.94698240632853 ], [ 26.551889994024901, 70.947383617407525 ], [ 26.551219169387817, 70.94747898835007 ] ] ] } },
{ "type": "Feature", "properties": { "fid": 629237, "elvelengde_m": 2158.47, "elvID": "227-1-1", "elvenavn": null, "regulert": null, "fid_2": 1807, "id": 1807, "left": 26.486919847, "top": 71.446110046000001, "right": 26.986919847, "bottom": 70.946110046000001, "row_index": 6, "col_index": 45, "tile_id": 1807 }, "geometry": { "type": "MultiLineString", "coordinates": [ [ [ 26.665940896143653, 70.946110046 ], [ 26.665790590054812, 70.946242956634592 ], [ 26.666498224334312, 70.946584883629839 ], [ 26.667182130735121, 70.946738537185325 ], [ 26.671072460824522, 70.947148950609105 ], [ 26.672166073109434, 70.9474109121238 ], [ 26.674239602958277, 70.948176712444862 ], [ 26.675677533778376, 70.949210308714441 ], [ 26.678154664183758, 70.950487892792324 ], [ 26.6792418827273, 70.951162272497143 ], [ 26.679593027646209, 70.951521543934007 ], [ 26.680048431965808, 70.952212725082177 ], [ 26.680892103663467, 70.952680401222821 ], [ 26.683350375322778, 70.95347364806257 ], [ 26.683893835020502, 70.953824288449198 ], [ 26.684104154766334, 70.954407412244706 ], [ 26.684374111224113, 70.954676968349887 ], [ 26.684384916849954, 70.955734918729931 ], [ 26.685257242895187, 70.956139956847309 ], [ 26.688297859136849, 70.956611302153206 ], [ 26.689666306802199, 70.956900505483716 ], [ 26.691715440157814, 70.957576419814274 ], [ 26.692886561809299, 70.958179135222665 ], [ 26.693239321345931, 70.9585301860198 ] ] ] } }
]
}
