{
"type": "FeatureCollection",
"name": "elvis_tile_id_812",
"crs": { "type": "name", "properties": { "name": "urn:ogc:def:crs:OGC:1.3:CRS84" } },
"xy_coordinate_resolution": 1e-15,
"features": [
{ "type": "Feature", "properties": { "fid": 199505, "elvelengde_m": 187.77, "elvID": "185-305-1", "elvenavn": "Nykvågvassdraget", "regulert": null, "fid_2": 812, "id": 812, "left": 13.986919847, "top": 68.946110046000001, "right": 14.486919847, "bottom": 68.446110046000001, "row_index": 11, "col_index": 20, "tile_id": 812 }, "geometry": { "type": "MultiLineString", "coordinates": [ [ [ 14.477906353273987, 68.776869552745239 ], [ 14.4777801075127, 68.776985757125146 ], [ 14.477280857477014, 68.777163594669176 ], [ 14.475867872051428, 68.777248922456124 ], [ 14.475543980315038, 68.777337609034419 ], [ 14.475536004874064, 68.777676244801668 ], [ 14.474911971019226, 68.777874497148701 ] ] ] } },
{ "type": "Feature", "properties": { "fid": 199543, "elvelengde_m": 633.27, "elvID": "185-305-6", "elvenavn": null, "regulert": null, "fid_2": 812, "id": 812, "left": 13.986919847, "top": 68.946110046000001, "right": 14.486919847, "bottom": 68.446110046000001, "row_index": 11, "col_index": 20, "tile_id": 812 }, "geometry": { "type": "MultiLineString", "coordinates": [ [ [ 14.486919847, 68.772747796740916 ], [ 14.48691171252219, 68.772798309060747 ], [ 14.48628620251856, 68.773092384582611 ], [ 14.486032517254316, 68.77336067868471 ], [ 14.485732849423444, 68.773476364172879 ], [ 14.484672678880447, 68.7743700219917 ], [ 14.484472610125067, 68.774459101591347 ], [ 14.481632506831492, 68.774190262228217 ], [ 14.481085521543376, 68.774296304514792 ], [ 14.480260851393446, 68.774634592471401 ], [ 14.47995862357865, 68.774857886028826 ] ] ] } },
{ "type": "Feature", "properties": { "fid": 199568, "elvelengde_m": 164.53, "elvID": "185-305-8", "elvenavn": null, "regulert": null, "fid_2": 812, "id": 812, "left": 13.986919847, "top": 68.946110046000001, "right": 14.486919847, "bottom": 68.446110046000001, "row_index": 11, "col_index": 20, "tile_id": 812 }, "geometry": { "type": "MultiLineString", "coordinates": [ [ [ 14.486504631769876, 68.76898535548483 ], [ 14.486919847, 68.769090563020299 ] ] ] } },
{ "type": "Feature", "properties": { "fid": 200746, "elvelengde_m": 365.28, "elvID": "185-305-7", "elvenavn": null, "regulert": null, "fid_2": 812, "id": 812, "left": 13.986919847, "top": 68.946110046000001, "right": 14.486919847, "bottom": 68.446110046000001, "row_index": 11, "col_index": 20, "tile_id": 812 }, "geometry": { "type": "MultiLineString", "coordinates": [ [ [ 14.486910308379331, 68.755667966725596 ], [ 14.486919847, 68.755673020966313 ] ] ] } },
{ "type": "Feature", "properties": { "fid": 201116, "elvelengde_m": 271.66, "elvID": "185-297-1", "elvenavn": null, "regulert": null, "fid_2": 812, "id": 812, "left": 13.986919847, "top": 68.946110046000001, "right": 14.486919847, "bottom": 68.446110046000001, "row_index": 11, "col_index": 20, "tile_id": 812 }, "geometry": { "type": "MultiLineString", "coordinates": [ [ [ 14.485661062475614, 68.72787627284643 ], [ 14.485990241248778, 68.728082837426982 ], [ 14.485852419575071, 68.728232915493123 ], [ 14.485926263605561, 68.728297625395527 ], [ 14.486873917275553, 68.728419157128428 ], [ 14.486919847, 68.728446659427263 ] ], [ [ 14.486919847, 68.728589997739206 ], [ 14.48680026245569, 68.728711406515302 ], [ 14.486919847, 68.728989436525339 ] ], [ [ 14.486919847, 68.729059039352407 ], [ 14.486894168634908, 68.729128560968576 ], [ 14.485768440293985, 68.729433941820474 ], [ 14.485713798018685, 68.729543464312002 ], [ 14.485762997812119, 68.729755994946643 ] ] ] } },
{ "type": "Feature", "properties": { "fid": 202839, "elvelengde_m": 406.28, "elvID": "185-296-1", "elvenavn": null, "regulert": null, "fid_2": 812, "id": 812, "left": 13.986919847, "top": 68.946110046000001, "right": 14.486919847, "bottom": 68.446110046000001, "row_index": 11, "col_index": 20, "tile_id": 812 }, "geometry": { "type": "MultiLineString", "coordinates": [ [ [ 14.44939661045626, 68.717895780124593 ], [ 14.449237912096441, 68.718064056698523 ], [ 14.449177416593807, 68.718334719181499 ], [ 14.448665829398008, 68.71856615400975 ], [ 14.448636290424847, 68.718652607217493 ], [ 14.448703893031553, 68.718894537994885 ], [ 14.4491168906375, 68.719077053463963 ], [ 14.449130146192903, 68.719270375357169 ], [ 14.449458839072109, 68.719527953912461 ], [ 14.449500545610764, 68.719869354326079 ], [ 14.449434956257861, 68.72032655236454 ], [ 14.449041737387775, 68.720812550562854 ], [ 14.448625306447086, 68.721107884198531 ], [ 14.448553135386062, 68.721300748444889 ] ] ] } },
{ "type": "Feature", "properties": { "fid": 202880, "elvelengde_m": 345.99, "elvID": "185-296-1", "elvenavn": null, "regulert": null, "fid_2": 812, "id": 812, "left": 13.986919847, "top": 68.946110046000001, "right": 14.486919847, "bottom": 68.446110046000001, "row_index": 11, "col_index": 20, "tile_id": 812 }, "geometry": { "type": "MultiLineString", "coordinates": [ [ [ 14.457716960870755, 68.714778702740716 ], [ 14.456065362879906, 68.715353776590206 ], [ 14.45543311015803, 68.715386452780976 ], [ 14.455191135864201, 68.715469712108941 ], [ 14.45384711221895, 68.71540457132393 ], [ 14.453494235158614, 68.715601195336262 ], [ 14.45307887613332, 68.715647388466849 ], [ 14.452499265677728, 68.715858345233258 ], [ 14.450717204417794, 68.716047913349058 ] ] ] } },
{ "type": "Feature", "properties": { "fid": 202916, "elvelengde_m": 52.0, "elvID": "185-291-7", "elvenavn": null, "regulert": null, "fid_2": 812, "id": 812, "left": 13.986919847, "top": 68.946110046000001, "right": 14.486919847, "bottom": 68.446110046000001, "row_index": 11, "col_index": 20, "tile_id": 812 }, "geometry": { "type": "MultiLineString", "coordinates": [ [ [ 14.486706485522125, 68.712431298207292 ], [ 14.485444978443972, 68.71245266936694 ] ] ] } },
{ "type": "Feature", "properties": { "fid": 202995, "elvelengde_m": 570.4, "elvID": "185-291-7", "elvenavn": null, "regulert": null, "fid_2": 812, "id": 812, "left": 13.986919847, "top": 68.946110046000001, "right": 14.486919847, "bottom": 68.446110046000001, "row_index": 11, "col_index": 20, "tile_id": 812 }, "geometry": { "type": "MultiLineString", "coordinates": [ [ [ 14.485225035637235, 68.712357289693642 ], [ 14.485113679962749, 68.712112639342664 ], [ 14.485130027336725, 68.711917348170189 ], [ 14.485801978941724, 68.711515435700164 ], [ 14.485894374213196, 68.711415086275863 ], [ 14.485838893671763, 68.711273389716553 ], [ 14.485965939891146, 68.711136552750716 ], [ 14.486285494571257, 68.710999672428869 ], [ 14.486009056633401, 68.710839367317448 ], [ 14.486071240974185, 68.710625201375635 ], [ 14.48563274013482, 68.710397137156008 ], [ 14.485622425474904, 68.710105439710375 ], [ 14.484967832052066, 68.709830885971115 ], [ 14.484551285414737, 68.709743516838344 ], [ 14.484228300346743, 68.709505396898692 ], [ 14.483839838704007, 68.709014514476209 ], [ 14.484089560444978, 68.708833836772143 ], [ 14.484139645463381, 68.70867398564333 ], [ 14.48393025150062, 68.708476301996683 ], [ 14.482570905270585, 68.707968550660553 ] ] ] } },
{ "type": "Feature", "properties": { "fid": 202996, "elvelengde_m": 653.01, "elvID": "185-291-8", "elvenavn": null, "regulert": null, "fid_2": 812, "id": 812, "left": 13.986919847, "top": 68.946110046000001, "right": 14.486919847, "bottom": 68.446110046000001, "row_index": 11, "col_index": 20, "tile_id": 812 }, "geometry": { "type": "MultiLineString", "coordinates": [ [ [ 14.474826256085313, 68.712239145100497 ], [ 14.475662568516206, 68.712203979775609 ], [ 14.475940402480274, 68.712018199086117 ], [ 14.475972145570541, 68.711906545765942 ], [ 14.476465395541853, 68.711701699764888 ], [ 14.476485999755916, 68.71153862049259 ], [ 14.4767937731181, 68.71139113826726 ], [ 14.476821804964299, 68.711279652694287 ], [ 14.476337858606257, 68.711003799183459 ], [ 14.476347461234267, 68.710867861424163 ], [ 14.476752058914636, 68.710474305117387 ], [ 14.476918863802178, 68.710138310316324 ], [ 14.477242390418651, 68.710012759955447 ], [ 14.477407515007888, 68.709843131307224 ], [ 14.47792806140564, 68.709713883004824 ], [ 14.479225957473803, 68.70964971957153 ], [ 14.480679243853455, 68.709344761732609 ], [ 14.482005191766053, 68.708452391960748 ], [ 14.482068661909457, 68.708322538264724 ], [ 14.482562315639646, 68.70806242801504 ], [ 14.482570905270585, 68.707968550660553 ] ] ] } },
{ "type": "Feature", "properties": { "fid": 203024, "elvelengde_m": 743.14, "elvID": "185-295-1", "elvenavn": null, "regulert": null, "fid_2": 812, "id": 812, "left": 13.986919847, "top": 68.946110046000001, "right": 14.486919847, "bottom": 68.446110046000001, "row_index": 11, "col_index": 20, "tile_id": 812 }, "geometry": { "type": "MultiLineString", "coordinates": [ [ [ 14.441874982337268, 68.70864971415898 ], [ 14.439525097089806, 68.708011255028964 ], [ 14.438604539930015, 68.707376166348993 ], [ 14.437593938222202, 68.707026611284959 ], [ 14.43516259876978, 68.705892916960096 ], [ 14.434753205184483, 68.70578688275441 ], [ 14.434120838878837, 68.705794455119758 ], [ 14.433496578136984, 68.706037126694127 ], [ 14.432916136563348, 68.706108278451012 ], [ 14.432046800047441, 68.706390752112938 ], [ 14.43086798292536, 68.706267055978685 ], [ 14.430323172328233, 68.706420922182872 ], [ 14.429487177056014, 68.706507166136717 ], [ 14.42822884358346, 68.706405426270436 ] ] ] } },
{ "type": "Feature", "properties": { "fid": 203035, "elvelengde_m": 473.51, "elvID": "185-291-7", "elvenavn": null, "regulert": null, "fid_2": 812, "id": 812, "left": 13.986919847, "top": 68.946110046000001, "right": 14.486919847, "bottom": 68.446110046000001, "row_index": 11, "col_index": 20, "tile_id": 812 }, "geometry": { "type": "MultiLineString", "coordinates": [ [ [ 14.482570905270585, 68.707968550660553 ], [ 14.482153172206433, 68.707731930561678 ], [ 14.482163844530044, 68.707484333875882 ], [ 14.482915498039997, 68.707463044786991 ], [ 14.483557775389546, 68.707262669803484 ], [ 14.483941154322537, 68.707234690946777 ], [ 14.485081293305649, 68.706770440527606 ], [ 14.485807130953924, 68.706754620757224 ], [ 14.486467832624571, 68.706469894181168 ], [ 14.486360140213577, 68.706259786433918 ], [ 14.485861160598667, 68.706036382012272 ], [ 14.485798189932217, 68.705931255363126 ], [ 14.4863950412335, 68.705353054407411 ], [ 14.486919847, 68.705146102768879 ] ] ] } },
{ "type": "Feature", "properties": { "fid": 203046, "elvelengde_m": 62.81, "elvID": "185-291-7", "elvenavn": null, "regulert": null, "fid_2": 812, "id": 812, "left": 13.986919847, "top": 68.946110046000001, "right": 14.486919847, "bottom": 68.446110046000001, "row_index": 11, "col_index": 20, "tile_id": 812 }, "geometry": { "type": "MultiLineString", "coordinates": [ [ [ 14.486919847, 68.704969989828669 ], [ 14.486690881906869, 68.704859052470866 ], [ 14.486340491264183, 68.704838526577063 ], [ 14.486044513333226, 68.704608474090534 ] ] ] } },
{ "type": "Feature", "properties": { "fid": 203062, "elvelengde_m": 105.57, "elvID": "185-291-12", "elvenavn": null, "regulert": null, "fid_2": 812, "id": 812, "left": 13.986919847, "top": 68.946110046000001, "right": 14.486919847, "bottom": 68.446110046000001, "row_index": 11, "col_index": 20, "tile_id": 812 }, "geometry": { "type": "MultiLineString", "coordinates": [ [ [ 14.485263432585912, 68.703769038489241 ], [ 14.485602069035485, 68.704438963791276 ], [ 14.485853163635481, 68.704592645633724 ], [ 14.486044513333226, 68.704608474090534 ] ] ] } },
{ "type": "Feature", "properties": { "fid": 203132, "elvelengde_m": 728.35, "elvID": "185-291-7", "elvenavn": null, "regulert": null, "fid_2": 812, "id": 812, "left": 13.986919847, "top": 68.946110046000001, "right": 14.486919847, "bottom": 68.446110046000001, "row_index": 11, "col_index": 20, "tile_id": 812 }, "geometry": { "type": "MultiLineString", "coordinates": [ [ [ 14.486044513333226, 68.704608474090534 ], [ 14.486919847, 68.704128907447426 ] ] ] } },
{ "type": "Feature", "properties": { "fid": 203136, "elvelengde_m": 1121.45, "elvID": "185-294-1", "elvenavn": null, "regulert": null, "fid_2": 812, "id": 812, "left": 13.986919847, "top": 68.946110046000001, "right": 14.486919847, "bottom": 68.446110046000001, "row_index": 11, "col_index": 20, "tile_id": 812 }, "geometry": { "type": "MultiLineString", "coordinates": [ [ [ 14.462692269874371, 68.708063184919141 ], [ 14.462832615883062, 68.707850441034864 ], [ 14.462815665359503, 68.707672714324033 ], [ 14.46299493610301, 68.707565208797703 ], [ 14.463023665273255, 68.707386281760009 ], [ 14.46321263651105, 68.707265174145945 ], [ 14.463102049381344, 68.707061230369902 ], [ 14.463391069201998, 68.706884025970254 ], [ 14.463146469594632, 68.706526917594005 ], [ 14.462596520875504, 68.706257002952498 ], [ 14.462444497848127, 68.706032209019824 ], [ 14.462618507434827, 68.705958320375629 ], [ 14.462830924302196, 68.705651811830805 ], [ 14.462811013527512, 68.70548438984811 ], [ 14.463027088870136, 68.705271796547919 ], [ 14.462987029495963, 68.704998119425539 ], [ 14.463664891463235, 68.704368145228301 ], [ 14.463696129110399, 68.704197387642196 ], [ 14.463880469275002, 68.704124068615087 ], [ 14.463875053461356, 68.70396924907412 ], [ 14.464036507326291, 68.703738992133452 ], [ 14.464001599374397, 68.703095725150177 ], [ 14.463762804594532, 68.702919627265231 ], [ 14.46370527665735, 68.702427772360039 ], [ 14.464070527367104, 68.702103898728964 ], [ 14.464056566028312, 68.701842412414408 ], [ 14.464201890076213, 68.701718295424584 ], [ 14.464198192085414, 68.701625545763761 ], [ 14.464033618334918, 68.70128689857799 ], [ 14.463352121888697, 68.700736561359292 ], [ 14.463380439722455, 68.700564000730367 ], [ 14.46330708440702, 68.700454617012866 ], [ 14.463368847475786, 68.699813629446865 ], [ 14.463608097376929, 68.699640213163832 ], [ 14.463678527968002, 68.699295583973139 ], [ 14.463852290511982, 68.699044468760235 ], [ 14.464565097669787, 68.698625639033494 ] ] ] } },
{ "type": "Feature", "properties": { "fid": 203142, "elvelengde_m": 259.23, "elvID": "185-291-16", "elvenavn": null, "regulert": null, "fid_2": 812, "id": 812, "left": 13.986919847, "top": 68.946110046000001, "right": 14.486919847, "bottom": 68.446110046000001, "row_index": 11, "col_index": 20, "tile_id": 812 }, "geometry": { "type": "MultiLineString", "coordinates": [ [ [ 14.478479016810281, 68.700180723870957 ], [ 14.478495288139746, 68.6996946628947 ], [ 14.478368537857813, 68.699523594995668 ], [ 14.478480342652071, 68.699404743879256 ], [ 14.478469469661881, 68.699225781974476 ], [ 14.48079683657653, 68.698185920155822 ] ] ] } },
{ "type": "Feature", "properties": { "fid": 204294, "elvelengde_m": 404.55, "elvID": "185-291-1", "elvenavn": null, "regulert": null, "fid_2": 812, "id": 812, "left": 13.986919847, "top": 68.946110046000001, "right": 14.486919847, "bottom": 68.446110046000001, "row_index": 11, "col_index": 20, "tile_id": 812 }, "geometry": { "type": "MultiLineString", "coordinates": [ [ [ 14.470189177624993, 68.689631176333322 ], [ 14.469887917408675, 68.689493814764347 ], [ 14.468094880774725, 68.689285666411379 ], [ 14.46792570588674, 68.689183247811158 ], [ 14.467884708064544, 68.688947686126795 ], [ 14.4673221557243, 68.688529041847644 ], [ 14.466731957179913, 68.688340180434579 ], [ 14.466094742031645, 68.687869635749252 ], [ 14.465205029469264, 68.687690406026547 ], [ 14.464852640901256, 68.687363451960678 ], [ 14.464811060850442, 68.687153717882822 ], [ 14.464627165356314, 68.68700837807765 ] ] ] } },
{ "type": "Feature", "properties": { "fid": 204325, "elvelengde_m": 99.53, "elvID": "185-290-1", "elvenavn": "elv fra Saltvatnet", "regulert": null, "fid_2": 812, "id": 812, "left": 13.986919847, "top": 68.946110046000001, "right": 14.486919847, "bottom": 68.446110046000001, "row_index": 11, "col_index": 20, "tile_id": 812 }, "geometry": { "type": "MultiLineString", "coordinates": [ [ [ 14.470593973532186, 68.683174504183256 ], [ 14.470343821873303, 68.683068425130472 ], [ 14.470357153740423, 68.682921736242562 ], [ 14.470258374309759, 68.682877299869077 ], [ 14.468778369444376, 68.682827003482842 ] ] ] } },
{ "type": "Feature", "properties": { "fid": 204345, "elvelengde_m": 204.86, "elvID": "185-292-2", "elvenavn": null, "regulert": null, "fid_2": 812, "id": 812, "left": 13.986919847, "top": 68.946110046000001, "right": 14.486919847, "bottom": 68.446110046000001, "row_index": 11, "col_index": 20, "tile_id": 812 }, "geometry": { "type": "MultiLineString", "coordinates": [ [ [ 14.445185329952251, 68.682026343745918 ], [ 14.444590405491329, 68.681793978037831 ], [ 14.444486296344602, 68.681599100536019 ], [ 14.444518855788344, 68.681498845591534 ], [ 14.444120871592098, 68.681455742095437 ], [ 14.443867106184637, 68.681223150997994 ], [ 14.443408758069122, 68.681129800723369 ], [ 14.442877451183882, 68.68113567380891 ], [ 14.442705880886376, 68.681057347830034 ], [ 14.442739021409585, 68.68093404504684 ], [ 14.442326848168364, 68.680996006904365 ] ] ] } },
{ "type": "Feature", "properties": { "fid": 204361, "elvelengde_m": 173.24, "elvID": "185-292-1", "elvenavn": null, "regulert": null, "fid_2": 812, "id": 812, "left": 13.986919847, "top": 68.946110046000001, "right": 14.486919847, "bottom": 68.446110046000001, "row_index": 11, "col_index": 20, "tile_id": 812 }, "geometry": { "type": "MultiLineString", "coordinates": [ [ [ 14.44337911953464, 68.68041873941398 ], [ 14.443250451661559, 68.680220998933194 ], [ 14.442585043200463, 68.67982291840795 ], [ 14.442603282538652, 68.679506196987788 ], [ 14.442243300107098, 68.679274867348241 ], [ 14.442365374974207, 68.678984857144684 ] ] ] } },
{ "type": "Feature", "properties": { "fid": 204368, "elvelengde_m": 547.36, "elvID": "185-292-1", "elvenavn": null, "regulert": null, "fid_2": 812, "id": 812, "left": 13.986919847, "top": 68.946110046000001, "right": 14.486919847, "bottom": 68.446110046000001, "row_index": 11, "col_index": 20, "tile_id": 812 }, "geometry": { "type": "MultiLineString", "coordinates": [ [ [ 14.430947609726426, 68.67820955325432 ], [ 14.431137113108804, 68.678374950215726 ], [ 14.431576237356962, 68.678522352001394 ], [ 14.431802240003632, 68.678842405335416 ], [ 14.431813422620159, 68.678994107263279 ], [ 14.431612579304387, 68.679284562854079 ], [ 14.43246098320351, 68.679368313605437 ], [ 14.432891546622136, 68.679708783798603 ], [ 14.434228508990348, 68.679868695904432 ], [ 14.435015170684201, 68.68009537082709 ], [ 14.435096144496883, 68.680275647491285 ], [ 14.435277465233289, 68.68036674972312 ], [ 14.435907924187537, 68.680484554008061 ], [ 14.438568506650682, 68.680615300320625 ], [ 14.439821924542988, 68.680906554746244 ] ] ] } },
{ "type": "Feature", "properties": { "fid": 204387, "elvelengde_m": 599.8, "elvID": "185-290-1", "elvenavn": "elv fra Saltvatnet", "regulert": null, "fid_2": 812, "id": 812, "left": 13.986919847, "top": 68.946110046000001, "right": 14.486919847, "bottom": 68.446110046000001, "row_index": 11, "col_index": 20, "tile_id": 812 }, "geometry": { "type": "MultiLineString", "coordinates": [ [ [ 14.486919847, 68.676865018579463 ], [ 14.485421077165356, 68.676918684717478 ], [ 14.484207202232309, 68.676799196140834 ] ] ] } },
{ "type": "Feature", "properties": { "fid": 204427, "elvelengde_m": 754.51, "elvID": "185-293-1", "elvenavn": null, "regulert": null, "fid_2": 812, "id": 812, "left": 13.986919847, "top": 68.946110046000001, "right": 14.486919847, "bottom": 68.446110046000001, "row_index": 11, "col_index": 20, "tile_id": 812 }, "geometry": { "type": "MultiLineString", "coordinates": [ [ [ 14.430591804448072, 68.676434213371223 ], [ 14.430573713831899, 68.676312264819472 ], [ 14.430711076010148, 68.676143484146479 ], [ 14.430547982304688, 68.67597727870762 ], [ 14.43067180559974, 68.675662528137423 ], [ 14.430674229674754, 68.675509078107339 ], [ 14.430570749955361, 68.675363163882466 ], [ 14.43064106767441, 68.674904281854737 ], [ 14.430041439920688, 68.674531216153184 ], [ 14.429850528160694, 68.674296931707488 ], [ 14.429963228632102, 68.67415775553458 ], [ 14.429908363535477, 68.673806168104434 ], [ 14.429299004206678, 68.673439524390758 ], [ 14.427585901763852, 68.672993265698395 ], [ 14.426025333817652, 68.672298888990667 ], [ 14.424299086976143, 68.671928967103398 ], [ 14.422691028643071, 68.670895102456697 ] ] ] } },
{ "type": "Feature", "properties": { "fid": 204428, "elvelengde_m": 224.7, "elvID": "185-293-2", "elvenavn": null, "regulert": null, "fid_2": 812, "id": 812, "left": 13.986919847, "top": 68.946110046000001, "right": 14.486919847, "bottom": 68.446110046000001, "row_index": 11, "col_index": 20, "tile_id": 812 }, "geometry": { "type": "MultiLineString", "coordinates": [ [ [ 14.418652093095742, 68.672271258918158 ], [ 14.422691028643071, 68.670895102456697 ] ] ] } },
{ "type": "Feature", "properties": { "fid": 204463, "elvelengde_m": 434.28, "elvID": "185-293-3", "elvenavn": null, "regulert": null, "fid_2": 812, "id": 812, "left": 13.986919847, "top": 68.946110046000001, "right": 14.486919847, "bottom": 68.446110046000001, "row_index": 11, "col_index": 20, "tile_id": 812 }, "geometry": { "type": "MultiLineString", "coordinates": [ [ [ 14.429358048884705, 68.671074618646273 ], [ 14.426572329598484, 68.669507911725432 ], [ 14.425689698942229, 68.66891063221091 ], [ 14.425518763049695, 68.668371825423279 ], [ 14.425529660108614, 68.668187102474946 ], [ 14.425741417251176, 68.667921714214017 ], [ 14.424977071410046, 68.667728793451147 ] ] ] } },
{ "type": "Feature", "properties": { "fid": 204464, "elvelengde_m": 402.51, "elvID": "185-293-1", "elvenavn": null, "regulert": null, "fid_2": 812, "id": 812, "left": 13.986919847, "top": 68.946110046000001, "right": 14.486919847, "bottom": 68.446110046000001, "row_index": 11, "col_index": 20, "tile_id": 812 }, "geometry": { "type": "MultiLineString", "coordinates": [ [ [ 14.422691028643071, 68.670895102456697 ], [ 14.422155198969925, 68.670503032372466 ], [ 14.422128637514875, 68.668945216952665 ], [ 14.422450684865028, 68.66870352916041 ], [ 14.424977071410046, 68.667728793451147 ] ] ] } },
{ "type": "Feature", "properties": { "fid": 204483, "elvelengde_m": 201.1, "elvID": "185-289-1", "elvenavn": null, "regulert": null, "fid_2": 812, "id": 812, "left": 13.986919847, "top": 68.946110046000001, "right": 14.486919847, "bottom": 68.446110046000001, "row_index": 11, "col_index": 20, "tile_id": 812 }, "geometry": { "type": "MultiLineString", "coordinates": [ [ [ 14.470458592334616, 68.66709261790011 ], [ 14.465812903327377, 68.666505506028344 ] ] ] } },
{ "type": "Feature", "properties": { "fid": 204500, "elvelengde_m": 682.62, "elvID": "185-289-1", "elvenavn": null, "regulert": null, "fid_2": 812, "id": 812, "left": 13.986919847, "top": 68.946110046000001, "right": 14.486919847, "bottom": 68.446110046000001, "row_index": 11, "col_index": 20, "tile_id": 812 }, "geometry": { "type": "MultiLineString", "coordinates": [ [ [ 14.486919847, 68.665233381713165 ], [ 14.484115406903619, 68.665555277691624 ], [ 14.482688873327771, 68.66645874419514 ], [ 14.479151346271513, 68.666911654409304 ], [ 14.477745223531793, 68.667371183359634 ], [ 14.477289594420952, 68.66764242797926 ], [ 14.476712027261049, 68.667723601985386 ], [ 14.47611871095909, 68.667677547408644 ] ] ] } },
{ "type": "Feature", "properties": { "fid": 204502, "elvelengde_m": 405.3, "elvID": "185-293-1", "elvenavn": null, "regulert": null, "fid_2": 812, "id": 812, "left": 13.986919847, "top": 68.946110046000001, "right": 14.486919847, "bottom": 68.446110046000001, "row_index": 11, "col_index": 20, "tile_id": 812 }, "geometry": { "type": "MultiLineString", "coordinates": [ [ [ 14.424977071410046, 68.667728793451147 ], [ 14.426330786369981, 68.667127723922079 ], [ 14.426286873280931, 68.666995731479531 ], [ 14.425787563810637, 68.666650345442463 ], [ 14.425810137364094, 68.666548086639864 ], [ 14.426187944296592, 68.666328734659928 ], [ 14.425988502644927, 68.665816469060374 ], [ 14.425352747762847, 68.665491156740728 ], [ 14.424144092916405, 68.665281472599162 ], [ 14.423415556965633, 68.6648209436825 ] ] ] } },
{ "type": "Feature", "properties": { "fid": 204571, "elvelengde_m": 1196.05, "elvID": "185-289-3", "elvenavn": null, "regulert": null, "fid_2": 812, "id": 812, "left": 13.986919847, "top": 68.946110046000001, "right": 14.486919847, "bottom": 68.446110046000001, "row_index": 11, "col_index": 20, "tile_id": 812 }, "geometry": { "type": "MultiLineString", "coordinates": [ [ [ 14.480853973122775, 68.656006075138819 ], [ 14.481389703820481, 68.65627212406973 ], [ 14.482038840180135, 68.65642569061103 ], [ 14.484137915639613, 68.656610596988884 ], [ 14.484826995486104, 68.656773602386082 ], [ 14.485246009889799, 68.657053722663065 ], [ 14.486505965087309, 68.65765156746393 ], [ 14.486919847, 68.657784861983714 ] ] ] } },
{ "type": "Feature", "properties": { "fid": 204580, "elvelengde_m": 1263.75, "elvID": "185-288-1", "elvenavn": null, "regulert": null, "fid_2": 812, "id": 812, "left": 13.986919847, "top": 68.946110046000001, "right": 14.486919847, "bottom": 68.446110046000001, "row_index": 11, "col_index": 20, "tile_id": 812 }, "geometry": { "type": "MultiLineString", "coordinates": [ [ [ 14.457678760254915, 68.65686286058525 ], [ 14.457255850733951, 68.656981505831041 ], [ 14.456982166738618, 68.657160093825894 ], [ 14.456953132352426, 68.657555529325876 ], [ 14.454918014378302, 68.658360120704899 ], [ 14.453179039461414, 68.658364902653531 ], [ 14.451651742067995, 68.658050881474665 ], [ 14.448446837730353, 68.657552804165206 ], [ 14.445077637050472, 68.657371535916269 ], [ 14.443521466566313, 68.657136810444328 ], [ 14.442772405195734, 68.656753788831381 ], [ 14.441946865379975, 68.656704244812474 ], [ 14.441564988111407, 68.656585937861308 ], [ 14.441311948336992, 68.656445185590442 ], [ 14.441432091795722, 68.656366387430893 ], [ 14.441221428251426, 68.656234475042496 ], [ 14.441339505655197, 68.65599162843337 ], [ 14.441100602617297, 68.655698988947123 ], [ 14.440131717791713, 68.655505637915823 ], [ 14.438945518782882, 68.655034598746255 ], [ 14.438453851609831, 68.655045341448258 ], [ 14.437711476348754, 68.655432301932478 ], [ 14.436022882609659, 68.655879780914006 ], [ 14.435261467112541, 68.655808085589641 ], [ 14.435169392631529, 68.655759076305941 ], [ 14.435170424690011, 68.655659524584564 ], [ 14.434907450856864, 68.65558276752374 ] ] ] } },
{ "type": "Feature", "properties": { "fid": 204594, "elvelengde_m": 587.89, "elvID": "185-287-1", "elvenavn": null, "regulert": null, "fid_2": 812, "id": 812, "left": 13.986919847, "top": 68.946110046000001, "right": 14.486919847, "bottom": 68.446110046000001, "row_index": 11, "col_index": 20, "tile_id": 812 }, "geometry": { "type": "MultiLineString", "coordinates": [ [ [ 14.450343521166738, 68.655562956062923 ], [ 14.448692123149268, 68.65522904079441 ], [ 14.447348307773652, 68.655202853355306 ], [ 14.446479252439197, 68.655043140243478 ], [ 14.444782873052024, 68.654610829263802 ], [ 14.443761261856029, 68.654082605268471 ], [ 14.442368674285573, 68.654060522390964 ], [ 14.441862905224882, 68.653798214186551 ], [ 14.441130460800665, 68.653741619043203 ], [ 14.440690648203006, 68.653145522576764 ], [ 14.439142651496011, 68.653030518013978 ] ] ] } },
{ "type": "Feature", "properties": { "fid": 204613, "elvelengde_m": 748.0, "elvID": "185-284-2", "elvenavn": null, "regulert": null, "fid_2": 812, "id": 812, "left": 13.986919847, "top": 68.946110046000001, "right": 14.486919847, "bottom": 68.446110046000001, "row_index": 11, "col_index": 20, "tile_id": 812 }, "geometry": { "type": "MultiLineString", "coordinates": [ [ [ 14.486919847, 68.652959137011052 ], [ 14.486709976516172, 68.652486402827151 ], [ 14.486429718074902, 68.652224410775361 ], [ 14.486178390419321, 68.652127845852092 ], [ 14.48601293369553, 68.651623517879457 ], [ 14.485474043030058, 68.651379626840054 ], [ 14.485046302341924, 68.651290965758122 ], [ 14.484759416660463, 68.651103537640623 ], [ 14.484310953560547, 68.651017233026806 ], [ 14.483985129971675, 68.650789504005743 ], [ 14.484140279276783, 68.650465214760004 ], [ 14.484146055667066, 68.650246301875953 ], [ 14.48435597177245, 68.650023842105043 ], [ 14.484579748141508, 68.649496527964644 ], [ 14.485009550614041, 68.6492130774988 ], [ 14.485943445283192, 68.648954891621841 ], [ 14.486775980573224, 68.648856570527329 ], [ 14.486919847, 68.648763393452484 ] ] ] } },
{ "type": "Feature", "properties": { "fid": 204616, "elvelengde_m": 1296.8, "elvID": "185-286-1", "elvenavn": null, "regulert": null, "fid_2": 812, "id": 812, "left": 13.986919847, "top": 68.946110046000001, "right": 14.486919847, "bottom": 68.446110046000001, "row_index": 11, "col_index": 20, "tile_id": 812 }, "geometry": { "type": "MultiLineString", "coordinates": [ [ [ 14.462905955387667, 68.654710168968123 ], [ 14.461868576390938, 68.654574664286059 ], [ 14.458569582498622, 68.654670758234516 ], [ 14.455857066727068, 68.654509746332835 ], [ 14.455228023005533, 68.654187348350192 ], [ 14.453722081009728, 68.653876283994663 ], [ 14.452902965839362, 68.653597209811664 ], [ 14.452438713957831, 68.653535344042055 ], [ 14.450896325032407, 68.65356979818263 ], [ 14.448720450518904, 68.652005882236836 ], [ 14.448036863213469, 68.65164632681163 ], [ 14.445255442325164, 68.650776283015091 ], [ 14.44262359609233, 68.65007628912123 ], [ 14.440896354266098, 68.650366462704653 ], [ 14.438407917012679, 68.650551573367892 ], [ 14.437247407157852, 68.650559368513655 ] ] ] } },
{ "type": "Feature", "properties": { "fid": 204634, "elvelengde_m": 911.27, "elvID": "185-285-1", "elvenavn": null, "regulert": null, "fid_2": 812, "id": 812, "left": 13.986919847, "top": 68.946110046000001, "right": 14.486919847, "bottom": 68.446110046000001, "row_index": 11, "col_index": 20, "tile_id": 812 }, "geometry": { "type": "MultiLineString", "coordinates": [ [ [ 14.45203222083777, 68.645664065094365 ], [ 14.451622874226739, 68.645869469442005 ], [ 14.450413422360562, 68.646086978627125 ], [ 14.446096667245799, 68.646616564850177 ], [ 14.441172876860767, 68.647084299539088 ], [ 14.440411274468349, 68.647248329635403 ], [ 14.438590825400283, 68.647346773014078 ], [ 14.435810411538725, 68.647137316036108 ], [ 14.434042117792544, 68.647128795502994 ], [ 14.433137339125496, 68.646928263308325 ], [ 14.432319970068814, 68.647086239951534 ], [ 14.431709242446642, 68.647101584699499 ], [ 14.431448550418425, 68.647230397822113 ], [ 14.431206904529438, 68.647238911445612 ] ] ] } },
{ "type": "Feature", "properties": { "fid": 204636, "elvelengde_m": 197.37, "elvID": "185-285-2", "elvenavn": null, "regulert": null, "fid_2": 812, "id": 812, "left": 13.986919847, "top": 68.946110046000001, "right": 14.486919847, "bottom": 68.446110046000001, "row_index": 11, "col_index": 20, "tile_id": 812 }, "geometry": { "type": "MultiLineString", "coordinates": [ [ [ 14.456422958024678, 68.645804724016159 ], [ 14.454344069212555, 68.645538724762829 ], [ 14.452662511309494, 68.645449959002391 ], [ 14.452419938282599, 68.645477424347376 ], [ 14.45203222083777, 68.645664065094365 ] ] ] } },
{ "type": "Feature", "properties": { "fid": 204643, "elvelengde_m": 247.19, "elvID": "185-285-1", "elvenavn": null, "regulert": null, "fid_2": 812, "id": 812, "left": 13.986919847, "top": 68.946110046000001, "right": 14.486919847, "bottom": 68.446110046000001, "row_index": 11, "col_index": 20, "tile_id": 812 }, "geometry": { "type": "MultiLineString", "coordinates": [ [ [ 14.448718307670488, 68.643966307929716 ], [ 14.449741149916296, 68.64411951655002 ], [ 14.450455953016192, 68.644361853994809 ], [ 14.450789818930826, 68.644806185177131 ], [ 14.451578552209373, 68.645206521733684 ], [ 14.451634681677476, 68.645386710468472 ], [ 14.45203222083777, 68.645664065094365 ] ] ] } },
{ "type": "Feature", "properties": { "fid": 204684, "elvelengde_m": 915.13, "elvID": "185-284-3", "elvenavn": null, "regulert": null, "fid_2": 812, "id": 812, "left": 13.986919847, "top": 68.946110046000001, "right": 14.486919847, "bottom": 68.446110046000001, "row_index": 11, "col_index": 20, "tile_id": 812 }, "geometry": { "type": "MultiLineString", "coordinates": [ [ [ 14.486919847, 68.638414206955872 ], [ 14.486716135061249, 68.638329008488 ], [ 14.485214995074319, 68.637997070853373 ] ] ] } },
{ "type": "Feature", "properties": { "fid": 204686, "elvelengde_m": 1135.03, "elvID": "185-284-1", "elvenavn": null, "regulert": null, "fid_2": 812, "id": 812, "left": 13.986919847, "top": 68.946110046000001, "right": 14.486919847, "bottom": 68.446110046000001, "row_index": 11, "col_index": 20, "tile_id": 812 }, "geometry": { "type": "MultiLineString", "coordinates": [ [ [ 14.486919847, 68.645646319866529 ], [ 14.485330049688626, 68.645129577002351 ], [ 14.483956057654003, 68.643862471914161 ], [ 14.483403509309026, 68.643568933750956 ], [ 14.478330753594499, 68.641523130233793 ], [ 14.478341318414834, 68.641343964215437 ], [ 14.47848083713383, 68.641184659262223 ], [ 14.478003485839468, 68.640774022072094 ], [ 14.477469796488702, 68.640564650630665 ], [ 14.477097735940175, 68.640176848703675 ], [ 14.475929550923608, 68.640168381747046 ], [ 14.475489733379867, 68.639996695777555 ], [ 14.475325127100506, 68.63982909333555 ], [ 14.474795075899259, 68.639676497788031 ], [ 14.474768160057017, 68.639575693175857 ], [ 14.474877219837017, 68.639393963743501 ], [ 14.475261695077311, 68.63924896652118 ], [ 14.475400140563645, 68.639104369724308 ], [ 14.475326438653068, 68.638868617051742 ], [ 14.474659221935369, 68.638533794668376 ], [ 14.474144977069495, 68.63804428420373 ], [ 14.473150712089327, 68.637831310289243 ] ] ] } },
{ "type": "Feature", "properties": { "fid": 204688, "elvelengde_m": 521.56, "elvID": "185-284-3", "elvenavn": null, "regulert": null, "fid_2": 812, "id": 812, "left": 13.986919847, "top": 68.946110046000001, "right": 14.486919847, "bottom": 68.446110046000001, "row_index": 11, "col_index": 20, "tile_id": 812 }, "geometry": { "type": "MultiLineString", "coordinates": [ [ [ 14.485214995074319, 68.637997070853373 ], [ 14.483287876333218, 68.637930012843981 ], [ 14.481759221887998, 68.637684958354157 ], [ 14.480020490778221, 68.637812528510921 ], [ 14.479214449276267, 68.63767030719751 ], [ 14.476411492592328, 68.637429517734645 ], [ 14.474617362425915, 68.637506185993388 ], [ 14.47355256088534, 68.637679106400739 ], [ 14.473150712089327, 68.637831310289243 ] ] ] } },
{ "type": "Feature", "properties": { "fid": 204693, "elvelengde_m": 216.79, "elvID": "185-284-6", "elvenavn": null, "regulert": null, "fid_2": 812, "id": 812, "left": 13.986919847, "top": 68.946110046000001, "right": 14.486919847, "bottom": 68.446110046000001, "row_index": 11, "col_index": 20, "tile_id": 812 }, "geometry": { "type": "MultiLineString", "coordinates": [ [ [ 14.486919847, 68.637340318767031 ], [ 14.486748053931924, 68.637385667223413 ], [ 14.486333451309342, 68.637680020510203 ], [ 14.485214995074319, 68.637997070853373 ] ] ] } },
{ "type": "Feature", "properties": { "fid": 204705, "elvelengde_m": 1269.97, "elvID": "185-284-1", "elvenavn": null, "regulert": null, "fid_2": 812, "id": 812, "left": 13.986919847, "top": 68.946110046000001, "right": 14.486919847, "bottom": 68.446110046000001, "row_index": 11, "col_index": 20, "tile_id": 812 }, "geometry": { "type": "MultiLineString", "coordinates": [ [ [ 14.473150712089327, 68.637831310289243 ], [ 14.472186124657341, 68.638114224801143 ], [ 14.470621136198996, 68.63807900745222 ], [ 14.467569024141014, 68.638832838993636 ], [ 14.466117709900889, 68.638784754313079 ], [ 14.464052232964825, 68.639493388605416 ], [ 14.462411921348005, 68.639476870225494 ], [ 14.46143075593999, 68.639273555332366 ], [ 14.460212346180088, 68.639176744294673 ], [ 14.459232186027508, 68.639167776353716 ], [ 14.457617796652782, 68.639291030251087 ], [ 14.457067177510487, 68.639129702373467 ], [ 14.455956480526613, 68.639076257915335 ], [ 14.451718499313849, 68.638004117547226 ], [ 14.451244461950527, 68.63777234404661 ], [ 14.451161621831107, 68.63759888447305 ], [ 14.450808393386803, 68.637346604976372 ], [ 14.450016173487478, 68.637050112583339 ], [ 14.449781233056655, 68.636679736700202 ], [ 14.449353828534974, 68.636514300549152 ], [ 14.449355079070044, 68.636242904529453 ], [ 14.448858354655901, 68.635975891821019 ] ] ] } },
{ "type": "Feature", "properties": { "fid": 204707, "elvelengde_m": 121.13, "elvID": "185-284-1", "elvenavn": null, "regulert": null, "fid_2": 812, "id": 812, "left": 13.986919847, "top": 68.946110046000001, "right": 14.486919847, "bottom": 68.446110046000001, "row_index": 11, "col_index": 20, "tile_id": 812 }, "geometry": { "type": "MultiLineString", "coordinates": [ [ [ 14.448858354655901, 68.635975891821019 ], [ 14.446858895397664, 68.63578118044768 ], [ 14.446267160008562, 68.635578155805092 ] ] ] } },
{ "type": "Feature", "properties": { "fid": 204716, "elvelengde_m": 406.85, "elvID": "185-284-8", "elvenavn": null, "regulert": null, "fid_2": 812, "id": 812, "left": 13.986919847, "top": 68.946110046000001, "right": 14.486919847, "bottom": 68.446110046000001, "row_index": 11, "col_index": 20, "tile_id": 812 }, "geometry": { "type": "MultiLineString", "coordinates": [ [ [ 14.457341995786003, 68.634929539648866 ], [ 14.456633831435864, 68.634889590987711 ], [ 14.455376427754372, 68.634646694130538 ], [ 14.453484421540487, 68.63470838134478 ], [ 14.452173432036437, 68.635019836334052 ], [ 14.451444674307643, 68.635399814384641 ], [ 14.44986319692986, 68.635654674861911 ], [ 14.448858354655901, 68.635975891821019 ] ] ] } },
{ "type": "Feature", "properties": { "fid": 204722, "elvelengde_m": 460.87, "elvID": "185-284-1", "elvenavn": null, "regulert": null, "fid_2": 812, "id": 812, "left": 13.986919847, "top": 68.946110046000001, "right": 14.486919847, "bottom": 68.446110046000001, "row_index": 11, "col_index": 20, "tile_id": 812 }, "geometry": { "type": "MultiLineString", "coordinates": [ [ [ 14.446022077439688, 68.635382546739876 ], [ 14.44674627940894, 68.635290748173887 ], [ 14.4468670154824, 68.63509275100499 ], [ 14.447278645965994, 68.635018043336004 ], [ 14.447499589058536, 68.634606105918806 ], [ 14.447111217687635, 68.634296302021795 ], [ 14.446218935826634, 68.634263419376197 ], [ 14.445542814641648, 68.634381562042236 ], [ 14.444760574160401, 68.634672722551684 ], [ 14.444023642410603, 68.634663300003083 ], [ 14.442912523226479, 68.634478462163926 ], [ 14.441015302776924, 68.633830458691094 ] ] ] } },
{ "type": "Feature", "properties": { "fid": 204762, "elvelengde_m": 150.02, "elvID": "185-283-3", "elvenavn": null, "regulert": null, "fid_2": 812, "id": 812, "left": 13.986919847, "top": 68.946110046000001, "right": 14.486919847, "bottom": 68.446110046000001, "row_index": 11, "col_index": 20, "tile_id": 812 }, "geometry": { "type": "MultiLineString", "coordinates": [ [ [ 14.447208826142365, 68.630943940306125 ], [ 14.447868455674231, 68.630581961275212 ], [ 14.448912295123296, 68.629765074676016 ] ] ] } },
{ "type": "Feature", "properties": { "fid": 204776, "elvelengde_m": 376.77, "elvID": "185-283-1", "elvenavn": null, "regulert": null, "fid_2": 812, "id": 812, "left": 13.986919847, "top": 68.946110046000001, "right": 14.486919847, "bottom": 68.446110046000001, "row_index": 11, "col_index": 20, "tile_id": 812 }, "geometry": { "type": "MultiLineString", "coordinates": [ [ [ 14.473229551910958, 68.628775820634729 ], [ 14.472473235493002, 68.628573719180935 ], [ 14.471087295785582, 68.628523547967731 ], [ 14.46675764722383, 68.627399563030053 ], [ 14.466018509839845, 68.627254887789292 ], [ 14.465262472148726, 68.627231684728173 ] ] ] } },
{ "type": "Feature", "properties": { "fid": 204777, "elvelengde_m": 171.77, "elvID": "185-283-2", "elvenavn": null, "regulert": null, "fid_2": 812, "id": 812, "left": 13.986919847, "top": 68.946110046000001, "right": 14.486919847, "bottom": 68.446110046000001, "row_index": 11, "col_index": 20, "tile_id": 812 }, "geometry": { "type": "MultiLineString", "coordinates": [ [ [ 14.463555930333676, 68.628603804290478 ], [ 14.463933882890409, 68.628202211109382 ], [ 14.465048637222093, 68.627640707477369 ], [ 14.465262472148726, 68.627231684728173 ] ] ] } },
{ "type": "Feature", "properties": { "fid": 204778, "elvelengde_m": 805.2, "elvID": "185-283-1", "elvenavn": null, "regulert": null, "fid_2": 812, "id": 812, "left": 13.986919847, "top": 68.946110046000001, "right": 14.486919847, "bottom": 68.446110046000001, "row_index": 11, "col_index": 20, "tile_id": 812 }, "geometry": { "type": "MultiLineString", "coordinates": [ [ [ 14.465262472148726, 68.627231684728173 ], [ 14.458122932620396, 68.627028175280941 ], [ 14.452463976272977, 68.627721317037512 ], [ 14.449533147930943, 68.629317219443479 ], [ 14.448912295123296, 68.629765074676016 ] ] ] } },
{ "type": "Feature", "properties": { "fid": 205347, "elvelengde_m": 1108.83, "elvID": "185-283-1", "elvenavn": null, "regulert": null, "fid_2": 812, "id": 812, "left": 13.986919847, "top": 68.946110046000001, "right": 14.486919847, "bottom": 68.446110046000001, "row_index": 11, "col_index": 20, "tile_id": 812 }, "geometry": { "type": "MultiLineString", "coordinates": [ [ [ 14.448912295123296, 68.629765074676016 ], [ 14.446163848242167, 68.629221703371869 ], [ 14.443283464331055, 68.627420314334216 ], [ 14.443214667907544, 68.626922668963942 ], [ 14.443501751402586, 68.626698944042971 ], [ 14.443470204986861, 68.626642425223778 ], [ 14.441324660769085, 68.626108944075213 ], [ 14.440233507427543, 68.625713203333845 ], [ 14.439863578159946, 68.625521833211053 ], [ 14.439346249664435, 68.624784569736903 ], [ 14.439088481777112, 68.624641285527858 ], [ 14.435745196797548, 68.623628479097277 ], [ 14.434018628124333, 68.623393895208437 ], [ 14.433926375767799, 68.623279320902554 ], [ 14.43403982593626, 68.623147947491304 ], [ 14.433889187004047, 68.623028513344067 ], [ 14.434017548399469, 68.622851717318866 ], [ 14.433869686389267, 68.622719735904042 ], [ 14.433344734907072, 68.622586936167764 ] ] ] } },
{ "type": "Feature", "properties": { "fid": 205350, "elvelengde_m": 759.34, "elvID": "185-282-1", "elvenavn": null, "regulert": null, "fid_2": 812, "id": 812, "left": 13.986919847, "top": 68.946110046000001, "right": 14.486919847, "bottom": 68.446110046000001, "row_index": 11, "col_index": 20, "tile_id": 812 }, "geometry": { "type": "MultiLineString", "coordinates": [ [ [ 14.456457547686869, 68.625302932445095 ], [ 14.454109303416468, 68.624685908522466 ], [ 14.452449469452679, 68.624405629702551 ], [ 14.450219653713877, 68.624662959745322 ], [ 14.449526368009133, 68.624661595266318 ], [ 14.44643168723363, 68.624225709912452 ], [ 14.445215927722327, 68.623569851264875 ], [ 14.444270208825316, 68.623180534241513 ], [ 14.443863609440504, 68.622872007050233 ], [ 14.44373991394154, 68.622645401927457 ], [ 14.443123029148257, 68.6224505333835 ], [ 14.44345117736871, 68.622184431309819 ], [ 14.443279728358364, 68.621930940699357 ] ] ] } },
{ "type": "Feature", "properties": { "fid": 205380, "elvelengde_m": 1259.41, "elvID": "185-279-1", "elvenavn": null, "regulert": null, "fid_2": 812, "id": 812, "left": 13.986919847, "top": 68.946110046000001, "right": 14.486919847, "bottom": 68.446110046000001, "row_index": 11, "col_index": 20, "tile_id": 812 }, "geometry": { "type": "MultiLineString", "coordinates": [ [ [ 14.486919847, 68.619404044621419 ], [ 14.48660228134945, 68.619087664622569 ], [ 14.484144390043836, 68.618290682938706 ], [ 14.483468487883631, 68.617989612325317 ], [ 14.483180786657813, 68.617775157371014 ], [ 14.483049807660413, 68.617532707042855 ], [ 14.482999316096997, 68.617183715821227 ], [ 14.48305389964942, 68.616507568915893 ], [ 14.482583639954774, 68.614904329236595 ], [ 14.482556451117715, 68.614285172793018 ] ] ] } },
{ "type": "Feature", "properties": { "fid": 205404, "elvelengde_m": 1038.13, "elvID": "185-279-2", "elvenavn": null, "regulert": null, "fid_2": 812, "id": 812, "left": 13.986919847, "top": 68.946110046000001, "right": 14.486919847, "bottom": 68.446110046000001, "row_index": 11, "col_index": 20, "tile_id": 812 }, "geometry": { "type": "MultiLineString", "coordinates": [ [ [ 14.486919847, 68.615446846451093 ], [ 14.484248173944595, 68.615251647750071 ], [ 14.484174880012343, 68.614794187741211 ], [ 14.482556451117715, 68.614285172793018 ] ] ] } },
{ "type": "Feature", "properties": { "fid": 205416, "elvelengde_m": 2332.57, "elvID": "185-281-1", "elvenavn": null, "regulert": null, "fid_2": 812, "id": 812, "left": 13.986919847, "top": 68.946110046000001, "right": 14.486919847, "bottom": 68.446110046000001, "row_index": 11, "col_index": 20, "tile_id": 812 }, "geometry": { "type": "MultiLineString", "coordinates": [ [ [ 14.486919847, 68.626127487154605 ], [ 14.486890001320443, 68.626115146234483 ], [ 14.485544085116857, 68.625139444135442 ], [ 14.485159046668187, 68.624968756775559 ], [ 14.485182610155173, 68.624777521785035 ], [ 14.485064307537428, 68.624672314033972 ], [ 14.483744872162616, 68.623728248416143 ], [ 14.483332759852821, 68.62352850428185 ], [ 14.483105971092762, 68.623224121823881 ], [ 14.481076174279929, 68.622155788942351 ], [ 14.480646506133294, 68.621665211624546 ], [ 14.479301290331799, 68.621085168855089 ], [ 14.478664084450536, 68.620515556905985 ], [ 14.478140680446604, 68.620211954229589 ], [ 14.47722046705163, 68.619838507860976 ], [ 14.472701237125335, 68.618807449434826 ], [ 14.471060667057573, 68.618208567661171 ], [ 14.469964281297054, 68.617934980422007 ], [ 14.466340169683241, 68.617470976371806 ], [ 14.465219459172443, 68.617500251881964 ], [ 14.462806671684364, 68.617940939549854 ], [ 14.460347845258857, 68.618247897972509 ], [ 14.460031565294329, 68.618225449643091 ], [ 14.459604531091832, 68.61775993854684 ], [ 14.459300002231537, 68.617270244272774 ], [ 14.459256210428622, 68.617067943728514 ], [ 14.458978209685066, 68.616722375196431 ], [ 14.45893043824681, 68.616481405599743 ], [ 14.458222213319761, 68.615958663118889 ], [ 14.458141689679916, 68.615771760468519 ], [ 14.457360450500016, 68.615251739288396 ], [ 14.456969809877815, 68.614830555126204 ], [ 14.456952745705975, 68.61476386083568 ], [ 14.45737714636366, 68.61438790343783 ], [ 14.457365842278804, 68.614276024199484 ], [ 14.45674632312703, 68.613595348218666 ], [ 14.45564438902041, 68.61261408771918 ] ] ] } },
{ "type": "Feature", "properties": { "fid": 205434, "elvelengde_m": 347.26, "elvID": "185-280-1", "elvenavn": null, "regulert": null, "fid_2": 812, "id": 812, "left": 13.986919847, "top": 68.946110046000001, "right": 14.486919847, "bottom": 68.446110046000001, "row_index": 11, "col_index": 20, "tile_id": 812 }, "geometry": { "type": "MultiLineString", "coordinates": [ [ [ 14.468181191318221, 68.608769115034093 ], [ 14.466873854223369, 68.608295281207646 ], [ 14.465678042033259, 68.607638285894922 ], [ 14.465229739700218, 68.607058366658464 ], [ 14.465196191171062, 68.606909375586 ], [ 14.464839668174699, 68.606582132765851 ], [ 14.464013061190087, 68.606148099314339 ] ] ] } },
{ "type": "Feature", "properties": { "fid": 205517, "elvelengde_m": 57.54, "elvID": "185-279-1", "elvenavn": null, "regulert": null, "fid_2": 812, "id": 812, "left": 13.986919847, "top": 68.946110046000001, "right": 14.486919847, "bottom": 68.446110046000001, "row_index": 11, "col_index": 20, "tile_id": 812 }, "geometry": { "type": "MultiLineString", "coordinates": [ [ [ 14.482556451117715, 68.614285172793018 ], [ 14.482395606766026, 68.61417804029557 ], [ 14.48244034926684, 68.613804083688066 ] ] ] } },
{ "type": "Feature", "properties": { "fid": 205602, "elvelengde_m": 25.91, "elvID": "185-305-7", "elvenavn": null, "regulert": null, "fid_2": 812, "id": 812, "left": 13.986919847, "top": 68.946110046000001, "right": 14.486919847, "bottom": 68.446110046000001, "row_index": 11, "col_index": 20, "tile_id": 812 }, "geometry": { "type": "MultiLineString", "coordinates": [ [ [ 14.486331670597838, 68.75556818186891 ], [ 14.486910308379331, 68.755667966725596 ] ] ] } },
{ "type": "Feature", "properties": { "fid": 205764, "elvelengde_m": 114.6, "elvID": "185-305-1", "elvenavn": "Nykvågvassdraget", "regulert": null, "fid_2": 812, "id": 812, "left": 13.986919847, "top": 68.946110046000001, "right": 14.486919847, "bottom": 68.446110046000001, "row_index": 11, "col_index": 20, "tile_id": 812 }, "geometry": { "type": "MultiLineString", "coordinates": [ [ [ 14.480015952703917, 68.776188668604803 ], [ 14.477906353273987, 68.776869552745239 ] ] ] } },
{ "type": "Feature", "properties": { "fid": 205843, "elvelengde_m": 20.07, "elvID": "185-291-12", "elvenavn": null, "regulert": null, "fid_2": 812, "id": 812, "left": 13.986919847, "top": 68.946110046000001, "right": 14.486919847, "bottom": 68.446110046000001, "row_index": 11, "col_index": 20, "tile_id": 812 }, "geometry": { "type": "MultiLineString", "coordinates": [ [ [ 14.48504871485142, 68.703606840241008 ], [ 14.485263432585912, 68.703769038489241 ] ] ] } },
{ "type": "Feature", "properties": { "fid": 207428, "elvelengde_m": 25.01, "elvID": "185-292-2", "elvenavn": null, "regulert": null, "fid_2": 812, "id": 812, "left": 13.986919847, "top": 68.946110046000001, "right": 14.486919847, "bottom": 68.446110046000001, "row_index": 11, "col_index": 20, "tile_id": 812 }, "geometry": { "type": "MultiLineString", "coordinates": [ [ [ 14.442326848168364, 68.680996006904365 ], [ 14.442197137267845, 68.681062757724945 ], [ 14.441853688136002, 68.680994166111958 ] ] ] } },
{ "type": "Feature", "properties": { "fid": 207429, "elvelengde_m": 93.93, "elvID": "185-292-1", "elvenavn": null, "regulert": null, "fid_2": 812, "id": 812, "left": 13.986919847, "top": 68.946110046000001, "right": 14.486919847, "bottom": 68.446110046000001, "row_index": 11, "col_index": 20, "tile_id": 812 }, "geometry": { "type": "MultiLineString", "coordinates": [ [ [ 14.441853688136002, 68.680994166111958 ], [ 14.441915493026935, 68.680907252581676 ], [ 14.442426896912348, 68.680717760271605 ], [ 14.443267912492153, 68.680542275783907 ], [ 14.44337911953464, 68.68041873941398 ] ] ] } },
{ "type": "Feature", "properties": { "fid": 207456, "elvelengde_m": 24.19, "elvID": "185-284-1", "elvenavn": null, "regulert": null, "fid_2": 812, "id": 812, "left": 13.986919847, "top": 68.946110046000001, "right": 14.486919847, "bottom": 68.446110046000001, "row_index": 11, "col_index": 20, "tile_id": 812 }, "geometry": { "type": "MultiLineString", "coordinates": [ [ [ 14.446267160008562, 68.635578155805092 ], [ 14.446022077439688, 68.635382546739876 ] ] ] } },
{ "type": "Feature", "properties": { "fid": 207553, "elvelengde_m": 559.65, "elvID": "185-305-1", "elvenavn": "Nykvågvassdraget", "regulert": null, "fid_2": 812, "id": 812, "left": 13.986919847, "top": 68.946110046000001, "right": 14.486919847, "bottom": 68.446110046000001, "row_index": 11, "col_index": 20, "tile_id": 812 }, "geometry": { "type": "MultiLineString", "coordinates": [ [ [ 14.486919847, 68.778230191121139 ], [ 14.485311353447688, 68.778329999770506 ], [ 14.484159545284578, 68.778176673913279 ], [ 14.483662601167296, 68.777978231646316 ], [ 14.483348296349906, 68.777736126483987 ], [ 14.484012816521705, 68.776967027324062 ], [ 14.482859051889919, 68.776499501122103 ], [ 14.480015952703917, 68.776188668604803 ] ] ] } },
{ "type": "Feature", "properties": { "fid": 207556, "elvelengde_m": 157.56, "elvID": "185-305-6", "elvenavn": null, "regulert": null, "fid_2": 812, "id": 812, "left": 13.986919847, "top": 68.946110046000001, "right": 14.486919847, "bottom": 68.446110046000001, "row_index": 11, "col_index": 20, "tile_id": 812 }, "geometry": { "type": "MultiLineString", "coordinates": [ [ [ 14.47995862357865, 68.774857886028826 ], [ 14.479519210992084, 68.775160615110266 ], [ 14.47940983257876, 68.775333868900731 ], [ 14.479717890728828, 68.775576586694029 ], [ 14.479743393033038, 68.775844865776193 ], [ 14.480015952703917, 68.776188668604803 ] ] ] } },
{ "type": "Feature", "properties": { "fid": 207627, "elvelengde_m": 237.01, "elvID": "185-296-1", "elvenavn": null, "regulert": null, "fid_2": 812, "id": 812, "left": 13.986919847, "top": 68.946110046000001, "right": 14.486919847, "bottom": 68.446110046000001, "row_index": 11, "col_index": 20, "tile_id": 812 }, "geometry": { "type": "MultiLineString", "coordinates": [ [ [ 14.450717204417794, 68.716047913349058 ], [ 14.449756166643102, 68.716175259664141 ], [ 14.449700473731868, 68.71624211180179 ], [ 14.449853999998666, 68.716590725323556 ], [ 14.449458450042703, 68.717107646011698 ], [ 14.44947452022682, 68.717642218611829 ], [ 14.44939661045626, 68.717895780124593 ] ] ] } },
{ "type": "Feature", "properties": { "fid": 207635, "elvelengde_m": 22.77, "elvID": "185-291-7", "elvenavn": null, "regulert": null, "fid_2": 812, "id": 812, "left": 13.986919847, "top": 68.946110046000001, "right": 14.486919847, "bottom": 68.446110046000001, "row_index": 11, "col_index": 20, "tile_id": 812 }, "geometry": { "type": "MultiLineString", "coordinates": [ [ [ 14.485444978443972, 68.71245266936694 ], [ 14.485206561865022, 68.712472417360161 ], [ 14.485225035637235, 68.712357289693642 ] ] ] } },
{ "type": "Feature", "properties": { "fid": 207675, "elvelengde_m": 99.94, "elvID": "185-292-1", "elvenavn": null, "regulert": null, "fid_2": 812, "id": 812, "left": 13.986919847, "top": 68.946110046000001, "right": 14.486919847, "bottom": 68.446110046000001, "row_index": 11, "col_index": 20, "tile_id": 812 }, "geometry": { "type": "MultiLineString", "coordinates": [ [ [ 14.439821924542988, 68.680906554746244 ], [ 14.440503029553312, 68.681001067604598 ], [ 14.441042458884153, 68.681182065410269 ], [ 14.441853688136002, 68.680994166111958 ] ] ] } },
{ "type": "Feature", "properties": { "fid": 207807, "elvelengde_m": 370.53, "elvID": "185-291-1", "elvenavn": null, "regulert": null, "fid_2": 812, "id": 812, "left": 13.986919847, "top": 68.946110046000001, "right": 14.486919847, "bottom": 68.446110046000001, "row_index": 11, "col_index": 20, "tile_id": 812 }, "geometry": { "type": "MultiLineString", "coordinates": [ [ [ 14.486919847, 68.697006380245057 ], [ 14.485815514639818, 68.696764503316302 ] ] ] } },
{ "type": "Feature", "properties": { "fid": 207897, "elvelengde_m": 315.17, "elvID": "185-289-1", "elvenavn": null, "regulert": null, "fid_2": 812, "id": 812, "left": 13.986919847, "top": 68.946110046000001, "right": 14.486919847, "bottom": 68.446110046000001, "row_index": 11, "col_index": 20, "tile_id": 812 }, "geometry": { "type": "MultiLineString", "coordinates": [ [ [ 14.47611871095909, 68.667677547408644 ], [ 14.47591164154642, 68.667636501235734 ], [ 14.474871032797617, 68.66787518544092 ], [ 14.473162217712368, 68.667946448418945 ], [ 14.472844656735413, 68.667717236539445 ], [ 14.472693487797571, 68.66726460579163 ], [ 14.470545025056074, 68.66723367786895 ], [ 14.470428700996399, 68.66718658267358 ], [ 14.470458592334616, 68.66709261790011 ] ] ] } },
{ "type": "Feature", "properties": { "fid": 209497, "elvelengde_m": 266.31, "elvID": "185-291-16", "elvenavn": null, "regulert": null, "fid_2": 812, "id": 812, "left": 13.986919847, "top": 68.946110046000001, "right": 14.486919847, "bottom": 68.446110046000001, "row_index": 11, "col_index": 20, "tile_id": 812 }, "geometry": { "type": "MultiLineString", "coordinates": [ [ [ 14.48079683657653, 68.698185920155822 ], [ 14.481675459392703, 68.698070185211392 ], [ 14.482306973605047, 68.697810314554829 ], [ 14.482792932001368, 68.697784537899423 ], [ 14.48408267429682, 68.69752366060581 ], [ 14.485815514639818, 68.696764503316302 ] ] ] } },
{ "type": "Feature", "properties": { "fid": 209499, "elvelengde_m": 1066.9, "elvID": "185-291-1", "elvenavn": null, "regulert": null, "fid_2": 812, "id": 812, "left": 13.986919847, "top": 68.946110046000001, "right": 14.486919847, "bottom": 68.446110046000001, "row_index": 11, "col_index": 20, "tile_id": 812 }, "geometry": { "type": "MultiLineString", "coordinates": [ [ [ 14.485815514639818, 68.696764503316302 ], [ 14.485138518988197, 68.696391488061522 ], [ 14.484864504105918, 68.696145417800849 ], [ 14.483126599333954, 68.695276573658163 ], [ 14.482271415503245, 68.694631453175276 ], [ 14.48111372799694, 68.694052168787039 ], [ 14.47994478592517, 68.693265527691409 ], [ 14.479454894785782, 68.693063931636075 ], [ 14.479295587791279, 68.692895200827408 ], [ 14.479176766609347, 68.692540261378909 ], [ 14.478879917182136, 68.692397211175503 ], [ 14.477067333921687, 68.691941297377284 ], [ 14.476810404716968, 68.691509497284116 ], [ 14.476482544047192, 68.691376632298415 ], [ 14.475823088765694, 68.691255690032762 ], [ 14.475007597789576, 68.690926080222354 ], [ 14.474184172093835, 68.690729858821911 ], [ 14.472568553252472, 68.690588623002142 ], [ 14.470905345086415, 68.689931239849173 ], [ 14.470502687308761, 68.689615679081427 ], [ 14.470189177624993, 68.689631176333322 ] ] ] } },
{ "type": "Feature", "properties": { "fid": 209521, "elvelengde_m": 1124.88, "elvID": "185-290-1", "elvenavn": "elv fra Saltvatnet", "regulert": null, "fid_2": 812, "id": 812, "left": 13.986919847, "top": 68.946110046000001, "right": 14.486919847, "bottom": 68.446110046000001, "row_index": 11, "col_index": 20, "tile_id": 812 }, "geometry": { "type": "MultiLineString", "coordinates": [ [ [ 14.484207202232309, 68.676799196140834 ], [ 14.482827488039987, 68.676577995707007 ], [ 14.481840388603707, 68.67656699411485 ], [ 14.477481721172969, 68.677176587418103 ], [ 14.476746414025982, 68.677836555409911 ], [ 14.47621959270549, 68.678434616781203 ], [ 14.4761392061762, 68.679240161863433 ], [ 14.476010661163318, 68.679412101900809 ], [ 14.476402048883243, 68.679994291904691 ], [ 14.476786488151463, 68.680286176771801 ], [ 14.47692599539776, 68.680595100690624 ], [ 14.475873365934415, 68.680989319988385 ], [ 14.475608122224651, 68.681872445970157 ], [ 14.475058300211806, 68.68237500460566 ], [ 14.473300035517754, 68.682956857332371 ], [ 14.471866966325662, 68.683235061104853 ], [ 14.470593973532186, 68.683174504183256 ] ] ] } },
{ "type": "Feature", "properties": { "fid": 209621, "elvelengde_m": 143.18, "elvID": "185-305-8", "elvenavn": null, "regulert": null, "fid_2": 812, "id": 812, "left": 13.986919847, "top": 68.946110046000001, "right": 14.486919847, "bottom": 68.446110046000001, "row_index": 11, "col_index": 20, "tile_id": 812 }, "geometry": { "type": "MultiLineString", "coordinates": [ [ [ 14.485392339318453, 68.767960191827257 ], [ 14.485635542519525, 68.768058814737799 ], [ 14.485761844149357, 68.768229196156028 ], [ 14.485673287862197, 68.768403043519527 ], [ 14.485367907740061, 68.768544089840177 ], [ 14.485423094712804, 68.768623707070546 ], [ 14.486504631769876, 68.76898535548483 ] ] ] } },
{ "type": "Feature", "properties": { "fid": 209706, "elvelengde_m": 41.33, "elvID": "185-291-7", "elvenavn": null, "regulert": null, "fid_2": 812, "id": 812, "left": 13.986919847, "top": 68.946110046000001, "right": 14.486919847, "bottom": 68.446110046000001, "row_index": 11, "col_index": 20, "tile_id": 812 }, "geometry": { "type": "MultiLineString", "coordinates": [ [ [ 14.486919847, 68.712445799087632 ], [ 14.486706485522125, 68.712431298207292 ] ] ] } },
{ "type": "Feature", "properties": { "fid": 209736, "elvelengde_m": 95.58, "elvID": "185-292-2", "elvenavn": null, "regulert": null, "fid_2": 812, "id": 812, "left": 13.986919847, "top": 68.946110046000001, "right": 14.486919847, "bottom": 68.446110046000001, "row_index": 11, "col_index": 20, "tile_id": 812 }, "geometry": { "type": "MultiLineString", "coordinates": [ [ [ 14.446169609170811, 68.682745717295418 ], [ 14.446001033695744, 68.682579014313035 ], [ 14.445995949170358, 68.682399767755271 ], [ 14.445871553320892, 68.6822277993885 ], [ 14.445185329952251, 68.682026343745918 ] ] ] } },
{ "type": "Feature", "properties": { "fid": 209759, "elvelengde_m": 130.64, "elvID": "185-289-3", "elvenavn": null, "regulert": null, "fid_2": 812, "id": 812, "left": 13.986919847, "top": 68.946110046000001, "right": 14.486919847, "bottom": 68.446110046000001, "row_index": 11, "col_index": 20, "tile_id": 812 }, "geometry": { "type": "MultiLineString", "coordinates": [ [ [ 14.478368504300652, 68.655289410448262 ], [ 14.478649961729838, 68.65532063849912 ], [ 14.479839466374575, 68.655772388982896 ], [ 14.480853973122775, 68.656006075138819 ] ] ] } }
]
}
