{
"type": "FeatureCollection",
"name": "elvis_tile_id_69",
"crs": { "type": "name", "properties": { "name": "urn:ogc:def:crs:OGC:1.3:CRS84" } },
"xy_coordinate_resolution": 1e-15,
"features": [
{ "type": "Feature", "properties": { "fid": 106300, "elvelengde_m": 20.09, "elvID": "057-117-1", "elvenavn": null, "regulert": null, "fid_2": 69, "id": 69, "left": 4.486919847, "top": 60.446110046000001, "right": 4.986919847, "bottom": 59.946110046000001, "row_index": 28, "col_index": 1, "tile_id": 69 }, "geometry": { "type": "MultiLineString", "coordinates": [ [ [ 4.975679690737827, 60.439913460105849 ], [ 4.975683953198138, 60.439733769958032 ] ] ] } },
{ "type": "Feature", "properties": { "fid": 106301, "elvelengde_m": 130.71, "elvID": "057-117-1", "elvenavn": null, "regulert": null, "fid_2": 69, "id": 69, "left": 4.486919847, "top": 60.446110046000001, "right": 4.986919847, "bottom": 59.946110046000001, "row_index": 28, "col_index": 1, "tile_id": 69 }, "geometry": { "type": "MultiLineString", "coordinates": [ [ [ 4.975951180686896, 60.438456401916177 ], [ 4.976134277120791, 60.438299983630834 ], [ 4.976181931371492, 60.437914882886616 ], [ 4.976403880745156, 60.437445188352719 ], [ 4.976308320639123, 60.437334389578382 ] ] ] } },
{ "type": "Feature", "properties": { "fid": 106303, "elvelengde_m": 227.41, "elvID": "057-117-1", "elvenavn": null, "regulert": null, "fid_2": 69, "id": 69, "left": 4.486919847, "top": 60.446110046000001, "right": 4.986919847, "bottom": 59.946110046000001, "row_index": 28, "col_index": 1, "tile_id": 69 }, "geometry": { "type": "MultiLineString", "coordinates": [ [ [ 4.978231663815404, 60.43399415475664 ], [ 4.978808528778504, 60.433742026519127 ], [ 4.979053597791435, 60.432643629116235 ], [ 4.979765878141452, 60.432620172510319 ], [ 4.980019862610794, 60.432485877955045 ] ] ] } },
{ "type": "Feature", "properties": { "fid": 106304, "elvelengde_m": 936.81, "elvID": "057-116-1", "elvenavn": null, "regulert": null, "fid_2": 69, "id": 69, "left": 4.486919847, "top": 60.446110046000001, "right": 4.986919847, "bottom": 59.946110046000001, "row_index": 28, "col_index": 1, "tile_id": 69 }, "geometry": { "type": "MultiLineString", "coordinates": [ [ [ 4.974569276075851, 60.426700513633868 ], [ 4.973881202316604, 60.426382851586176 ], [ 4.973114633475125, 60.426404676403891 ], [ 4.972693277620403, 60.426724530419406 ], [ 4.972605424663477, 60.426991631506155 ], [ 4.97224652546972, 60.427394339482781 ], [ 4.971698395297331, 60.427413667360135 ], [ 4.971424132945572, 60.427279501475127 ], [ 4.971569460870969, 60.426987175082282 ], [ 4.971425376486864, 60.426830052932814 ], [ 4.971070315342756, 60.426612540988145 ], [ 4.970786024139354, 60.426558885176057 ], [ 4.969984384412672, 60.427011097292834 ], [ 4.968575668538618, 60.428397863966779 ], [ 4.96761528912168, 60.428809212248815 ], [ 4.965770125148608, 60.429422960159279 ], [ 4.96506968991544, 60.429337363385336 ], [ 4.96430716368227, 60.428605615084876 ] ] ] } },
{ "type": "Feature", "properties": { "fid": 106305, "elvelengde_m": 446.29, "elvID": "057-115-1", "elvenavn": null, "regulert": null, "fid_2": 69, "id": 69, "left": 4.486919847, "top": 60.446110046000001, "right": 4.986919847, "bottom": 59.946110046000001, "row_index": 28, "col_index": 1, "tile_id": 69 }, "geometry": { "type": "MultiLineString", "coordinates": [ [ [ 4.967900726550652, 60.417562338274251 ], [ 4.967137939907409, 60.417116759019365 ], [ 4.965176399159664, 60.416221099094521 ], [ 4.963688254014937, 60.415321883573753 ], [ 4.96236900184993, 60.414670551223907 ] ] ] } },
{ "type": "Feature", "properties": { "fid": 106308, "elvelengde_m": 512.57, "elvID": "057-114-1", "elvenavn": null, "regulert": null, "fid_2": 69, "id": 69, "left": 4.486919847, "top": 60.446110046000001, "right": 4.986919847, "bottom": 59.946110046000001, "row_index": 28, "col_index": 1, "tile_id": 69 }, "geometry": { "type": "MultiLineString", "coordinates": [ [ [ 4.977134148027766, 60.403322928285455 ], [ 4.977895290810124, 60.40319308670135 ], [ 4.978543940620044, 60.402943007611327 ], [ 4.978766404802625, 60.402760989948426 ], [ 4.978675778282231, 60.402317689666397 ], [ 4.979807848468092, 60.40168667631621 ], [ 4.979996154440026, 60.401485589422748 ], [ 4.980121647669252, 60.401057903025226 ], [ 4.980357170674995, 60.400768362265168 ], [ 4.98053155872288, 60.400387019577956 ], [ 4.980951611115135, 60.40001982289418 ], [ 4.980939944433811, 60.399666785874466 ], [ 4.980719110084867, 60.399574431027602 ] ] ] } },
{ "type": "Feature", "properties": { "fid": 106315, "elvelengde_m": 249.4, "elvID": "057-112-1", "elvenavn": null, "regulert": null, "fid_2": 69, "id": 69, "left": 4.486919847, "top": 60.446110046000001, "right": 4.986919847, "bottom": 59.946110046000001, "row_index": 28, "col_index": 1, "tile_id": 69 }, "geometry": { "type": "MultiLineString", "coordinates": [ [ [ 4.973205888143098, 60.387777049983569 ], [ 4.973024590503397, 60.388068166622581 ], [ 4.97247693561413, 60.388384263838184 ], [ 4.971897143663672, 60.388519438551121 ], [ 4.971365009540152, 60.388397583351377 ], [ 4.970292591822912, 60.388764607270993 ], [ 4.969982983970486, 60.388967126799791 ] ] ] } },
{ "type": "Feature", "properties": { "fid": 106331, "elvelengde_m": 286.49, "elvID": "057-111-1", "elvenavn": null, "regulert": null, "fid_2": 69, "id": 69, "left": 4.486919847, "top": 60.446110046000001, "right": 4.986919847, "bottom": 59.946110046000001, "row_index": 28, "col_index": 1, "tile_id": 69 }, "geometry": { "type": "MultiLineString", "coordinates": [ [ [ 4.984684246041994, 60.378064249015104 ], [ 4.984648747383893, 60.377910502794897 ], [ 4.983829938122514, 60.377040617172142 ], [ 4.983415131831974, 60.37672246217317 ], [ 4.983317634577053, 60.375654629015244 ] ] ] } },
{ "type": "Feature", "properties": { "fid": 106356, "elvelengde_m": 156.16, "elvID": "057-110-1", "elvenavn": null, "regulert": null, "fid_2": 69, "id": 69, "left": 4.486919847, "top": 60.446110046000001, "right": 4.986919847, "bottom": 59.946110046000001, "row_index": 28, "col_index": 1, "tile_id": 69 }, "geometry": { "type": "MultiLineString", "coordinates": [ [ [ 4.984468050019206, 60.366559516997043 ], [ 4.983846986153019, 60.366738553602843 ], [ 4.98176873308873, 60.366854021824508 ] ] ] } },
{ "type": "Feature", "properties": { "fid": 106358, "elvelengde_m": 182.77, "elvID": "057-110-1", "elvenavn": null, "regulert": null, "fid_2": 69, "id": 69, "left": 4.486919847, "top": 60.446110046000001, "right": 4.986919847, "bottom": 59.946110046000001, "row_index": 28, "col_index": 1, "tile_id": 69 }, "geometry": { "type": "MultiLineString", "coordinates": [ [ [ 4.986919847, 60.366240119705552 ], [ 4.985189796453791, 60.366446504134203 ] ] ] } },
{ "type": "Feature", "properties": { "fid": 106387, "elvelengde_m": 210.12, "elvID": "057-130-1", "elvenavn": null, "regulert": null, "fid_2": 69, "id": 69, "left": 4.486919847, "top": 60.446110046000001, "right": 4.986919847, "bottom": 59.946110046000001, "row_index": 28, "col_index": 1, "tile_id": 69 }, "geometry": { "type": "MultiLineString", "coordinates": [ [ [ 4.939930946754201, 60.355415671702687 ], [ 4.939835728472308, 60.355304856082505 ], [ 4.939668556258019, 60.354607569002326 ], [ 4.939256253072588, 60.353983601420268 ], [ 4.9391817617764, 60.353584921958642 ] ] ] } },
{ "type": "Feature", "properties": { "fid": 106406, "elvelengde_m": 76.67, "elvID": "057-129-1", "elvenavn": null, "regulert": null, "fid_2": 69, "id": 69, "left": 4.486919847, "top": 60.446110046000001, "right": 4.986919847, "bottom": 59.946110046000001, "row_index": 28, "col_index": 1, "tile_id": 69 }, "geometry": { "type": "MultiLineString", "coordinates": [ [ [ 4.942619303503401, 60.34926751992554 ], [ 4.942473598982343, 60.349272050702794 ], [ 4.941647095925228, 60.348815299347997 ] ] ] } },
{ "type": "Feature", "properties": { "fid": 106411, "elvelengde_m": 56.15, "elvID": "057-129-1", "elvenavn": null, "regulert": null, "fid_2": 69, "id": 69, "left": 4.486919847, "top": 60.446110046000001, "right": 4.986919847, "bottom": 59.946110046000001, "row_index": 28, "col_index": 1, "tile_id": 69 }, "geometry": { "type": "MultiLineString", "coordinates": [ [ [ 4.941346464504049, 60.348707254949559 ], [ 4.940551242204423, 60.348396613691477 ] ] ] } },
{ "type": "Feature", "properties": { "fid": 106415, "elvelengde_m": 104.39, "elvID": "057-129-1", "elvenavn": null, "regulert": null, "fid_2": 69, "id": 69, "left": 4.486919847, "top": 60.446110046000001, "right": 4.986919847, "bottom": 59.946110046000001, "row_index": 28, "col_index": 1, "tile_id": 69 }, "geometry": { "type": "MultiLineString", "coordinates": [ [ [ 4.949685066438579, 60.3475951966265 ], [ 4.949369732424755, 60.348089098101333 ], [ 4.948874399421704, 60.348424628634561 ] ] ] } },
{ "type": "Feature", "properties": { "fid": 106422, "elvelengde_m": 289.35, "elvID": "057-129-1", "elvenavn": null, "regulert": null, "fid_2": 69, "id": 69, "left": 4.486919847, "top": 60.446110046000001, "right": 4.986919847, "bottom": 59.946110046000001, "row_index": 28, "col_index": 1, "tile_id": 69 }, "geometry": { "type": "MultiLineString", "coordinates": [ [ [ 4.956107877441567, 60.349346197479989 ], [ 4.956387576791161, 60.348114116709709 ], [ 4.956391449717884, 60.346765692692706 ] ] ] } },
{ "type": "Feature", "properties": { "fid": 106427, "elvelengde_m": 180.11, "elvID": "057-129-1", "elvenavn": null, "regulert": null, "fid_2": 69, "id": 69, "left": 4.486919847, "top": 60.446110046000001, "right": 4.986919847, "bottom": 59.946110046000001, "row_index": 28, "col_index": 1, "tile_id": 69 }, "geometry": { "type": "MultiLineString", "coordinates": [ [ [ 4.95616142435223, 60.346426125859473 ], [ 4.953981574339355, 60.345865224919663 ], [ 4.9532100592783, 60.345796762959665 ] ] ] } },
{ "type": "Feature", "properties": { "fid": 106450, "elvelengde_m": 638.56, "elvID": "057-128-1", "elvenavn": null, "regulert": null, "fid_2": 69, "id": 69, "left": 4.486919847, "top": 60.446110046000001, "right": 4.986919847, "bottom": 59.946110046000001, "row_index": 28, "col_index": 1, "tile_id": 69 }, "geometry": { "type": "MultiLineString", "coordinates": [ [ [ 4.95289927064031, 60.342451919803764 ], [ 4.951598169351332, 60.341827778199949 ], [ 4.949886725741892, 60.340418196152363 ], [ 4.948836274069504, 60.339675945815578 ], [ 4.948711126401435, 60.339222545667504 ], [ 4.948384865025387, 60.338637217275625 ], [ 4.947477557580818, 60.338348822179768 ], [ 4.946732810117521, 60.337821766506941 ] ] ] } },
{ "type": "Feature", "properties": { "fid": 106480, "elvelengde_m": 254.06, "elvID": "057-127-1", "elvenavn": null, "regulert": null, "fid_2": 69, "id": 69, "left": 4.486919847, "top": 60.446110046000001, "right": 4.986919847, "bottom": 59.946110046000001, "row_index": 28, "col_index": 1, "tile_id": 69 }, "geometry": { "type": "MultiLineString", "coordinates": [ [ [ 4.971697772555254, 60.332702716596955 ], [ 4.97156505737487, 60.332455941902644 ], [ 4.970490264074044, 60.332054761539013 ], [ 4.970170279038278, 60.331856252526549 ], [ 4.970171721309793, 60.331110161225673 ], [ 4.970608971799306, 60.330840199732549 ] ] ] } },
{ "type": "Feature", "properties": { "fid": 106495, "elvelengde_m": 600.52, "elvID": "057-127-1", "elvenavn": null, "regulert": null, "fid_2": 69, "id": 69, "left": 4.486919847, "top": 60.446110046000001, "right": 4.986919847, "bottom": 59.946110046000001, "row_index": 28, "col_index": 1, "tile_id": 69 }, "geometry": { "type": "MultiLineString", "coordinates": [ [ [ 4.970685042747802, 60.330788524225461 ], [ 4.970855277778604, 60.330420658211665 ], [ 4.97125967750347, 60.330082306063588 ], [ 4.97129987038341, 60.329903728195703 ], [ 4.971037363343521, 60.329680005135408 ], [ 4.970984551142924, 60.328491656139143 ], [ 4.971613142903589, 60.327953359481263 ], [ 4.97165718348506, 60.327595064230252 ], [ 4.971487855007396, 60.327500076812314 ], [ 4.971132228043855, 60.327588101135042 ], [ 4.970125257996563, 60.327521600142063 ], [ 4.969857278156456, 60.32734270812486 ], [ 4.969805630843648, 60.327026445149883 ], [ 4.969466040495285, 60.326436730062959 ] ] ] } },
{ "type": "Feature", "properties": { "fid": 108146, "elvelengde_m": 374.87, "elvID": "057-80-1", "elvenavn": null, "regulert": null, "fid_2": 69, "id": 69, "left": 4.486919847, "top": 60.446110046000001, "right": 4.986919847, "bottom": 59.946110046000001, "row_index": 28, "col_index": 1, "tile_id": 69 }, "geometry": { "type": "MultiLineString", "coordinates": [ [ [ 4.959241353766489, 60.289476627342736 ], [ 4.959211243229645, 60.289134214895959 ], [ 4.958357935585771, 60.288770945033669 ], [ 4.957980011206192, 60.288692130424451 ], [ 4.95454566686724, 60.288641358757218 ], [ 4.95373528125556, 60.28875150572398 ], [ 4.953619942935501, 60.288860713180789 ] ] ] } },
{ "type": "Feature", "properties": { "fid": 108155, "elvelengde_m": 354.79, "elvID": "057-81-1", "elvenavn": null, "regulert": null, "fid_2": 69, "id": 69, "left": 4.486919847, "top": 60.446110046000001, "right": 4.986919847, "bottom": 59.946110046000001, "row_index": 28, "col_index": 1, "tile_id": 69 }, "geometry": { "type": "MultiLineString", "coordinates": [ [ [ 4.980539359141853, 60.285781479720036 ], [ 4.980437963803911, 60.286164989397875 ], [ 4.97976672480911, 60.286765002005218 ], [ 4.979454060368697, 60.287393781544303 ], [ 4.979089464364907, 60.287706375897457 ], [ 4.978310334797277, 60.288724152372467 ] ] ] } },
{ "type": "Feature", "properties": { "fid": 108177, "elvelengde_m": 131.4, "elvID": "057-79-1", "elvenavn": null, "regulert": null, "fid_2": 69, "id": 69, "left": 4.486919847, "top": 60.446110046000001, "right": 4.986919847, "bottom": 59.946110046000001, "row_index": 28, "col_index": 1, "tile_id": 69 }, "geometry": { "type": "MultiLineString", "coordinates": [ [ [ 4.974137969388152, 60.276741049791234 ], [ 4.973309862199127, 60.276850852352553 ], [ 4.971823196402429, 60.276868611381623 ] ] ] } },
{ "type": "Feature", "properties": { "fid": 108182, "elvelengde_m": 127.85, "elvID": "057-79-1", "elvenavn": null, "regulert": null, "fid_2": 69, "id": 69, "left": 4.486919847, "top": 60.446110046000001, "right": 4.986919847, "bottom": 59.946110046000001, "row_index": 28, "col_index": 1, "tile_id": 69 }, "geometry": { "type": "MultiLineString", "coordinates": [ [ [ 4.968041486177873, 60.275387132199548 ], [ 4.967397776351669, 60.275322632322769 ], [ 4.965783980816244, 60.275483479235803 ] ] ] } },
{ "type": "Feature", "properties": { "fid": 108192, "elvelengde_m": 300.66, "elvID": "057-78-1", "elvenavn": null, "regulert": null, "fid_2": 69, "id": 69, "left": 4.486919847, "top": 60.446110046000001, "right": 4.986919847, "bottom": 59.946110046000001, "row_index": 28, "col_index": 1, "tile_id": 69 }, "geometry": { "type": "MultiLineString", "coordinates": [ [ [ 4.963485243273415, 60.270501694046978 ], [ 4.963067246264487, 60.270515938866133 ], [ 4.962708384645363, 60.270343193225962 ], [ 4.962175403642986, 60.269823467676552 ], [ 4.961369093450751, 60.268222987080144 ] ] ] } },
{ "type": "Feature", "properties": { "fid": 108197, "elvelengde_m": 100.39, "elvID": "057-74-1", "elvenavn": null, "regulert": null, "fid_2": 69, "id": 69, "left": 4.486919847, "top": 60.446110046000001, "right": 4.986919847, "bottom": 59.946110046000001, "row_index": 28, "col_index": 1, "tile_id": 69 }, "geometry": { "type": "MultiLineString", "coordinates": [ [ [ 4.978515032701635, 60.268818803380249 ], [ 4.978571125916092, 60.267921243570527 ] ] ] } },
{ "type": "Feature", "properties": { "fid": 108200, "elvelengde_m": 122.59, "elvID": "057-74-1", "elvenavn": null, "regulert": null, "fid_2": 69, "id": 69, "left": 4.486919847, "top": 60.446110046000001, "right": 4.986919847, "bottom": 59.946110046000001, "row_index": 28, "col_index": 1, "tile_id": 69 }, "geometry": { "type": "MultiLineString", "coordinates": [ [ [ 4.977976402999965, 60.26686944825228 ], [ 4.977440023293541, 60.266080027082651 ], [ 4.977400017689432, 60.265817964275136 ] ] ] } },
{ "type": "Feature", "properties": { "fid": 108210, "elvelengde_m": 207.02, "elvID": "057-74-1", "elvenavn": null, "regulert": null, "fid_2": 69, "id": 69, "left": 4.486919847, "top": 60.446110046000001, "right": 4.986919847, "bottom": 59.946110046000001, "row_index": 28, "col_index": 1, "tile_id": 69 }, "geometry": { "type": "MultiLineString", "coordinates": [ [ [ 4.978126398079653, 60.264177000075598 ], [ 4.97802453713996, 60.263679356209551 ], [ 4.978155529629154, 60.263350780956046 ], [ 4.97851927313342, 60.262894335236972 ], [ 4.97925260178738, 60.262520997769791 ] ] ] } },
{ "type": "Feature", "properties": { "fid": 108213, "elvelengde_m": 186.21, "elvID": "057-77-1", "elvenavn": null, "regulert": null, "fid_2": 69, "id": 69, "left": 4.486919847, "top": 60.446110046000001, "right": 4.986919847, "bottom": 59.946110046000001, "row_index": 28, "col_index": 1, "tile_id": 69 }, "geometry": { "type": "MultiLineString", "coordinates": [ [ [ 4.967285277028946, 60.260961767483465 ], [ 4.966814878750491, 60.261151212020913 ], [ 4.964075870799839, 60.26118863870429 ] ] ] } },
{ "type": "Feature", "properties": { "fid": 108214, "elvelengde_m": 189.77, "elvID": "057-77-1", "elvenavn": null, "regulert": null, "fid_2": 69, "id": 69, "left": 4.486919847, "top": 60.446110046000001, "right": 4.986919847, "bottom": 59.946110046000001, "row_index": 28, "col_index": 1, "tile_id": 69 }, "geometry": { "type": "MultiLineString", "coordinates": [ [ [ 4.971979396647444, 60.260897693745541 ], [ 4.969732419630358, 60.260631584452447 ], [ 4.969271859257476, 60.260698524305894 ], [ 4.968812748870358, 60.260900419933471 ] ] ] } },
{ "type": "Feature", "properties": { "fid": 108220, "elvelengde_m": 312.7, "elvID": "057-74-1", "elvenavn": null, "regulert": null, "fid_2": 69, "id": 69, "left": 4.486919847, "top": 60.446110046000001, "right": 4.986919847, "bottom": 59.946110046000001, "row_index": 28, "col_index": 1, "tile_id": 69 }, "geometry": { "type": "MultiLineString", "coordinates": [ [ [ 4.981099836628855, 60.261624039927383 ], [ 4.981500803405907, 60.261600211335804 ], [ 4.982501560291421, 60.261261902394843 ], [ 4.984709115101751, 60.260816262089982 ], [ 4.98525774068812, 60.260473259201454 ], [ 4.985432650676846, 60.26022694288848 ], [ 4.985374589121745, 60.260118807080701 ] ] ] } },
{ "type": "Feature", "properties": { "fid": 108229, "elvelengde_m": 361.05, "elvID": "057-76-1", "elvenavn": null, "regulert": null, "fid_2": 69, "id": 69, "left": 4.486919847, "top": 60.446110046000001, "right": 4.986919847, "bottom": 59.946110046000001, "row_index": 28, "col_index": 1, "tile_id": 69 }, "geometry": { "type": "MultiLineString", "coordinates": [ [ [ 4.962876108766586, 60.256368451203443 ], [ 4.963273296672422, 60.256227735939106 ], [ 4.963284419677619, 60.256138173489752 ], [ 4.962968402388177, 60.255912762512452 ], [ 4.962908365666494, 60.255668165100239 ], [ 4.963009142063117, 60.255581376883896 ], [ 4.963004171819785, 60.255329491142739 ], [ 4.962105279921274, 60.25484362282215 ], [ 4.961287233086325, 60.254728828947812 ], [ 4.96087801531097, 60.254527515868737 ], [ 4.960799754165431, 60.254282429532807 ], [ 4.96030728501724, 60.25396289330525 ] ] ] } },
{ "type": "Feature", "properties": { "fid": 108234, "elvelengde_m": 727.44, "elvID": "057-75-1", "elvenavn": null, "regulert": null, "fid_2": 69, "id": 69, "left": 4.486919847, "top": 60.446110046000001, "right": 4.986919847, "bottom": 59.946110046000001, "row_index": 28, "col_index": 1, "tile_id": 69 }, "geometry": { "type": "MultiLineString", "coordinates": [ [ [ 4.970091621848871, 60.258008475873524 ], [ 4.96863085871355, 60.256766722203288 ], [ 4.967974833363288, 60.256685517305463 ], [ 4.966880959238154, 60.256166703846255 ], [ 4.966025495260095, 60.255915957369879 ], [ 4.965632161253589, 60.255876967667383 ], [ 4.965077262062053, 60.255536486581228 ], [ 4.964725965613171, 60.255157157439925 ], [ 4.964716122568967, 60.254797293375191 ], [ 4.965584887305334, 60.254059426549851 ], [ 4.965805138859531, 60.253445896988772 ], [ 4.966077952879173, 60.253139471581697 ], [ 4.966083874504345, 60.252880544393328 ] ] ] } },
{ "type": "Feature", "properties": { "fid": 108393, "elvelengde_m": 37.2, "elvID": "057-74-1", "elvenavn": null, "regulert": null, "fid_2": 69, "id": 69, "left": 4.486919847, "top": 60.446110046000001, "right": 4.986919847, "bottom": 59.946110046000001, "row_index": 28, "col_index": 1, "tile_id": 69 }, "geometry": { "type": "MultiLineString", "coordinates": [ [ [ 4.985287170731382, 60.272187567655322 ], [ 4.985160344897423, 60.271860855252953 ] ] ] } },
{ "type": "Feature", "properties": { "fid": 108407, "elvelengde_m": 0.09, "elvID": "057-74-1", "elvenavn": null, "regulert": null, "fid_2": 69, "id": 69, "left": 4.486919847, "top": 60.446110046000001, "right": 4.986919847, "bottom": 59.946110046000001, "row_index": 28, "col_index": 1, "tile_id": 69 }, "geometry": { "type": "MultiLineString", "coordinates": [ [ [ 4.985160344897423, 60.271860855252953 ], [ 4.985160032481198, 60.271860049538631 ] ] ] } },
{ "type": "Feature", "properties": { "fid": 108408, "elvelengde_m": 7.15, "elvID": "057-127-1", "elvenavn": null, "regulert": null, "fid_2": 69, "id": 69, "left": 4.486919847, "top": 60.446110046000001, "right": 4.986919847, "bottom": 59.946110046000001, "row_index": 28, "col_index": 1, "tile_id": 69 }, "geometry": { "type": "MultiLineString", "coordinates": [ [ [ 4.970608971799306, 60.330840199732549 ], [ 4.970685042747802, 60.330788524225461 ] ] ] } },
{ "type": "Feature", "properties": { "fid": 108409, "elvelengde_m": 79.47, "elvID": "057-117-1", "elvenavn": null, "regulert": null, "fid_2": 69, "id": 69, "left": 4.486919847, "top": 60.446110046000001, "right": 4.986919847, "bottom": 59.946110046000001, "row_index": 28, "col_index": 1, "tile_id": 69 }, "geometry": { "type": "MultiLineString", "coordinates": [ [ [ 4.975417893069404, 60.440610726211865 ], [ 4.975679690737827, 60.439913460105849 ] ] ] } },
{ "type": "Feature", "properties": { "fid": 108449, "elvelengde_m": 41.56, "elvID": "057-75-1", "elvenavn": null, "regulert": null, "fid_2": 69, "id": 69, "left": 4.486919847, "top": 60.446110046000001, "right": 4.986919847, "bottom": 59.946110046000001, "row_index": 28, "col_index": 1, "tile_id": 69 }, "geometry": { "type": "MultiLineString", "coordinates": [ [ [ 4.970228701137169, 60.258364994896048 ], [ 4.970091621848871, 60.258008475873524 ] ] ] } },
{ "type": "Feature", "properties": { "fid": 108461, "elvelengde_m": 394.44, "elvID": "057-117-1", "elvenavn": null, "regulert": null, "fid_2": 69, "id": 69, "left": 4.486919847, "top": 60.446110046000001, "right": 4.986919847, "bottom": 59.946110046000001, "row_index": 28, "col_index": 1, "tile_id": 69 }, "geometry": { "type": "MultiLineString", "coordinates": [ [ [ 4.976308320639123, 60.437334389578382 ], [ 4.976245948882173, 60.437072046568019 ], [ 4.976632032140405, 60.436777989773674 ], [ 4.976656196302774, 60.436602654912306 ], [ 4.977375430495941, 60.435406729665424 ], [ 4.977515756285166, 60.43496566599682 ], [ 4.978003968865064, 60.434390139756474 ], [ 4.978231663815404, 60.43399415475664 ] ] ] } },
{ "type": "Feature", "properties": { "fid": 108466, "elvelengde_m": 42.13, "elvID": "057-110-1", "elvenavn": null, "regulert": null, "fid_2": 69, "id": 69, "left": 4.486919847, "top": 60.446110046000001, "right": 4.986919847, "bottom": 59.946110046000001, "row_index": 28, "col_index": 1, "tile_id": 69 }, "geometry": { "type": "MultiLineString", "coordinates": [ [ [ 4.985189796453791, 60.366446504134203 ], [ 4.984468050019206, 60.366559516997043 ] ] ] } },
{ "type": "Feature", "properties": { "fid": 108481, "elvelengde_m": 23.13, "elvID": "057-129-1", "elvenavn": null, "regulert": null, "fid_2": 69, "id": 69, "left": 4.486919847, "top": 60.446110046000001, "right": 4.986919847, "bottom": 59.946110046000001, "row_index": 28, "col_index": 1, "tile_id": 69 }, "geometry": { "type": "MultiLineString", "coordinates": [ [ [ 4.941647095925228, 60.348815299347997 ], [ 4.941585955265396, 60.348736193237784 ], [ 4.941346464504049, 60.348707254949559 ] ] ] } },
{ "type": "Feature", "properties": { "fid": 108482, "elvelengde_m": 301.79, "elvID": "057-129-1", "elvenavn": null, "regulert": null, "fid_2": 69, "id": 69, "left": 4.486919847, "top": 60.446110046000001, "right": 4.986919847, "bottom": 59.946110046000001, "row_index": 28, "col_index": 1, "tile_id": 69 }, "geometry": { "type": "MultiLineString", "coordinates": [ [ [ 4.9532100592783, 60.345796762959665 ], [ 4.952493093591956, 60.345920166562074 ], [ 4.95177134078212, 60.346316893084996 ], [ 4.950782588587786, 60.346703970799155 ], [ 4.950604080394601, 60.346856234004143 ], [ 4.95042832703966, 60.347200824279632 ], [ 4.949578087832301, 60.347531588450344 ], [ 4.949685066438579, 60.3475951966265 ] ] ] } },
{ "type": "Feature", "properties": { "fid": 108531, "elvelengde_m": 127.63, "elvID": "057-74-1", "elvenavn": null, "regulert": null, "fid_2": 69, "id": 69, "left": 4.486919847, "top": 60.446110046000001, "right": 4.986919847, "bottom": 59.946110046000001, "row_index": 28, "col_index": 1, "tile_id": 69 }, "geometry": { "type": "MultiLineString", "coordinates": [ [ [ 4.978571125916092, 60.267921243570527 ], [ 4.978687786580549, 60.26766633486266 ], [ 4.978182976268176, 60.267003151095913 ], [ 4.977976402999965, 60.26686944825228 ] ] ] } },
{ "type": "Feature", "properties": { "fid": 108534, "elvelengde_m": 87.86, "elvID": "057-77-1", "elvenavn": null, "regulert": null, "fid_2": 69, "id": 69, "left": 4.486919847, "top": 60.446110046000001, "right": 4.986919847, "bottom": 59.946110046000001, "row_index": 28, "col_index": 1, "tile_id": 69 }, "geometry": { "type": "MultiLineString", "coordinates": [ [ [ 4.968812748870358, 60.260900419933471 ], [ 4.968354216435313, 60.261003761205373 ], [ 4.967285277028946, 60.260961767483465 ] ] ] } },
{ "type": "Feature", "properties": { "fid": 108538, "elvelengde_m": 17.46, "elvID": "057-76-1", "elvenavn": null, "regulert": null, "fid_2": 69, "id": 69, "left": 4.486919847, "top": 60.446110046000001, "right": 4.986919847, "bottom": 59.946110046000001, "row_index": 28, "col_index": 1, "tile_id": 69 }, "geometry": { "type": "MultiLineString", "coordinates": [ [ [ 4.962627347849512, 60.256463869155773 ], [ 4.962876108766586, 60.256368451203443 ] ] ] } },
{ "type": "Feature", "properties": { "fid": 108576, "elvelengde_m": 54.42, "elvID": "057-129-1", "elvenavn": null, "regulert": null, "fid_2": 69, "id": 69, "left": 4.486919847, "top": 60.446110046000001, "right": 4.986919847, "bottom": 59.946110046000001, "row_index": 28, "col_index": 1, "tile_id": 69 }, "geometry": { "type": "MultiLineString", "coordinates": [ [ [ 4.956391449717884, 60.346765692692706 ], [ 4.956312857456465, 60.346684501968085 ], [ 4.956444816231863, 60.34662658658096 ], [ 4.956436619889663, 60.346464975829342 ], [ 4.95616142435223, 60.346426125859473 ] ] ] } },
{ "type": "Feature", "properties": { "fid": 108605, "elvelengde_m": 303.81, "elvID": "057-79-1", "elvenavn": null, "regulert": null, "fid_2": 69, "id": 69, "left": 4.486919847, "top": 60.446110046000001, "right": 4.986919847, "bottom": 59.946110046000001, "row_index": 28, "col_index": 1, "tile_id": 69 }, "geometry": { "type": "MultiLineString", "coordinates": [ [ [ 4.971823196402429, 60.276868611381623 ], [ 4.97085545638422, 60.276723621600723 ], [ 4.970481678504044, 60.276034822713079 ], [ 4.970143681155538, 60.275717927886575 ], [ 4.96899995724298, 60.275497811356026 ], [ 4.968288874009026, 60.275500212131234 ], [ 4.968041486177873, 60.275387132199548 ] ] ] } },
{ "type": "Feature", "properties": { "fid": 112273, "elvelengde_m": 148.78, "elvID": "057-74-1", "elvenavn": null, "regulert": null, "fid_2": 69, "id": 69, "left": 4.486919847, "top": 60.446110046000001, "right": 4.986919847, "bottom": 59.946110046000001, "row_index": 28, "col_index": 1, "tile_id": 69 }, "geometry": { "type": "MultiLineString", "coordinates": [ [ [ 4.97925260178738, 60.262520997769791 ], [ 4.980598026861631, 60.261703830317785 ], [ 4.981099836628855, 60.261624039927383 ] ] ] } },
{ "type": "Feature", "properties": { "fid": 112298, "elvelengde_m": 150.2, "elvID": "057-117-1", "elvenavn": null, "regulert": null, "fid_2": 69, "id": 69, "left": 4.486919847, "top": 60.446110046000001, "right": 4.986919847, "bottom": 59.946110046000001, "row_index": 28, "col_index": 1, "tile_id": 69 }, "geometry": { "type": "MultiLineString", "coordinates": [ [ [ 4.975683953198138, 60.439733769958032 ], [ 4.975628122117628, 60.439208189834396 ], [ 4.975480288061933, 60.439052610588661 ], [ 4.975951180686896, 60.438456401916177 ] ] ] } },
{ "type": "Feature", "properties": { "fid": 112355, "elvelengde_m": 222.48, "elvID": "057-74-1", "elvenavn": null, "regulert": null, "fid_2": 69, "id": 69, "left": 4.486919847, "top": 60.446110046000001, "right": 4.986919847, "bottom": 59.946110046000001, "row_index": 28, "col_index": 1, "tile_id": 69 }, "geometry": { "type": "MultiLineString", "coordinates": [ [ [ 4.977400017689432, 60.265817964275136 ], [ 4.977166366615043, 60.265715655969693 ], [ 4.977486671894857, 60.26529574344471 ], [ 4.977370007740287, 60.264943332897637 ], [ 4.97775483044966, 60.264650248122301 ], [ 4.978403988018131, 60.264357444519035 ], [ 4.978126398079653, 60.264177000075598 ] ] ] } },
{ "type": "Feature", "properties": { "fid": 112379, "elvelengde_m": 403.11, "elvID": "057-129-1", "elvenavn": null, "regulert": null, "fid_2": 69, "id": 69, "left": 4.486919847, "top": 60.446110046000001, "right": 4.986919847, "bottom": 59.946110046000001, "row_index": 28, "col_index": 1, "tile_id": 69 }, "geometry": { "type": "MultiLineString", "coordinates": [ [ [ 4.948874399421704, 60.348424628634561 ], [ 4.947586909365986, 60.348621849345108 ], [ 4.946570806567167, 60.349249236162386 ], [ 4.946041627975701, 60.34926780936155 ], [ 4.944992018672565, 60.349608444288755 ], [ 4.944099016806446, 60.349574201413986 ], [ 4.942619303503401, 60.34926751992554 ] ] ] } },
{ "type": "Feature", "properties": { "fid": 112395, "elvelengde_m": 397.5, "elvID": "057-116-1", "elvenavn": null, "regulert": null, "fid_2": 69, "id": 69, "left": 4.486919847, "top": 60.446110046000001, "right": 4.986919847, "bottom": 59.946110046000001, "row_index": 28, "col_index": 1, "tile_id": 69 }, "geometry": { "type": "MultiLineString", "coordinates": [ [ [ 4.978465959393253, 60.428475942062896 ], [ 4.978645155215663, 60.427687835747705 ], [ 4.978145707718252, 60.427430683129337 ], [ 4.977811567249772, 60.427015668772498 ], [ 4.976409159834805, 60.426990856880131 ], [ 4.975674424739208, 60.427240635874817 ], [ 4.974930996547126, 60.427034396011699 ], [ 4.974569276075851, 60.426700513633868 ] ] ] } },
{ "type": "Feature", "properties": { "fid": 112402, "elvelengde_m": 238.34, "elvID": "057-112-1", "elvenavn": null, "regulert": null, "fid_2": 69, "id": 69, "left": 4.486919847, "top": 60.446110046000001, "right": 4.986919847, "bottom": 59.946110046000001, "row_index": 28, "col_index": 1, "tile_id": 69 }, "geometry": { "type": "MultiLineString", "coordinates": [ [ [ 4.975589484123296, 60.386085252736024 ], [ 4.974839894069614, 60.386320364272365 ], [ 4.974333403154738, 60.386574872822393 ], [ 4.973601246419946, 60.387190234387035 ], [ 4.973205888143098, 60.387777049983569 ] ] ] } },
{ "type": "Feature", "properties": { "fid": 112406, "elvelengde_m": 44.22, "elvID": "057-111-1", "elvenavn": null, "regulert": null, "fid_2": 69, "id": 69, "left": 4.486919847, "top": 60.446110046000001, "right": 4.986919847, "bottom": 59.946110046000001, "row_index": 28, "col_index": 1, "tile_id": 69 }, "geometry": { "type": "MultiLineString", "coordinates": [ [ [ 4.984395320539188, 60.378433040792238 ], [ 4.984684246041994, 60.378064249015104 ] ] ] } },
{ "type": "Feature", "properties": { "fid": 112434, "elvelengde_m": 117.73, "elvID": "057-129-1", "elvenavn": null, "regulert": null, "fid_2": 69, "id": 69, "left": 4.486919847, "top": 60.446110046000001, "right": 4.986919847, "bottom": 59.946110046000001, "row_index": 28, "col_index": 1, "tile_id": 69 }, "geometry": { "type": "MultiLineString", "coordinates": [ [ [ 4.956781176696255, 60.350296881869021 ], [ 4.956752548460894, 60.350111879125379 ], [ 4.956103588258921, 60.349582479338466 ], [ 4.956038808190818, 60.34940659949563 ], [ 4.956107877441567, 60.349346197479989 ] ] ] } },
{ "type": "Feature", "properties": { "fid": 112454, "elvelengde_m": 176.16, "elvID": "057-127-1", "elvenavn": null, "regulert": null, "fid_2": 69, "id": 69, "left": 4.486919847, "top": 60.446110046000001, "right": 4.986919847, "bottom": 59.946110046000001, "row_index": 28, "col_index": 1, "tile_id": 69 }, "geometry": { "type": "MultiLineString", "coordinates": [ [ [ 4.970604492093486, 60.334072439617586 ], [ 4.970613500628021, 60.333895087490681 ], [ 4.970948490530667, 60.333386654940767 ], [ 4.971490561941033, 60.333157837068001 ], [ 4.971827117375914, 60.33284325498083 ], [ 4.971697772555254, 60.332702716596955 ] ] ] } },
{ "type": "Feature", "properties": { "fid": 112486, "elvelengde_m": 85.16, "elvID": "057-81-1", "elvenavn": null, "regulert": null, "fid_2": 69, "id": 69, "left": 4.486919847, "top": 60.446110046000001, "right": 4.986919847, "bottom": 59.946110046000001, "row_index": 28, "col_index": 1, "tile_id": 69 }, "geometry": { "type": "MultiLineString", "coordinates": [ [ [ 4.980750284972896, 60.285049047123394 ], [ 4.980756099740949, 60.285279952751587 ], [ 4.980520248317222, 60.285518480337814 ], [ 4.980539359141853, 60.285781479720036 ] ] ] } },
{ "type": "Feature", "properties": { "fid": 112497, "elvelengde_m": 251.76, "elvID": "057-79-1", "elvenavn": null, "regulert": null, "fid_2": 69, "id": 69, "left": 4.486919847, "top": 60.446110046000001, "right": 4.986919847, "bottom": 59.946110046000001, "row_index": 28, "col_index": 1, "tile_id": 69 }, "geometry": { "type": "MultiLineString", "coordinates": [ [ [ 4.978606378386626, 60.276632431284405 ], [ 4.977001838860287, 60.276522864007426 ], [ 4.975928906455926, 60.276541325464216 ], [ 4.974137969388152, 60.276741049791234 ] ] ] } },
{ "type": "Feature", "properties": { "fid": 112503, "elvelengde_m": 389.86, "elvID": "057-78-1", "elvenavn": null, "regulert": null, "fid_2": 69, "id": 69, "left": 4.486919847, "top": 60.446110046000001, "right": 4.986919847, "bottom": 59.946110046000001, "row_index": 28, "col_index": 1, "tile_id": 69 }, "geometry": { "type": "MultiLineString", "coordinates": [ [ [ 4.969431021285876, 60.269041407042913 ], [ 4.968369828188107, 60.269201229190692 ], [ 4.967255308335732, 60.269777261244492 ], [ 4.966629489154139, 60.269947012981802 ], [ 4.965544767442157, 60.270411341559701 ], [ 4.964356481192768, 60.270582342735949 ], [ 4.963485243273415, 60.270501694046978 ] ] ] } },
{ "type": "Feature", "properties": { "fid": 112504, "elvelengde_m": 548.54, "elvID": "057-74-1", "elvenavn": null, "regulert": null, "fid_2": 69, "id": 69, "left": 4.486919847, "top": 60.446110046000001, "right": 4.986919847, "bottom": 59.946110046000001, "row_index": 28, "col_index": 1, "tile_id": 69 }, "geometry": { "type": "MultiLineString", "coordinates": [ [ [ 4.985160032481198, 60.271860049538631 ], [ 4.983959658180423, 60.270785604561169 ], [ 4.983254176928253, 60.270711969527788 ], [ 4.982185574532012, 60.270375090666697 ], [ 4.978789002486259, 60.269591218860626 ], [ 4.978492679722988, 60.269365563449917 ], [ 4.978589128163569, 60.269107441223717 ], [ 4.978515032701635, 60.268818803380249 ] ] ] } },
{ "type": "Feature", "properties": { "fid": 112511, "elvelengde_m": 95.09, "elvID": "057-77-1", "elvenavn": null, "regulert": null, "fid_2": 69, "id": 69, "left": 4.486919847, "top": 60.446110046000001, "right": 4.986919847, "bottom": 59.946110046000001, "row_index": 28, "col_index": 1, "tile_id": 69 }, "geometry": { "type": "MultiLineString", "coordinates": [ [ [ 4.973516403357254, 60.261061215714847 ], [ 4.972917795428319, 60.261146980331333 ], [ 4.971979396647444, 60.260897693745541 ] ] ] } },
{ "type": "Feature", "properties": { "fid": 112584, "elvelengde_m": 149.62, "elvID": "057-74-1", "elvenavn": null, "regulert": null, "fid_2": 69, "id": 69, "left": 4.486919847, "top": 60.446110046000001, "right": 4.986919847, "bottom": 59.946110046000001, "row_index": 28, "col_index": 1, "tile_id": 69 }, "geometry": { "type": "MultiLineString", "coordinates": [ [ [ 4.986919847, 60.272619256908882 ], [ 4.986577311374995, 60.272591706394458 ], [ 4.985287170731382, 60.272187567655322 ] ] ] } }
]
}
