{
"type": "FeatureCollection",
"name": "elvis_tile_id_1732",
"crs": { "type": "name", "properties": { "name": "urn:ogc:def:crs:OGC:1.3:CRS84" } },
"xy_coordinate_resolution": 1e-15,
"features": [
{ "type": "Feature", "properties": { "fid": 6404, "elvelengde_m": 854.21, "elvID": "234-62-1", "elvenavn": "Tana", "regulert": null, "fid_2": 1732, "id": 1732, "left": 25.486919847, "top": 68.946110046000001, "right": 25.986919847, "bottom": 68.446110046000001, "row_index": 11, "col_index": 43, "tile_id": 1732 }, "geometry": { "type": "MultiLineString", "coordinates": [ [ [ 25.6640963449228, 68.923086110305022 ], [ 25.664326791341907, 68.923243323264344 ], [ 25.664507190246407, 68.923534559199723 ], [ 25.664790790363565, 68.924362244142031 ], [ 25.665067423776129, 68.924690448762277 ], [ 25.666791651340649, 68.925272388717673 ], [ 25.667310629107764, 68.925642292180569 ], [ 25.667593193819439, 68.925991332658327 ], [ 25.668740374957441, 68.926604223870882 ], [ 25.669606366499451, 68.927199618540527 ], [ 25.670428721259029, 68.927795188337527 ], [ 25.671344105436361, 68.928600521915925 ], [ 25.672644433578046, 68.929935330569094 ] ] ] } },
{ "type": "Feature", "properties": { "fid": 6412, "elvelengde_m": 1159.93, "elvID": "234-62-1", "elvenavn": "Tana", "regulert": null, "fid_2": 1732, "id": 1732, "left": 25.486919847, "top": 68.946110046000001, "right": 25.986919847, "bottom": 68.446110046000001, "row_index": 11, "col_index": 43, "tile_id": 1732 }, "geometry": { "type": "MultiLineString", "coordinates": [ [ [ 25.672762172812917, 68.930051189888061 ], [ 25.672645467065735, 68.93023557281677 ], [ 25.671800353883416, 68.930777613311776 ], [ 25.671856594459076, 68.930938101900864 ], [ 25.672363626205975, 68.931274004351337 ], [ 25.672776901968327, 68.931798877820043 ], [ 25.673744877447653, 68.932377442247429 ], [ 25.677336492762425, 68.934809453614051 ], [ 25.67940398179336, 68.935869406402034 ], [ 25.680164165726669, 68.93638508129736 ], [ 25.682118443820706, 68.938677828072215 ], [ 25.682498587772336, 68.938972376805935 ], [ 25.683254744191263, 68.9393282334307 ] ] ] } },
{ "type": "Feature", "properties": { "fid": 6470, "elvelengde_m": 1155.73, "elvID": "234-62-1", "elvenavn": "Tana", "regulert": null, "fid_2": 1732, "id": 1732, "left": 25.486919847, "top": 68.946110046000001, "right": 25.986919847, "bottom": 68.446110046000001, "row_index": 11, "col_index": 43, "tile_id": 1732 }, "geometry": { "type": "MultiLineString", "coordinates": [ [ [ 25.683254744191263, 68.9393282334307 ], [ 25.684988643059366, 68.940570670832926 ], [ 25.686468064162337, 68.941418375817008 ], [ 25.688025940647854, 68.942492256107499 ], [ 25.68906247729101, 68.943072435279234 ], [ 25.689522420443176, 68.943829746218185 ], [ 25.691048749865676, 68.944666765969359 ], [ 25.691341563921895, 68.945147692247716 ], [ 25.691280336415463, 68.945664414293859 ], [ 25.691796671875274, 68.946110046 ] ] ] } },
{ "type": "Feature", "properties": { "fid": 6471, "elvelengde_m": 213.76, "elvID": "234-62-1", "elvenavn": "Tana", "regulert": null, "fid_2": 1732, "id": 1732, "left": 25.486919847, "top": 68.946110046000001, "right": 25.986919847, "bottom": 68.446110046000001, "row_index": 11, "col_index": 43, "tile_id": 1732 }, "geometry": { "type": "MultiLineString", "coordinates": [ [ [ 25.66213587058683, 68.921392048336884 ], [ 25.662056421897194, 68.921933182717822 ], [ 25.662346378498395, 68.922158767069519 ], [ 25.6640963449228, 68.923086110305022 ] ] ] } },
{ "type": "Feature", "properties": { "fid": 6474, "elvelengde_m": 1219.53, "elvID": "234-62-1", "elvenavn": "Tana", "regulert": null, "fid_2": 1732, "id": 1732, "left": 25.486919847, "top": 68.946110046000001, "right": 25.986919847, "bottom": 68.446110046000001, "row_index": 11, "col_index": 43, "tile_id": 1732 }, "geometry": { "type": "MultiLineString", "coordinates": [ [ [ 25.486919847, 68.904465619882487 ], [ 25.487803058716842, 68.904596169427478 ], [ 25.488866914670517, 68.90459952303091 ], [ 25.490043698255622, 68.904433495918951 ], [ 25.490744556104598, 68.90422152469489 ], [ 25.491582082748103, 68.904148960607984 ], [ 25.493121166047903, 68.9036393181905 ], [ 25.493695579421274, 68.903388853120461 ], [ 25.494085966319613, 68.903112405396357 ], [ 25.494593104795101, 68.902427321130745 ], [ 25.494804625119141, 68.901978650356824 ], [ 25.49479580173929, 68.901627934820567 ], [ 25.49425700932132, 68.900824924698298 ], [ 25.493707733764907, 68.900563480769449 ], [ 25.493357798538977, 68.900280051650256 ], [ 25.49323931407287, 68.899889378262827 ], [ 25.49334800554286, 68.89968932573386 ], [ 25.493848289297258, 68.899467115414936 ], [ 25.495411631836628, 68.899102872264933 ], [ 25.49620271968427, 68.898779938586571 ], [ 25.499452109015383, 68.898039519818312 ] ] ] } },
{ "type": "Feature", "properties": { "fid": 6475, "elvelengde_m": 792.38, "elvID": "234-62-1", "elvenavn": "Tana", "regulert": null, "fid_2": 1732, "id": 1732, "left": 25.486919847, "top": 68.946110046000001, "right": 25.986919847, "bottom": 68.446110046000001, "row_index": 11, "col_index": 43, "tile_id": 1732 }, "geometry": { "type": "MultiLineString", "coordinates": [ [ [ 25.499452109015383, 68.898039519818312 ], [ 25.501748911712991, 68.897599584962634 ], [ 25.502908630183516, 68.89747935870291 ], [ 25.504983147914359, 68.897441246123051 ], [ 25.508960468783101, 68.896924922242746 ], [ 25.509729160943756, 68.896670319975968 ], [ 25.51055498307624, 68.896154864724025 ], [ 25.511180773299468, 68.89547612500148 ], [ 25.511534979125205, 68.894718972480646 ], [ 25.512315241231786, 68.89410559310943 ], [ 25.512801255017376, 68.893857452736881 ] ] ] } },
{ "type": "Feature", "properties": { "fid": 6477, "elvelengde_m": 4699.14, "elvID": "234-62-1", "elvenavn": "Tana", "regulert": null, "fid_2": 1732, "id": 1732, "left": 25.486919847, "top": 68.946110046000001, "right": 25.986919847, "bottom": 68.446110046000001, "row_index": 11, "col_index": 43, "tile_id": 1732 }, "geometry": { "type": "MultiLineString", "coordinates": [ [ [ 25.610744403745592, 68.889640944507065 ], [ 25.611582873139515, 68.88995703939122 ], [ 25.614138724632074, 68.890565674864092 ], [ 25.615610614871233, 68.890678762255291 ], [ 25.618519307275314, 68.89073167311355 ], [ 25.621871798353187, 68.891100140585664 ], [ 25.622790959599186, 68.891368896195715 ], [ 25.623621300514689, 68.891727376634066 ], [ 25.623810147644694, 68.891937795645205 ], [ 25.623919856465594, 68.892215886822044 ], [ 25.62415981001579, 68.89232453508717 ], [ 25.62683440229269, 68.89268994278585 ], [ 25.628144919555027, 68.893305153256819 ], [ 25.6282693110231, 68.893579708600228 ], [ 25.628235853789253, 68.893907276758668 ], [ 25.62756136337817, 68.894758743283461 ], [ 25.62741110412361, 68.895059852107352 ], [ 25.627059446537526, 68.89586961241055 ], [ 25.627000195403454, 68.89618746802995 ], [ 25.626718554606821, 68.896688838275168 ], [ 25.62680777085529, 68.8969508886059 ], [ 25.627698445883375, 68.897471204198453 ], [ 25.629865700947672, 68.898244104242693 ], [ 25.63255664730525, 68.899933430748334 ], [ 25.633034322532353, 68.90031262350314 ], [ 25.633648488599416, 68.900616878233123 ], [ 25.634562501272555, 68.901252796889466 ], [ 25.63480162451161, 68.902018254929601 ], [ 25.635097760286762, 68.902348471339124 ], [ 25.635660174631901, 68.902638048295685 ], [ 25.636375493030126, 68.902800569939203 ], [ 25.64053436355071, 68.903370693005755 ], [ 25.642197769971293, 68.903773565941123 ], [ 25.643451157481483, 68.904196901686689 ], [ 25.646687555301387, 68.904497250440699 ], [ 25.649208173112818, 68.905258253525616 ], [ 25.650902625739032, 68.905500880661251 ], [ 25.653354099553962, 68.905545949477201 ], [ 25.654230171435042, 68.905874038109829 ], [ 25.654306539385114, 68.906135960854542 ], [ 25.653948464633977, 68.906384952024183 ], [ 25.653478089198781, 68.907022991985627 ], [ 25.653362959681804, 68.907335338577553 ], [ 25.653462291276909, 68.907823142445764 ], [ 25.653529684475068, 68.908063600284237 ], [ 25.654502936305946, 68.908572350314685 ], [ 25.655154700027303, 68.909107460007661 ], [ 25.655357515564344, 68.909460655213579 ], [ 25.655971961741411, 68.911071433621444 ], [ 25.656254803746762, 68.912061926912472 ], [ 25.656211187175572, 68.912421212823546 ], [ 25.656001938686096, 68.9127488684843 ], [ 25.656025637049392, 68.913010377185799 ], [ 25.656502158235639, 68.913636543200823 ], [ 25.656582238024363, 68.913900188918376 ], [ 25.656318593449896, 68.914485581480733 ], [ 25.656366542322314, 68.914740249909372 ], [ 25.656793200556464, 68.915034081532681 ], [ 25.657061129485466, 68.915512960112977 ], [ 25.657138021064195, 68.916133475671145 ], [ 25.657015136718858, 68.916529680354031 ], [ 25.657129878144492, 68.916809191998226 ], [ 25.658047887982292, 68.917734819876188 ], [ 25.658629869851858, 68.918148011629754 ], [ 25.659229409765658, 68.918490065044978 ], [ 25.660291792691666, 68.918816748636786 ], [ 25.660824378953539, 68.919150136399196 ], [ 25.661047195425624, 68.919549058176713 ], [ 25.661099706062149, 68.920077427550495 ], [ 25.662071763853337, 68.921025811361019 ], [ 25.662127550676779, 68.921344506888417 ] ] ] } },
{ "type": "Feature", "properties": { "fid": 6478, "elvelengde_m": 2155.94, "elvID": "234-62-1", "elvenavn": "Tana", "regulert": null, "fid_2": 1732, "id": 1732, "left": 25.486919847, "top": 68.946110046000001, "right": 25.986919847, "bottom": 68.446110046000001, "row_index": 11, "col_index": 43, "tile_id": 1732 }, "geometry": { "type": "MultiLineString", "coordinates": [ [ [ 25.512801255017376, 68.893857452736881 ], [ 25.515851449302616, 68.892281099276659 ], [ 25.516430532081223, 68.892096230332669 ], [ 25.519122512189302, 68.891663363261742 ], [ 25.520404097202761, 68.891028291746977 ], [ 25.521182806207644, 68.890816484583894 ], [ 25.522261951270423, 68.890645287016639 ], [ 25.523428220603993, 68.890550869535033 ], [ 25.523979486451907, 68.890620477587362 ], [ 25.525967671067949, 68.890400566482626 ], [ 25.526442125569975, 68.890225356166468 ], [ 25.528283085465862, 68.888968180527385 ], [ 25.529622836369203, 68.888357290034392 ], [ 25.530541797214706, 68.888037081758313 ], [ 25.532729710238524, 68.887729794137314 ], [ 25.534085170614034, 68.887379664089451 ], [ 25.537248211109716, 68.887073244094225 ], [ 25.539847762185751, 68.88662514835471 ], [ 25.543864314137444, 68.886345485350816 ], [ 25.546081285808469, 68.886388145165611 ], [ 25.547052283210295, 68.886491953697885 ], [ 25.552620414367325, 68.88739936712021 ], [ 25.553647223200258, 68.887417599546211 ], [ 25.557027668019067, 68.887178558905077 ] ] ] } },
{ "type": "Feature", "properties": { "fid": 6479, "elvelengde_m": 1491.94, "elvID": "234-62-1", "elvenavn": "Tana", "regulert": null, "fid_2": 1732, "id": 1732, "left": 25.486919847, "top": 68.946110046000001, "right": 25.986919847, "bottom": 68.446110046000001, "row_index": 11, "col_index": 43, "tile_id": 1732 }, "geometry": { "type": "MultiLineString", "coordinates": [ [ [ 25.557139108827961, 68.887153480362741 ], [ 25.558868557008548, 68.886573330448485 ], [ 25.56189632137189, 68.886423119328256 ], [ 25.563403733777729, 68.886007526649536 ], [ 25.564051559061294, 68.885906291647899 ], [ 25.569009137834964, 68.885870099296966 ], [ 25.572526195784903, 68.885281925426767 ], [ 25.578509959086229, 68.88465252626375 ], [ 25.581195834778608, 68.884188550025456 ], [ 25.583156286598182, 68.883707701895318 ], [ 25.585579051155868, 68.883323970529631 ], [ 25.58691439842686, 68.883254280351792 ], [ 25.589377477878237, 68.883269951197207 ], [ 25.591270214163497, 68.883551692515212 ] ] ] } },
{ "type": "Feature", "properties": { "fid": 6581, "elvelengde_m": 1106.41, "elvID": "234-62-1", "elvenavn": "Tana", "regulert": null, "fid_2": 1732, "id": 1732, "left": 25.486919847, "top": 68.946110046000001, "right": 25.986919847, "bottom": 68.446110046000001, "row_index": 11, "col_index": 43, "tile_id": 1732 }, "geometry": { "type": "MultiLineString", "coordinates": [ [ [ 25.591270214163497, 68.883551692515212 ], [ 25.593463884154158, 68.883660103269833 ], [ 25.594995980567315, 68.884019596501943 ], [ 25.597476420084455, 68.88438690525642 ], [ 25.598839960117189, 68.884714338157778 ], [ 25.600328704575642, 68.884872632782432 ], [ 25.601032065984057, 68.885047172304127 ], [ 25.602555124710985, 68.885763772952117 ], [ 25.602880761020312, 68.886021745915713 ], [ 25.603080941348527, 68.886497635633873 ], [ 25.604070681442806, 68.887489799456276 ], [ 25.60471826722193, 68.887824603281572 ], [ 25.606314623083549, 68.888217784353429 ], [ 25.608178719020021, 68.888964738508676 ], [ 25.610168864558645, 68.889359574422087 ], [ 25.610744403745592, 68.889640944507065 ] ] ] } },
{ "type": "Feature", "properties": { "fid": 6582, "elvelengde_m": 5.29, "elvID": "234-62-1", "elvenavn": "Tana", "regulert": null, "fid_2": 1732, "id": 1732, "left": 25.486919847, "top": 68.946110046000001, "right": 25.986919847, "bottom": 68.446110046000001, "row_index": 11, "col_index": 43, "tile_id": 1732 }, "geometry": { "type": "MultiLineString", "coordinates": [ [ [ 25.557027668019067, 68.887178558905077 ], [ 25.557139108827961, 68.887153480362741 ] ] ] } },
{ "type": "Feature", "properties": { "fid": 6585, "elvelengde_m": 5.32, "elvID": "234-62-1", "elvenavn": "Tana", "regulert": null, "fid_2": 1732, "id": 1732, "left": 25.486919847, "top": 68.946110046000001, "right": 25.986919847, "bottom": 68.446110046000001, "row_index": 11, "col_index": 43, "tile_id": 1732 }, "geometry": { "type": "MultiLineString", "coordinates": [ [ [ 25.662127550676779, 68.921344506888417 ], [ 25.66213587058683, 68.921392048336884 ] ] ] } },
{ "type": "Feature", "properties": { "fid": 6586, "elvelengde_m": 13.79, "elvID": "234-62-1", "elvenavn": "Tana", "regulert": null, "fid_2": 1732, "id": 1732, "left": 25.486919847, "top": 68.946110046000001, "right": 25.986919847, "bottom": 68.446110046000001, "row_index": 11, "col_index": 43, "tile_id": 1732 }, "geometry": { "type": "MultiLineString", "coordinates": [ [ [ 25.672644433578046, 68.929935330569094 ], [ 25.672762172812917, 68.930051189888061 ] ] ] } },
{ "type": "Feature", "properties": { "fid": 15851, "elvelengde_m": 120.2, "elvID": "234-62-1819", "elvenavn": "Cas'kinjåkka", "regulert": null, "fid_2": 1732, "id": 1732, "left": 25.486919847, "top": 68.946110046000001, "right": 25.986919847, "bottom": 68.446110046000001, "row_index": 11, "col_index": 43, "tile_id": 1732 }, "geometry": { "type": "MultiLineString", "coordinates": [ [ [ 25.530926545597236, 68.943144946810378 ], [ 25.53120543791627, 68.942947166886015 ], [ 25.532510622030049, 68.942446024522354 ], [ 25.532944019297158, 68.942447591354309 ] ] ] } },
{ "type": "Feature", "properties": { "fid": 15853, "elvelengde_m": 2968.54, "elvID": "234-62-1819", "elvenavn": "Cas'kinjåkka", "regulert": null, "fid_2": 1732, "id": 1732, "left": 25.486919847, "top": 68.946110046000001, "right": 25.986919847, "bottom": 68.446110046000001, "row_index": 11, "col_index": 43, "tile_id": 1732 }, "geometry": { "type": "MultiLineString", "coordinates": [ [ [ 25.516480870588669, 68.946110046 ], [ 25.516551460635775, 68.945954842539123 ], [ 25.516295451461438, 68.945845000062732 ], [ 25.516637151419065, 68.94579664959754 ], [ 25.516732582774722, 68.945746746517571 ], [ 25.516582732415173, 68.945663260176502 ], [ 25.517096595263606, 68.945547601131395 ], [ 25.516985643749809, 68.945465688083544 ], [ 25.516438141910946, 68.945454382976521 ], [ 25.516166855163036, 68.945313341063667 ], [ 25.515543825529164, 68.945255877301548 ], [ 25.514989063995792, 68.945002977855594 ], [ 25.514455077826376, 68.944864491148721 ], [ 25.514155934405213, 68.944734264325106 ], [ 25.513690008023218, 68.944368931603435 ], [ 25.51345024982847, 68.944153265689522 ], [ 25.51340291702995, 68.943951681879668 ], [ 25.512963763888525, 68.943787668755931 ], [ 25.512983130431998, 68.943718800223081 ], [ 25.513188709177275, 68.943664764187702 ], [ 25.513818291719499, 68.943669875390626 ], [ 25.513981464058709, 68.94354300604418 ] ] ] } },
{ "type": "Feature", "properties": { "fid": 15855, "elvelengde_m": 181.11, "elvID": "234-62-1819", "elvenavn": "Cas'kinjåkka", "regulert": null, "fid_2": 1732, "id": 1732, "left": 25.486919847, "top": 68.946110046000001, "right": 25.986919847, "bottom": 68.446110046000001, "row_index": 11, "col_index": 43, "tile_id": 1732 }, "geometry": { "type": "MultiLineString", "coordinates": [ [ [ 25.528112451906026, 68.942526033073065 ], [ 25.527609137415777, 68.943111095400141 ], [ 25.527711664598925, 68.943305879247603 ], [ 25.528017648147802, 68.943368447908213 ], [ 25.52929879268703, 68.943313154040126 ], [ 25.529817161553957, 68.94336256265963 ] ] ] } },
{ "type": "Feature", "properties": { "fid": 15856, "elvelengde_m": 90.6, "elvID": "234-62-1819", "elvenavn": "Cas'kinjåkka", "regulert": null, "fid_2": 1732, "id": 1732, "left": 25.486919847, "top": 68.946110046000001, "right": 25.986919847, "bottom": 68.446110046000001, "row_index": 11, "col_index": 43, "tile_id": 1732 }, "geometry": { "type": "MultiLineString", "coordinates": [ [ [ 25.514580234296108, 68.943386098796509 ], [ 25.515216980237689, 68.943364147186983 ], [ 25.516563218474481, 68.943663647042754 ] ] ] } },
{ "type": "Feature", "properties": { "fid": 15858, "elvelengde_m": 54.97, "elvID": "234-62-1819", "elvenavn": "Cas'kinjåkka", "regulert": null, "fid_2": 1732, "id": 1732, "left": 25.486919847, "top": 68.946110046000001, "right": 25.986919847, "bottom": 68.446110046000001, "row_index": 11, "col_index": 43, "tile_id": 1732 }, "geometry": { "type": "MultiLineString", "coordinates": [ [ [ 25.532944019297158, 68.942447591354309 ], [ 25.533688817654905, 68.942223548030242 ], [ 25.533765394624044, 68.942181257805274 ], [ 25.53374586292853, 68.942092104188646 ] ] ] } },
{ "type": "Feature", "properties": { "fid": 15859, "elvelengde_m": 380.21, "elvID": "234-62-1819", "elvenavn": "Cas'kinjåkka", "regulert": null, "fid_2": 1732, "id": 1732, "left": 25.486919847, "top": 68.946110046000001, "right": 25.986919847, "bottom": 68.446110046000001, "row_index": 11, "col_index": 43, "tile_id": 1732 }, "geometry": { "type": "MultiLineString", "coordinates": [ [ [ 25.518274296624295, 68.943487379820411 ], [ 25.519595660266571, 68.94344164375832 ], [ 25.520565961222616, 68.943039041616245 ], [ 25.521589629395464, 68.942839457703073 ], [ 25.525299457492526, 68.942506183624062 ], [ 25.526898767524873, 68.94256766740844 ] ] ] } },
{ "type": "Feature", "properties": { "fid": 15864, "elvelengde_m": 166.47, "elvID": "234-62-1819", "elvenavn": "Cas'kinjåkka", "regulert": null, "fid_2": 1732, "id": 1732, "left": 25.486919847, "top": 68.946110046000001, "right": 25.986919847, "bottom": 68.446110046000001, "row_index": 11, "col_index": 43, "tile_id": 1732 }, "geometry": { "type": "MultiLineString", "coordinates": [ [ [ 25.53374586292853, 68.942092104188646 ], [ 25.533130760335233, 68.942095520827905 ], [ 25.532975180440452, 68.941974075853594 ], [ 25.533180695654774, 68.941836273990333 ], [ 25.533949225087817, 68.941637904587495 ], [ 25.534388093763763, 68.941386536178726 ], [ 25.535249373058182, 68.941317612063685 ] ] ] } },
{ "type": "Feature", "properties": { "fid": 15865, "elvelengde_m": 255.63, "elvID": "234-62-2449", "elvenavn": null, "regulert": null, "fid_2": 1732, "id": 1732, "left": 25.486919847, "top": 68.946110046000001, "right": 25.986919847, "bottom": 68.446110046000001, "row_index": 11, "col_index": 43, "tile_id": 1732 }, "geometry": { "type": "MultiLineString", "coordinates": [ [ [ 25.627938028105522, 68.937159372084025 ], [ 25.628189373999678, 68.936934318173613 ], [ 25.628310376843999, 68.936639708829659 ], [ 25.62891069965918, 68.936402118026706 ], [ 25.629521614587894, 68.935904123412428 ], [ 25.630662397127875, 68.935379280265991 ], [ 25.631123902999125, 68.935257626047019 ] ] ] } },
{ "type": "Feature", "properties": { "fid": 15881, "elvelengde_m": 83.23, "elvID": "234-62-2509", "elvenavn": null, "regulert": null, "fid_2": 1732, "id": 1732, "left": 25.486919847, "top": 68.946110046000001, "right": 25.986919847, "bottom": 68.446110046000001, "row_index": 11, "col_index": 43, "tile_id": 1732 }, "geometry": { "type": "MultiLineString", "coordinates": [ [ [ 25.660784084812587, 68.93180295767543 ], [ 25.662745083028998, 68.931605779102227 ] ] ] } },
{ "type": "Feature", "properties": { "fid": 15883, "elvelengde_m": 673.59, "elvID": "234-62-2439", "elvenavn": null, "regulert": null, "fid_2": 1732, "id": 1732, "left": 25.486919847, "top": 68.946110046000001, "right": 25.986919847, "bottom": 68.446110046000001, "row_index": 11, "col_index": 43, "tile_id": 1732 }, "geometry": { "type": "MultiLineString", "coordinates": [ [ [ 25.616831621025984, 68.93424602998617 ], [ 25.617849858537415, 68.934242544163311 ], [ 25.618647036815457, 68.934539491720301 ], [ 25.620611776292101, 68.934334605090953 ], [ 25.621186827928867, 68.934352366227216 ], [ 25.621721376647098, 68.93423495297624 ], [ 25.624254917956023, 68.934153916957271 ], [ 25.625392950519117, 68.934263213390707 ], [ 25.626005802838108, 68.934425567845011 ], [ 25.626481514357355, 68.934649613286027 ], [ 25.627054403074531, 68.934643689459193 ], [ 25.628567453754535, 68.934828640318401 ], [ 25.629106784386131, 68.935034409321787 ], [ 25.629090580837847, 68.935223666430318 ], [ 25.629199507475438, 68.935322914003152 ], [ 25.631123902999125, 68.935257626047019 ] ] ] } },
{ "type": "Feature", "properties": { "fid": 15888, "elvelengde_m": 2536.55, "elvID": "234-62-2031", "elvenavn": "Oarjit cas'kinjåksuor'gi", "regulert": null, "fid_2": 1732, "id": 1732, "left": 25.486919847, "top": 68.946110046000001, "right": 25.986919847, "bottom": 68.446110046000001, "row_index": 11, "col_index": 43, "tile_id": 1732 }, "geometry": { "type": "MultiLineString", "coordinates": [ [ [ 25.486919847, 68.945053152996664 ], [ 25.487325688637071, 68.945074484525904 ], [ 25.487478455484908, 68.944949294726626 ], [ 25.487997469644569, 68.945050735499493 ], [ 25.488327698342779, 68.94475767992067 ], [ 25.488707398998461, 68.944567078792517 ], [ 25.488738210371558, 68.944326861343015 ], [ 25.489215828118656, 68.943988954818494 ], [ 25.490480792099532, 68.943625099086077 ], [ 25.490692717525178, 68.94364934657365 ], [ 25.490757306644962, 68.943535171645522 ], [ 25.491026871918894, 68.943472829849227 ], [ 25.4922836442944, 68.943701051992036 ], [ 25.49275289096262, 68.943576528738859 ], [ 25.492905167190468, 68.943784572436243 ], [ 25.493516848881484, 68.943717309265097 ], [ 25.493780361960187, 68.943816813150733 ], [ 25.494042746510974, 68.943799958318976 ], [ 25.494036698325672, 68.943673370820122 ], [ 25.493683028107434, 68.94358700940073 ], [ 25.493676247174339, 68.943475180047386 ], [ 25.49375580165373, 68.943449437650969 ], [ 25.495241261573646, 68.943638448901325 ], [ 25.495595259018369, 68.94374385892894 ], [ 25.495779254274918, 68.943902249945864 ], [ 25.496667293784022, 68.943788368018375 ], [ 25.496750327395887, 68.943634353646715 ], [ 25.497893058828851, 68.943461398178997 ], [ 25.498142713541156, 68.943333530240608 ], [ 25.497981088008547, 68.943124526290362 ], [ 25.49773040262172, 68.943031768651423 ], [ 25.497954033100999, 68.942915963288954 ], [ 25.497944378326725, 68.942838641189951 ], [ 25.497586113678288, 68.94277582314092 ], [ 25.497596738605953, 68.942649287731484 ], [ 25.497774166663572, 68.942549796747855 ], [ 25.497685342356856, 68.942353521277923 ], [ 25.498430101407024, 68.942081520559299 ], [ 25.498868728391276, 68.94205887267708 ], [ 25.499208000116557, 68.941945680954518 ], [ 25.49971804535312, 68.941970718844942 ], [ 25.499714523468938, 68.942071565505799 ], [ 25.499938355254397, 68.942122669612104 ], [ 25.500032252213245, 68.942031731509744 ], [ 25.500225538461432, 68.942018800460389 ], [ 25.50092752812774, 68.94211999005266 ], [ 25.50165023734418, 68.942066312216042 ], [ 25.503357802425114, 68.94214271193988 ], [ 25.503900766137303, 68.942085495367365 ], [ 25.504245860750984, 68.942238486946096 ], [ 25.505029255159531, 68.942200181271275 ], [ 25.505916798847839, 68.942421857273729 ], [ 25.506017239372582, 68.942502521429319 ], [ 25.505900236392073, 68.942587908923102 ], [ 25.505922038249871, 68.942651579550869 ], [ 25.506735288074079, 68.942604960246811 ], [ 25.507493161263373, 68.942719812116266 ], [ 25.507701130479198, 68.942767807708691 ], [ 25.507712903218088, 68.942833192522528 ], [ 25.507421060212661, 68.942987680518414 ], [ 25.507760045809459, 68.942970485572388 ], [ 25.507816784715757, 68.943097281827775 ], [ 25.508179646854835, 68.943013208746834 ], [ 25.508698341483694, 68.943100712903885 ], [ 25.50910315360052, 68.94305289767847 ], [ 25.509192146783064, 68.943273956466271 ], [ 25.509804871966818, 68.943331173011941 ], [ 25.509905069208312, 68.943460077179068 ], [ 25.510704946660542, 68.943620619132275 ], [ 25.510957093180547, 68.94352009222392 ], [ 25.511195192458761, 68.943526246764165 ], [ 25.511562471431766, 68.943761856228804 ], [ 25.511781880850737, 68.943749647167451 ], [ 25.511905561889215, 68.94360053601639 ], [ 25.512696196222301, 68.943620689386734 ], [ 25.513089191781852, 68.943461798517006 ], [ 25.513760055536018, 68.943383779383211 ] ] ] } },
{ "type": "Feature", "properties": { "fid": 15897, "elvelengde_m": 361.5, "elvID": "234-62-2439", "elvenavn": null, "regulert": null, "fid_2": 1732, "id": 1732, "left": 25.486919847, "top": 68.946110046000001, "right": 25.986919847, "bottom": 68.446110046000001, "row_index": 11, "col_index": 43, "tile_id": 1732 }, "geometry": { "type": "MultiLineString", "coordinates": [ [ [ 25.662745083028998, 68.931605779102227 ], [ 25.666583870711278, 68.931135839146322 ], [ 25.667544326595163, 68.930899383243656 ], [ 25.668269046943472, 68.930440423692161 ], [ 25.670118410900912, 68.930002171736419 ] ] ] } },
{ "type": "Feature", "properties": { "fid": 15900, "elvelengde_m": 475.07, "elvID": "234-62-2358", "elvenavn": null, "regulert": null, "fid_2": 1732, "id": 1732, "left": 25.486919847, "top": 68.946110046000001, "right": 25.986919847, "bottom": 68.446110046000001, "row_index": 11, "col_index": 43, "tile_id": 1732 }, "geometry": { "type": "MultiLineString", "coordinates": [ [ [ 25.546621230741398, 68.940280519625887 ], [ 25.546735493167837, 68.940052300614852 ], [ 25.546443820652986, 68.939709389177366 ], [ 25.546769591453184, 68.939424990669238 ], [ 25.546939329501058, 68.938817088779288 ], [ 25.548592851629291, 68.938743810159508 ], [ 25.549824908180135, 68.938342351915026 ], [ 25.550388873340285, 68.938259410250154 ], [ 25.55114253312184, 68.937752781787296 ], [ 25.552208103915028, 68.937397860510757 ], [ 25.551988478611019, 68.937244374293002 ] ] ] } },
{ "type": "Feature", "properties": { "fid": 15901, "elvelengde_m": 1146.4, "elvID": "234-62-1819", "elvenavn": "Cas'kinjåkka", "regulert": null, "fid_2": 1732, "id": 1732, "left": 25.486919847, "top": 68.946110046000001, "right": 25.986919847, "bottom": 68.446110046000001, "row_index": 11, "col_index": 43, "tile_id": 1732 }, "geometry": { "type": "MultiLineString", "coordinates": [ [ [ 25.535249373058182, 68.941317612063685 ], [ 25.536208745868684, 68.941253095981466 ], [ 25.537420323448956, 68.941012064580235 ], [ 25.539130046383647, 68.94091467147156 ], [ 25.539314087399962, 68.940833968784119 ], [ 25.539356171996573, 68.940705090200396 ], [ 25.538973695766327, 68.940526971866248 ], [ 25.539674162495672, 68.940364611015042 ], [ 25.540318587688045, 68.940376503262414 ], [ 25.540424588732719, 68.940429194208278 ], [ 25.540417706832315, 68.940526355881914 ], [ 25.540780420851046, 68.940573550798803 ], [ 25.541658490567059, 68.940419708140652 ], [ 25.542734773464783, 68.940345306745755 ], [ 25.544114236704857, 68.940076658028545 ], [ 25.544358328016219, 68.93994569252618 ], [ 25.544324222550241, 68.939830108993377 ], [ 25.544165056498585, 68.939752584671453 ], [ 25.544197451387383, 68.939629849216345 ], [ 25.544838364686942, 68.939514237024341 ], [ 25.544923283609357, 68.939359608379831 ], [ 25.544639127396078, 68.939218320736117 ], [ 25.543012233128191, 68.938994338407525 ], [ 25.542989241286833, 68.938828014269035 ], [ 25.543196375120189, 68.93859490590269 ], [ 25.543819801421925, 68.938307178247342 ], [ 25.544387343373451, 68.938234752092882 ], [ 25.544938604243438, 68.938368614707045 ], [ 25.545868185028336, 68.938378106239085 ], [ 25.548940599632996, 68.938215424944502 ], [ 25.54931772036424, 68.938109014746985 ], [ 25.549232553536825, 68.937810966433901 ], [ 25.549557285863578, 68.937609733655208 ], [ 25.550262697076516, 68.937441197724198 ], [ 25.551988478611019, 68.937244374293002 ] ] ] } },
{ "type": "Feature", "properties": { "fid": 15909, "elvelengde_m": 237.41, "elvID": "234-62-2439", "elvenavn": null, "regulert": null, "fid_2": 1732, "id": 1732, "left": 25.486919847, "top": 68.946110046000001, "right": 25.986919847, "bottom": 68.446110046000001, "row_index": 11, "col_index": 43, "tile_id": 1732 }, "geometry": { "type": "MultiLineString", "coordinates": [ [ [ 25.658694121426045, 68.930103322310373 ], [ 25.659507462226244, 68.930372911258559 ], [ 25.661442690834381, 68.931263084183001 ], [ 25.662745083028998, 68.931605779102227 ] ] ] } },
{ "type": "Feature", "properties": { "fid": 15910, "elvelengde_m": 1562.79, "elvID": "234-62-2439", "elvenavn": null, "regulert": null, "fid_2": 1732, "id": 1732, "left": 25.486919847, "top": 68.946110046000001, "right": 25.986919847, "bottom": 68.446110046000001, "row_index": 11, "col_index": 43, "tile_id": 1732 }, "geometry": { "type": "MultiLineString", "coordinates": [ [ [ 25.631123902999125, 68.935257626047019 ], [ 25.633673675422813, 68.934866363591738 ], [ 25.636647131291912, 68.934581894338095 ], [ 25.640387796534863, 68.934363361781195 ], [ 25.640962256479664, 68.934183948884041 ], [ 25.641585047864574, 68.934104236608619 ], [ 25.64333579606366, 68.934255350816784 ], [ 25.643658320986166, 68.934390630106648 ], [ 25.644397038110196, 68.934510370230271 ], [ 25.644718524637227, 68.934679237634839 ], [ 25.645902732582272, 68.934923765330254 ], [ 25.648464595741267, 68.934863746218198 ], [ 25.649036129464367, 68.934802686256248 ], [ 25.650605133261418, 68.934389925639493 ], [ 25.651693462980798, 68.934323392759936 ], [ 25.651768737749638, 68.934278392173255 ], [ 25.651697175969268, 68.934208320581618 ], [ 25.653341670094225, 68.934089669448952 ], [ 25.653610668398908, 68.933953119224469 ], [ 25.654083586582377, 68.933882550378826 ], [ 25.655042921489731, 68.933850851644991 ], [ 25.655245310891384, 68.933725319228088 ], [ 25.655560036330293, 68.933668008309894 ], [ 25.655423830032383, 68.933370798981315 ], [ 25.655524474761041, 68.933292940056603 ], [ 25.656414650813673, 68.933109241344695 ], [ 25.65653329543558, 68.932863891380094 ], [ 25.656292845794642, 68.932709093936367 ], [ 25.656267634710581, 68.932568954911446 ], [ 25.655986902926365, 68.932427331896619 ], [ 25.656124494652385, 68.932272547528811 ], [ 25.655942393347075, 68.932152949433316 ], [ 25.655975691990189, 68.932038005821767 ], [ 25.65586466483386, 68.931996776313056 ], [ 25.656175649724055, 68.931848027881472 ], [ 25.656178782994932, 68.931682658134562 ], [ 25.654783649209421, 68.931080302867002 ], [ 25.654471069868034, 68.930738269776114 ], [ 25.65388289192596, 68.930475151964004 ], [ 25.65393979601199, 68.930418408713933 ], [ 25.653755489010646, 68.93028750164143 ] ] ] } },
{ "type": "Feature", "properties": { "fid": 15915, "elvelengde_m": 131.33, "elvID": "234-62-1819", "elvenavn": "Cas'kinjåkka", "regulert": null, "fid_2": 1732, "id": 1732, "left": 25.486919847, "top": 68.946110046000001, "right": 25.986919847, "bottom": 68.446110046000001, "row_index": 11, "col_index": 43, "tile_id": 1732 }, "geometry": { "type": "MultiLineString", "coordinates": [ [ [ 25.551988478611019, 68.937244374293002 ], [ 25.552175586343488, 68.93715919273491 ], [ 25.552323466775324, 68.936962017227273 ], [ 25.552306258961142, 68.936844377637343 ], [ 25.551766886620918, 68.936849583480821 ], [ 25.551351426861196, 68.936688995082932 ], [ 25.55136391962921, 68.936546064395287 ], [ 25.55179963940467, 68.936451787062552 ] ] ] } },
{ "type": "Feature", "properties": { "fid": 15919, "elvelengde_m": 1464.2, "elvID": "234-62-2344", "elvenavn": null, "regulert": null, "fid_2": 1732, "id": 1732, "left": 25.486919847, "top": 68.946110046000001, "right": 25.986919847, "bottom": 68.446110046000001, "row_index": 11, "col_index": 43, "tile_id": 1732 }, "geometry": { "type": "MultiLineString", "coordinates": [ [ [ 25.528458736528503, 68.941409624503606 ], [ 25.528343711276548, 68.941097275374617 ], [ 25.528367754237252, 68.940958084336998 ], [ 25.527780533633315, 68.940723870736747 ], [ 25.52736686953196, 68.940438958705485 ], [ 25.527360512945862, 68.940072784736074 ], [ 25.527464972795926, 68.939912865565276 ], [ 25.527414615670871, 68.93966178679905 ], [ 25.529072940522944, 68.939253804905846 ], [ 25.529590628224938, 68.938885726022164 ], [ 25.530135132547333, 68.938704707425543 ], [ 25.530199547935343, 68.938615221347547 ], [ 25.530063833010168, 68.938361565849448 ], [ 25.53013571328361, 68.938144094665958 ], [ 25.530271356532957, 68.938022189959867 ], [ 25.530282275598662, 68.937892990203366 ], [ 25.530518218084879, 68.937791620561811 ], [ 25.531763094136309, 68.937530925023935 ], [ 25.532555281423395, 68.937462504039445 ], [ 25.53429188863101, 68.93685247779446 ], [ 25.534652182473344, 68.936870223418765 ], [ 25.535998509609854, 68.936657745311294 ], [ 25.537306792577947, 68.936728559436503 ], [ 25.538228969756798, 68.936942640713951 ], [ 25.538799849614492, 68.936939961260322 ], [ 25.539375031026907, 68.93680703671869 ], [ 25.540159945190499, 68.936789532038944 ], [ 25.542518115094396, 68.936384821439219 ], [ 25.546111259189747, 68.936303908452643 ], [ 25.546812813385593, 68.936197481986952 ], [ 25.547745862098129, 68.936360697734813 ], [ 25.548173953452199, 68.936294519413465 ], [ 25.548150612776091, 68.936194975776189 ], [ 25.548385112300661, 68.93614516653831 ], [ 25.549359019051131, 68.936078290902714 ], [ 25.550198263490568, 68.936309667458801 ], [ 25.55096794831454, 68.936345835773253 ], [ 25.551000457507477, 68.936438720833635 ], [ 25.55179963940467, 68.936451787062552 ] ] ] } },
{ "type": "Feature", "properties": { "fid": 15968, "elvelengde_m": 2156.96, "elvID": "234-62-1819", "elvenavn": "Cas'kinjåkka", "regulert": null, "fid_2": 1732, "id": 1732, "left": 25.486919847, "top": 68.946110046000001, "right": 25.986919847, "bottom": 68.446110046000001, "row_index": 11, "col_index": 43, "tile_id": 1732 }, "geometry": { "type": "MultiLineString", "coordinates": [ [ [ 25.55179963940467, 68.936451787062552 ], [ 25.55255866205686, 68.936169617992874 ], [ 25.552682400431951, 68.936179047060691 ], [ 25.552734575625767, 68.936338734536534 ], [ 25.552899847675942, 68.936439848489712 ], [ 25.553720988807122, 68.936557895469051 ], [ 25.553842765755519, 68.936512584612345 ], [ 25.553817791815668, 68.936244106148109 ], [ 25.554595450741747, 68.936063763089308 ], [ 25.554982589616841, 68.936061256970461 ], [ 25.555083809063479, 68.936105064571052 ], [ 25.555131601939564, 68.936244680146899 ], [ 25.555336818323642, 68.93627117374443 ], [ 25.556092950573955, 68.93608653815879 ], [ 25.55632714734022, 68.936289974002023 ], [ 25.556541572332875, 68.936331331538526 ], [ 25.557082185801974, 68.936204408505986 ], [ 25.557100129511642, 68.93609110882727 ], [ 25.557263305710876, 68.935998788280827 ], [ 25.558089839061068, 68.936026644343883 ], [ 25.558431512688664, 68.935812611565282 ], [ 25.558957829234355, 68.935748069163623 ], [ 25.560728053235287, 68.935911330868024 ], [ 25.561274107502197, 68.935831739195848 ], [ 25.561477785006034, 68.935670752503 ], [ 25.561962562929157, 68.935562111966433 ], [ 25.563295538129456, 68.935553790830767 ], [ 25.564017820353655, 68.935306651637632 ], [ 25.564196058337188, 68.934982481608941 ], [ 25.564572266876258, 68.93477317359212 ], [ 25.565058932120809, 68.934590738295014 ], [ 25.566107601731819, 68.934428063375194 ], [ 25.566499751673483, 68.934285149946248 ], [ 25.56665587839667, 68.933959725530769 ], [ 25.56662858255633, 68.933795300083503 ], [ 25.566273451933444, 68.933621248381442 ], [ 25.565584266660274, 68.933039562742934 ], [ 25.565573738457744, 68.932925953547155 ], [ 25.565741413239568, 68.932826345853996 ], [ 25.56752009705761, 68.932382862244211 ], [ 25.570247022094577, 68.932424593319766 ], [ 25.570868872331506, 68.932253014349314 ], [ 25.571256865477221, 68.932033318870609 ], [ 25.572221818413947, 68.932090213034044 ], [ 25.574925110179798, 68.931774457132548 ], [ 25.575616387776076, 68.931537282786039 ], [ 25.575972948644598, 68.931309097560018 ], [ 25.576446999760314, 68.930604106173888 ], [ 25.576876945945905, 68.930228795547492 ], [ 25.5776599401608, 68.930047173191724 ], [ 25.578466692695461, 68.930113220508574 ], [ 25.579176386740873, 68.929696378540939 ], [ 25.579650789830715, 68.929197729503059 ], [ 25.580076748700787, 68.929196358172518 ], [ 25.579989721330641, 68.929594139406561 ], [ 25.580240722284163, 68.929631809247581 ], [ 25.581045728155345, 68.929518641570468 ], [ 25.581445445131685, 68.929353135790819 ], [ 25.582065980535411, 68.929229187521599 ], [ 25.583317719712419, 68.928615720382481 ], [ 25.58377113048525, 68.928474089829578 ], [ 25.583982645103465, 68.928475080289999 ], [ 25.584257127869098, 68.928625816574112 ], [ 25.5847457581615, 68.928611053450567 ] ] ] } },
{ "type": "Feature", "properties": { "fid": 15970, "elvelengde_m": 259.16, "elvID": "234-62-2399", "elvenavn": null, "regulert": null, "fid_2": 1732, "id": 1732, "left": 25.486919847, "top": 68.946110046000001, "right": 25.986919847, "bottom": 68.446110046000001, "row_index": 11, "col_index": 43, "tile_id": 1732 }, "geometry": { "type": "MultiLineString", "coordinates": [ [ [ 25.57941644053901, 68.928423058210029 ], [ 25.580322216258871, 68.928224089905186 ], [ 25.582158757833479, 68.9284572481411 ], [ 25.58308826555497, 68.928205179447559 ], [ 25.583500363837839, 68.928344557495848 ], [ 25.584524487696896, 68.928483140111666 ], [ 25.5847457581615, 68.928611053450567 ] ] ] } },
{ "type": "Feature", "properties": { "fid": 15973, "elvelengde_m": 440.18, "elvID": "234-62-1819", "elvenavn": "Cas'kinjåkka", "regulert": null, "fid_2": 1732, "id": 1732, "left": 25.486919847, "top": 68.946110046000001, "right": 25.986919847, "bottom": 68.446110046000001, "row_index": 11, "col_index": 43, "tile_id": 1732 }, "geometry": { "type": "MultiLineString", "coordinates": [ [ [ 25.654104590231373, 68.924596768879297 ], [ 25.655594272841572, 68.924986076643663 ], [ 25.656282369563463, 68.92502581858335 ], [ 25.658433795356647, 68.924647910696351 ], [ 25.659089331176425, 68.924443484444637 ], [ 25.659341942803827, 68.924220369607681 ], [ 25.659380942303791, 68.924031290088521 ], [ 25.65899232198549, 68.923729416517361 ], [ 25.65790485535511, 68.923304088947447 ], [ 25.657250713298442, 68.922893526543575 ] ] ] } },
{ "type": "Feature", "properties": { "fid": 15977, "elvelengde_m": 468.68, "elvID": "234-62-1819", "elvenavn": "Cas'kinjåkka", "regulert": null, "fid_2": 1732, "id": 1732, "left": 25.486919847, "top": 68.946110046000001, "right": 25.986919847, "bottom": 68.446110046000001, "row_index": 11, "col_index": 43, "tile_id": 1732 }, "geometry": { "type": "MultiLineString", "coordinates": [ [ [ 25.64475549279619, 68.923580187098921 ], [ 25.64543282266936, 68.923998407730608 ], [ 25.646246369406406, 68.924146012867993 ], [ 25.648462872776776, 68.924221566135941 ], [ 25.649225329285887, 68.924090834738635 ], [ 25.649713476118283, 68.923649084291938 ], [ 25.650197341996329, 68.923635060600148 ], [ 25.651435695699622, 68.923850389062594 ], [ 25.653032429570725, 68.923809306257453 ], [ 25.653484563274134, 68.923950183092515 ], [ 25.65358814330169, 68.924240727944053 ] ] ] } },
{ "type": "Feature", "properties": { "fid": 15983, "elvelengde_m": 120.56, "elvID": "234-62-1819", "elvenavn": "Cas'kinjåkka", "regulert": null, "fid_2": 1732, "id": 1732, "left": 25.486919847, "top": 68.946110046000001, "right": 25.986919847, "bottom": 68.446110046000001, "row_index": 11, "col_index": 43, "tile_id": 1732 }, "geometry": { "type": "MultiLineString", "coordinates": [ [ [ 25.631874320137925, 68.92339372724679 ], [ 25.634700873149008, 68.923690545868908 ] ] ] } },
{ "type": "Feature", "properties": { "fid": 15984, "elvelengde_m": 55.48, "elvID": "234-62-1819", "elvenavn": "Cas'kinjåkka", "regulert": null, "fid_2": 1732, "id": 1732, "left": 25.486919847, "top": 68.946110046000001, "right": 25.986919847, "bottom": 68.446110046000001, "row_index": 11, "col_index": 43, "tile_id": 1732 }, "geometry": { "type": "MultiLineString", "coordinates": [ [ [ 25.659491947058353, 68.921580661676089 ], [ 25.660824413350856, 68.921533670138359 ] ] ] } },
{ "type": "Feature", "properties": { "fid": 15985, "elvelengde_m": 380.76, "elvID": "234-62-1819", "elvenavn": "Cas'kinjåkka", "regulert": null, "fid_2": 1732, "id": 1732, "left": 25.486919847, "top": 68.946110046000001, "right": 25.986919847, "bottom": 68.446110046000001, "row_index": 11, "col_index": 43, "tile_id": 1732 }, "geometry": { "type": "MultiLineString", "coordinates": [ [ [ 25.634700873149008, 68.923690545868908 ], [ 25.637462342849684, 68.923432068292939 ], [ 25.638692864538942, 68.923238790775457 ], [ 25.64042258276379, 68.922827762912547 ], [ 25.641317508014236, 68.922752939333108 ], [ 25.642103447073342, 68.922829531531136 ], [ 25.642356714371662, 68.922683631823844 ], [ 25.642888628157149, 68.922653785857264 ], [ 25.643069244065476, 68.922561347622505 ] ] ] } },
{ "type": "Feature", "properties": { "fid": 15986, "elvelengde_m": 133.2, "elvID": "234-62-1819", "elvenavn": "Cas'kinjåkka", "regulert": null, "fid_2": 1732, "id": 1732, "left": 25.486919847, "top": 68.946110046000001, "right": 25.986919847, "bottom": 68.446110046000001, "row_index": 11, "col_index": 43, "tile_id": 1732 }, "geometry": { "type": "MultiLineString", "coordinates": [ [ [ 25.643069244065476, 68.922561347622505 ], [ 25.643539029336939, 68.922535057314192 ], [ 25.643867883055023, 68.922604423789238 ], [ 25.643854979187505, 68.922855622531713 ], [ 25.644610813057728, 68.922942916522331 ], [ 25.644539518395405, 68.923159735175261 ], [ 25.644623989845005, 68.923251249929834 ] ] ] } },
{ "type": "Feature", "properties": { "fid": 15987, "elvelengde_m": 284.75, "elvID": "234-62-1819", "elvenavn": "Cas'kinjåkka", "regulert": null, "fid_2": 1732, "id": 1732, "left": 25.486919847, "top": 68.946110046000001, "right": 25.986919847, "bottom": 68.446110046000001, "row_index": 11, "col_index": 43, "tile_id": 1732 }, "geometry": { "type": "MultiLineString", "coordinates": [ [ [ 25.657250713298442, 68.922893526543575 ], [ 25.656376240660261, 68.922667691769121 ], [ 25.656236726291077, 68.922599010651922 ], [ 25.656194718467447, 68.922461660371781 ], [ 25.656488519569731, 68.922241216731663 ], [ 25.657593190551285, 68.922072823189694 ], [ 25.657852627814361, 68.921882349399695 ], [ 25.657788907698102, 68.92161099947819 ], [ 25.657889225448859, 68.921579673803009 ], [ 25.658219518265192, 68.921575331501387 ], [ 25.658683559552646, 68.921692000674227 ], [ 25.659122494340288, 68.921549232489383 ], [ 25.659491947058353, 68.921580661676089 ] ] ] } },
{ "type": "Feature", "properties": { "fid": 15997, "elvelengde_m": 1893.53, "elvID": "234-62-1819", "elvenavn": "Cas'kinjåkka", "regulert": null, "fid_2": 1732, "id": 1732, "left": 25.486919847, "top": 68.946110046000001, "right": 25.986919847, "bottom": 68.446110046000001, "row_index": 11, "col_index": 43, "tile_id": 1732 }, "geometry": { "type": "MultiLineString", "coordinates": [ [ [ 25.5847457581615, 68.928611053450567 ], [ 25.585554689955501, 68.928608709340509 ], [ 25.585948197840121, 68.928704466211897 ], [ 25.58603310015507, 68.928648904818914 ], [ 25.585425940176336, 68.928304488534337 ], [ 25.586050759488153, 68.928164993298452 ], [ 25.586613389820169, 68.928246682830689 ], [ 25.587023579862979, 68.928170614519473 ], [ 25.587158702605681, 68.928241072132494 ], [ 25.587030638369466, 68.928373194636265 ], [ 25.587448184939628, 68.928457083860664 ], [ 25.587879207964978, 68.928385973789631 ], [ 25.5879103709722, 68.928228411789391 ], [ 25.588228180165075, 68.92811435475376 ], [ 25.588425158582584, 68.928135873014199 ], [ 25.588423012735809, 68.928238200905952 ], [ 25.588519015057205, 68.928263877332611 ], [ 25.589258625254146, 68.928156042365956 ], [ 25.589564200610717, 68.928247954891646 ], [ 25.589740284767483, 68.928090468655498 ], [ 25.589978135940129, 68.928039564220839 ], [ 25.590057587349687, 68.927958725817817 ], [ 25.590067416248399, 68.92773428206084 ], [ 25.590200414234385, 68.927618106484971 ], [ 25.590670698660293, 68.927548883251021 ], [ 25.590679064558973, 68.927431811706924 ], [ 25.591440003879729, 68.927379491203254 ], [ 25.59164348086712, 68.927232726838213 ], [ 25.592151614776288, 68.927086452296308 ], [ 25.593433625623874, 68.926890121296097 ], [ 25.594007978023598, 68.926998574124269 ], [ 25.594322345527935, 68.926767172653911 ], [ 25.596461064338879, 68.926734293389273 ], [ 25.599066473755851, 68.925468875776772 ], [ 25.60157948146373, 68.924773516470083 ], [ 25.60252566300694, 68.924351580217547 ], [ 25.60294186870507, 68.924327140526273 ], [ 25.603114754024595, 68.924409293156103 ], [ 25.602215498865718, 68.925268046382584 ], [ 25.602286452762275, 68.925356516832338 ], [ 25.602792854569188, 68.925294250698727 ], [ 25.60354142826165, 68.925032530825121 ], [ 25.603804959731939, 68.924886967024264 ], [ 25.603818325983585, 68.92473978063002 ], [ 25.603899381853488, 68.924686810801447 ], [ 25.604266631686297, 68.9246270200357 ], [ 25.604356008045926, 68.924656192828735 ], [ 25.604363706012389, 68.92499600238294 ], [ 25.605060004728383, 68.925215753440384 ], [ 25.606436361311509, 68.925148098598314 ], [ 25.607194774706485, 68.92523839169165 ], [ 25.607767491052588, 68.92481629025653 ], [ 25.608457905888436, 68.924773318268038 ], [ 25.609885632343918, 68.924481471719062 ], [ 25.611462822424137, 68.923817196577858 ], [ 25.611532673560834, 68.923694432456941 ], [ 25.611513734839196, 68.923457977761956 ], [ 25.61162370982958, 68.923351311727359 ], [ 25.612201197111197, 68.923172076247326 ] ] ] } },
{ "type": "Feature", "properties": { "fid": 15998, "elvelengde_m": 8.84, "elvID": "234-62-1819", "elvenavn": "Cas'kinjåkka", "regulert": null, "fid_2": 1732, "id": 1732, "left": 25.486919847, "top": 68.946110046000001, "right": 25.986919847, "bottom": 68.446110046000001, "row_index": 11, "col_index": 43, "tile_id": 1732 }, "geometry": { "type": "MultiLineString", "coordinates": [ [ [ 25.625061597316023, 68.922338396881926 ], [ 25.625257710153086, 68.922302601797185 ] ] ] } },
{ "type": "Feature", "properties": { "fid": 15999, "elvelengde_m": 54.35, "elvID": "234-62-1819", "elvenavn": "Cas'kinjåkka", "regulert": null, "fid_2": 1732, "id": 1732, "left": 25.486919847, "top": 68.946110046000001, "right": 25.986919847, "bottom": 68.446110046000001, "row_index": 11, "col_index": 43, "tile_id": 1732 }, "geometry": { "type": "MultiLineString", "coordinates": [ [ [ 25.612201197111197, 68.923172076247326 ], [ 25.613471849684242, 68.923027885697252 ] ] ] } },
{ "type": "Feature", "properties": { "fid": 16000, "elvelengde_m": 12.25, "elvID": "234-62-1819", "elvenavn": "Cas'kinjåkka", "regulert": null, "fid_2": 1732, "id": 1732, "left": 25.486919847, "top": 68.946110046000001, "right": 25.986919847, "bottom": 68.446110046000001, "row_index": 11, "col_index": 43, "tile_id": 1732 }, "geometry": { "type": "MultiLineString", "coordinates": [ [ [ 25.626008214348843, 68.921980137326742 ], [ 25.626250220127755, 68.921913649848591 ] ] ] } },
{ "type": "Feature", "properties": { "fid": 16002, "elvelengde_m": 297.46, "elvID": "234-62-1819", "elvenavn": "Cas'kinjåkka", "regulert": null, "fid_2": 1732, "id": 1732, "left": 25.486919847, "top": 68.946110046000001, "right": 25.986919847, "bottom": 68.446110046000001, "row_index": 11, "col_index": 43, "tile_id": 1732 }, "geometry": { "type": "MultiLineString", "coordinates": [ [ [ 25.626994364955959, 68.92167052615639 ], [ 25.629226684780079, 68.921596328119691 ], [ 25.629714276734124, 68.921659074199482 ], [ 25.629890135286562, 68.921744559277641 ], [ 25.629920799162541, 68.921882803912226 ], [ 25.630805938602396, 68.922603842377782 ], [ 25.631399871858669, 68.922950412418004 ], [ 25.63143092160918, 68.923031853206794 ], [ 25.631291297771, 68.923156759149592 ] ] ] } },
{ "type": "Feature", "properties": { "fid": 16010, "elvelengde_m": 60.54, "elvID": "234-62-2394", "elvenavn": null, "regulert": null, "fid_2": 1732, "id": 1732, "left": 25.486919847, "top": 68.946110046000001, "right": 25.986919847, "bottom": 68.446110046000001, "row_index": 11, "col_index": 43, "tile_id": 1732 }, "geometry": { "type": "MultiLineString", "coordinates": [ [ [ 25.625936016886151, 68.921082852892624 ], [ 25.626290504305469, 68.921307344477356 ], [ 25.626511506294975, 68.921576495631271 ] ] ] } },
{ "type": "Feature", "properties": { "fid": 16011, "elvelengde_m": 124.16, "elvID": "234-62-1819", "elvenavn": "Cas'kinjåkka", "regulert": null, "fid_2": 1732, "id": 1732, "left": 25.486919847, "top": 68.946110046000001, "right": 25.986919847, "bottom": 68.446110046000001, "row_index": 11, "col_index": 43, "tile_id": 1732 }, "geometry": { "type": "MultiLineString", "coordinates": [ [ [ 25.61637472651374, 68.922475519283637 ], [ 25.61718006134274, 68.92206153013241 ], [ 25.617968682906366, 68.921528036888219 ] ] ] } },
{ "type": "Feature", "properties": { "fid": 16014, "elvelengde_m": 447.62, "elvID": "234-62-1819", "elvenavn": "Cas'kinjåkka", "regulert": null, "fid_2": 1732, "id": 1732, "left": 25.486919847, "top": 68.946110046000001, "right": 25.986919847, "bottom": 68.446110046000001, "row_index": 11, "col_index": 43, "tile_id": 1732 }, "geometry": { "type": "MultiLineString", "coordinates": [ [ [ 25.618749928796351, 68.921094205139809 ], [ 25.619658542570225, 68.921112023217205 ], [ 25.620235820030242, 68.921368733467844 ], [ 25.620416317046477, 68.921526156190623 ], [ 25.620397607221328, 68.921818403021447 ], [ 25.619548835895337, 68.922401484099922 ], [ 25.619672456781522, 68.922493810566905 ], [ 25.620960115370544, 68.922477670345529 ], [ 25.622775535695851, 68.922676466530902 ], [ 25.623710664766925, 68.922692596263843 ], [ 25.625061597316023, 68.922338396881926 ] ] ] } },
{ "type": "Feature", "properties": { "fid": 16017, "elvelengde_m": 10.05, "elvID": "234-62-2427", "elvenavn": null, "regulert": null, "fid_2": 1732, "id": 1732, "left": 25.486919847, "top": 68.946110046000001, "right": 25.986919847, "bottom": 68.446110046000001, "row_index": 11, "col_index": 43, "tile_id": 1732 }, "geometry": { "type": "MultiLineString", "coordinates": [ [ [ 25.617334668784956, 68.920719286609682 ], [ 25.617495588394537, 68.920786099728218 ] ] ] } },
{ "type": "Feature", "properties": { "fid": 16060, "elvelengde_m": 361.9, "elvID": "234-62-2394", "elvenavn": null, "regulert": null, "fid_2": 1732, "id": 1732, "left": 25.486919847, "top": 68.946110046000001, "right": 25.986919847, "bottom": 68.446110046000001, "row_index": 11, "col_index": 43, "tile_id": 1732 }, "geometry": { "type": "MultiLineString", "coordinates": [ [ [ 25.614976606563172, 68.914462603762161 ], [ 25.616205721990724, 68.914734684944534 ], [ 25.617680078106826, 68.915400386716314 ], [ 25.618400954070687, 68.916047039847498 ], [ 25.619843944628304, 68.91680882225829 ], [ 25.619907643402595, 68.917044277606308 ] ] ] } },
{ "type": "Feature", "properties": { "fid": 16087, "elvelengde_m": 1918.37, "elvID": "234-62-2402", "elvenavn": null, "regulert": null, "fid_2": 1732, "id": 1732, "left": 25.486919847, "top": 68.946110046000001, "right": 25.986919847, "bottom": 68.446110046000001, "row_index": 11, "col_index": 43, "tile_id": 1732 }, "geometry": { "type": "MultiLineString", "coordinates": [ [ [ 25.581294692418567, 68.912312647731738 ], [ 25.581943535669797, 68.912536346169077 ], [ 25.582287193783692, 68.912531851783825 ], [ 25.582993285272508, 68.912684098448722 ], [ 25.583740172666179, 68.912637664534032 ], [ 25.585256655127701, 68.912765185173825 ], [ 25.586110293785524, 68.913250704141802 ], [ 25.586504190714034, 68.913250949938572 ], [ 25.58782262354152, 68.913584008575995 ], [ 25.587857836586679, 68.913734313930036 ], [ 25.58797388850703, 68.913780165707863 ], [ 25.589204894271305, 68.913834201873129 ], [ 25.590157813096127, 68.914319194506746 ], [ 25.591159360614547, 68.914396806375379 ], [ 25.592183700207915, 68.914650025718231 ], [ 25.592549139639083, 68.914907485855309 ], [ 25.593643756898995, 68.915145291571562 ], [ 25.594709870410981, 68.915244081504056 ], [ 25.595158000451878, 68.91537797790933 ], [ 25.597132521136206, 68.915468717640735 ], [ 25.598503698073269, 68.91576105841412 ], [ 25.598842634453753, 68.915867927516928 ], [ 25.5995885115832, 68.9162837787039 ], [ 25.60227879094662, 68.917006139929953 ], [ 25.604222776182763, 68.91763569134514 ], [ 25.60564146045515, 68.918379481256167 ], [ 25.606506488306472, 68.918946248034615 ], [ 25.607089669550131, 68.919399112246225 ], [ 25.607413368587594, 68.919784724098278 ], [ 25.607927278678325, 68.920039184746926 ], [ 25.607976319446543, 68.92019634585705 ], [ 25.608942117913998, 68.920541561754533 ], [ 25.609369588046402, 68.920618954894465 ], [ 25.609381337943411, 68.920739309165526 ], [ 25.609541656597546, 68.920809618400398 ], [ 25.609493032536442, 68.920953756686103 ], [ 25.611622064017279, 68.921930351833112 ], [ 25.611885389827108, 68.922184131439337 ], [ 25.611621529251615, 68.92233872655126 ], [ 25.61158187661723, 68.922462861032002 ], [ 25.611914368031339, 68.922661052979038 ], [ 25.61177749119701, 68.92276532431282 ], [ 25.611841658296409, 68.922896915819393 ], [ 25.61191124488219, 68.923014721485501 ], [ 25.612201197111197, 68.923172076247326 ] ] ] } },
{ "type": "Feature", "properties": { "fid": 16182, "elvelengde_m": 741.24, "elvID": "234-62-2274", "elvenavn": null, "regulert": null, "fid_2": 1732, "id": 1732, "left": 25.486919847, "top": 68.946110046000001, "right": 25.986919847, "bottom": 68.446110046000001, "row_index": 11, "col_index": 43, "tile_id": 1732 }, "geometry": { "type": "MultiLineString", "coordinates": [ [ [ 25.490892585104579, 68.910769953581266 ], [ 25.490185078087183, 68.910532534572525 ], [ 25.489377815596619, 68.910486130312336 ], [ 25.48878678524845, 68.910357432331153 ], [ 25.487632828479832, 68.910006105209263 ], [ 25.487499435816371, 68.909780007449655 ], [ 25.487563497698844, 68.909540265118238 ], [ 25.487708866334081, 68.909461657686165 ], [ 25.4875597180522, 68.909211111850368 ], [ 25.487562441756477, 68.909040118187136 ], [ 25.487792155075827, 68.908753563154065 ], [ 25.487689048389559, 68.908488075035308 ], [ 25.487814921603324, 68.90828417365698 ], [ 25.488228226513446, 68.90795722601635 ], [ 25.488184857151051, 68.90755552156746 ], [ 25.487549628834611, 68.907193543858867 ], [ 25.486919847, 68.906920252918752 ] ] ] } },
{ "type": "Feature", "properties": { "fid": 16191, "elvelengde_m": 2342.35, "elvID": "234-62-2394", "elvenavn": null, "regulert": null, "fid_2": 1732, "id": 1732, "left": 25.486919847, "top": 68.946110046000001, "right": 25.986919847, "bottom": 68.446110046000001, "row_index": 11, "col_index": 43, "tile_id": 1732 }, "geometry": { "type": "MultiLineString", "coordinates": [ [ [ 25.579434326608762, 68.898626537923022 ], [ 25.585154751715223, 68.9008882704521 ], [ 25.585747710687265, 68.901050772029578 ], [ 25.586854960887205, 68.901116285249131 ], [ 25.588894739782159, 68.901680575474828 ], [ 25.589930029269063, 68.902086875134245 ], [ 25.590702796731829, 68.902149314208415 ], [ 25.591071947857337, 68.902273816481241 ], [ 25.592326535938888, 68.902939110676101 ], [ 25.592281943075449, 68.90374410945816 ], [ 25.59302848126007, 68.904192165638747 ], [ 25.59530931175815, 68.905258217653383 ], [ 25.59720334014099, 68.905656736852549 ], [ 25.598483731365697, 68.906125713590242 ], [ 25.599462940961413, 68.906351460240998 ], [ 25.60058005163371, 68.906828332740346 ], [ 25.602490895709742, 68.907445128607861 ], [ 25.603718589692654, 68.908331265415896 ], [ 25.603885366971262, 68.908647075081788 ], [ 25.603891295759343, 68.908953654967988 ], [ 25.604644952821243, 68.909180944176939 ], [ 25.606361663929214, 68.909989067712573 ], [ 25.608006412051324, 68.911238116031157 ], [ 25.609301638431596, 68.911930307420448 ], [ 25.610057573830133, 68.912444682718174 ], [ 25.610685889954638, 68.912728808351702 ], [ 25.611847671836269, 68.913007513108852 ], [ 25.614045792249364, 68.913921005687854 ], [ 25.614491287007809, 68.914131330412687 ], [ 25.61452945706678, 68.914309161274758 ] ] ] } },
{ "type": "Feature", "properties": { "fid": 16218, "elvelengde_m": 162.83, "elvID": "234-62-2310", "elvenavn": null, "regulert": null, "fid_2": 1732, "id": 1732, "left": 25.486919847, "top": 68.946110046000001, "right": 25.986919847, "bottom": 68.446110046000001, "row_index": 11, "col_index": 43, "tile_id": 1732 }, "geometry": { "type": "MultiLineString", "coordinates": [ [ [ 25.501672287258486, 68.900221154304305 ], [ 25.501761567495336, 68.90010415667048 ], [ 25.500971650639215, 68.900052750118988 ], [ 25.500668313016075, 68.899956401888616 ], [ 25.499927926985958, 68.899337470084546 ], [ 25.500065918701381, 68.899239507557311 ], [ 25.499901678720544, 68.899172999115436 ] ] ] } },
{ "type": "Feature", "properties": { "fid": 16222, "elvelengde_m": 22.94, "elvID": "234-62-2310", "elvenavn": null, "regulert": null, "fid_2": 1732, "id": 1732, "left": 25.486919847, "top": 68.946110046000001, "right": 25.986919847, "bottom": 68.446110046000001, "row_index": 11, "col_index": 43, "tile_id": 1732 }, "geometry": { "type": "MultiLineString", "coordinates": [ [ [ 25.4998166558732, 68.898665446612398 ], [ 25.49991640205883, 68.898464154640763 ] ] ] } },
{ "type": "Feature", "properties": { "fid": 16261, "elvelengde_m": 36.94, "elvID": "234-62-2348", "elvenavn": null, "regulert": null, "fid_2": 1732, "id": 1732, "left": 25.486919847, "top": 68.946110046000001, "right": 25.986919847, "bottom": 68.446110046000001, "row_index": 11, "col_index": 43, "tile_id": 1732 }, "geometry": { "type": "MultiLineString", "coordinates": [ [ [ 25.555378082676764, 68.887979648901165 ], [ 25.555471112928988, 68.887866911869779 ], [ 25.555966826246845, 68.887763726260474 ] ] ] } },
{ "type": "Feature", "properties": { "fid": 16263, "elvelengde_m": 665.87, "elvID": "234-62-2348", "elvenavn": null, "regulert": null, "fid_2": 1732, "id": 1732, "left": 25.486919847, "top": 68.946110046000001, "right": 25.986919847, "bottom": 68.446110046000001, "row_index": 11, "col_index": 43, "tile_id": 1732 }, "geometry": { "type": "MultiLineString", "coordinates": [ [ [ 25.539236862675523, 68.889312897736787 ], [ 25.539895119321873, 68.889008132541122 ], [ 25.540888005912258, 68.88874482173938 ], [ 25.540951490936077, 68.888691439134334 ], [ 25.540902423586861, 68.888612038878364 ], [ 25.541296183910173, 68.888414190501621 ], [ 25.541470603559898, 68.888472939321119 ], [ 25.541452457037359, 68.888530478534392 ], [ 25.541864679763936, 68.88853892213946 ], [ 25.542439299083998, 68.888421577734889 ], [ 25.543313035509872, 68.888481695655329 ], [ 25.544266270604155, 68.888394051780836 ], [ 25.545472131883272, 68.888863256013082 ], [ 25.546154812043458, 68.888921061674694 ], [ 25.547279245829642, 68.889207521874866 ], [ 25.549508131226318, 68.890031546086718 ], [ 25.550422728367643, 68.890192436134356 ], [ 25.551901583061927, 68.890295451586269 ] ] ] } },
{ "type": "Feature", "properties": { "fid": 16276, "elvelengde_m": 44.91, "elvID": "234-62-2392", "elvenavn": null, "regulert": null, "fid_2": 1732, "id": 1732, "left": 25.486919847, "top": 68.946110046000001, "right": 25.986919847, "bottom": 68.446110046000001, "row_index": 11, "col_index": 43, "tile_id": 1732 }, "geometry": { "type": "MultiLineString", "coordinates": [ [ [ 25.589801931817206, 68.883707627443684 ], [ 25.590898078004688, 68.883640506839143 ] ] ] } },
{ "type": "Feature", "properties": { "fid": 20712, "elvelengde_m": 651.95, "elvID": "234-62-2439", "elvenavn": null, "regulert": null, "fid_2": 1732, "id": 1732, "left": 25.486919847, "top": 68.946110046000001, "right": 25.986919847, "bottom": 68.446110046000001, "row_index": 11, "col_index": 43, "tile_id": 1732 }, "geometry": { "type": "MultiLineString", "coordinates": [ [ [ 25.653755489010646, 68.93028750164143 ], [ 25.65340350410424, 68.929989333333637 ], [ 25.6528849986213, 68.929817144183062 ], [ 25.652672921786138, 68.929561930466235 ], [ 25.652282261801954, 68.929334518779356 ], [ 25.651753328780998, 68.928834744994433 ], [ 25.651684348789271, 68.928657738836733 ], [ 25.651744890360384, 68.92848009638746 ], [ 25.652070840747442, 68.928045153151601 ], [ 25.653973007957582, 68.928137801625823 ], [ 25.656301577475496, 68.928794007678263 ], [ 25.657153920375283, 68.929118650765801 ], [ 25.657316993474705, 68.929287635798744 ], [ 25.658115112000996, 68.929737968842403 ], [ 25.658220376301717, 68.929904853715911 ], [ 25.658694121426045, 68.930103322310373 ] ] ] } },
{ "type": "Feature", "properties": { "fid": 20912, "elvelengde_m": 329.7, "elvID": "234-62-2348", "elvenavn": null, "regulert": null, "fid_2": 1732, "id": 1732, "left": 25.486919847, "top": 68.946110046000001, "right": 25.986919847, "bottom": 68.446110046000001, "row_index": 11, "col_index": 43, "tile_id": 1732 }, "geometry": { "type": "MultiLineString", "coordinates": [ [ [ 25.551901583061927, 68.890295451586269 ], [ 25.55273589772165, 68.890166666791657 ], [ 25.553060365898652, 68.890032736371282 ], [ 25.553237248414828, 68.889868076420157 ], [ 25.554585526633801, 68.889484028276343 ], [ 25.555163361762684, 68.889200185057277 ], [ 25.55562239413667, 68.888515350099567 ], [ 25.555634479028654, 68.888428711059333 ], [ 25.555312811636803, 68.888196309751493 ], [ 25.555378082676764, 68.887979648901165 ] ] ] } },
{ "type": "Feature", "properties": { "fid": 21343, "elvelengde_m": 305.61, "elvID": "234-62-2348", "elvenavn": null, "regulert": null, "fid_2": 1732, "id": 1732, "left": 25.486919847, "top": 68.946110046000001, "right": 25.986919847, "bottom": 68.446110046000001, "row_index": 11, "col_index": 43, "tile_id": 1732 }, "geometry": { "type": "MultiLineString", "coordinates": [ [ [ 25.53539141131408, 68.891466281438355 ], [ 25.535201973755949, 68.891126019881895 ], [ 25.536409780086348, 68.890689704935482 ], [ 25.537602009198576, 68.890014977212743 ], [ 25.538067559809186, 68.889614729680588 ], [ 25.539236862675523, 68.889312897736787 ] ] ] } },
{ "type": "Feature", "properties": { "fid": 21871, "elvelengde_m": 41.3, "elvID": "234-62-2509", "elvenavn": null, "regulert": null, "fid_2": 1732, "id": 1732, "left": 25.486919847, "top": 68.946110046000001, "right": 25.986919847, "bottom": 68.446110046000001, "row_index": 11, "col_index": 43, "tile_id": 1732 }, "geometry": { "type": "MultiLineString", "coordinates": [ [ [ 25.660154600655471, 68.931993634431862 ], [ 25.660817859528542, 68.931920686660419 ], [ 25.660784084812587, 68.93180295767543 ] ] ] } },
{ "type": "Feature", "properties": { "fid": 24257, "elvelengde_m": 41.98, "elvID": "234-62-2274", "elvenavn": null, "regulert": null, "fid_2": 1732, "id": 1732, "left": 25.486919847, "top": 68.946110046000001, "right": 25.986919847, "bottom": 68.446110046000001, "row_index": 11, "col_index": 43, "tile_id": 1732 }, "geometry": { "type": "MultiLineString", "coordinates": [ [ [ 25.491109485303397, 68.911124204355161 ], [ 25.491089555798045, 68.911017170285078 ], [ 25.490932014010891, 68.910948027878007 ], [ 25.490892585104579, 68.910769953581266 ] ] ] } },
{ "type": "Feature", "properties": { "fid": 24261, "elvelengde_m": 186.43, "elvID": "234-62-2310", "elvenavn": null, "regulert": null, "fid_2": 1732, "id": 1732, "left": 25.486919847, "top": 68.946110046000001, "right": 25.986919847, "bottom": 68.446110046000001, "row_index": 11, "col_index": 43, "tile_id": 1732 }, "geometry": { "type": "MultiLineString", "coordinates": [ [ [ 25.503074543924786, 68.901687400389633 ], [ 25.501556860156146, 68.90098609013873 ], [ 25.501465768453386, 68.900723317425417 ], [ 25.501609933724367, 68.900552803716465 ], [ 25.501672287258486, 68.900221154304305 ] ] ] } },
{ "type": "Feature", "properties": { "fid": 39438, "elvelengde_m": 7.73, "elvID": "234-62-1819", "elvenavn": "Cas'kinjåkka", "regulert": null, "fid_2": 1732, "id": 1732, "left": 25.486919847, "top": 68.946110046000001, "right": 25.986919847, "bottom": 68.446110046000001, "row_index": 11, "col_index": 43, "tile_id": 1732 }, "geometry": { "type": "MultiLineString", "coordinates": [ [ [ 25.513981464058709, 68.94354300604418 ], [ 25.514064819020231, 68.943480659964564 ] ] ] } },
{ "type": "Feature", "properties": { "fid": 39439, "elvelengde_m": 16.35, "elvID": "234-62-2031", "elvenavn": "Oarjit cas'kinjåksuor'gi", "regulert": null, "fid_2": 1732, "id": 1732, "left": 25.486919847, "top": 68.946110046000001, "right": 25.986919847, "bottom": 68.446110046000001, "row_index": 11, "col_index": 43, "tile_id": 1732 }, "geometry": { "type": "MultiLineString", "coordinates": [ [ [ 25.513760055536018, 68.943383779383211 ], [ 25.514064819020231, 68.943480659964564 ] ] ] } },
{ "type": "Feature", "properties": { "fid": 39446, "elvelengde_m": 22.28, "elvID": "234-62-1819", "elvenavn": "Cas'kinjåkka", "regulert": null, "fid_2": 1732, "id": 1732, "left": 25.486919847, "top": 68.946110046000001, "right": 25.986919847, "bottom": 68.446110046000001, "row_index": 11, "col_index": 43, "tile_id": 1732 }, "geometry": { "type": "MultiLineString", "coordinates": [ [ [ 25.618322920797013, 68.921220325888569 ], [ 25.618749928796351, 68.921094205139809 ] ] ] } },
{ "type": "Feature", "properties": { "fid": 41014, "elvelengde_m": 51.0, "elvID": "234-62-2310", "elvenavn": null, "regulert": null, "fid_2": 1732, "id": 1732, "left": 25.486919847, "top": 68.946110046000001, "right": 25.986919847, "bottom": 68.446110046000001, "row_index": 11, "col_index": 43, "tile_id": 1732 }, "geometry": { "type": "MultiLineString", "coordinates": [ [ [ 25.49991640205883, 68.898464154640763 ], [ 25.499452109015383, 68.898039519818312 ] ] ] } },
{ "type": "Feature", "properties": { "fid": 41016, "elvelengde_m": 17.98, "elvID": "234-62-2392", "elvenavn": null, "regulert": null, "fid_2": 1732, "id": 1732, "left": 25.486919847, "top": 68.946110046000001, "right": 25.986919847, "bottom": 68.446110046000001, "row_index": 11, "col_index": 43, "tile_id": 1732 }, "geometry": { "type": "MultiLineString", "coordinates": [ [ [ 25.590898078004688, 68.883640506839143 ], [ 25.591270214163497, 68.883551692515212 ] ] ] } },
{ "type": "Feature", "properties": { "fid": 41206, "elvelengde_m": 53.31, "elvID": "234-62-1819", "elvenavn": "Cas'kinjåkka", "regulert": null, "fid_2": 1732, "id": 1732, "left": 25.486919847, "top": 68.946110046000001, "right": 25.986919847, "bottom": 68.446110046000001, "row_index": 11, "col_index": 43, "tile_id": 1732 }, "geometry": { "type": "MultiLineString", "coordinates": [ [ [ 25.529817161553957, 68.94336256265963 ], [ 25.530926545597236, 68.943144946810378 ] ] ] } },
{ "type": "Feature", "properties": { "fid": 41208, "elvelengde_m": 48.56, "elvID": "234-62-1819", "elvenavn": "Cas'kinjåkka", "regulert": null, "fid_2": 1732, "id": 1732, "left": 25.486919847, "top": 68.946110046000001, "right": 25.986919847, "bottom": 68.446110046000001, "row_index": 11, "col_index": 43, "tile_id": 1732 }, "geometry": { "type": "MultiLineString", "coordinates": [ [ [ 25.625257710153086, 68.922302601797185 ], [ 25.626008214348843, 68.921980137326742 ] ] ] } },
{ "type": "Feature", "properties": { "fid": 41504, "elvelengde_m": 76.91, "elvID": "234-62-1819", "elvenavn": "Cas'kinjåkka", "regulert": null, "fid_2": 1732, "id": 1732, "left": 25.486919847, "top": 68.946110046000001, "right": 25.986919847, "bottom": 68.446110046000001, "row_index": 11, "col_index": 43, "tile_id": 1732 }, "geometry": { "type": "MultiLineString", "coordinates": [ [ [ 25.516563218474481, 68.943663647042754 ], [ 25.51700705132895, 68.943701576189582 ], [ 25.517814501263341, 68.943499639404479 ], [ 25.518274296624295, 68.943487379820411 ] ] ] } },
{ "type": "Feature", "properties": { "fid": 41505, "elvelengde_m": 23.35, "elvID": "234-62-1819", "elvenavn": "Cas'kinjåkka", "regulert": null, "fid_2": 1732, "id": 1732, "left": 25.486919847, "top": 68.946110046000001, "right": 25.986919847, "bottom": 68.446110046000001, "row_index": 11, "col_index": 43, "tile_id": 1732 }, "geometry": { "type": "MultiLineString", "coordinates": [ [ [ 25.514064819020231, 68.943480659964564 ], [ 25.514580234296108, 68.943386098796509 ] ] ] } },
{ "type": "Feature", "properties": { "fid": 41507, "elvelengde_m": 110.56, "elvID": "234-62-2439", "elvenavn": null, "regulert": null, "fid_2": 1732, "id": 1732, "left": 25.486919847, "top": 68.946110046000001, "right": 25.986919847, "bottom": 68.446110046000001, "row_index": 11, "col_index": 43, "tile_id": 1732 }, "geometry": { "type": "MultiLineString", "coordinates": [ [ [ 25.670118410900912, 68.930002171736419 ], [ 25.670851374027261, 68.929898258826782 ], [ 25.672762172812917, 68.930051189888061 ] ] ] } },
{ "type": "Feature", "properties": { "fid": 41514, "elvelengde_m": 37.14, "elvID": "234-62-1819", "elvenavn": "Cas'kinjåkka", "regulert": null, "fid_2": 1732, "id": 1732, "left": 25.486919847, "top": 68.946110046000001, "right": 25.986919847, "bottom": 68.446110046000001, "row_index": 11, "col_index": 43, "tile_id": 1732 }, "geometry": { "type": "MultiLineString", "coordinates": [ [ [ 25.644623989845005, 68.923251249929834 ], [ 25.64475549279619, 68.923580187098921 ] ] ] } },
{ "type": "Feature", "properties": { "fid": 41515, "elvelengde_m": 55.34, "elvID": "234-62-1819", "elvenavn": "Tana", "regulert": null, "fid_2": 1732, "id": 1732, "left": 25.486919847, "top": 68.946110046000001, "right": 25.986919847, "bottom": 68.446110046000001, "row_index": 11, "col_index": 43, "tile_id": 1732 }, "geometry": { "type": "MultiLineString", "coordinates": [ [ [ 25.660824413350856, 68.921533670138359 ], [ 25.66213587058683, 68.921392048336884 ] ] ] } },
{ "type": "Feature", "properties": { "fid": 41517, "elvelengde_m": 150.65, "elvID": "234-62-1819", "elvenavn": "Cas'kinjåkka", "regulert": null, "fid_2": 1732, "id": 1732, "left": 25.486919847, "top": 68.946110046000001, "right": 25.986919847, "bottom": 68.446110046000001, "row_index": 11, "col_index": 43, "tile_id": 1732 }, "geometry": { "type": "MultiLineString", "coordinates": [ [ [ 25.613471849684242, 68.923027885697252 ], [ 25.616313396565733, 68.922760029668865 ], [ 25.61637472651374, 68.922475519283637 ] ] ] } },
{ "type": "Feature", "properties": { "fid": 41518, "elvelengde_m": 15.31, "elvID": "234-62-1819", "elvenavn": "Cas'kinjåkka", "regulert": null, "fid_2": 1732, "id": 1732, "left": 25.486919847, "top": 68.946110046000001, "right": 25.986919847, "bottom": 68.446110046000001, "row_index": 11, "col_index": 43, "tile_id": 1732 }, "geometry": { "type": "MultiLineString", "coordinates": [ [ [ 25.626613736772615, 68.921667556280568 ], [ 25.626994364955959, 68.92167052615639 ] ] ] } },
{ "type": "Feature", "properties": { "fid": 41519, "elvelengde_m": 10.98, "elvID": "234-62-2394", "elvenavn": null, "regulert": null, "fid_2": 1732, "id": 1732, "left": 25.486919847, "top": 68.946110046000001, "right": 25.986919847, "bottom": 68.446110046000001, "row_index": 11, "col_index": 43, "tile_id": 1732 }, "geometry": { "type": "MultiLineString", "coordinates": [ [ [ 25.626511506294975, 68.921576495631271 ], [ 25.626613736772615, 68.921667556280568 ] ] ] } },
{ "type": "Feature", "properties": { "fid": 41520, "elvelengde_m": 37.61, "elvID": "234-62-1819", "elvenavn": "Cas'kinjåkka", "regulert": null, "fid_2": 1732, "id": 1732, "left": 25.486919847, "top": 68.946110046000001, "right": 25.986919847, "bottom": 68.446110046000001, "row_index": 11, "col_index": 43, "tile_id": 1732 }, "geometry": { "type": "MultiLineString", "coordinates": [ [ [ 25.617968682906366, 68.921528036888219 ], [ 25.618322920797013, 68.921220325888569 ] ] ] } },
{ "type": "Feature", "properties": { "fid": 43079, "elvelengde_m": 83.45, "elvID": "234-62-2348", "elvenavn": null, "regulert": null, "fid_2": 1732, "id": 1732, "left": 25.486919847, "top": 68.946110046000001, "right": 25.986919847, "bottom": 68.446110046000001, "row_index": 11, "col_index": 43, "tile_id": 1732 }, "geometry": { "type": "MultiLineString", "coordinates": [ [ [ 25.555966826246845, 68.887763726260474 ], [ 25.55651998693839, 68.887648622902475 ], [ 25.556992260397553, 68.887322146674663 ], [ 25.557027668019067, 68.887178558905077 ] ] ] } },
{ "type": "Feature", "properties": { "fid": 43279, "elvelengde_m": 546.68, "elvID": "234-62-2394", "elvenavn": null, "regulert": null, "fid_2": 1732, "id": 1732, "left": 25.486919847, "top": 68.946110046000001, "right": 25.986919847, "bottom": 68.446110046000001, "row_index": 11, "col_index": 43, "tile_id": 1732 }, "geometry": { "type": "MultiLineString", "coordinates": [ [ [ 25.619907643402595, 68.917044277606308 ], [ 25.620078121551824, 68.917376910302039 ], [ 25.619992063512264, 68.917545096439682 ], [ 25.620118012134515, 68.917986383393753 ], [ 25.620399784776158, 68.918325643926153 ], [ 25.621838808646974, 68.918937236592257 ], [ 25.622584397075673, 68.919500635551145 ], [ 25.622926516879915, 68.91962870768009 ], [ 25.623417267801809, 68.920036726765076 ], [ 25.623979690989387, 68.920330818305558 ], [ 25.624089177064562, 68.920504140553732 ], [ 25.624092314204955, 68.920683784625169 ], [ 25.624741954901527, 68.920944251160492 ], [ 25.625936016886151, 68.921082852892624 ] ] ] } },
{ "type": "Feature", "properties": { "fid": 43421, "elvelengde_m": 69.99, "elvID": "234-62-1819", "elvenavn": "Cas'kinjåkka", "regulert": null, "fid_2": 1732, "id": 1732, "left": 25.486919847, "top": 68.946110046000001, "right": 25.986919847, "bottom": 68.446110046000001, "row_index": 11, "col_index": 43, "tile_id": 1732 }, "geometry": { "type": "MultiLineString", "coordinates": [ [ [ 25.526898767524873, 68.94256766740844 ], [ 25.52769638612649, 68.942348469662917 ], [ 25.528085930130928, 68.942448192322402 ], [ 25.528112451906026, 68.942526033073065 ] ] ] } },
{ "type": "Feature", "properties": { "fid": 43425, "elvelengde_m": 45.96, "elvID": "234-62-1819", "elvenavn": "Cas'kinjåkka", "regulert": null, "fid_2": 1732, "id": 1732, "left": 25.486919847, "top": 68.946110046000001, "right": 25.986919847, "bottom": 68.446110046000001, "row_index": 11, "col_index": 43, "tile_id": 1732 }, "geometry": { "type": "MultiLineString", "coordinates": [ [ [ 25.631291297771, 68.923156759149592 ], [ 25.631212354073753, 68.923240769944485 ], [ 25.631263707035068, 68.923300550902582 ], [ 25.631874320137925, 68.92339372724679 ] ] ] } },
{ "type": "Feature", "properties": { "fid": 48839, "elvelengde_m": 49.28, "elvID": "234-62-1819", "elvenavn": "Cas'kinjåkka", "regulert": null, "fid_2": 1732, "id": 1732, "left": 25.486919847, "top": 68.946110046000001, "right": 25.986919847, "bottom": 68.446110046000001, "row_index": 11, "col_index": 43, "tile_id": 1732 }, "geometry": { "type": "MultiLineString", "coordinates": [ [ [ 25.65358814330169, 68.924240727944053 ], [ 25.653508457262646, 68.92433101297695 ], [ 25.654104590231373, 68.924596768879297 ] ] ] } },
{ "type": "Feature", "properties": { "fid": 48840, "elvelengde_m": 66.0, "elvID": "234-62-2427", "elvenavn": null, "regulert": null, "fid_2": 1732, "id": 1732, "left": 25.486919847, "top": 68.946110046000001, "right": 25.986919847, "bottom": 68.446110046000001, "row_index": 11, "col_index": 43, "tile_id": 1732 }, "geometry": { "type": "MultiLineString", "coordinates": [ [ [ 25.617495588394537, 68.920786099728218 ], [ 25.617791273623201, 68.920998314364795 ], [ 25.617848424514943, 68.921169835371245 ], [ 25.618322920797013, 68.921220325888569 ] ] ] } },
{ "type": "Feature", "properties": { "fid": 48895, "elvelengde_m": 33.63, "elvID": "234-62-1819", "elvenavn": "Cas'kinjåkka", "regulert": null, "fid_2": 1732, "id": 1732, "left": 25.486919847, "top": 68.946110046000001, "right": 25.986919847, "bottom": 68.446110046000001, "row_index": 11, "col_index": 43, "tile_id": 1732 }, "geometry": { "type": "MultiLineString", "coordinates": [ [ [ 25.626250220127755, 68.921913649848591 ], [ 25.626455149677675, 68.921879833917174 ], [ 25.626613736772615, 68.921667556280568 ] ] ] } },
{ "type": "Feature", "properties": { "fid": 1735930, "elvelengde_m": 26.3, "elvID": "234-62-2394", "elvenavn": null, "regulert": null, "fid_2": 1732, "id": 1732, "left": 25.486919847, "top": 68.946110046000001, "right": 25.986919847, "bottom": 68.446110046000001, "row_index": 11, "col_index": 43, "tile_id": 1732 }, "geometry": { "type": "MultiLineString", "coordinates": [ [ [ 25.61452945706678, 68.914309161274758 ], [ 25.614976606563172, 68.914462603762161 ] ] ] } },
{ "type": "Feature", "properties": { "fid": 1736558, "elvelengde_m": 66.24, "elvID": "234-62-2310", "elvenavn": null, "regulert": null, "fid_2": 1732, "id": 1732, "left": 25.486919847, "top": 68.946110046000001, "right": 25.986919847, "bottom": 68.446110046000001, "row_index": 11, "col_index": 43, "tile_id": 1732 }, "geometry": { "type": "MultiLineString", "coordinates": [ [ [ 25.499901678720544, 68.899172999115436 ], [ 25.499561934930423, 68.89908525716973 ], [ 25.499527612413409, 68.89899662291441 ], [ 25.4998166558732, 68.898665446612398 ] ] ] } },
{ "type": "Feature", "properties": { "fid": 1736990, "elvelengde_m": 36.38, "elvID": "234-62-2427", "elvenavn": null, "regulert": null, "fid_2": 1732, "id": 1732, "left": 25.486919847, "top": 68.946110046000001, "right": 25.986919847, "bottom": 68.446110046000001, "row_index": 11, "col_index": 43, "tile_id": 1732 }, "geometry": { "type": "MultiLineString", "coordinates": [ [ [ 25.616555431684386, 68.920554698335138 ], [ 25.617334668784956, 68.920719286609682 ] ] ] } },
{ "type": "Feature", "properties": { "fid": 1736993, "elvelengde_m": 87.19, "elvID": "234-62-2394", "elvenavn": null, "regulert": null, "fid_2": 1732, "id": 1732, "left": 25.486919847, "top": 68.946110046000001, "right": 25.986919847, "bottom": 68.446110046000001, "row_index": 11, "col_index": 43, "tile_id": 1732 }, "geometry": { "type": "MultiLineString", "coordinates": [ [ [ 25.577649342274899, 68.898205122046349 ], [ 25.579434326608762, 68.898626537923022 ] ] ] } },
{ "type": "Feature", "properties": { "fid": 1736996, "elvelengde_m": 88.65, "elvID": "234-62-2392", "elvenavn": null, "regulert": null, "fid_2": 1732, "id": 1732, "left": 25.486919847, "top": 68.946110046000001, "right": 25.986919847, "bottom": 68.446110046000001, "row_index": 11, "col_index": 43, "tile_id": 1732 }, "geometry": { "type": "MultiLineString", "coordinates": [ [ [ 25.588497358307784, 68.884306090443388 ], [ 25.589183453260159, 68.883840680029834 ], [ 25.589801931817206, 68.883707627443684 ] ] ] } }
]
}
