{
"type": "FeatureCollection",
"name": "elvis_tile_id_734",
"crs": { "type": "name", "properties": { "name": "urn:ogc:def:crs:OGC:1.3:CRS84" } },
"xy_coordinate_resolution": 1e-15,
"features": [
{ "type": "Feature", "properties": { "fid": 376870, "elvelengde_m": 342.75, "elvID": "181-114-1", "elvenavn": null, "regulert": null, "fid_2": 734, "id": 734, "left": 12.986919847, "top": 67.946110046000001, "right": 13.486919847, "bottom": 67.446110046000001, "row_index": 13, "col_index": 18, "tile_id": 734 }, "geometry": { "type": "MultiLineString", "coordinates": [ [ [ 13.023981326727689, 67.94424938785501 ], [ 13.024464604781157, 67.94473965961771 ], [ 13.025590801907793, 67.945255687807347 ], [ 13.025942690318143, 67.945609868357792 ], [ 13.027515561332345, 67.945924771419826 ], [ 13.027838894544114, 67.946110046 ] ] ] } },
{ "type": "Feature", "properties": { "fid": 376872, "elvelengde_m": 301.04, "elvID": "181-115-1", "elvenavn": null, "regulert": null, "fid_2": 734, "id": 734, "left": 12.986919847, "top": 67.946110046000001, "right": 13.486919847, "bottom": 67.446110046000001, "row_index": 13, "col_index": 18, "tile_id": 734 }, "geometry": { "type": "MultiLineString", "coordinates": [ [ [ 13.026607785651873, 67.944244951661247 ], [ 13.027211606142041, 67.945005947492902 ], [ 13.028052450825218, 67.945787729983195 ], [ 13.028283586559526, 67.945880233960992 ], [ 13.029238142653336, 67.945882705117299 ], [ 13.029778347524132, 67.945987884417647 ], [ 13.029901267298355, 67.946110046 ] ] ] } },
{ "type": "Feature", "properties": { "fid": 376874, "elvelengde_m": 265.19, "elvID": "181-116-1", "elvenavn": null, "regulert": null, "fid_2": 734, "id": 734, "left": 12.986919847, "top": 67.946110046000001, "right": 13.486919847, "bottom": 67.446110046000001, "row_index": 13, "col_index": 18, "tile_id": 734 }, "geometry": { "type": "MultiLineString", "coordinates": [ [ [ 13.036146082810191, 67.943246399687965 ], [ 13.036188813241379, 67.943588070121123 ], [ 13.036569760933597, 67.943879671808745 ], [ 13.037465027941661, 67.944303126778252 ], [ 13.038287880377993, 67.944456517625468 ], [ 13.038704303689844, 67.944614029527443 ], [ 13.038832263731402, 67.944795019155592 ], [ 13.039065464746471, 67.944860612812818 ], [ 13.039877008613365, 67.944842832156183 ] ] ] } },
{ "type": "Feature", "properties": { "fid": 376877, "elvelengde_m": 377.44, "elvID": "181-113-1", "elvenavn": "Tenneselva", "regulert": 1, "fid_2": 734, "id": 734, "left": 12.986919847, "top": 67.946110046000001, "right": 13.486919847, "bottom": 67.446110046000001, "row_index": 13, "col_index": 18, "tile_id": 734 }, "geometry": { "type": "MultiLineString", "coordinates": [ [ [ 12.990666810696002, 67.937474519759746 ], [ 12.988515415523393, 67.937789193158395 ], [ 12.988046125352625, 67.937971800379231 ], [ 12.986919847, 67.938746511298888 ] ] ] } },
{ "type": "Feature", "properties": { "fid": 376881, "elvelengde_m": 197.09, "elvID": "181-117-1", "elvenavn": null, "regulert": null, "fid_2": 734, "id": 734, "left": 12.986919847, "top": 67.946110046000001, "right": 13.486919847, "bottom": 67.446110046000001, "row_index": 13, "col_index": 18, "tile_id": 734 }, "geometry": { "type": "MultiLineString", "coordinates": [ [ [ 13.069536165527728, 67.934139490317563 ], [ 13.073341555051627, 67.934291820685047 ], [ 13.074160460535749, 67.934399134822087 ] ] ] } },
{ "type": "Feature", "properties": { "fid": 376883, "elvelengde_m": 178.52, "elvID": "181-118-2", "elvenavn": null, "regulert": null, "fid_2": 734, "id": 734, "left": 12.986919847, "top": 67.946110046000001, "right": 13.486919847, "bottom": 67.446110046000001, "row_index": 13, "col_index": 18, "tile_id": 734 }, "geometry": { "type": "MultiLineString", "coordinates": [ [ [ 13.03096317578108, 67.934265226885316 ], [ 13.031552782845866, 67.934065816481862 ], [ 13.032152240138378, 67.933749960173699 ], [ 13.032134926169887, 67.933390824961279 ], [ 13.032312109244538, 67.93298915259345 ], [ 13.032490356555069, 67.932856688726531 ] ] ] } },
{ "type": "Feature", "properties": { "fid": 376884, "elvelengde_m": 303.45, "elvID": "181-117-1", "elvenavn": null, "regulert": null, "fid_2": 734, "id": 734, "left": 12.986919847, "top": 67.946110046000001, "right": 13.486919847, "bottom": 67.446110046000001, "row_index": 13, "col_index": 18, "tile_id": 734 }, "geometry": { "type": "MultiLineString", "coordinates": [ [ [ 13.050937663855372, 67.934251984336925 ], [ 13.05444914421075, 67.933638552912512 ], [ 13.055624900580003, 67.933275596865158 ], [ 13.057361483719236, 67.933053949289459 ] ] ] } },
{ "type": "Feature", "properties": { "fid": 376887, "elvelengde_m": 302.33, "elvID": "181-118-2", "elvenavn": null, "regulert": null, "fid_2": 734, "id": 734, "left": 12.986919847, "top": 67.946110046000001, "right": 13.486919847, "bottom": 67.446110046000001, "row_index": 13, "col_index": 18, "tile_id": 734 }, "geometry": { "type": "MultiLineString", "coordinates": [ [ [ 13.032669567378322, 67.932428120739615 ], [ 13.03290786772499, 67.932152714510735 ], [ 13.032731582475485, 67.931980203300114 ], [ 13.033322304040494, 67.931484774878228 ], [ 13.033370090183668, 67.930920035475097 ], [ 13.03324800246441, 67.930389066038785 ], [ 13.033488730938013, 67.929799805859147 ] ] ] } },
{ "type": "Feature", "properties": { "fid": 376889, "elvelengde_m": 440.62, "elvID": "181-113-5", "elvenavn": null, "regulert": null, "fid_2": 734, "id": 734, "left": 12.986919847, "top": 67.946110046000001, "right": 13.486919847, "bottom": 67.446110046000001, "row_index": 13, "col_index": 18, "tile_id": 734 }, "geometry": { "type": "MultiLineString", "coordinates": [ [ [ 13.004566684609935, 67.927360355795571 ], [ 13.004160806120108, 67.927086226700965 ], [ 13.003012328607738, 67.926847939008553 ], [ 13.001893037357714, 67.926825447442255 ], [ 12.999567572784148, 67.926958491262084 ], [ 12.997178950750117, 67.927270468579408 ], [ 12.995819022058328, 67.927271832633494 ], [ 12.995036320058684, 67.927495590502389 ] ] ] } },
{ "type": "Feature", "properties": { "fid": 376890, "elvelengde_m": 762.69, "elvID": "181-118-1", "elvenavn": null, "regulert": null, "fid_2": 734, "id": 734, "left": 12.986919847, "top": 67.946110046000001, "right": 13.486919847, "bottom": 67.446110046000001, "row_index": 13, "col_index": 18, "tile_id": 734 }, "geometry": { "type": "MultiLineString", "coordinates": [ [ [ 13.04662423715099, 67.931625482094063 ], [ 13.046925579059259, 67.931449600889323 ], [ 13.047375492802626, 67.930638391557991 ], [ 13.048268448017668, 67.929949094787901 ], [ 13.048340956055485, 67.929653842390394 ], [ 13.047260649850077, 67.929165431484179 ], [ 13.045216033497804, 67.928513000415634 ], [ 13.043665433999152, 67.928225351665589 ], [ 13.042950993853131, 67.927929793423061 ], [ 13.04171430326064, 67.927600908575869 ], [ 13.038059640797947, 67.927090795200058 ] ] ] } },
{ "type": "Feature", "properties": { "fid": 376892, "elvelengde_m": 562.86, "elvID": "181-113-5", "elvenavn": null, "regulert": null, "fid_2": 734, "id": 734, "left": 12.986919847, "top": 67.946110046000001, "right": 13.486919847, "bottom": 67.446110046000001, "row_index": 13, "col_index": 18, "tile_id": 734 }, "geometry": { "type": "MultiLineString", "coordinates": [ [ [ 13.01424049613818, 67.928895330911146 ], [ 13.013153285076326, 67.928496337525743 ], [ 13.011906113837648, 67.92773647082403 ], [ 13.011242536485902, 67.927127230330626 ], [ 13.010533683474055, 67.926768690613173 ], [ 13.009345162391931, 67.926440319607408 ], [ 13.008802440374337, 67.926370840364328 ], [ 13.008150569816321, 67.926461645191978 ], [ 13.005875111173964, 67.927403160771192 ], [ 13.00546766737731, 67.927425135211877 ] ] ] } },
{ "type": "Feature", "properties": { "fid": 376893, "elvelengde_m": 554.99, "elvID": "181-119-1", "elvenavn": null, "regulert": null, "fid_2": 734, "id": 734, "left": 12.986919847, "top": 67.946110046000001, "right": 13.486919847, "bottom": 67.446110046000001, "row_index": 13, "col_index": 18, "tile_id": 734 }, "geometry": { "type": "MultiLineString", "coordinates": [ [ [ 13.018392351472571, 67.924970301432694 ], [ 13.019872820057865, 67.924952258255374 ], [ 13.020415381919777, 67.924743438490879 ], [ 13.020775107019743, 67.92472085273549 ], [ 13.021905377028888, 67.924052498497616 ], [ 13.022622887787271, 67.923468901949576 ], [ 13.022607056271056, 67.922813664549935 ], [ 13.022060755515616, 67.921945656261116 ], [ 13.02146626326342, 67.921364209259679 ], [ 13.021522884603458, 67.920979041435217 ] ] ] } },
{ "type": "Feature", "properties": { "fid": 376894, "elvelengde_m": 539.1, "elvID": "181-118-1", "elvenavn": null, "regulert": null, "fid_2": 734, "id": 734, "left": 12.986919847, "top": 67.946110046000001, "right": 13.486919847, "bottom": 67.446110046000001, "row_index": 13, "col_index": 18, "tile_id": 734 }, "geometry": { "type": "MultiLineString", "coordinates": [ [ [ 13.042566312926924, 67.924282016689375 ], [ 13.042100303464569, 67.924150839432826 ], [ 13.041746618894653, 67.923881197714991 ], [ 13.041852106661395, 67.923699222931575 ], [ 13.042274547600222, 67.923497874611115 ], [ 13.042402313177837, 67.923113550867399 ], [ 13.042698374725452, 67.922713285930413 ], [ 13.04315957816007, 67.92176762460366 ], [ 13.043580772378871, 67.921297063537764 ], [ 13.04380274607548, 67.921209975346727 ], [ 13.044877920718193, 67.921186882600537 ], [ 13.047021753881911, 67.920934216089435 ], [ 13.04766072694062, 67.920947823433863 ] ] ] } },
{ "type": "Feature", "properties": { "fid": 376897, "elvelengde_m": 151.97, "elvID": "181-121-14", "elvenavn": null, "regulert": null, "fid_2": 734, "id": 734, "left": 12.986919847, "top": 67.946110046000001, "right": 13.486919847, "bottom": 67.446110046000001, "row_index": 13, "col_index": 18, "tile_id": 734 }, "geometry": { "type": "MultiLineString", "coordinates": [ [ [ 12.986919847, 67.919143327099974 ], [ 12.98784901165269, 67.918993031660989 ] ] ] } },
{ "type": "Feature", "properties": { "fid": 376898, "elvelengde_m": 678.88, "elvID": "181-119-1", "elvenavn": null, "regulert": null, "fid_2": 734, "id": 734, "left": 12.986919847, "top": 67.946110046000001, "right": 13.486919847, "bottom": 67.446110046000001, "row_index": 13, "col_index": 18, "tile_id": 734 }, "geometry": { "type": "MultiLineString", "coordinates": [ [ [ 13.022407467026717, 67.920953800022204 ], [ 13.023071524365669, 67.920997686030489 ], [ 13.024499307124529, 67.920754548958385 ], [ 13.025568681385796, 67.920238074624876 ], [ 13.027065326671091, 67.919744582944503 ], [ 13.028477519029469, 67.919402609452831 ], [ 13.029627654184377, 67.919335650778393 ], [ 13.032001299609338, 67.918906472593235 ], [ 13.033602755751168, 67.918862929292757 ], [ 13.035572568753762, 67.918410919303355 ], [ 13.036355700868034, 67.918456086407673 ] ] ] } },
{ "type": "Feature", "properties": { "fid": 376900, "elvelengde_m": 46.14, "elvID": "181-119-1", "elvenavn": null, "regulert": null, "fid_2": 734, "id": 734, "left": 12.986919847, "top": 67.946110046000001, "right": 13.486919847, "bottom": 67.446110046000001, "row_index": 13, "col_index": 18, "tile_id": 734 }, "geometry": { "type": "MultiLineString", "coordinates": [ [ [ 13.039868997159013, 67.918363451715692 ], [ 13.040958509181589, 67.918352670770133 ] ] ] } },
{ "type": "Feature", "properties": { "fid": 376905, "elvelengde_m": 272.35, "elvID": "181-121-15", "elvenavn": null, "regulert": null, "fid_2": 734, "id": 734, "left": 12.986919847, "top": 67.946110046000001, "right": 13.486919847, "bottom": 67.446110046000001, "row_index": 13, "col_index": 18, "tile_id": 734 }, "geometry": { "type": "MultiLineString", "coordinates": [ [ [ 13.009110431749688, 67.91776020654396 ], [ 13.009356319137522, 67.917673453768444 ], [ 13.009403157395239, 67.917404822384512 ], [ 13.010122499103467, 67.916525182230956 ], [ 13.010431102468553, 67.916259811592312 ], [ 13.011798691098814, 67.915603285691404 ] ] ] } },
{ "type": "Feature", "properties": { "fid": 376906, "elvelengde_m": 220.32, "elvID": "181-121-16", "elvenavn": null, "regulert": null, "fid_2": 734, "id": 734, "left": 12.986919847, "top": 67.946110046000001, "right": 13.486919847, "bottom": 67.446110046000001, "row_index": 13, "col_index": 18, "tile_id": 734 }, "geometry": { "type": "MultiLineString", "coordinates": [ [ [ 13.014543035728055, 67.916973503876108 ], [ 13.014638674923727, 67.915853088553419 ], [ 13.014765432729385, 67.915764798228523 ], [ 13.014832198665468, 67.91554127319877 ], [ 13.01471223421882, 67.915270624641749 ], [ 13.014226567571631, 67.915094260755211 ] ] ] } },
{ "type": "Feature", "properties": { "fid": 376909, "elvelengde_m": 88.0, "elvID": "181-121-22", "elvenavn": null, "regulert": null, "fid_2": 734, "id": 734, "left": 12.986919847, "top": 67.946110046000001, "right": 13.486919847, "bottom": 67.446110046000001, "row_index": 13, "col_index": 18, "tile_id": 734 }, "geometry": { "type": "MultiLineString", "coordinates": [ [ [ 13.005939133723048, 67.912472344830505 ], [ 13.00574400804013, 67.911689296438311 ] ] ] } },
{ "type": "Feature", "properties": { "fid": 376910, "elvelengde_m": 463.75, "elvID": "181-121-15", "elvenavn": null, "regulert": null, "fid_2": 734, "id": 734, "left": 12.986919847, "top": 67.946110046000001, "right": 13.486919847, "bottom": 67.446110046000001, "row_index": 13, "col_index": 18, "tile_id": 734 }, "geometry": { "type": "MultiLineString", "coordinates": [ [ [ 13.011836731702999, 67.91404239206139 ], [ 13.011844393113535, 67.913952751858758 ], [ 13.011308782446356, 67.913524521848927 ], [ 13.010572689841098, 67.913210514228112 ], [ 13.009868913442418, 67.913076360804581 ], [ 13.008783280374693, 67.912668375393238 ], [ 13.007010098711211, 67.912494319077197 ], [ 13.006594462976144, 67.912336727924853 ], [ 13.007661494122772, 67.91101265315946 ] ] ] } },
{ "type": "Feature", "properties": { "fid": 376911, "elvelengde_m": 351.79, "elvID": "181-121-10", "elvenavn": null, "regulert": null, "fid_2": 734, "id": 734, "left": 12.986919847, "top": 67.946110046000001, "right": 13.486919847, "bottom": 67.446110046000001, "row_index": 13, "col_index": 18, "tile_id": 734 }, "geometry": { "type": "MultiLineString", "coordinates": [ [ [ 12.998618723823629, 67.913594693671641 ], [ 12.99849047402269, 67.913422637050246 ], [ 12.999336260536717, 67.913011106115789 ], [ 12.999752242866103, 67.912612462654522 ], [ 12.999804651971532, 67.912002913618878 ], [ 13.000341064549337, 67.911309525700545 ], [ 13.00044825533738, 67.91061988357427 ] ] ] } },
{ "type": "Feature", "properties": { "fid": 376912, "elvelengde_m": 138.18, "elvID": "181-121-22", "elvenavn": null, "regulert": null, "fid_2": 734, "id": 734, "left": 12.986919847, "top": 67.946110046000001, "right": 13.486919847, "bottom": 67.446110046000001, "row_index": 13, "col_index": 18, "tile_id": 734 }, "geometry": { "type": "MultiLineString", "coordinates": [ [ [ 13.005568853660504, 67.911507702784405 ], [ 13.004441867712186, 67.911305571355967 ], [ 13.003426347946423, 67.910638174084625 ] ] ] } },
{ "type": "Feature", "properties": { "fid": 376913, "elvelengde_m": 54.0, "elvID": "181-121-15", "elvenavn": null, "regulert": null, "fid_2": 734, "id": 734, "left": 12.986919847, "top": 67.946110046000001, "right": 13.486919847, "bottom": 67.446110046000001, "row_index": 13, "col_index": 18, "tile_id": 734 }, "geometry": { "type": "MultiLineString", "coordinates": [ [ [ 13.00778361893463, 67.91070006884317 ], [ 13.007940321157507, 67.910540450272194 ], [ 13.007943377307374, 67.910226331625779 ] ] ] } },
{ "type": "Feature", "properties": { "fid": 376914, "elvelengde_m": 251.09, "elvID": "181-121-20", "elvenavn": null, "regulert": null, "fid_2": 734, "id": 734, "left": 12.986919847, "top": 67.946110046000001, "right": 13.486919847, "bottom": 67.446110046000001, "row_index": 13, "col_index": 18, "tile_id": 734 }, "geometry": { "type": "MultiLineString", "coordinates": [ [ [ 13.0125429270404, 67.911637123824988 ], [ 13.011574789539541, 67.910970352934484 ], [ 13.010807295038529, 67.910745698268045 ], [ 13.009135640516071, 67.910501106919597 ], [ 13.008304416553861, 67.910185934340859 ] ] ] } },
{ "type": "Feature", "properties": { "fid": 376916, "elvelengde_m": 164.09, "elvID": "181-121-15", "elvenavn": null, "regulert": null, "fid_2": 734, "id": 734, "left": 12.986919847, "top": 67.946110046000001, "right": 13.486919847, "bottom": 67.446110046000001, "row_index": 13, "col_index": 18, "tile_id": 734 }, "geometry": { "type": "MultiLineString", "coordinates": [ [ [ 13.008123113947649, 67.910076055404005 ], [ 13.008063184068421, 67.909940728708378 ], [ 13.007647586527717, 67.909783140251207 ], [ 13.004839913976538, 67.909443956243919 ] ] ] } },
{ "type": "Feature", "properties": { "fid": 376917, "elvelengde_m": 420.22, "elvID": "181-120-1", "elvenavn": null, "regulert": null, "fid_2": 734, "id": 734, "left": 12.986919847, "top": 67.946110046000001, "right": 13.486919847, "bottom": 67.446110046000001, "row_index": 13, "col_index": 18, "tile_id": 734 }, "geometry": { "type": "MultiLineString", "coordinates": [ [ [ 13.0311853005058, 67.911646332204285 ], [ 13.03147252201442, 67.911066516109841 ], [ 13.032002213638073, 67.910722909468632 ], [ 13.032373519447731, 67.910278787798646 ], [ 13.032417495222948, 67.909758778285678 ], [ 13.032233807346408, 67.909675818155648 ], [ 13.028014454432975, 67.90911372687134 ] ] ] } },
{ "type": "Feature", "properties": { "fid": 376918, "elvelengde_m": 48.51, "elvID": "181-121-24", "elvenavn": null, "regulert": null, "fid_2": 734, "id": 734, "left": 12.986919847, "top": 67.946110046000001, "right": 13.486919847, "bottom": 67.446110046000001, "row_index": 13, "col_index": 18, "tile_id": 734 }, "geometry": { "type": "MultiLineString", "coordinates": [ [ [ 12.990363557520324, 67.908693121914681 ], [ 12.990496553171447, 67.90853322961857 ], [ 12.989963589674538, 67.908356211699044 ] ] ] } },
{ "type": "Feature", "properties": { "fid": 376919, "elvelengde_m": 24.11, "elvID": "181-121-18", "elvenavn": null, "regulert": null, "fid_2": 734, "id": 734, "left": 12.986919847, "top": 67.946110046000001, "right": 13.486919847, "bottom": 67.446110046000001, "row_index": 13, "col_index": 18, "tile_id": 734 }, "geometry": { "type": "MultiLineString", "coordinates": [ [ [ 12.989416692327946, 67.908340542337072 ], [ 12.989963589674538, 67.908356211699044 ] ] ] } },
{ "type": "Feature", "properties": { "fid": 376920, "elvelengde_m": 106.16, "elvID": "181-121-18", "elvenavn": null, "regulert": null, "fid_2": 734, "id": 734, "left": 12.986919847, "top": 67.946110046000001, "right": 13.486919847, "bottom": 67.446110046000001, "row_index": 13, "col_index": 18, "tile_id": 734 }, "geometry": { "type": "MultiLineString", "coordinates": [ [ [ 12.986976259061045, 67.908445241458992 ], [ 12.987998620145204, 67.908475719273909 ], [ 12.989416692327946, 67.908340542337072 ] ] ] } },
{ "type": "Feature", "properties": { "fid": 376921, "elvelengde_m": 118.84, "elvID": "181-121-18", "elvenavn": null, "regulert": null, "fid_2": 734, "id": 734, "left": 12.986919847, "top": 67.946110046000001, "right": 13.486919847, "bottom": 67.446110046000001, "row_index": 13, "col_index": 18, "tile_id": 734 }, "geometry": { "type": "MultiLineString", "coordinates": [ [ [ 12.989963589674538, 67.908356211699044 ], [ 12.990498466903585, 67.907959046166241 ], [ 12.990836835856069, 67.907352996957314 ] ] ] } },
{ "type": "Feature", "properties": { "fid": 376924, "elvelengde_m": 393.64, "elvID": "181-121-23", "elvenavn": null, "regulert": null, "fid_2": 734, "id": 734, "left": 12.986919847, "top": 67.946110046000001, "right": 13.486919847, "bottom": 67.446110046000001, "row_index": 13, "col_index": 18, "tile_id": 734 }, "geometry": { "type": "MultiLineString", "coordinates": [ [ [ 13.011810862591968, 67.908765780635093 ], [ 13.011753145007539, 67.908325390005885 ], [ 13.011323698606635, 67.908050990148652 ], [ 13.011044027437379, 67.907697643712126 ], [ 13.010435659808312, 67.907564646708295 ], [ 13.006325522453086, 67.907407200614713 ], [ 13.004836961099839, 67.907254429210255 ] ] ] } },
{ "type": "Feature", "properties": { "fid": 376929, "elvelengde_m": 41.76, "elvID": "181-121-10", "elvenavn": null, "regulert": null, "fid_2": 734, "id": 734, "left": 12.986919847, "top": 67.946110046000001, "right": 13.486919847, "bottom": 67.446110046000001, "row_index": 13, "col_index": 18, "tile_id": 734 }, "geometry": { "type": "MultiLineString", "coordinates": [ [ [ 13.003034583783359, 67.904648196123148 ], [ 13.00243942153465, 67.904362782002181 ] ] ] } },
{ "type": "Feature", "properties": { "fid": 376930, "elvelengde_m": 554.4, "elvID": "181-121-18", "elvenavn": null, "regulert": null, "fid_2": 734, "id": 734, "left": 12.986919847, "top": 67.946110046000001, "right": 13.486919847, "bottom": 67.446110046000001, "row_index": 13, "col_index": 18, "tile_id": 734 }, "geometry": { "type": "MultiLineString", "coordinates": [ [ [ 12.990836835856069, 67.907352996957314 ], [ 12.992508559242738, 67.906763255653587 ], [ 12.997814903433406, 67.905481957488973 ], [ 12.99780738868661, 67.90501525119484 ], [ 12.998209914434938, 67.904768905717162 ], [ 12.998040260198108, 67.904524646059329 ], [ 12.997911494804807, 67.903805117322364 ] ] ] } },
{ "type": "Feature", "properties": { "fid": 376931, "elvelengde_m": 105.86, "elvID": "181-121-10", "elvenavn": null, "regulert": null, "fid_2": 734, "id": 734, "left": 12.986919847, "top": 67.946110046000001, "right": 13.486919847, "bottom": 67.446110046000001, "row_index": 13, "col_index": 18, "tile_id": 734 }, "geometry": { "type": "MultiLineString", "coordinates": [ [ [ 13.003280423148993, 67.904005105950233 ], [ 13.003747375751574, 67.903840291261147 ], [ 13.003931171552306, 67.903645202427995 ], [ 13.00373515654033, 67.90314919572009 ] ] ] } },
{ "type": "Feature", "properties": { "fid": 376933, "elvelengde_m": 169.18, "elvID": "181-121-27", "elvenavn": null, "regulert": null, "fid_2": 734, "id": 734, "left": 12.986919847, "top": 67.946110046000001, "right": 13.486919847, "bottom": 67.446110046000001, "row_index": 13, "col_index": 18, "tile_id": 734 }, "geometry": { "type": "MultiLineString", "coordinates": [ [ [ 13.012015332076416, 67.903303515245767 ], [ 13.008770119268478, 67.902421231108278 ] ] ] } },
{ "type": "Feature", "properties": { "fid": 376935, "elvelengde_m": 380.04, "elvID": "181-120-1", "elvenavn": null, "regulert": null, "fid_2": 734, "id": 734, "left": 12.986919847, "top": 67.946110046000001, "right": 13.486919847, "bottom": 67.446110046000001, "row_index": 13, "col_index": 18, "tile_id": 734 }, "geometry": { "type": "MultiLineString", "coordinates": [ [ [ 13.028636120216085, 67.904589707012363 ], [ 13.02911960671401, 67.904227609175365 ], [ 13.029223671367195, 67.90384300923067 ], [ 13.031362130922162, 67.902791878935957 ], [ 13.032142582153369, 67.902298735475455 ], [ 13.032872856716409, 67.90164041838365 ] ] ] } },
{ "type": "Feature", "properties": { "fid": 376945, "elvelengde_m": 131.86, "elvID": "181-122-1", "elvenavn": "Tindselva", "regulert": null, "fid_2": 734, "id": 734, "left": 12.986919847, "top": 67.946110046000001, "right": 13.486919847, "bottom": 67.446110046000001, "row_index": 13, "col_index": 18, "tile_id": 734 }, "geometry": { "type": "MultiLineString", "coordinates": [ [ [ 12.989155229306927, 67.896562892499858 ], [ 12.989422026901638, 67.896567873217464 ], [ 12.991567867238098, 67.897285091396796 ] ] ] } },
{ "type": "Feature", "properties": { "fid": 376946, "elvelengde_m": 36.92, "elvID": "181-122-1", "elvenavn": "Tindselva", "regulert": null, "fid_2": 734, "id": 734, "left": 12.986919847, "top": 67.946110046000001, "right": 13.486919847, "bottom": 67.446110046000001, "row_index": 13, "col_index": 18, "tile_id": 734 }, "geometry": { "type": "MultiLineString", "coordinates": [ [ [ 12.988321903363076, 67.896668424805767 ], [ 12.989155229306927, 67.896562892499858 ] ] ] } },
{ "type": "Feature", "properties": { "fid": 376948, "elvelengde_m": 262.82, "elvID": "181-122-1", "elvenavn": "Tindselva", "regulert": null, "fid_2": 734, "id": 734, "left": 12.986919847, "top": 67.946110046000001, "right": 13.486919847, "bottom": 67.446110046000001, "row_index": 13, "col_index": 18, "tile_id": 734 }, "geometry": { "type": "MultiLineString", "coordinates": [ [ [ 12.986919847, 67.896482987746609 ], [ 12.988321903363076, 67.896668424805767 ] ] ] } },
{ "type": "Feature", "properties": { "fid": 376952, "elvelengde_m": 87.23, "elvID": "181-122-1", "elvenavn": "Tindselva", "regulert": null, "fid_2": 734, "id": 734, "left": 12.986919847, "top": 67.946110046000001, "right": 13.486919847, "bottom": 67.446110046000001, "row_index": 13, "col_index": 18, "tile_id": 734 }, "geometry": { "type": "MultiLineString", "coordinates": [ [ [ 13.002626159131161, 67.896582830506048 ], [ 13.003013237406268, 67.896111504689841 ], [ 13.003546222325754, 67.895905500219499 ] ] ] } },
{ "type": "Feature", "properties": { "fid": 376957, "elvelengde_m": 277.99, "elvID": "181-121-26", "elvenavn": null, "regulert": null, "fid_2": 734, "id": 734, "left": 12.986919847, "top": 67.946110046000001, "right": 13.486919847, "bottom": 67.446110046000001, "row_index": 13, "col_index": 18, "tile_id": 734 }, "geometry": { "type": "MultiLineString", "coordinates": [ [ [ 12.986919847, 67.895748482733623 ], [ 12.989205037015555, 67.896476198724997 ], [ 12.989155229306927, 67.896562892499858 ] ] ] } },
{ "type": "Feature", "properties": { "fid": 376960, "elvelengde_m": 58.73, "elvID": "181-122-1", "elvenavn": "Tindselva", "regulert": null, "fid_2": 734, "id": 734, "left": 12.986919847, "top": 67.946110046000001, "right": 13.486919847, "bottom": 67.446110046000001, "row_index": 13, "col_index": 18, "tile_id": 734 }, "geometry": { "type": "MultiLineString", "coordinates": [ [ [ 13.004119071811932, 67.89422547904789 ], [ 13.003829715787385, 67.893710389249293 ] ] ] } },
{ "type": "Feature", "properties": { "fid": 376962, "elvelengde_m": 72.27, "elvID": "181-122-1", "elvenavn": "Tindselva", "regulert": null, "fid_2": 734, "id": 734, "left": 12.986919847, "top": 67.946110046000001, "right": 13.486919847, "bottom": 67.446110046000001, "row_index": 13, "col_index": 18, "tile_id": 734 }, "geometry": { "type": "MultiLineString", "coordinates": [ [ [ 13.003275497043164, 67.89350623324664 ], [ 13.00256620559545, 67.893443761472554 ], [ 13.001725676481966, 67.893245088273829 ] ] ] } },
{ "type": "Feature", "properties": { "fid": 376976, "elvelengde_m": 168.53, "elvID": "181-122-1", "elvenavn": "Tindselva", "regulert": null, "fid_2": 734, "id": 734, "left": 12.986919847, "top": 67.946110046000001, "right": 13.486919847, "bottom": 67.446110046000001, "row_index": 13, "col_index": 18, "tile_id": 734 }, "geometry": { "type": "MultiLineString", "coordinates": [ [ [ 13.000762416066372, 67.889204317956384 ], [ 13.002440228010538, 67.888803004864286 ], [ 13.002968324962547, 67.888199334898417 ], [ 13.003206463421909, 67.888119050223835 ] ] ] } },
{ "type": "Feature", "properties": { "fid": 378602, "elvelengde_m": 59.13, "elvID": "181-121-1", "elvenavn": "Sørvågvassdraget", "regulert": null, "fid_2": 734, "id": 734, "left": 12.986919847, "top": 67.946110046000001, "right": 13.486919847, "bottom": 67.446110046000001, "row_index": 13, "col_index": 18, "tile_id": 734 }, "geometry": { "type": "MultiLineString", "coordinates": [ [ [ 13.023502807262071, 67.890296206539674 ], [ 13.023583532738435, 67.890122882929845 ], [ 13.023530599063937, 67.889769452133947 ] ] ] } },
{ "type": "Feature", "properties": { "fid": 378603, "elvelengde_m": 114.3, "elvID": "181-122-1", "elvenavn": "Tindselva", "regulert": null, "fid_2": 734, "id": 734, "left": 12.986919847, "top": 67.946110046000001, "right": 13.486919847, "bottom": 67.446110046000001, "row_index": 13, "col_index": 18, "tile_id": 734 }, "geometry": { "type": "MultiLineString", "coordinates": [ [ [ 13.003546222325754, 67.895905500219499 ], [ 13.00411902273628, 67.895059819993449 ], [ 13.003940154364869, 67.894923134165523 ] ] ] } },
{ "type": "Feature", "properties": { "fid": 378631, "elvelengde_m": 135.83, "elvID": "181-118-1", "elvenavn": null, "regulert": null, "fid_2": 734, "id": 734, "left": 12.986919847, "top": 67.946110046000001, "right": 13.486919847, "bottom": 67.446110046000001, "row_index": 13, "col_index": 18, "tile_id": 734 }, "geometry": { "type": "MultiLineString", "coordinates": [ [ [ 13.038059640797947, 67.927090795200058 ], [ 13.034989545877487, 67.927478625598823 ] ] ] } },
{ "type": "Feature", "properties": { "fid": 378635, "elvelengde_m": 22.25, "elvID": "181-121-22", "elvenavn": null, "regulert": null, "fid_2": 734, "id": 734, "left": 12.986919847, "top": 67.946110046000001, "right": 13.486919847, "bottom": 67.446110046000001, "row_index": 13, "col_index": 18, "tile_id": 734 }, "geometry": { "type": "MultiLineString", "coordinates": [ [ [ 13.00631823548788, 67.912611827459983 ], [ 13.005939133723048, 67.912472344830505 ] ] ] } },
{ "type": "Feature", "properties": { "fid": 378636, "elvelengde_m": 23.64, "elvID": "181-121-20", "elvenavn": null, "regulert": null, "fid_2": 734, "id": 734, "left": 12.986919847, "top": 67.946110046000001, "right": 13.486919847, "bottom": 67.446110046000001, "row_index": 13, "col_index": 18, "tile_id": 734 }, "geometry": { "type": "MultiLineString", "coordinates": [ [ [ 13.013048398395222, 67.911730652221223 ], [ 13.0125429270404, 67.911637123824988 ] ] ] } },
{ "type": "Feature", "properties": { "fid": 378637, "elvelengde_m": 8.0, "elvID": "181-121-20", "elvenavn": null, "regulert": null, "fid_2": 734, "id": 734, "left": 12.986919847, "top": 67.946110046000001, "right": 13.486919847, "bottom": 67.446110046000001, "row_index": 13, "col_index": 18, "tile_id": 734 }, "geometry": { "type": "MultiLineString", "coordinates": [ [ [ 13.008304416553861, 67.910185934340859 ], [ 13.008155277873319, 67.910141231092084 ] ] ] } },
{ "type": "Feature", "properties": { "fid": 378638, "elvelengde_m": 7.39, "elvID": "181-121-15", "elvenavn": null, "regulert": null, "fid_2": 734, "id": 734, "left": 12.986919847, "top": 67.946110046000001, "right": 13.486919847, "bottom": 67.446110046000001, "row_index": 13, "col_index": 18, "tile_id": 734 }, "geometry": { "type": "MultiLineString", "coordinates": [ [ [ 13.008155277873319, 67.910141231092084 ], [ 13.008123113947649, 67.910076055404005 ] ] ] } },
{ "type": "Feature", "properties": { "fid": 378639, "elvelengde_m": 133.02, "elvID": "181-121-10", "elvenavn": null, "regulert": null, "fid_2": 734, "id": 734, "left": 12.986919847, "top": 67.946110046000001, "right": 13.486919847, "bottom": 67.446110046000001, "row_index": 13, "col_index": 18, "tile_id": 734 }, "geometry": { "type": "MultiLineString", "coordinates": [ [ [ 13.00044825533738, 67.91061988357427 ], [ 13.000543694240301, 67.910323587466593 ], [ 13.000786322978811, 67.910170712402447 ], [ 13.002287255421946, 67.909734799540743 ] ] ] } },
{ "type": "Feature", "properties": { "fid": 378640, "elvelengde_m": 91.77, "elvID": "181-121-15", "elvenavn": null, "regulert": null, "fid_2": 734, "id": 734, "left": 12.986919847, "top": 67.946110046000001, "right": 13.486919847, "bottom": 67.446110046000001, "row_index": 13, "col_index": 18, "tile_id": 734 }, "geometry": { "type": "MultiLineString", "coordinates": [ [ [ 13.004839913976538, 67.909443956243919 ], [ 13.00266440139371, 67.909361412696597 ] ] ] } },
{ "type": "Feature", "properties": { "fid": 378641, "elvelengde_m": 69.17, "elvID": "181-121-23", "elvenavn": null, "regulert": null, "fid_2": 734, "id": 734, "left": 12.986919847, "top": 67.946110046000001, "right": 13.486919847, "bottom": 67.446110046000001, "row_index": 13, "col_index": 18, "tile_id": 734 }, "geometry": { "type": "MultiLineString", "coordinates": [ [ [ 13.004836961099839, 67.907254429210255 ], [ 13.003192404674284, 67.907294348142088 ] ] ] } },
{ "type": "Feature", "properties": { "fid": 378647, "elvelengde_m": 268.26, "elvID": "181-121-10", "elvenavn": null, "regulert": null, "fid_2": 734, "id": 734, "left": 12.986919847, "top": 67.946110046000001, "right": 13.486919847, "bottom": 67.446110046000001, "row_index": 13, "col_index": 18, "tile_id": 734 }, "geometry": { "type": "MultiLineString", "coordinates": [ [ [ 13.00373515654033, 67.90314919572009 ], [ 13.002987167981521, 67.902606974184167 ], [ 13.000027788584564, 67.901201862285774 ] ] ] } },
{ "type": "Feature", "properties": { "fid": 378648, "elvelengde_m": 69.99, "elvID": "181-121-10", "elvenavn": null, "regulert": null, "fid_2": 734, "id": 734, "left": 12.986919847, "top": 67.946110046000001, "right": 13.486919847, "bottom": 67.446110046000001, "row_index": 13, "col_index": 18, "tile_id": 734 }, "geometry": { "type": "MultiLineString", "coordinates": [ [ [ 13.000027788584564, 67.901201862285774 ], [ 12.99855510120498, 67.900907706608479 ] ] ] } },
{ "type": "Feature", "properties": { "fid": 378650, "elvelengde_m": 381.45, "elvID": "181-122-1", "elvenavn": "Tindselva", "regulert": null, "fid_2": 734, "id": 734, "left": 12.986919847, "top": 67.946110046000001, "right": 13.486919847, "bottom": 67.446110046000001, "row_index": 13, "col_index": 18, "tile_id": 734 }, "geometry": { "type": "MultiLineString", "coordinates": [ [ [ 12.991567867238098, 67.897285091396796 ], [ 12.992600666907327, 67.897577601049846 ], [ 12.996130623125108, 67.899338655214919 ], [ 12.997428250010428, 67.899876658278387 ] ] ] } },
{ "type": "Feature", "properties": { "fid": 378689, "elvelengde_m": 73.62, "elvID": "181-121-15", "elvenavn": null, "regulert": null, "fid_2": 734, "id": 734, "left": 12.986919847, "top": 67.946110046000001, "right": 13.486919847, "bottom": 67.446110046000001, "row_index": 13, "col_index": 18, "tile_id": 734 }, "geometry": { "type": "MultiLineString", "coordinates": [ [ [ 13.011798691098814, 67.915603285691404 ], [ 13.012122849707161, 67.915478249845208 ], [ 13.01265253677705, 67.91503909231686 ] ] ] } },
{ "type": "Feature", "properties": { "fid": 378691, "elvelengde_m": 67.4, "elvID": "181-121-16", "elvenavn": null, "regulert": null, "fid_2": 734, "id": 734, "left": 12.986919847, "top": 67.946110046000001, "right": 13.486919847, "bottom": 67.446110046000001, "row_index": 13, "col_index": 18, "tile_id": 734 }, "geometry": { "type": "MultiLineString", "coordinates": [ [ [ 13.014226567571631, 67.915094260755211 ], [ 13.01265253677705, 67.91503909231686 ] ] ] } },
{ "type": "Feature", "properties": { "fid": 378692, "elvelengde_m": 121.33, "elvID": "181-121-15", "elvenavn": null, "regulert": null, "fid_2": 734, "id": 734, "left": 12.986919847, "top": 67.946110046000001, "right": 13.486919847, "bottom": 67.446110046000001, "row_index": 13, "col_index": 18, "tile_id": 734 }, "geometry": { "type": "MultiLineString", "coordinates": [ [ [ 13.01265253677705, 67.91503909231686 ], [ 13.01202689999549, 67.91466194641346 ], [ 13.012104730159278, 67.914309557883783 ], [ 13.011836731702999, 67.91404239206139 ] ] ] } },
{ "type": "Feature", "properties": { "fid": 378694, "elvelengde_m": 22.54, "elvID": "181-121-22", "elvenavn": null, "regulert": null, "fid_2": 734, "id": 734, "left": 12.986919847, "top": 67.946110046000001, "right": 13.486919847, "bottom": 67.446110046000001, "row_index": 13, "col_index": 18, "tile_id": 734 }, "geometry": { "type": "MultiLineString", "coordinates": [ [ [ 13.00574400804013, 67.911689296438311 ], [ 13.005741256495547, 67.911599803495704 ], [ 13.005568853660504, 67.911507702784405 ] ] ] } },
{ "type": "Feature", "properties": { "fid": 378695, "elvelengde_m": 35.23, "elvID": "181-121-15", "elvenavn": null, "regulert": null, "fid_2": 734, "id": 734, "left": 12.986919847, "top": 67.946110046000001, "right": 13.486919847, "bottom": 67.446110046000001, "row_index": 13, "col_index": 18, "tile_id": 734 }, "geometry": { "type": "MultiLineString", "coordinates": [ [ [ 13.007661494122772, 67.91101265315946 ], [ 13.00778361893463, 67.91070006884317 ] ] ] } },
{ "type": "Feature", "properties": { "fid": 378696, "elvelengde_m": 13.0, "elvID": "181-121-15", "elvenavn": null, "regulert": null, "fid_2": 734, "id": 734, "left": 12.986919847, "top": 67.946110046000001, "right": 13.486919847, "bottom": 67.446110046000001, "row_index": 13, "col_index": 18, "tile_id": 734 }, "geometry": { "type": "MultiLineString", "coordinates": [ [ [ 13.007943377307374, 67.910226331625779 ], [ 13.008155277873319, 67.910141231092084 ] ] ] } },
{ "type": "Feature", "properties": { "fid": 378698, "elvelengde_m": 48.51, "elvID": "181-121-18", "elvenavn": null, "regulert": null, "fid_2": 734, "id": 734, "left": 12.986919847, "top": 67.946110046000001, "right": 13.486919847, "bottom": 67.446110046000001, "row_index": 13, "col_index": 18, "tile_id": 734 }, "geometry": { "type": "MultiLineString", "coordinates": [ [ [ 12.986919847, 67.908437648125528 ], [ 12.986976259061045, 67.908445241458992 ] ] ] } },
{ "type": "Feature", "properties": { "fid": 378700, "elvelengde_m": 56.39, "elvID": "181-121-10", "elvenavn": null, "regulert": null, "fid_2": 734, "id": 734, "left": 12.986919847, "top": 67.946110046000001, "right": 13.486919847, "bottom": 67.446110046000001, "row_index": 13, "col_index": 18, "tile_id": 734 }, "geometry": { "type": "MultiLineString", "coordinates": [ [ [ 13.00243942153465, 67.904362782002181 ], [ 13.002715788100174, 67.904226076029033 ], [ 13.00311703501859, 67.904159101292933 ], [ 13.003280423148993, 67.904005105950233 ] ] ] } },
{ "type": "Feature", "properties": { "fid": 378706, "elvelengde_m": 79.49, "elvID": "181-122-1", "elvenavn": "Tindselva", "regulert": null, "fid_2": 734, "id": 734, "left": 12.986919847, "top": 67.946110046000001, "right": 13.486919847, "bottom": 67.446110046000001, "row_index": 13, "col_index": 18, "tile_id": 734 }, "geometry": { "type": "MultiLineString", "coordinates": [ [ [ 13.003940154364869, 67.894923134165523 ], [ 13.003859541966529, 67.894660473002233 ], [ 13.004119071811932, 67.89422547904789 ] ] ] } },
{ "type": "Feature", "properties": { "fid": 378752, "elvelengde_m": 564.87, "elvID": "181-117-1", "elvenavn": null, "regulert": null, "fid_2": 734, "id": 734, "left": 12.986919847, "top": 67.946110046000001, "right": 13.486919847, "bottom": 67.446110046000001, "row_index": 13, "col_index": 18, "tile_id": 734 }, "geometry": { "type": "MultiLineString", "coordinates": [ [ [ 13.057361483719236, 67.933053949289459 ], [ 13.058369708859933, 67.932892702954007 ], [ 13.05884671712783, 67.932895121021701 ], [ 13.062308220588957, 67.933200348805357 ], [ 13.063651906350257, 67.933017458245558 ], [ 13.065318310688529, 67.932996927547165 ], [ 13.065963847749568, 67.933101327095642 ], [ 13.067749495623309, 67.933695450482233 ], [ 13.069536165527728, 67.934139490317563 ] ] ] } },
{ "type": "Feature", "properties": { "fid": 378753, "elvelengde_m": 57.42, "elvID": "181-118-2", "elvenavn": null, "regulert": null, "fid_2": 734, "id": 734, "left": 12.986919847, "top": 67.946110046000001, "right": 13.486919847, "bottom": 67.446110046000001, "row_index": 13, "col_index": 18, "tile_id": 734 }, "geometry": { "type": "MultiLineString", "coordinates": [ [ [ 13.032490356555069, 67.932856688726531 ], [ 13.032642757587343, 67.932786882884884 ], [ 13.032643797267465, 67.932701905702544 ], [ 13.032390325487146, 67.932556930405681 ], [ 13.032669567378322, 67.932428120739615 ] ] ] } },
{ "type": "Feature", "properties": { "fid": 378756, "elvelengde_m": 352.45, "elvID": "181-113-1", "elvenavn": "Tenneselva", "regulert": 1, "fid_2": 734, "id": 734, "left": 12.986919847, "top": 67.946110046000001, "right": 13.486919847, "bottom": 67.446110046000001, "row_index": 13, "col_index": 18, "tile_id": 734 }, "geometry": { "type": "MultiLineString", "coordinates": [ [ [ 12.986919847, 67.929907498027475 ], [ 12.987905709309491, 67.929954758028359 ], [ 12.989328336470248, 67.929898794774061 ] ] ] } },
{ "type": "Feature", "properties": { "fid": 378758, "elvelengde_m": 68.68, "elvID": "181-113-5", "elvenavn": null, "regulert": null, "fid_2": 734, "id": 734, "left": 12.986919847, "top": 67.946110046000001, "right": 13.486919847, "bottom": 67.446110046000001, "row_index": 13, "col_index": 18, "tile_id": 734 }, "geometry": { "type": "MultiLineString", "coordinates": [ [ [ 13.00546766737731, 67.927425135211877 ], [ 13.004842164611937, 67.92763237818842 ], [ 13.004566684609935, 67.927360355795571 ] ] ] } },
{ "type": "Feature", "properties": { "fid": 378759, "elvelengde_m": 40.5, "elvID": "181-119-1", "elvenavn": null, "regulert": null, "fid_2": 734, "id": 734, "left": 12.986919847, "top": 67.946110046000001, "right": 13.486919847, "bottom": 67.446110046000001, "row_index": 13, "col_index": 18, "tile_id": 734 }, "geometry": { "type": "MultiLineString", "coordinates": [ [ [ 13.021522884603458, 67.920979041435217 ], [ 13.021955874240918, 67.920894790727417 ], [ 13.022407467026717, 67.920953800022204 ] ] ] } },
{ "type": "Feature", "properties": { "fid": 378760, "elvelengde_m": 436.7, "elvID": "181-121-10", "elvenavn": null, "regulert": null, "fid_2": 734, "id": 734, "left": 12.986919847, "top": 67.946110046000001, "right": 13.486919847, "bottom": 67.446110046000001, "row_index": 13, "col_index": 18, "tile_id": 734 }, "geometry": { "type": "MultiLineString", "coordinates": [ [ [ 12.993272649443684, 67.916675336823388 ], [ 12.994872351142039, 67.916152228321181 ], [ 12.996247702057516, 67.915419695414002 ], [ 12.998496011016329, 67.914376417934193 ], [ 12.998931326960708, 67.914060470607637 ], [ 12.998991214863551, 67.913793336078442 ], [ 12.998618723823629, 67.913594693671641 ] ] ] } },
{ "type": "Feature", "properties": { "fid": 378763, "elvelengde_m": 44.54, "elvID": "181-121-10", "elvenavn": null, "regulert": null, "fid_2": 734, "id": 734, "left": 12.986919847, "top": 67.946110046000001, "right": 13.486919847, "bottom": 67.446110046000001, "row_index": 13, "col_index": 18, "tile_id": 734 }, "geometry": { "type": "MultiLineString", "coordinates": [ [ [ 13.002287255421946, 67.909734799540743 ], [ 13.00266440139371, 67.909361412696597 ] ] ] } },
{ "type": "Feature", "properties": { "fid": 378764, "elvelengde_m": 236.39, "elvID": "181-121-10", "elvenavn": null, "regulert": null, "fid_2": 734, "id": 734, "left": 12.986919847, "top": 67.946110046000001, "right": 13.486919847, "bottom": 67.446110046000001, "row_index": 13, "col_index": 18, "tile_id": 734 }, "geometry": { "type": "MultiLineString", "coordinates": [ [ [ 13.00266440139371, 67.909361412696597 ], [ 13.002741740675381, 67.909004598216541 ], [ 13.002579518861074, 67.908382040621674 ], [ 13.003008103155302, 67.907964799920862 ], [ 13.00296894905547, 67.907517342095559 ], [ 13.003192404674284, 67.907294348142088 ] ] ] } },
{ "type": "Feature", "properties": { "fid": 378765, "elvelengde_m": 693.08, "elvID": "181-120-1", "elvenavn": null, "regulert": null, "fid_2": 734, "id": 734, "left": 12.986919847, "top": 67.946110046000001, "right": 13.486919847, "bottom": 67.446110046000001, "row_index": 13, "col_index": 18, "tile_id": 734 }, "geometry": { "type": "MultiLineString", "coordinates": [ [ [ 13.028014454432975, 67.90911372687134 ], [ 13.028140526014605, 67.908958681246318 ], [ 13.026196698087285, 67.908714220283471 ], [ 13.025320552687212, 67.908289330005857 ], [ 13.02445666779454, 67.907981138493156 ], [ 13.02362657369361, 67.9073399691585 ], [ 13.023610988666663, 67.907253519854009 ], [ 13.024059403376887, 67.906470059275136 ], [ 13.02659993195863, 67.905407028965513 ], [ 13.028447549517818, 67.905031974185036 ], [ 13.028636120216085, 67.904589707012363 ] ] ] } },
{ "type": "Feature", "properties": { "fid": 378769, "elvelengde_m": 397.13, "elvID": "181-121-27", "elvenavn": null, "regulert": null, "fid_2": 734, "id": 734, "left": 12.986919847, "top": 67.946110046000001, "right": 13.486919847, "bottom": 67.446110046000001, "row_index": 13, "col_index": 18, "tile_id": 734 }, "geometry": { "type": "MultiLineString", "coordinates": [ [ [ 13.008770119268478, 67.902421231108278 ], [ 13.008365170454992, 67.902383524741779 ], [ 13.005791343734799, 67.901748526291087 ], [ 13.000027788584564, 67.901201862285774 ] ] ] } },
{ "type": "Feature", "properties": { "fid": 378770, "elvelengde_m": 328.92, "elvID": "181-121-18", "elvenavn": null, "regulert": null, "fid_2": 734, "id": 734, "left": 12.986919847, "top": 67.946110046000001, "right": 13.486919847, "bottom": 67.446110046000001, "row_index": 13, "col_index": 18, "tile_id": 734 }, "geometry": { "type": "MultiLineString", "coordinates": [ [ [ 12.997911494804807, 67.903805117322364 ], [ 12.998691676637231, 67.902771874894086 ], [ 12.998837288457976, 67.902236948122777 ], [ 12.998880470016974, 67.90178929658866 ], [ 12.99855510120498, 67.900907706608479 ] ] ] } },
{ "type": "Feature", "properties": { "fid": 378771, "elvelengde_m": 126.52, "elvID": "181-121-10", "elvenavn": null, "regulert": null, "fid_2": 734, "id": 734, "left": 12.986919847, "top": 67.946110046000001, "right": 13.486919847, "bottom": 67.446110046000001, "row_index": 13, "col_index": 18, "tile_id": 734 }, "geometry": { "type": "MultiLineString", "coordinates": [ [ [ 12.99855510120498, 67.900907706608479 ], [ 12.997967395159678, 67.900626763386086 ], [ 12.997428250010428, 67.899876658278387 ] ] ] } },
{ "type": "Feature", "properties": { "fid": 378773, "elvelengde_m": 487.77, "elvID": "181-122-1", "elvenavn": "Tindselva", "regulert": null, "fid_2": 734, "id": 734, "left": 12.986919847, "top": 67.946110046000001, "right": 13.486919847, "bottom": 67.446110046000001, "row_index": 13, "col_index": 18, "tile_id": 734 }, "geometry": { "type": "MultiLineString", "coordinates": [ [ [ 13.001725676481966, 67.893245088273829 ], [ 13.001237789251778, 67.892842490152546 ], [ 13.000953273098828, 67.892407283922793 ], [ 13.000689802462865, 67.892159335617478 ], [ 13.000710117709602, 67.892069980540526 ], [ 13.000066010679856, 67.891088143211732 ], [ 12.999666597588455, 67.890762832260734 ], [ 12.99952816410654, 67.890407873977878 ], [ 12.999502991897145, 67.890139965148492 ], [ 12.999595176086268, 67.890057102786002 ], [ 13.000767956516471, 67.889613881266826 ], [ 13.000762416066372, 67.889204317956384 ] ] ] } },
{ "type": "Feature", "properties": { "fid": 378791, "elvelengde_m": 112.84, "elvID": "181-121-22", "elvenavn": null, "regulert": null, "fid_2": 734, "id": 734, "left": 12.986919847, "top": 67.946110046000001, "right": 13.486919847, "bottom": 67.446110046000001, "row_index": 13, "col_index": 18, "tile_id": 734 }, "geometry": { "type": "MultiLineString", "coordinates": [ [ [ 13.003426347946423, 67.910638174084625 ], [ 13.002535405171152, 67.910107598777117 ], [ 13.002287255421946, 67.909734799540743 ] ] ] } },
{ "type": "Feature", "properties": { "fid": 378792, "elvelengde_m": 310.56, "elvID": "181-121-10", "elvenavn": null, "regulert": null, "fid_2": 734, "id": 734, "left": 12.986919847, "top": 67.946110046000001, "right": 13.486919847, "bottom": 67.446110046000001, "row_index": 13, "col_index": 18, "tile_id": 734 }, "geometry": { "type": "MultiLineString", "coordinates": [ [ [ 13.003192404674284, 67.907294348142088 ], [ 13.003271673620873, 67.907117728069679 ], [ 13.003244051156805, 67.906849250028756 ], [ 13.003871994153778, 67.905620236378397 ], [ 13.003699961299256, 67.905361992725801 ], [ 13.003172624824698, 67.905182433807724 ], [ 13.003063471704209, 67.905009807832982 ], [ 13.003106662974984, 67.90492192067893 ], [ 13.003001057587165, 67.904843482473225 ], [ 13.003034583783359, 67.904648196123148 ] ] ] } },
{ "type": "Feature", "properties": { "fid": 378807, "elvelengde_m": 362.5, "elvID": "181-113-5", "elvenavn": null, "regulert": null, "fid_2": 734, "id": 734, "left": 12.986919847, "top": 67.946110046000001, "right": 13.486919847, "bottom": 67.446110046000001, "row_index": 13, "col_index": 18, "tile_id": 734 }, "geometry": { "type": "MultiLineString", "coordinates": [ [ [ 12.995036320058684, 67.927495590502389 ], [ 12.991728736043621, 67.928823088935246 ], [ 12.989989307570156, 67.929433048964583 ], [ 12.989433398395965, 67.929724879786292 ], [ 12.989328336470248, 67.929898794774061 ] ] ] } },
{ "type": "Feature", "properties": { "fid": 378808, "elvelengde_m": 596.39, "elvID": "181-118-1", "elvenavn": null, "regulert": null, "fid_2": 734, "id": 734, "left": 12.986919847, "top": 67.946110046000001, "right": 13.486919847, "bottom": 67.446110046000001, "row_index": 13, "col_index": 18, "tile_id": 734 }, "geometry": { "type": "MultiLineString", "coordinates": [ [ [ 13.034989545877487, 67.927478625598823 ], [ 13.035359047103265, 67.92705241171096 ], [ 13.035668369662558, 67.926527239165225 ], [ 13.035934945280689, 67.926277899792368 ], [ 13.037563444224482, 67.925629498121282 ], [ 13.038449423810885, 67.925509024856154 ], [ 13.040094889509309, 67.925536823796236 ], [ 13.04240933657756, 67.925079002219675 ], [ 13.043677046372492, 67.924686518721927 ], [ 13.043687950746252, 67.924611694848906 ], [ 13.042566312926924, 67.924282016689375 ] ] ] } },
{ "type": "Feature", "properties": { "fid": 378809, "elvelengde_m": 477.8, "elvID": "181-121-14", "elvenavn": null, "regulert": null, "fid_2": 734, "id": 734, "left": 12.986919847, "top": 67.946110046000001, "right": 13.486919847, "bottom": 67.446110046000001, "row_index": 13, "col_index": 18, "tile_id": 734 }, "geometry": { "type": "MultiLineString", "coordinates": [ [ [ 12.98784901165269, 67.918993031660989 ], [ 12.987948020272082, 67.919080336937711 ], [ 12.988151745657573, 67.919097468820709 ], [ 12.992911444295, 67.918975942157644 ], [ 12.99296869206345, 67.918903698090759 ], [ 12.992888131118244, 67.917890024566319 ], [ 12.993025254213737, 67.917264449324577 ], [ 12.993272649443684, 67.916675336823388 ] ] ] } },
{ "type": "Feature", "properties": { "fid": 378810, "elvelengde_m": 181.66, "elvID": "181-119-1", "elvenavn": null, "regulert": null, "fid_2": 734, "id": 734, "left": 12.986919847, "top": 67.946110046000001, "right": 13.486919847, "bottom": 67.446110046000001, "row_index": 13, "col_index": 18, "tile_id": 734 }, "geometry": { "type": "MultiLineString", "coordinates": [ [ [ 13.036355700868034, 67.918456086407673 ], [ 13.03737768091014, 67.918671321924833 ], [ 13.038415674835129, 67.918198853061881 ], [ 13.039868997159013, 67.918363451715692 ] ] ] } },
{ "type": "Feature", "properties": { "fid": 378812, "elvelengde_m": 311.52, "elvID": "181-121-10", "elvenavn": null, "regulert": null, "fid_2": 734, "id": 734, "left": 12.986919847, "top": 67.946110046000001, "right": 13.486919847, "bottom": 67.446110046000001, "row_index": 13, "col_index": 18, "tile_id": 734 }, "geometry": { "type": "MultiLineString", "coordinates": [ [ [ 12.986919847, 67.916489963486967 ], [ 12.990468423808064, 67.916204054362026 ], [ 12.993272649443684, 67.916675336823388 ] ] ] } },
{ "type": "Feature", "properties": { "fid": 378829, "elvelengde_m": 300.41, "elvID": "181-118-2", "elvenavn": null, "regulert": null, "fid_2": 734, "id": 734, "left": 12.986919847, "top": 67.946110046000001, "right": 13.486919847, "bottom": 67.446110046000001, "row_index": 13, "col_index": 18, "tile_id": 734 }, "geometry": { "type": "MultiLineString", "coordinates": [ [ [ 13.033488730938013, 67.929799805859147 ], [ 13.03388951315238, 67.9298387958234 ], [ 13.03420828338086, 67.929495693353189 ], [ 13.034219008716915, 67.929317388812095 ], [ 13.033779834348227, 67.928609823849442 ], [ 13.033778942119195, 67.92844203414873 ], [ 13.034279797328825, 67.928243415441486 ], [ 13.034412238031575, 67.927890502109165 ], [ 13.034989545877487, 67.927478625598823 ] ] ] } },
{ "type": "Feature", "properties": { "fid": 378831, "elvelengde_m": 446.08, "elvID": "181-122-1", "elvenavn": "Tindselva", "regulert": null, "fid_2": 734, "id": 734, "left": 12.986919847, "top": 67.946110046000001, "right": 13.486919847, "bottom": 67.446110046000001, "row_index": 13, "col_index": 18, "tile_id": 734 }, "geometry": { "type": "MultiLineString", "coordinates": [ [ [ 12.997428250010428, 67.899876658278387 ], [ 13.000997338565059, 67.89864325294549 ], [ 13.002167542641704, 67.897092457023973 ], [ 13.002708064564525, 67.896695663891876 ], [ 13.002626159131161, 67.896582830506048 ] ] ] } },
{ "type": "Feature", "properties": { "fid": 378837, "elvelengde_m": 937.74, "elvID": "181-113-1", "elvenavn": "Tenneselva", "regulert": 1, "fid_2": 734, "id": 734, "left": 12.986919847, "top": 67.946110046000001, "right": 13.486919847, "bottom": 67.446110046000001, "row_index": 13, "col_index": 18, "tile_id": 734 }, "geometry": { "type": "MultiLineString", "coordinates": [ [ [ 12.989328336470248, 67.929898794774061 ], [ 12.990494856270551, 67.931158578917731 ], [ 12.992721099573471, 67.93274463761766 ], [ 12.993916039752504, 67.93390033419567 ], [ 12.99424668618469, 67.93500736174316 ], [ 12.993684638553887, 67.935999793915229 ], [ 12.992957146004466, 67.93658483072609 ], [ 12.992061945251887, 67.937130144026909 ], [ 12.990666810696002, 67.937474519759746 ] ] ] } },
{ "type": "Feature", "properties": { "fid": 378896, "elvelengde_m": 42.93, "elvID": "181-113-5", "elvenavn": null, "regulert": null, "fid_2": 734, "id": 734, "left": 12.986919847, "top": 67.946110046000001, "right": 13.486919847, "bottom": 67.446110046000001, "row_index": 13, "col_index": 18, "tile_id": 734 }, "geometry": { "type": "MultiLineString", "coordinates": [ [ [ 13.014214308557538, 67.929269311116215 ], [ 13.014346842962375, 67.929100989499091 ], [ 13.01424049613818, 67.928895330911146 ] ] ] } },
{ "type": "Feature", "properties": { "fid": 378898, "elvelengde_m": 90.08, "elvID": "181-121-24", "elvenavn": null, "regulert": null, "fid_2": 734, "id": 734, "left": 12.986919847, "top": 67.946110046000001, "right": 13.486919847, "bottom": 67.446110046000001, "row_index": 13, "col_index": 18, "tile_id": 734 }, "geometry": { "type": "MultiLineString", "coordinates": [ [ [ 12.990362487246239, 67.909490986245657 ], [ 12.990502697375099, 67.909048610361339 ], [ 12.99034571085898, 67.908790459428403 ], [ 12.990363557520324, 67.908693121914681 ] ] ] } },
{ "type": "Feature", "properties": { "fid": 378899, "elvelengde_m": 54.04, "elvID": "181-121-23", "elvenavn": null, "regulert": null, "fid_2": 734, "id": 734, "left": 12.986919847, "top": 67.946110046000001, "right": 13.486919847, "bottom": 67.446110046000001, "row_index": 13, "col_index": 18, "tile_id": 734 }, "geometry": { "type": "MultiLineString", "coordinates": [ [ [ 13.011652452609471, 67.909240602250208 ], [ 13.011807518734257, 67.909072640475827 ], [ 13.011810862591968, 67.908765780635093 ] ] ] } },
{ "type": "Feature", "properties": { "fid": 378901, "elvelengde_m": 652.37, "elvID": "181-121-1", "elvenavn": "Sørvågvassdraget", "regulert": null, "fid_2": 734, "id": 734, "left": 12.986919847, "top": 67.946110046000001, "right": 13.486919847, "bottom": 67.446110046000001, "row_index": 13, "col_index": 18, "tile_id": 734 }, "geometry": { "type": "MultiLineString", "coordinates": [ [ [ 13.012682425476557, 67.894374177839651 ], [ 13.015444502088362, 67.893824664942287 ], [ 13.018104608170908, 67.892871563259007 ], [ 13.023502807262071, 67.890296206539674 ] ] ] } },
{ "type": "Feature", "properties": { "fid": 378916, "elvelengde_m": 32.56, "elvID": "181-122-1", "elvenavn": "Tindselva", "regulert": null, "fid_2": 734, "id": 734, "left": 12.986919847, "top": 67.946110046000001, "right": 13.486919847, "bottom": 67.446110046000001, "row_index": 13, "col_index": 18, "tile_id": 734 }, "geometry": { "type": "MultiLineString", "coordinates": [ [ [ 13.003829715787385, 67.893710389249293 ], [ 13.003275497043164, 67.89350623324664 ] ] ] } },
{ "type": "Feature", "properties": { "fid": 378933, "elvelengde_m": 91.93, "elvID": "181-121-1", "elvenavn": "Sørvågvassdraget", "regulert": null, "fid_2": 734, "id": 734, "left": 12.986919847, "top": 67.946110046000001, "right": 13.486919847, "bottom": 67.446110046000001, "row_index": 13, "col_index": 18, "tile_id": 734 }, "geometry": { "type": "MultiLineString", "coordinates": [ [ [ 13.01108579872753, 67.89493810129656 ], [ 13.012682425476557, 67.894374177839651 ] ] ] } }
]
}
