{
"type": "FeatureCollection",
"name": "elvis_tile_id_1810",
"crs": { "type": "name", "properties": { "name": "urn:ogc:def:crs:OGC:1.3:CRS84" } },
"xy_coordinate_resolution": 1e-15,
"features": [
{ "type": "Feature", "properties": { "fid": 6305, "elvelengde_m": 739.41, "elvID": "234-62-1", "elvenavn": "Tana", "regulert": null, "fid_2": 1810, "id": 1810, "left": 26.486919847, "top": 69.946110046000001, "right": 26.986919847, "bottom": 69.446110046000001, "row_index": 9, "col_index": 45, "tile_id": 1810 }, "geometry": { "type": "MultiLineString", "coordinates": [ [ [ 26.711441844167947, 69.946110046 ], [ 26.713470475846663, 69.945650659235042 ], [ 26.715478819670178, 69.945267643685511 ], [ 26.718070773062625, 69.94498686518638 ], [ 26.719843603956953, 69.945001800240576 ] ] ] } },
{ "type": "Feature", "properties": { "fid": 6308, "elvelengde_m": 2955.41, "elvID": "234-62-1", "elvenavn": "Tana", "regulert": null, "fid_2": 1810, "id": 1810, "left": 26.486919847, "top": 69.946110046000001, "right": 26.986919847, "bottom": 69.446110046000001, "row_index": 9, "col_index": 45, "tile_id": 1810 }, "geometry": { "type": "MultiLineString", "coordinates": [ [ [ 26.486919847, 69.944373209850184 ], [ 26.490484506756612, 69.945020629035497 ], [ 26.49526990742449, 69.945593901026953 ], [ 26.503324961153524, 69.945870084152361 ], [ 26.51562019972042, 69.945651533711469 ], [ 26.521899556575494, 69.945653168773646 ], [ 26.530212771715973, 69.946077064106746 ], [ 26.530652742163578, 69.946110046 ] ] ] } },
{ "type": "Feature", "properties": { "fid": 6309, "elvelengde_m": 2314.21, "elvID": "234-62-1", "elvenavn": "Tana", "regulert": null, "fid_2": 1810, "id": 1810, "left": 26.486919847, "top": 69.946110046000001, "right": 26.986919847, "bottom": 69.446110046000001, "row_index": 9, "col_index": 45, "tile_id": 1810 }, "geometry": { "type": "MultiLineString", "coordinates": [ [ [ 26.927916194415438, 69.939141299264719 ], [ 26.928883308786919, 69.93931609199177 ], [ 26.931345036110006, 69.93945793723762 ], [ 26.939306545000655, 69.939348128339532 ], [ 26.955830688610025, 69.939795566890282 ], [ 26.95736058651454, 69.939730305327018 ], [ 26.969727817350542, 69.938485658228572 ], [ 26.974107997874111, 69.937553430594889 ], [ 26.979196992587998, 69.936661898571259 ], [ 26.984851104439805, 69.935359202479034 ] ] ] } },
{ "type": "Feature", "properties": { "fid": 6311, "elvelengde_m": 2856.15, "elvID": "234-62-1", "elvenavn": "Tana", "regulert": null, "fid_2": 1810, "id": 1810, "left": 26.486919847, "top": 69.946110046000001, "right": 26.986919847, "bottom": 69.446110046000001, "row_index": 9, "col_index": 45, "tile_id": 1810 }, "geometry": { "type": "MultiLineString", "coordinates": [ [ [ 26.855215103595452, 69.946110046 ], [ 26.855146317384456, 69.945818425974025 ], [ 26.855696211891189, 69.944781112039266 ], [ 26.856400577642908, 69.943823760380354 ], [ 26.858584874595916, 69.941829833006622 ], [ 26.859523501941691, 69.940579953963734 ], [ 26.86067963024604, 69.939909992807614 ], [ 26.86886203540265, 69.936719790618511 ], [ 26.873555483258912, 69.934767253799791 ], [ 26.874804051974802, 69.934414776289231 ] ] ] } },
{ "type": "Feature", "properties": { "fid": 6314, "elvelengde_m": 2285.13, "elvID": "234-62-1", "elvenavn": "Tana", "regulert": null, "fid_2": 1810, "id": 1810, "left": 26.486919847, "top": 69.946110046000001, "right": 26.986919847, "bottom": 69.446110046000001, "row_index": 9, "col_index": 45, "tile_id": 1810 }, "geometry": { "type": "MultiLineString", "coordinates": [ [ [ 26.876312298650141, 69.933988963793382 ], [ 26.878300958123933, 69.93341496275643 ], [ 26.881801266059803, 69.932758891917516 ], [ 26.88558215513611, 69.932315954049855 ], [ 26.89038949812123, 69.932108713616586 ], [ 26.894014743282582, 69.932175875979382 ], [ 26.897765084765386, 69.932448732949581 ], [ 26.902334032411414, 69.932981790290867 ], [ 26.909099482598176, 69.933953856524013 ], [ 26.918173204433515, 69.935686319716567 ], [ 26.920786874755109, 69.936403115202751 ], [ 26.92232628482919, 69.936927878347632 ], [ 26.925548980535439, 69.938384960500201 ], [ 26.926532460732364, 69.938761025358843 ], [ 26.927916194415438, 69.939141299264719 ] ] ] } },
{ "type": "Feature", "properties": { "fid": 6317, "elvelengde_m": 3061.09, "elvID": "234-62-1", "elvenavn": "Tana", "regulert": null, "fid_2": 1810, "id": 1810, "left": 26.486919847, "top": 69.946110046000001, "right": 26.986919847, "bottom": 69.446110046000001, "row_index": 9, "col_index": 45, "tile_id": 1810 }, "geometry": { "type": "MultiLineString", "coordinates": [ [ [ 26.985104342281261, 69.935296227305969 ], [ 26.985954605045265, 69.935084769633363 ], [ 26.986919847, 69.93468724004039 ] ] ] } },
{ "type": "Feature", "properties": { "fid": 6383, "elvelengde_m": 74.96, "elvID": "234-62-1", "elvenavn": "Tana", "regulert": null, "fid_2": 1810, "id": 1810, "left": 26.486919847, "top": 69.946110046000001, "right": 26.986919847, "bottom": 69.446110046000001, "row_index": 9, "col_index": 45, "tile_id": 1810 }, "geometry": { "type": "MultiLineString", "coordinates": [ [ [ 26.874804051974802, 69.934414776289231 ], [ 26.876312298650141, 69.933988963793382 ] ] ] } },
{ "type": "Feature", "properties": { "fid": 6394, "elvelengde_m": 1112.43, "elvID": "234-62-1", "elvenavn": "Tana", "regulert": null, "fid_2": 1810, "id": 1810, "left": 26.486919847, "top": 69.946110046000001, "right": 26.986919847, "bottom": 69.446110046000001, "row_index": 9, "col_index": 45, "tile_id": 1810 }, "geometry": { "type": "MultiLineString", "coordinates": [ [ [ 26.719843603956953, 69.945001800240576 ], [ 26.723188710834904, 69.9452097319909 ], [ 26.725795882411102, 69.945468142353988 ], [ 26.73013905802863, 69.946110046 ] ] ] } },
{ "type": "Feature", "properties": { "fid": 6675, "elvelengde_m": 12.0, "elvID": "234-62-1", "elvenavn": "Tana", "regulert": null, "fid_2": 1810, "id": 1810, "left": 26.486919847, "top": 69.946110046000001, "right": 26.986919847, "bottom": 69.446110046000001, "row_index": 9, "col_index": 45, "tile_id": 1810 }, "geometry": { "type": "MultiLineString", "coordinates": [ [ [ 26.984851104439805, 69.935359202479034 ], [ 26.985104342281261, 69.935296227305969 ] ] ] } },
{ "type": "Feature", "properties": { "fid": 12313, "elvelengde_m": 56.54, "elvID": "234-62-5274", "elvenavn": null, "regulert": null, "fid_2": 1810, "id": 1810, "left": 26.486919847, "top": 69.946110046000001, "right": 26.986919847, "bottom": 69.446110046000001, "row_index": 9, "col_index": 45, "tile_id": 1810 }, "geometry": { "type": "MultiLineString", "coordinates": [ [ [ 26.985710507816943, 69.935769967385482 ], [ 26.984851104439805, 69.935359202479034 ] ] ] } },
{ "type": "Feature", "properties": { "fid": 12314, "elvelengde_m": 84.27, "elvID": "234-62-5260", "elvenavn": null, "regulert": null, "fid_2": 1810, "id": 1810, "left": 26.486919847, "top": 69.946110046000001, "right": 26.986919847, "bottom": 69.446110046000001, "row_index": 9, "col_index": 45, "tile_id": 1810 }, "geometry": { "type": "MultiLineString", "coordinates": [ [ [ 26.926977979466937, 69.939822783996121 ], [ 26.927916194415438, 69.939141299264719 ] ] ] } },
{ "type": "Feature", "properties": { "fid": 13218, "elvelengde_m": 304.88, "elvID": "234-62-5261", "elvenavn": null, "regulert": null, "fid_2": 1810, "id": 1810, "left": 26.486919847, "top": 69.946110046000001, "right": 26.986919847, "bottom": 69.446110046000001, "row_index": 9, "col_index": 45, "tile_id": 1810 }, "geometry": { "type": "MultiLineString", "coordinates": [ [ [ 26.906533727399953, 69.946110046 ], [ 26.907250248270966, 69.945896978056012 ] ] ] } },
{ "type": "Feature", "properties": { "fid": 13222, "elvelengde_m": 328.57, "elvID": "234-62-5260", "elvenavn": null, "regulert": null, "fid_2": 1810, "id": 1810, "left": 26.486919847, "top": 69.946110046000001, "right": 26.986919847, "bottom": 69.446110046000001, "row_index": 9, "col_index": 45, "tile_id": 1810 }, "geometry": { "type": "MultiLineString", "coordinates": [ [ [ 26.902214964348289, 69.946110046 ], [ 26.902461352109906, 69.946083388337925 ], [ 26.90548675198816, 69.946041101572462 ], [ 26.906335592725551, 69.945920306317035 ], [ 26.907250248270966, 69.945896978056012 ] ] ] } },
{ "type": "Feature", "properties": { "fid": 13280, "elvelengde_m": 1498.17, "elvID": "234-62-5274", "elvenavn": null, "regulert": null, "fid_2": 1810, "id": 1810, "left": 26.486919847, "top": 69.946110046000001, "right": 26.986919847, "bottom": 69.446110046000001, "row_index": 9, "col_index": 45, "tile_id": 1810 }, "geometry": { "type": "MultiLineString", "coordinates": [ [ [ 26.986919847, 69.940264935098185 ], [ 26.985459541626401, 69.939519655249541 ], [ 26.985208275719803, 69.939310300372767 ], [ 26.984679424305725, 69.939115660222484 ], [ 26.984600962769669, 69.938858450121856 ], [ 26.985724696384121, 69.938300322314646 ], [ 26.986672440299554, 69.937652447481994 ], [ 26.986919847, 69.937284792551907 ] ] ] } },
{ "type": "Feature", "properties": { "fid": 13299, "elvelengde_m": 1072.75, "elvID": "234-62-5260", "elvenavn": null, "regulert": null, "fid_2": 1810, "id": 1810, "left": 26.486919847, "top": 69.946110046000001, "right": 26.986919847, "bottom": 69.446110046000001, "row_index": 9, "col_index": 45, "tile_id": 1810 }, "geometry": { "type": "MultiLineString", "coordinates": [ [ [ 26.907250248270966, 69.945896978056012 ], [ 26.907589154081766, 69.945820322582819 ], [ 26.908130314832718, 69.945486906139564 ], [ 26.90958821657593, 69.944888997429061 ], [ 26.91187944170801, 69.944268412957655 ], [ 26.914381133583959, 69.944047920709465 ], [ 26.915638705165353, 69.943860787147699 ], [ 26.91754666743914, 69.943866843519956 ], [ 26.918758009031894, 69.943644805375939 ], [ 26.919508971882639, 69.94326332273998 ], [ 26.923992526222122, 69.941560731415848 ], [ 26.92535783994737, 69.940877307673887 ], [ 26.926977979466937, 69.939822783996121 ] ] ] } },
{ "type": "Feature", "properties": { "fid": 13301, "elvelengde_m": 111.89, "elvID": "234-62-5274", "elvenavn": null, "regulert": null, "fid_2": 1810, "id": 1810, "left": 26.486919847, "top": 69.946110046000001, "right": 26.986919847, "bottom": 69.446110046000001, "row_index": 9, "col_index": 45, "tile_id": 1810 }, "geometry": { "type": "MultiLineString", "coordinates": [ [ [ 26.986919847, 69.936653783484957 ], [ 26.985710507816943, 69.935769967385482 ] ] ] } }
]
}
