{
"type": "FeatureCollection",
"name": "elvis_tile_id_1050",
"crs": { "type": "name", "properties": { "name": "urn:ogc:def:crs:OGC:1.3:CRS84" } },
"xy_coordinate_resolution": 1e-15,
"features": [
{ "type": "Feature", "properties": { "fid": 249811, "elvelengde_m": 826.5, "elvID": "195-202-1", "elvenavn": null, "regulert": null, "fid_2": 1050, "id": 1050, "left": 16.986919847, "top": 69.946110046000001, "right": 17.486919847, "bottom": 69.446110046000001, "row_index": 9, "col_index": 26, "tile_id": 1050 }, "geometry": { "type": "MultiLineString", "coordinates": [ [ [ 17.486919847, 69.581322549508471 ], [ 17.485120446532768, 69.581634288049699 ] ] ] } },
{ "type": "Feature", "properties": { "fid": 249815, "elvelengde_m": 211.2, "elvID": "195-180-1", "elvenavn": null, "regulert": null, "fid_2": 1050, "id": 1050, "left": 16.986919847, "top": 69.946110046000001, "right": 17.486919847, "bottom": 69.446110046000001, "row_index": 9, "col_index": 26, "tile_id": 1050 }, "geometry": { "type": "MultiLineString", "coordinates": [ [ [ 17.326250100846547, 69.529218990766367 ], [ 17.324078614161383, 69.528817186394889 ], [ 17.322214796274739, 69.528653541948259 ], [ 17.321468440788074, 69.528418764678676 ] ] ] } },
{ "type": "Feature", "properties": { "fid": 249816, "elvelengde_m": 1349.2, "elvID": "195-181-1", "elvenavn": null, "regulert": null, "fid_2": 1050, "id": 1050, "left": 16.986919847, "top": 69.946110046000001, "right": 17.486919847, "bottom": 69.446110046000001, "row_index": 9, "col_index": 26, "tile_id": 1050 }, "geometry": { "type": "MultiLineString", "coordinates": [ [ [ 17.394422285014933, 69.518480309989386 ], [ 17.394865264457593, 69.518546111520806 ], [ 17.396598066615976, 69.518459602887944 ], [ 17.397789768064861, 69.518120095832373 ], [ 17.398300694136026, 69.517646447019558 ], [ 17.39876723703458, 69.517693877795381 ], [ 17.400631504606114, 69.518323413614212 ], [ 17.402416533340745, 69.518702579385888 ], [ 17.403425436175258, 69.518787400883454 ], [ 17.405219450408723, 69.518789610670154 ], [ 17.406124825597839, 69.518409211889534 ], [ 17.406186473968006, 69.518273756855237 ], [ 17.406573673291252, 69.51807099776498 ], [ 17.406630281377414, 69.517890743601043 ], [ 17.407855306756403, 69.517846837835592 ], [ 17.40958890178181, 69.518451162763014 ], [ 17.411577730111208, 69.519500451422928 ], [ 17.411390198613852, 69.519655595156095 ], [ 17.411372611035574, 69.519952149866882 ], [ 17.411510023359504, 69.520264240659628 ], [ 17.411134933379589, 69.520574438186841 ], [ 17.411199240371459, 69.520690297830996 ], [ 17.41240859332466, 69.520960747971969 ], [ 17.413822357615516, 69.521452706643018 ], [ 17.415674543935939, 69.521741166498771 ], [ 17.416535862763038, 69.522357946035996 ] ] ] } },
{ "type": "Feature", "properties": { "fid": 249817, "elvelengde_m": 417.03, "elvID": "195-182-1", "elvenavn": null, "regulert": null, "fid_2": 1050, "id": 1050, "left": 16.986919847, "top": 69.946110046000001, "right": 17.486919847, "bottom": 69.446110046000001, "row_index": 9, "col_index": 26, "tile_id": 1050 }, "geometry": { "type": "MultiLineString", "coordinates": [ [ [ 17.430230813678314, 69.516425772027503 ], [ 17.431649299837925, 69.516261176783232 ], [ 17.432196185091986, 69.51606358087227 ], [ 17.432670403272962, 69.515999987950735 ], [ 17.434101272727034, 69.516481047388709 ], [ 17.43959700444276, 69.517165656532256 ] ] ] } },
{ "type": "Feature", "properties": { "fid": 249818, "elvelengde_m": 456.7, "elvID": "195-179-1", "elvenavn": null, "regulert": null, "fid_2": 1050, "id": 1050, "left": 16.986919847, "top": 69.946110046000001, "right": 17.486919847, "bottom": 69.446110046000001, "row_index": 9, "col_index": 26, "tile_id": 1050 }, "geometry": { "type": "MultiLineString", "coordinates": [ [ [ 17.353575950715495, 69.519170525915513 ], [ 17.353057293262765, 69.518881395375246 ], [ 17.351534869942565, 69.518318639488882 ], [ 17.351013308643669, 69.518002622301879 ], [ 17.347231740899275, 69.516931840039277 ], [ 17.345703915915912, 69.516548576928358 ], [ 17.345035605462769, 69.516463516206926 ] ] ] } },
{ "type": "Feature", "properties": { "fid": 249819, "elvelengde_m": 605.04, "elvID": "195-178-1", "elvenavn": null, "regulert": null, "fid_2": 1050, "id": 1050, "left": 16.986919847, "top": 69.946110046000001, "right": 17.486919847, "bottom": 69.446110046000001, "row_index": 9, "col_index": 26, "tile_id": 1050 }, "geometry": { "type": "MultiLineString", "coordinates": [ [ [ 17.35991828289438, 69.516033921595735 ], [ 17.359145938032231, 69.516232805296767 ], [ 17.354220167111759, 69.516640215518407 ], [ 17.348975459955778, 69.516477658814722 ], [ 17.348586786489648, 69.516438022180736 ], [ 17.347947223842848, 69.516213318567765 ], [ 17.347610343678223, 69.516010385168286 ], [ 17.346784950228557, 69.515896934496624 ], [ 17.345454528286446, 69.515925675832918 ] ] ] } },
{ "type": "Feature", "properties": { "fid": 249820, "elvelengde_m": 801.19, "elvID": "195-183-1", "elvenavn": null, "regulert": null, "fid_2": 1050, "id": 1050, "left": 16.986919847, "top": 69.946110046000001, "right": 17.486919847, "bottom": 69.446110046000001, "row_index": 9, "col_index": 26, "tile_id": 1050 }, "geometry": { "type": "MultiLineString", "coordinates": [ [ [ 17.430402372965659, 69.511055342269088 ], [ 17.430840065105915, 69.511300512142071 ], [ 17.43232029629856, 69.511477309373007 ], [ 17.432865415375943, 69.511765846184005 ], [ 17.434126706324665, 69.512044393049109 ], [ 17.434536846681556, 69.512271991040308 ], [ 17.434647086721689, 69.512790935050447 ], [ 17.435358987896187, 69.513193797693702 ], [ 17.435653500646822, 69.513530693025686 ], [ 17.436373692813984, 69.513780881103386 ], [ 17.436557754991217, 69.51404752642442 ], [ 17.438086949537254, 69.514654427269519 ], [ 17.439042845747753, 69.51472174542485 ], [ 17.439422405209548, 69.514904891254218 ], [ 17.439609578010476, 69.515198411974296 ], [ 17.440672593367719, 69.515757875948879 ], [ 17.442087483293164, 69.515809874614789 ], [ 17.442878254493117, 69.515999104611396 ] ] ] } },
{ "type": "Feature", "properties": { "fid": 249821, "elvelengde_m": 114.77, "elvID": "195-183-3", "elvenavn": null, "regulert": null, "fid_2": 1050, "id": 1050, "left": 16.986919847, "top": 69.946110046000001, "right": 17.486919847, "bottom": 69.446110046000001, "row_index": 9, "col_index": 26, "tile_id": 1050 }, "geometry": { "type": "MultiLineString", "coordinates": [ [ [ 17.428383404360702, 69.510419300339223 ], [ 17.429557686696814, 69.510609530009859 ], [ 17.429802087477878, 69.510731670437465 ], [ 17.429926756086374, 69.510927358119474 ], [ 17.430402372965659, 69.511055342269088 ] ] ] } },
{ "type": "Feature", "properties": { "fid": 249822, "elvelengde_m": 56.6, "elvID": "195-183-3", "elvenavn": null, "regulert": null, "fid_2": 1050, "id": 1050, "left": 16.986919847, "top": 69.946110046000001, "right": 17.486919847, "bottom": 69.446110046000001, "row_index": 9, "col_index": 26, "tile_id": 1050 }, "geometry": { "type": "MultiLineString", "coordinates": [ [ [ 17.42482465100321, 69.510432985611743 ], [ 17.426188202832609, 69.510261477235659 ] ] ] } },
{ "type": "Feature", "properties": { "fid": 249823, "elvelengde_m": 680.63, "elvID": "195-183-3", "elvenavn": null, "regulert": null, "fid_2": 1050, "id": 1050, "left": 16.986919847, "top": 69.946110046000001, "right": 17.486919847, "bottom": 69.446110046000001, "row_index": 9, "col_index": 26, "tile_id": 1050 }, "geometry": { "type": "MultiLineString", "coordinates": [ [ [ 17.406016662002617, 69.510379255382674 ], [ 17.407040494307584, 69.511056019620099 ], [ 17.408458527519336, 69.511592913199337 ], [ 17.410824346904224, 69.511901155337782 ], [ 17.414731292684586, 69.512017726098549 ], [ 17.416011170617871, 69.512008984510089 ], [ 17.41742603828293, 69.511836746435577 ], [ 17.418223241008651, 69.511861685442952 ], [ 17.42041757878161, 69.511104478150656 ] ] ] } },
{ "type": "Feature", "properties": { "fid": 249824, "elvelengde_m": 53.36, "elvID": "195-183-4", "elvenavn": null, "regulert": null, "fid_2": 1050, "id": 1050, "left": 16.986919847, "top": 69.946110046000001, "right": 17.486919847, "bottom": 69.446110046000001, "row_index": 9, "col_index": 26, "tile_id": 1050 }, "geometry": { "type": "MultiLineString", "coordinates": [ [ [ 17.418802586590328, 69.509960193831034 ], [ 17.419467263097115, 69.510175322504168 ], [ 17.419927614397025, 69.510168939588951 ] ] ] } },
{ "type": "Feature", "properties": { "fid": 249825, "elvelengde_m": 170.44, "elvID": "195-177-2", "elvenavn": null, "regulert": null, "fid_2": 1050, "id": 1050, "left": 16.986919847, "top": 69.946110046000001, "right": 17.486919847, "bottom": 69.446110046000001, "row_index": 9, "col_index": 26, "tile_id": 1050 }, "geometry": { "type": "MultiLineString", "coordinates": [ [ [ 17.37141221012585, 69.50784683704201 ], [ 17.37134354289595, 69.5069952860851 ], [ 17.370939654140091, 69.506587993323649 ], [ 17.370810846680484, 69.50634745875675 ] ] ] } },
{ "type": "Feature", "properties": { "fid": 249826, "elvelengde_m": 483.52, "elvID": "195-177-1", "elvenavn": null, "regulert": null, "fid_2": 1050, "id": 1050, "left": 16.986919847, "top": 69.946110046000001, "right": 17.486919847, "bottom": 69.446110046000001, "row_index": 9, "col_index": 26, "tile_id": 1050 }, "geometry": { "type": "MultiLineString", "coordinates": [ [ [ 17.382211623590774, 69.5061562665596 ], [ 17.380859993107858, 69.50666826401725 ], [ 17.377735565120695, 69.506899317569449 ], [ 17.375502855462454, 69.506857942965112 ], [ 17.373643798577852, 69.506721721498437 ], [ 17.370810846680484, 69.50634745875675 ] ] ] } },
{ "type": "Feature", "properties": { "fid": 249827, "elvelengde_m": 455.93, "elvID": "195-177-1", "elvenavn": null, "regulert": null, "fid_2": 1050, "id": 1050, "left": 16.986919847, "top": 69.946110046000001, "right": 17.486919847, "bottom": 69.446110046000001, "row_index": 9, "col_index": 26, "tile_id": 1050 }, "geometry": { "type": "MultiLineString", "coordinates": [ [ [ 17.370810846680484, 69.50634745875675 ], [ 17.370437764618476, 69.505984613109987 ], [ 17.369919202334867, 69.505695532085156 ], [ 17.368395309280096, 69.505115090997251 ], [ 17.367870843397519, 69.504772153818536 ], [ 17.367816373202078, 69.504279351331803 ], [ 17.367547810105638, 69.50416634074881 ], [ 17.366916337562945, 69.504013386535391 ], [ 17.363403899102821, 69.503698388689273 ] ] ] } },
{ "type": "Feature", "properties": { "fid": 249828, "elvelengde_m": 224.72, "elvID": "195-184-1", "elvenavn": null, "regulert": null, "fid_2": 1050, "id": 1050, "left": 16.986919847, "top": 69.946110046000001, "right": 17.486919847, "bottom": 69.446110046000001, "row_index": 9, "col_index": 26, "tile_id": 1050 }, "geometry": { "type": "MultiLineString", "coordinates": [ [ [ 17.48409060236904, 69.50085854375989 ], [ 17.486919847, 69.500928088713522 ] ] ] } },
{ "type": "Feature", "properties": { "fid": 249830, "elvelengde_m": 605.0, "elvID": "195-185-1", "elvenavn": null, "regulert": null, "fid_2": 1050, "id": 1050, "left": 16.986919847, "top": 69.946110046000001, "right": 17.486919847, "bottom": 69.446110046000001, "row_index": 9, "col_index": 26, "tile_id": 1050 }, "geometry": { "type": "MultiLineString", "coordinates": [ [ [ 17.46775268380668, 69.499062336394275 ], [ 17.469478432195299, 69.498930221458082 ], [ 17.472347610664816, 69.498279338093454 ], [ 17.473453629317007, 69.498102122819532 ], [ 17.475819285646114, 69.497969841019753 ], [ 17.476954256327836, 69.498043465524944 ], [ 17.480092807117384, 69.497774150455314 ], [ 17.482315887870936, 69.49792774708321 ] ] ] } },
{ "type": "Feature", "properties": { "fid": 249831, "elvelengde_m": 287.38, "elvID": "195-183-1", "elvenavn": null, "regulert": null, "fid_2": 1050, "id": 1050, "left": 16.986919847, "top": 69.946110046000001, "right": 17.486919847, "bottom": 69.446110046000001, "row_index": 9, "col_index": 26, "tile_id": 1050 }, "geometry": { "type": "MultiLineString", "coordinates": [ [ [ 17.429374049965684, 69.497474342717766 ], [ 17.429762362250482, 69.497738146723066 ], [ 17.43026730877483, 69.497901613637296 ], [ 17.430839797067637, 69.497983373404537 ], [ 17.431629116433072, 69.497945448579429 ], [ 17.433859321191242, 69.497295144722997 ], [ 17.435134334340809, 69.497025988922005 ] ] ] } },
{ "type": "Feature", "properties": { "fid": 249832, "elvelengde_m": 2289.42, "elvID": "195-183-1", "elvenavn": null, "regulert": null, "fid_2": 1050, "id": 1050, "left": 16.986919847, "top": 69.946110046000001, "right": 17.486919847, "bottom": 69.446110046000001, "row_index": 9, "col_index": 26, "tile_id": 1050 }, "geometry": { "type": "MultiLineString", "coordinates": [ [ [ 17.436998571503711, 69.496533577013992 ], [ 17.437773966214838, 69.496603325002667 ], [ 17.43892625762442, 69.497053854624454 ], [ 17.43853464691114, 69.497211886483498 ], [ 17.438779768827352, 69.498016106403014 ], [ 17.438706087957893, 69.498268493653725 ], [ 17.437474908520212, 69.500021608075429 ], [ 17.438164407540132, 69.500707893521664 ], [ 17.437969941874783, 69.501249043039692 ], [ 17.437557616393381, 69.501900923025659 ], [ 17.435584647887566, 69.5027900613984 ], [ 17.434406452960733, 69.50301281650701 ], [ 17.433177875549017, 69.503694020218731 ], [ 17.432669585987043, 69.503728030702547 ], [ 17.431852164079135, 69.504197003136383 ], [ 17.431593446131181, 69.504173777843448 ], [ 17.431280678681187, 69.50389994882147 ], [ 17.430745797096709, 69.503925350406405 ], [ 17.429155199915247, 69.504351328116527 ], [ 17.429146903725766, 69.504503998364285 ], [ 17.429389970367186, 69.504617273084492 ], [ 17.429282705897585, 69.50479824297166 ], [ 17.429451368933218, 69.504930591076885 ], [ 17.429448905751119, 69.505136933233885 ], [ 17.428441641753931, 69.505285564562541 ], [ 17.42797308337018, 69.505444551219398 ], [ 17.427540446564191, 69.505468609194139 ], [ 17.426753694850426, 69.505757743508852 ], [ 17.425160258664413, 69.505708110975078 ], [ 17.424255988091197, 69.505864349231175 ], [ 17.423420054117901, 69.506172008132083 ], [ 17.423286915587063, 69.506353422756249 ], [ 17.423281617981264, 69.506532971864999 ], [ 17.423614814212513, 69.506761571979709 ], [ 17.423660436243964, 69.507164758205448 ], [ 17.423985544645703, 69.507321769622394 ], [ 17.423789873192678, 69.507629596515443 ], [ 17.424179327281738, 69.507902462624628 ], [ 17.424574055496493, 69.507995599582983 ], [ 17.425525561886079, 69.50802724334028 ], [ 17.425205039361163, 69.508139384332409 ], [ 17.425245830284386, 69.508273424102512 ], [ 17.425668184955889, 69.508384212017717 ], [ 17.426854686159022, 69.50845745053762 ], [ 17.427033506550544, 69.508679308011935 ], [ 17.427293299744427, 69.508711589222472 ], [ 17.428090053980771, 69.508512053452094 ], [ 17.428398200662976, 69.50851673870271 ], [ 17.429175382937707, 69.508820003192056 ], [ 17.429985118142195, 69.509409972058208 ], [ 17.430136371414079, 69.509614263114514 ], [ 17.43005323297427, 69.510010268525278 ], [ 17.430225999130116, 69.510178364715415 ], [ 17.430546117070641, 69.510290565446397 ], [ 17.430347308341663, 69.510795867885918 ], [ 17.430315476849525, 69.51096681447693 ], [ 17.430402372965659, 69.511055342269088 ] ] ] } },
{ "type": "Feature", "properties": { "fid": 249833, "elvelengde_m": 68.55, "elvID": "195-183-1", "elvenavn": null, "regulert": null, "fid_2": 1050, "id": 1050, "left": 16.986919847, "top": 69.946110046000001, "right": 17.486919847, "bottom": 69.446110046000001, "row_index": 9, "col_index": 26, "tile_id": 1050 }, "geometry": { "type": "MultiLineString", "coordinates": [ [ [ 17.436299878805109, 69.496920062398772 ], [ 17.436235612513524, 69.496579953005991 ], [ 17.436998571503711, 69.496533577013992 ] ] ] } },
{ "type": "Feature", "properties": { "fid": 249834, "elvelengde_m": 436.19, "elvID": "195-176-1", "elvenavn": null, "regulert": null, "fid_2": 1050, "id": 1050, "left": 16.986919847, "top": 69.946110046000001, "right": 17.486919847, "bottom": 69.446110046000001, "row_index": 9, "col_index": 26, "tile_id": 1050 }, "geometry": { "type": "MultiLineString", "coordinates": [ [ [ 17.394839543078056, 69.497700714276192 ], [ 17.388371399100723, 69.49663181573986 ], [ 17.387105265922013, 69.496523520336567 ], [ 17.384850616715518, 69.496011015732094 ] ] ] } },
{ "type": "Feature", "properties": { "fid": 249835, "elvelengde_m": 205.31, "elvID": "195-186-1", "elvenavn": null, "regulert": null, "fid_2": 1050, "id": 1050, "left": 16.986919847, "top": 69.946110046000001, "right": 17.486919847, "bottom": 69.446110046000001, "row_index": 9, "col_index": 26, "tile_id": 1050 }, "geometry": { "type": "MultiLineString", "coordinates": [ [ [ 17.475487190026044, 69.491549137025999 ], [ 17.476568614079021, 69.491767014461814 ], [ 17.477251419189173, 69.491697995935027 ], [ 17.477568646103443, 69.491873956879516 ], [ 17.477777168688139, 69.491875570465339 ], [ 17.478267438969933, 69.491759477895684 ], [ 17.478972879365188, 69.491417049846547 ], [ 17.479550135423448, 69.491502171763656 ] ] ] } },
{ "type": "Feature", "properties": { "fid": 249836, "elvelengde_m": 592.22, "elvID": "195-183-1", "elvenavn": null, "regulert": null, "fid_2": 1050, "id": 1050, "left": 16.986919847, "top": 69.946110046000001, "right": 17.486919847, "bottom": 69.446110046000001, "row_index": 9, "col_index": 26, "tile_id": 1050 }, "geometry": { "type": "MultiLineString", "coordinates": [ [ [ 17.431369486121035, 69.491595598958639 ], [ 17.431182339033057, 69.491750763643253 ], [ 17.43039715280905, 69.492048872487601 ], [ 17.429615686418259, 69.492831600804777 ], [ 17.429374182911218, 69.49318485489421 ], [ 17.428534773952759, 69.493456878109086 ], [ 17.427945436787414, 69.494129057238936 ], [ 17.427240276595921, 69.49513496754119 ], [ 17.426771745463036, 69.495518388112771 ], [ 17.426202794125249, 69.496145496937871 ], [ 17.426330641702346, 69.496368063224608 ], [ 17.426591043374927, 69.496409309952668 ] ] ] } },
{ "type": "Feature", "properties": { "fid": 249837, "elvelengde_m": 204.61, "elvID": "195-186-1", "elvenavn": null, "regulert": null, "fid_2": 1050, "id": 1050, "left": 16.986919847, "top": 69.946110046000001, "right": 17.486919847, "bottom": 69.446110046000001, "row_index": 9, "col_index": 26, "tile_id": 1050 }, "geometry": { "type": "MultiLineString", "coordinates": [ [ [ 17.473366859854753, 69.489586990157562 ], [ 17.47287963911846, 69.489800304606803 ], [ 17.473646721459858, 69.490238124828011 ], [ 17.473966030298058, 69.490565633825625 ], [ 17.474532585576309, 69.490817840985656 ], [ 17.47495619091168, 69.491161817133559 ] ] ] } },
{ "type": "Feature", "properties": { "fid": 249838, "elvelengde_m": 865.19, "elvID": "195-183-2", "elvenavn": null, "regulert": null, "fid_2": 1050, "id": 1050, "left": 16.986919847, "top": 69.946110046000001, "right": 17.486919847, "bottom": 69.446110046000001, "row_index": 9, "col_index": 26, "tile_id": 1050 }, "geometry": { "type": "MultiLineString", "coordinates": [ [ [ 17.444692597392024, 69.489704261930413 ], [ 17.444091593021668, 69.490717764513803 ], [ 17.443251390924008, 69.491429504003861 ], [ 17.442921200970904, 69.491900772786195 ], [ 17.442027810972814, 69.492371045366312 ], [ 17.440422736324066, 69.49266273303364 ], [ 17.439611317477063, 69.492952188018606 ], [ 17.438961124525271, 69.493311354319673 ], [ 17.437667616953846, 69.49454082430654 ], [ 17.437337257276806, 69.495012082695851 ], [ 17.437273747990361, 69.495353976884871 ], [ 17.436622414715874, 69.495704085384716 ], [ 17.436494534472125, 69.495930218436143 ], [ 17.436615009777494, 69.496314410790589 ], [ 17.436998571503711, 69.496533577013992 ] ] ] } },
{ "type": "Feature", "properties": { "fid": 249839, "elvelengde_m": 515.13, "elvID": "195-186-2", "elvenavn": null, "regulert": null, "fid_2": 1050, "id": 1050, "left": 16.986919847, "top": 69.946110046000001, "right": 17.486919847, "bottom": 69.446110046000001, "row_index": 9, "col_index": 26, "tile_id": 1050 }, "geometry": { "type": "MultiLineString", "coordinates": [ [ [ 17.463338192197789, 69.487386764090417 ], [ 17.465255456907634, 69.487592985490139 ], [ 17.466746699619986, 69.487877007059453 ], [ 17.467231300133804, 69.488085525659685 ], [ 17.467810319513589, 69.488669616062083 ], [ 17.468882569441405, 69.488869810959855 ], [ 17.471793050465553, 69.488810621401484 ], [ 17.472970927606941, 69.489260567232549 ], [ 17.473366859854753, 69.489586990157562 ] ] ] } },
{ "type": "Feature", "properties": { "fid": 249843, "elvelengde_m": 761.6, "elvID": "195-164-1", "elvenavn": null, "regulert": null, "fid_2": 1050, "id": 1050, "left": 16.986919847, "top": 69.946110046000001, "right": 17.486919847, "bottom": 69.446110046000001, "row_index": 9, "col_index": 26, "tile_id": 1050 }, "geometry": { "type": "MultiLineString", "coordinates": [ [ [ 17.243861279522935, 69.487711576557757 ], [ 17.245246252303733, 69.488232122362419 ], [ 17.247588951726009, 69.488856962773212 ], [ 17.248231345347378, 69.489126841912665 ], [ 17.248943739735019, 69.489817543724257 ], [ 17.250012947035987, 69.491230449306428 ], [ 17.250562626044271, 69.491591247692014 ], [ 17.252855542231377, 69.492467908484116 ], [ 17.253460307880314, 69.492621607732687 ], [ 17.253679837934804, 69.492762338189522 ], [ 17.254508038391826, 69.492850335383622 ], [ 17.254793974384576, 69.493023764919826 ] ] ] } },
{ "type": "Feature", "properties": { "fid": 249847, "elvelengde_m": 894.96, "elvID": "195-186-1", "elvenavn": null, "regulert": null, "fid_2": 1050, "id": 1050, "left": 16.986919847, "top": 69.946110046000001, "right": 17.486919847, "bottom": 69.446110046000001, "row_index": 9, "col_index": 26, "tile_id": 1050 }, "geometry": { "type": "MultiLineString", "coordinates": [ [ [ 17.47056970441583, 69.482635878619618 ], [ 17.470238957661817, 69.482873891468657 ], [ 17.469997477872983, 69.48344276840939 ], [ 17.470048808172823, 69.483666302053734 ], [ 17.471566468725719, 69.484847309479321 ], [ 17.471886697090564, 69.485183782086693 ], [ 17.472301105830621, 69.485447126132811 ], [ 17.473703585000138, 69.486073360339049 ], [ 17.474010426678813, 69.486293356957262 ], [ 17.474426393038879, 69.486350271204344 ], [ 17.474770894876741, 69.486453069339149 ], [ 17.474804713300429, 69.486524381652117 ], [ 17.474860248302427, 69.486783839880758 ], [ 17.474643765202192, 69.486903486131126 ], [ 17.474541894156328, 69.487129373285512 ], [ 17.473952553325589, 69.487344141170041 ], [ 17.473587216466058, 69.487726235463967 ], [ 17.474417439474664, 69.488046493078102 ], [ 17.475120971204028, 69.488377430120622 ], [ 17.475128221830861, 69.488440235295215 ], [ 17.473925549226106, 69.489327789843657 ], [ 17.473366859854753, 69.489586990157562 ] ] ] } },
{ "type": "Feature", "properties": { "fid": 249849, "elvelengde_m": 950.88, "elvID": "195-165-1", "elvenavn": null, "regulert": null, "fid_2": 1050, "id": 1050, "left": 16.986919847, "top": 69.946110046000001, "right": 17.486919847, "bottom": 69.446110046000001, "row_index": 9, "col_index": 26, "tile_id": 1050 }, "geometry": { "type": "MultiLineString", "coordinates": [ [ [ 17.25317113090993, 69.482808914765229 ], [ 17.252632397061067, 69.483524831338613 ], [ 17.252509088449436, 69.484055740363857 ], [ 17.252753937196253, 69.484438413256399 ], [ 17.254492219394923, 69.485645239225093 ], [ 17.256890703592859, 69.48704082152652 ], [ 17.258264419841343, 69.488180639084717 ], [ 17.259072512589093, 69.488564982263185 ], [ 17.259412236008473, 69.488632274404097 ], [ 17.259671235550407, 69.488907170608968 ], [ 17.260096390258067, 69.489054201018334 ], [ 17.260941441159702, 69.489545733235531 ], [ 17.261164768398174, 69.489722296399648 ], [ 17.261331249540824, 69.490330301818616 ], [ 17.261691554234936, 69.490408000858565 ] ] ] } },
{ "type": "Feature", "properties": { "fid": 249852, "elvelengde_m": 516.81, "elvID": "195-172-1", "elvenavn": null, "regulert": null, "fid_2": 1050, "id": 1050, "left": 16.986919847, "top": 69.946110046000001, "right": 17.486919847, "bottom": 69.446110046000001, "row_index": 9, "col_index": 26, "tile_id": 1050 }, "geometry": { "type": "MultiLineString", "coordinates": [ [ [ 17.363105658756012, 69.478750916691112 ], [ 17.364944441099091, 69.478725972755498 ], [ 17.366601960732716, 69.479376397001744 ], [ 17.36770527157433, 69.479639590427411 ], [ 17.36866408963083, 69.479752191047041 ], [ 17.369433444632126, 69.480001965432493 ], [ 17.37007056628406, 69.480675291058148 ], [ 17.37090709916226, 69.48130094485704 ], [ 17.371692334944132, 69.4817421690244 ] ] ] } },
{ "type": "Feature", "properties": { "fid": 249853, "elvelengde_m": 59.43, "elvID": "195-172-1", "elvenavn": null, "regulert": null, "fid_2": 1050, "id": 1050, "left": 16.986919847, "top": 69.946110046000001, "right": 17.486919847, "bottom": 69.446110046000001, "row_index": 9, "col_index": 26, "tile_id": 1050 }, "geometry": { "type": "MultiLineString", "coordinates": [ [ [ 17.361807046371993, 69.478104392131343 ], [ 17.362245868812902, 69.478143310999471 ], [ 17.362514076302823, 69.478256330722871 ], [ 17.362640899192254, 69.478478949811731 ] ] ] } },
{ "type": "Feature", "properties": { "fid": 249854, "elvelengde_m": 321.98, "elvID": "195-172-1", "elvenavn": null, "regulert": null, "fid_2": 1050, "id": 1050, "left": 16.986919847, "top": 69.946110046000001, "right": 17.486919847, "bottom": 69.446110046000001, "row_index": 9, "col_index": 26, "tile_id": 1050 }, "geometry": { "type": "MultiLineString", "coordinates": [ [ [ 17.353372308417935, 69.477689065170338 ], [ 17.353820233960477, 69.478041953982043 ], [ 17.354402720504741, 69.478222528195687 ], [ 17.356312228903974, 69.47837618969001 ], [ 17.360672460852104, 69.478487588395922 ] ] ] } },
{ "type": "Feature", "properties": { "fid": 249855, "elvelengde_m": 316.29, "elvID": "195-175-3", "elvenavn": null, "regulert": null, "fid_2": 1050, "id": 1050, "left": 16.986919847, "top": 69.946110046000001, "right": 17.486919847, "bottom": 69.446110046000001, "row_index": 9, "col_index": 26, "tile_id": 1050 }, "geometry": { "type": "MultiLineString", "coordinates": [ [ [ 17.45161982756958, 69.479116455605805 ], [ 17.451378547350988, 69.478348090818315 ], [ 17.450995387084379, 69.477904782437591 ], [ 17.450879826501907, 69.477341049569262 ], [ 17.450104426881875, 69.476598232725635 ], [ 17.450051510788846, 69.476356590731356 ] ] ] } },
{ "type": "Feature", "properties": { "fid": 249858, "elvelengde_m": 209.66, "elvID": "195-175-1", "elvenavn": null, "regulert": null, "fid_2": 1050, "id": 1050, "left": 16.986919847, "top": 69.946110046000001, "right": 17.486919847, "bottom": 69.446110046000001, "row_index": 9, "col_index": 26, "tile_id": 1050 }, "geometry": { "type": "MultiLineString", "coordinates": [ [ [ 17.454534822108368, 69.475755058451227 ], [ 17.454015017687858, 69.4759059632853 ], [ 17.453890509830654, 69.47615898663382 ], [ 17.453112287080195, 69.476286695494707 ], [ 17.450874490620411, 69.476398860886192 ], [ 17.450051510788846, 69.476356590731356 ] ] ] } },
{ "type": "Feature", "properties": { "fid": 249859, "elvelengde_m": 489.07, "elvID": "195-175-1", "elvenavn": null, "regulert": null, "fid_2": 1050, "id": 1050, "left": 16.986919847, "top": 69.946110046000001, "right": 17.486919847, "bottom": 69.446110046000001, "row_index": 9, "col_index": 26, "tile_id": 1050 }, "geometry": { "type": "MultiLineString", "coordinates": [ [ [ 17.465508345426649, 69.477107766432312 ], [ 17.464356826691205, 69.476657406024913 ], [ 17.463083197321371, 69.476702335753515 ], [ 17.461860462068728, 69.476522187171454 ], [ 17.460144533453601, 69.476501551916186 ], [ 17.458745023343614, 69.476117565808451 ], [ 17.457217996825641, 69.475959538097996 ], [ 17.455672543486859, 69.475640314432965 ], [ 17.45515880262073, 69.475620632059659 ], [ 17.454534822108368, 69.475755058451227 ] ] ] } },
{ "type": "Feature", "properties": { "fid": 249860, "elvelengde_m": 253.59, "elvID": "195-174-1", "elvenavn": null, "regulert": null, "fid_2": 1050, "id": 1050, "left": 16.986919847, "top": 69.946110046000001, "right": 17.486919847, "bottom": 69.446110046000001, "row_index": 9, "col_index": 26, "tile_id": 1050 }, "geometry": { "type": "MultiLineString", "coordinates": [ [ [ 17.388635684640995, 69.476491390230905 ], [ 17.388917235083838, 69.476720845032972 ], [ 17.389713736492489, 69.476988105685066 ], [ 17.389594295403686, 69.477061532673915 ], [ 17.38992609859309, 69.47751463782177 ], [ 17.390050623237762, 69.477943664506697 ], [ 17.389904142433132, 69.478582532262976 ] ] ] } },
{ "type": "Feature", "properties": { "fid": 249861, "elvelengde_m": 2123.27, "elvID": "195-175-1", "elvenavn": null, "regulert": null, "fid_2": 1050, "id": 1050, "left": 16.986919847, "top": 69.946110046000001, "right": 17.486919847, "bottom": 69.446110046000001, "row_index": 9, "col_index": 26, "tile_id": 1050 }, "geometry": { "type": "MultiLineString", "coordinates": [ [ [ 17.426670644865528, 69.475633829732615 ], [ 17.424359216081307, 69.475773690408701 ], [ 17.424316247509879, 69.475846078696406 ], [ 17.424934924497908, 69.476115658096433 ], [ 17.424845951601846, 69.476233555781789 ], [ 17.424428074547954, 69.476383041027844 ], [ 17.423832667627742, 69.47631944390676 ], [ 17.423502973053278, 69.476117632143882 ], [ 17.423015795125472, 69.476106459594348 ], [ 17.422696760500905, 69.476451899951925 ], [ 17.422721043559068, 69.476666932613483 ], [ 17.423217107588339, 69.476983091807085 ], [ 17.423280323212847, 69.477089898335194 ], [ 17.423237348433101, 69.477162286359118 ], [ 17.423040146857119, 69.47722784513698 ], [ 17.422233363688623, 69.477104454525318 ], [ 17.42152418179672, 69.477392498474444 ], [ 17.421215727619156, 69.47737883691417 ], [ 17.421076159117614, 69.477273000843667 ], [ 17.421188414920906, 69.477136834314962 ], [ 17.420699205635305, 69.477107825413995 ], [ 17.420404908175264, 69.477219598831823 ], [ 17.420245362954297, 69.477392316729976 ], [ 17.420259514449818, 69.477517753186305 ], [ 17.420127533902612, 69.477708125401833 ], [ 17.41999148788069, 69.47786247933054 ], [ 17.419793003909732, 69.477919078259973 ], [ 17.419290875448223, 69.47777340598509 ], [ 17.41917459424166, 69.477649477092925 ], [ 17.41858725858107, 69.47765762973404 ], [ 17.418442118564087, 69.477731434289083 ], [ 17.41864180729096, 69.478141456625167 ], [ 17.418251384256617, 69.478308313112834 ], [ 17.417661010909725, 69.478289672986918 ], [ 17.417302013529003, 69.478052271572167 ], [ 17.4166011707003, 69.477963370146881 ], [ 17.415087120896036, 69.478145887232927 ], [ 17.414728271221417, 69.478366230217105 ], [ 17.413549524059803, 69.47834666448118 ], [ 17.413485008816078, 69.478455243001974 ], [ 17.413838842854542, 69.478872109579882 ], [ 17.414732355086024, 69.479084164844508 ], [ 17.414741422475, 69.479164713280809 ], [ 17.414251834707034, 69.479359945208301 ], [ 17.412067308927227, 69.479040218098106 ], [ 17.411259153292132, 69.479132165398127 ], [ 17.411165057287032, 69.479205257207994 ], [ 17.412347870093356, 69.479260588568209 ], [ 17.412381479597926, 69.479332003030365 ], [ 17.411837766813942, 69.479501055854314 ], [ 17.41124937013991, 69.479500224074187 ], [ 17.41054572931748, 69.479384325815687 ], [ 17.409773907965814, 69.479116814138465 ], [ 17.408649837737059, 69.479356696842643 ], [ 17.408357448409692, 69.479486280119275 ], [ 17.408368524134715, 69.479584927771853 ], [ 17.409063727591743, 69.479853504765416 ], [ 17.409103354870773, 69.479978589184313 ], [ 17.408677235927392, 69.480056268819979 ], [ 17.408234268177345, 69.479981626893078 ], [ 17.408149347638716, 69.4799110105387 ], [ 17.408321080358373, 69.479845821413278 ], [ 17.408311020716717, 69.479756223181724 ], [ 17.408150755310341, 69.479695711459087 ], [ 17.407222037044424, 69.479627688740251 ], [ 17.406511036284122, 69.479215743443234 ], [ 17.406223078151214, 69.479156903554639 ], [ 17.405972719271588, 69.479205228686482 ], [ 17.405545182952661, 69.47949828935036 ], [ 17.405558245315195, 69.479614767290911 ], [ 17.40588841294911, 69.480049921547689 ], [ 17.4058614429252, 69.480265573208399 ], [ 17.405719261309422, 69.480366246713729 ], [ 17.405308624837815, 69.480354056808338 ], [ 17.404408767897824, 69.480545947714262 ], [ 17.40388339550714, 69.48085435236807 ], [ 17.403310063904875, 69.480933510426539 ], [ 17.401656505805242, 69.48086208045892 ], [ 17.401374276841342, 69.480973294660714 ] ] ] } },
{ "type": "Feature", "properties": { "fid": 249862, "elvelengde_m": 686.74, "elvID": "195-173-1", "elvenavn": null, "regulert": null, "fid_2": 1050, "id": 1050, "left": 16.986919847, "top": 69.946110046000001, "right": 17.486919847, "bottom": 69.446110046000001, "row_index": 9, "col_index": 26, "tile_id": 1050 }, "geometry": { "type": "MultiLineString", "coordinates": [ [ [ 17.36774105064681, 69.476256085025142 ], [ 17.36676261858706, 69.477355172184986 ], [ 17.36716560416232, 69.477762390935553 ], [ 17.367517976614856, 69.478403787633155 ], [ 17.368766866278492, 69.479293144157381 ], [ 17.371014165214429, 69.480186859213674 ], [ 17.37189343142223, 69.480273604147186 ], [ 17.372394546005438, 69.480410270599805 ], [ 17.37301568957211, 69.480707004817873 ], [ 17.373475507543667, 69.481159202283834 ], [ 17.373664347902984, 69.481483357596744 ] ] ] } },
{ "type": "Feature", "properties": { "fid": 249863, "elvelengde_m": 1060.5, "elvID": "195-175-1", "elvenavn": null, "regulert": null, "fid_2": 1050, "id": 1050, "left": 16.986919847, "top": 69.946110046000001, "right": 17.486919847, "bottom": 69.446110046000001, "row_index": 9, "col_index": 26, "tile_id": 1050 }, "geometry": { "type": "MultiLineString", "coordinates": [ [ [ 17.450051510788846, 69.476356590731356 ], [ 17.449278028783318, 69.476080299633708 ], [ 17.445531693074443, 69.475298344665745 ], [ 17.443209214334075, 69.475339989165079 ], [ 17.439795857750205, 69.474901342689236 ], [ 17.436832279103282, 69.474810001434108 ], [ 17.433387400602555, 69.474876093188215 ], [ 17.432115697965994, 69.475163064074025 ], [ 17.431404831642023, 69.475208880376158 ], [ 17.430520462925063, 69.475077637217581 ], [ 17.430246713531051, 69.475144362145599 ], [ 17.429039022524311, 69.475771332935963 ], [ 17.427933780824699, 69.475948265501628 ], [ 17.428270976888083, 69.475764090243544 ], [ 17.426670644865528, 69.475633829732615 ] ] ] } },
{ "type": "Feature", "properties": { "fid": 249864, "elvelengde_m": 175.86, "elvID": "195-174-2", "elvenavn": null, "regulert": null, "fid_2": 1050, "id": 1050, "left": 16.986919847, "top": 69.946110046000001, "right": 17.486919847, "bottom": 69.446110046000001, "row_index": 9, "col_index": 26, "tile_id": 1050 }, "geometry": { "type": "MultiLineString", "coordinates": [ [ [ 17.391456406191526, 69.475411759308386 ], [ 17.390666287794353, 69.475665069180351 ], [ 17.390305201302478, 69.475867173651338 ], [ 17.39020674060642, 69.476128849499489 ], [ 17.389194472370601, 69.476456808799568 ], [ 17.388635684640995, 69.476491390230905 ] ] ] } },
{ "type": "Feature", "properties": { "fid": 249865, "elvelengde_m": 701.48, "elvID": "195-174-1", "elvenavn": null, "regulert": null, "fid_2": 1050, "id": 1050, "left": 16.986919847, "top": 69.946110046000001, "right": 17.486919847, "bottom": 69.446110046000001, "row_index": 9, "col_index": 26, "tile_id": 1050 }, "geometry": { "type": "MultiLineString", "coordinates": [ [ [ 17.390263319816391, 69.471129755744897 ], [ 17.389707079908096, 69.471415569237791 ], [ 17.389014013073812, 69.472080148852584 ], [ 17.387112125149553, 69.473371498710705 ], [ 17.387222867912289, 69.473675085599723 ], [ 17.386852350255161, 69.474254473563079 ], [ 17.386953867748971, 69.47447742347245 ], [ 17.386828948246585, 69.474963620581079 ], [ 17.3861608470108, 69.475394620802348 ], [ 17.38589030518299, 69.475721375601807 ], [ 17.385955324277905, 69.475846115973681 ], [ 17.386220637529604, 69.475932219140944 ], [ 17.387310051211198, 69.476069848870765 ], [ 17.387852665560327, 69.476349570132456 ], [ 17.388635684640995, 69.476491390230905 ] ] ] } },
{ "type": "Feature", "properties": { "fid": 249867, "elvelengde_m": 304.81, "elvID": "195-175-4", "elvenavn": null, "regulert": null, "fid_2": 1050, "id": 1050, "left": 16.986919847, "top": 69.946110046000001, "right": 17.486919847, "bottom": 69.446110046000001, "row_index": 9, "col_index": 26, "tile_id": 1050 }, "geometry": { "type": "MultiLineString", "coordinates": [ [ [ 17.428406538662589, 69.473572586749057 ], [ 17.427709720840344, 69.473968171943596 ], [ 17.427185715534595, 69.474083158266282 ], [ 17.426687435475408, 69.473973439134681 ], [ 17.426242046658139, 69.474105275236354 ], [ 17.42641854243243, 69.47430921529228 ], [ 17.426438817256532, 69.474488499072791 ], [ 17.426052576031783, 69.474691211647908 ], [ 17.42611356789963, 69.475004446021771 ], [ 17.426662991857558, 69.475337800265237 ], [ 17.426670644865528, 69.475633829732615 ] ] ] } },
{ "type": "Feature", "properties": { "fid": 249872, "elvelengde_m": 532.8, "elvID": "195-175-2", "elvenavn": null, "regulert": null, "fid_2": 1050, "id": 1050, "left": 16.986919847, "top": 69.946110046000001, "right": 17.486919847, "bottom": 69.446110046000001, "row_index": 9, "col_index": 26, "tile_id": 1050 }, "geometry": { "type": "MultiLineString", "coordinates": [ [ [ 17.462083074424072, 69.472444847181691 ], [ 17.458259955906385, 69.472777026444817 ], [ 17.456919410221609, 69.473352232672582 ], [ 17.456523354245597, 69.47368994397948 ], [ 17.455943387444172, 69.474433985504803 ], [ 17.455367790635041, 69.474765160605244 ], [ 17.454414056294127, 69.475146530353783 ], [ 17.454396814229643, 69.475442913891868 ], [ 17.454534822108368, 69.475755058451227 ] ] ] } },
{ "type": "Feature", "properties": { "fid": 249873, "elvelengde_m": 548.45, "elvID": "195-165-1", "elvenavn": null, "regulert": null, "fid_2": 1050, "id": 1050, "left": 16.986919847, "top": 69.946110046000001, "right": 17.486919847, "bottom": 69.446110046000001, "row_index": 9, "col_index": 26, "tile_id": 1050 }, "geometry": { "type": "MultiLineString", "coordinates": [ [ [ 17.252138642230268, 69.475168309022138 ], [ 17.250996868650628, 69.475497116630507 ], [ 17.249216877473845, 69.475834064383491 ], [ 17.248059548731696, 69.476261664511625 ], [ 17.248074204958737, 69.47688967219085 ], [ 17.248511769627889, 69.477404638177887 ], [ 17.248646788280809, 69.477716859937289 ], [ 17.249092995717213, 69.478070020497114 ], [ 17.251266098237352, 69.47903796245636 ] ] ] } },
{ "type": "Feature", "properties": { "fid": 249874, "elvelengde_m": 26.25, "elvID": "195-165-1", "elvenavn": null, "regulert": null, "fid_2": 1050, "id": 1050, "left": 16.986919847, "top": 69.946110046000001, "right": 17.486919847, "bottom": 69.446110046000001, "row_index": 9, "col_index": 26, "tile_id": 1050 }, "geometry": { "type": "MultiLineString", "coordinates": [ [ [ 17.252872745651736, 69.474853738463352 ], [ 17.252457446261765, 69.475038567653613 ] ] ] } },
{ "type": "Feature", "properties": { "fid": 249876, "elvelengde_m": 15.03, "elvID": "195-165-1", "elvenavn": null, "regulert": null, "fid_2": 1050, "id": 1050, "left": 16.986919847, "top": 69.946110046000001, "right": 17.486919847, "bottom": 69.446110046000001, "row_index": 9, "col_index": 26, "tile_id": 1050 }, "geometry": { "type": "MultiLineString", "coordinates": [ [ [ 17.252856885937099, 69.474459133225864 ], [ 17.252896533679824, 69.474593215354105 ] ] ] } },
{ "type": "Feature", "properties": { "fid": 249877, "elvelengde_m": 480.67, "elvID": "195-174-2", "elvenavn": null, "regulert": null, "fid_2": 1050, "id": 1050, "left": 16.986919847, "top": 69.946110046000001, "right": 17.486919847, "bottom": 69.446110046000001, "row_index": 9, "col_index": 26, "tile_id": 1050 }, "geometry": { "type": "MultiLineString", "coordinates": [ [ [ 17.398714463255519, 69.472395547818451 ], [ 17.397420399708558, 69.473400464652698 ], [ 17.396389610556596, 69.473558223752306 ], [ 17.394477564284387, 69.47452665570944 ], [ 17.394106575152318, 69.474639527174176 ], [ 17.3935136767793, 69.475284802135221 ], [ 17.392939385740796, 69.475409347288746 ], [ 17.391456406191526, 69.475411759308386 ] ] ] } },
{ "type": "Feature", "properties": { "fid": 249878, "elvelengde_m": 416.3, "elvID": "195-174-3", "elvenavn": null, "regulert": null, "fid_2": 1050, "id": 1050, "left": 16.986919847, "top": 69.946110046000001, "right": 17.486919847, "bottom": 69.446110046000001, "row_index": 9, "col_index": 26, "tile_id": 1050 }, "geometry": { "type": "MultiLineString", "coordinates": [ [ [ 17.395643323189955, 69.472141672372203 ], [ 17.395099659024243, 69.472310673021127 ], [ 17.394861353891432, 69.472466501137319 ], [ 17.393593272065264, 69.472789031395536 ], [ 17.392619318854273, 69.47391514271979 ], [ 17.392412936746641, 69.474357595753617 ], [ 17.391690339027701, 69.474986787201701 ], [ 17.391456406191526, 69.475411759308386 ] ] ] } },
{ "type": "Feature", "properties": { "fid": 249879, "elvelengde_m": 575.13, "elvID": "195-166-1", "elvenavn": null, "regulert": null, "fid_2": 1050, "id": 1050, "left": 16.986919847, "top": 69.946110046000001, "right": 17.486919847, "bottom": 69.446110046000001, "row_index": 9, "col_index": 26, "tile_id": 1050 }, "geometry": { "type": "MultiLineString", "coordinates": [ [ [ 17.290879852325052, 69.468947392000928 ], [ 17.293841462429672, 69.469150697481965 ], [ 17.296495576025347, 69.469824613757041 ], [ 17.296537660045143, 69.469976603246835 ], [ 17.29644965880491, 69.470112271368322 ], [ 17.297508851471552, 69.470215047798973 ], [ 17.298457668621662, 69.470480701953235 ], [ 17.299315773631008, 69.470612950353711 ], [ 17.299777941531865, 69.470633769861564 ], [ 17.300711990984585, 69.470522732392823 ], [ 17.302120104349004, 69.470064444038599 ], [ 17.302959316691481, 69.470044379461399 ] ] ] } },
{ "type": "Feature", "properties": { "fid": 249880, "elvelengde_m": 514.26, "elvID": "195-152-1", "elvenavn": null, "regulert": null, "fid_2": 1050, "id": 1050, "left": 16.986919847, "top": 69.946110046000001, "right": 17.486919847, "bottom": 69.446110046000001, "row_index": 9, "col_index": 26, "tile_id": 1050 }, "geometry": { "type": "MultiLineString", "coordinates": [ [ [ 17.426110212004229, 69.467511352656658 ], [ 17.428872138188225, 69.467517731992316 ], [ 17.43148736571359, 69.467813278579726 ], [ 17.434488959817259, 69.467905962396017 ], [ 17.435182296740756, 69.467707819784096 ], [ 17.436473034573478, 69.467142363211352 ], [ 17.436523923471178, 69.466917304477604 ], [ 17.437053137223369, 69.466622736835021 ] ] ] } },
{ "type": "Feature", "properties": { "fid": 249881, "elvelengde_m": 197.04, "elvID": "195-163-1", "elvenavn": null, "regulert": null, "fid_2": 1050, "id": 1050, "left": 16.986919847, "top": 69.946110046000001, "right": 17.486919847, "bottom": 69.446110046000001, "row_index": 9, "col_index": 26, "tile_id": 1050 }, "geometry": { "type": "MultiLineString", "coordinates": [ [ [ 17.23526228521159, 69.468790519333723 ], [ 17.233985150893165, 69.468797927985634 ], [ 17.232557696612801, 69.469085413335961 ], [ 17.231756963979404, 69.469005943822054 ], [ 17.231409244493072, 69.468857858757872 ], [ 17.230762506309254, 69.468921952513341 ] ] ] } },
{ "type": "Feature", "properties": { "fid": 249882, "elvelengde_m": 600.89, "elvID": "195-152-2", "elvenavn": null, "regulert": null, "fid_2": 1050, "id": 1050, "left": 16.986919847, "top": 69.946110046000001, "right": 17.486919847, "bottom": 69.446110046000001, "row_index": 9, "col_index": 26, "tile_id": 1050 }, "geometry": { "type": "MultiLineString", "coordinates": [ [ [ 17.447531776364841, 69.470191019017534 ], [ 17.446758041518674, 69.469905748378949 ], [ 17.446103530452522, 69.469322661044743 ], [ 17.444316776040967, 69.468450349747826 ], [ 17.443656243439829, 69.468037933027802 ], [ 17.443398989084859, 69.467574718912914 ], [ 17.441110243779949, 69.466556951283735 ], [ 17.439819901724878, 69.466224958638051 ], [ 17.439134012662439, 69.465812971473213 ] ] ] } },
{ "type": "Feature", "properties": { "fid": 249884, "elvelengde_m": 274.76, "elvID": "195-152-4", "elvenavn": null, "regulert": null, "fid_2": 1050, "id": 1050, "left": 16.986919847, "top": 69.946110046000001, "right": 17.486919847, "bottom": 69.446110046000001, "row_index": 9, "col_index": 26, "tile_id": 1050 }, "geometry": { "type": "MultiLineString", "coordinates": [ [ [ 17.447019962361271, 69.465702269985968 ], [ 17.44382699376774, 69.465271482509479 ], [ 17.44078707426031, 69.464614144915757 ] ] ] } },
{ "type": "Feature", "properties": { "fid": 249885, "elvelengde_m": 174.32, "elvID": "195-171-1", "elvenavn": null, "regulert": null, "fid_2": 1050, "id": 1050, "left": 16.986919847, "top": 69.946110046000001, "right": 17.486919847, "bottom": 69.446110046000001, "row_index": 9, "col_index": 26, "tile_id": 1050 }, "geometry": { "type": "MultiLineString", "coordinates": [ [ [ 17.347475442532645, 69.466103136943929 ], [ 17.346513484899095, 69.46572126727483 ], [ 17.345150044464432, 69.465407612608445 ], [ 17.343828575226162, 69.465288375384759 ] ] ] } },
{ "type": "Feature", "properties": { "fid": 249886, "elvelengde_m": 385.29, "elvID": "195-152-3", "elvenavn": null, "regulert": null, "fid_2": 1050, "id": 1050, "left": 16.986919847, "top": 69.946110046000001, "right": 17.486919847, "bottom": 69.446110046000001, "row_index": 9, "col_index": 26, "tile_id": 1050 }, "geometry": { "type": "MultiLineString", "coordinates": [ [ [ 17.451163744522873, 69.46505172412644 ], [ 17.450279632310512, 69.464696232421289 ], [ 17.44933636528463, 69.464494125520773 ], [ 17.446846610557184, 69.464403486389216 ], [ 17.442538180917175, 69.463602466233496 ] ] ] } },
{ "type": "Feature", "properties": { "fid": 249887, "elvelengde_m": 501.76, "elvID": "195-162-1", "elvenavn": null, "regulert": null, "fid_2": 1050, "id": 1050, "left": 16.986919847, "top": 69.946110046000001, "right": 17.486919847, "bottom": 69.446110046000001, "row_index": 9, "col_index": 26, "tile_id": 1050 }, "geometry": { "type": "MultiLineString", "coordinates": [ [ [ 17.24042806761851, 69.465870772230858 ], [ 17.239843784372237, 69.46590520489103 ], [ 17.238590853973069, 69.466145544259433 ], [ 17.235192176937492, 69.466153385419062 ], [ 17.233737098604909, 69.466414318372856 ], [ 17.233073734891761, 69.466674064491144 ], [ 17.232324708437062, 69.466845176719389 ], [ 17.23161088765761, 69.466863295470432 ], [ 17.23100941509793, 69.466978674231399 ], [ 17.230465898457389, 69.466913851107691 ], [ 17.229740763616661, 69.467066700235009 ], [ 17.228919679369238, 69.466923323028652 ] ] ] } },
{ "type": "Feature", "properties": { "fid": 249890, "elvelengde_m": 206.78, "elvID": "195-152-5", "elvenavn": null, "regulert": null, "fid_2": 1050, "id": 1050, "left": 16.986919847, "top": 69.946110046000001, "right": 17.486919847, "bottom": 69.446110046000001, "row_index": 9, "col_index": 26, "tile_id": 1050 }, "geometry": { "type": "MultiLineString", "coordinates": [ [ [ 17.448063240819117, 69.46274415930796 ], [ 17.445450191943983, 69.462915569359467 ], [ 17.443129088998077, 69.462508334541624 ] ] ] } },
{ "type": "Feature", "properties": { "fid": 249896, "elvelengde_m": 360.36, "elvID": "195-170-1", "elvenavn": null, "regulert": null, "fid_2": 1050, "id": 1050, "left": 16.986919847, "top": 69.946110046000001, "right": 17.486919847, "bottom": 69.446110046000001, "row_index": 9, "col_index": 26, "tile_id": 1050 }, "geometry": { "type": "MultiLineString", "coordinates": [ [ [ 17.359117617916777, 69.461324496827245 ], [ 17.356657999707316, 69.4610347525105 ], [ 17.354621490999584, 69.461107166544011 ], [ 17.352682120878626, 69.460900067765508 ], [ 17.350183836322874, 69.460869819609982 ] ] ] } },
{ "type": "Feature", "properties": { "fid": 249897, "elvelengde_m": 226.33, "elvID": "195-169-1", "elvenavn": null, "regulert": null, "fid_2": 1050, "id": 1050, "left": 16.986919847, "top": 69.946110046000001, "right": 17.486919847, "bottom": 69.446110046000001, "row_index": 9, "col_index": 26, "tile_id": 1050 }, "geometry": { "type": "MultiLineString", "coordinates": [ [ [ 17.355847245833441, 69.460632943541555 ], [ 17.355278002964209, 69.460568854488471 ], [ 17.354673440468623, 69.460648727980555 ], [ 17.351966890178453, 69.460667355428512 ], [ 17.350826221665759, 69.460521324462391 ], [ 17.350237969299066, 69.460547211210937 ] ] ] } },
{ "type": "Feature", "properties": { "fid": 249898, "elvelengde_m": 310.92, "elvID": "195-152-6", "elvenavn": null, "regulert": null, "fid_2": 1050, "id": 1050, "left": 16.986919847, "top": 69.946110046000001, "right": 17.486919847, "bottom": 69.446110046000001, "row_index": 9, "col_index": 26, "tile_id": 1050 }, "geometry": { "type": "MultiLineString", "coordinates": [ [ [ 17.432658475092779, 69.459424316300016 ], [ 17.43737150326502, 69.459295593692644 ], [ 17.439227998450278, 69.458991407117693 ], [ 17.440380179889679, 69.459011070178946 ] ] ] } },
{ "type": "Feature", "properties": { "fid": 249900, "elvelengde_m": 501.26, "elvID": "195-161-2", "elvenavn": null, "regulert": null, "fid_2": 1050, "id": 1050, "left": 16.986919847, "top": 69.946110046000001, "right": 17.486919847, "bottom": 69.446110046000001, "row_index": 9, "col_index": 26, "tile_id": 1050 }, "geometry": { "type": "MultiLineString", "coordinates": [ [ [ 17.25498991061346, 69.463367837754134 ], [ 17.255324848799884, 69.462663606870052 ], [ 17.254968825635245, 69.461950377367344 ], [ 17.254859555631132, 69.461153194891125 ], [ 17.254591186617912, 69.461031047252831 ], [ 17.253913700176692, 69.461147492358222 ], [ 17.25309492394431, 69.461140050998296 ], [ 17.252572318697503, 69.461030251946539 ], [ 17.251823001054348, 69.460707941401751 ], [ 17.249257933811531, 69.460615466669964 ] ] ] } },
{ "type": "Feature", "properties": { "fid": 249901, "elvelengde_m": 101.84, "elvID": "195-161-1", "elvenavn": null, "regulert": null, "fid_2": 1050, "id": 1050, "left": 16.986919847, "top": 69.946110046000001, "right": 17.486919847, "bottom": 69.446110046000001, "row_index": 9, "col_index": 26, "tile_id": 1050 }, "geometry": { "type": "MultiLineString", "coordinates": [ [ [ 17.249257933811531, 69.460615466669964 ], [ 17.248939323253715, 69.460745202930724 ], [ 17.248204894203525, 69.46080852306352 ], [ 17.247995101013977, 69.460757303597362 ], [ 17.247920620388815, 69.460534030424327 ], [ 17.247761981708805, 69.460388023971305 ] ] ] } },
{ "type": "Feature", "properties": { "fid": 249902, "elvelengde_m": 677.87, "elvID": "195-161-1", "elvenavn": null, "regulert": null, "fid_2": 1050, "id": 1050, "left": 16.986919847, "top": 69.946110046000001, "right": 17.486919847, "bottom": 69.446110046000001, "row_index": 9, "col_index": 26, "tile_id": 1050 }, "geometry": { "type": "MultiLineString", "coordinates": [ [ [ 17.263292310512234, 69.46163603173521 ], [ 17.257912570512559, 69.460781638913787 ], [ 17.257276815620912, 69.460565554826417 ], [ 17.25707351869135, 69.460092530243813 ], [ 17.25655948802952, 69.459821117864266 ], [ 17.255804402392759, 69.459687332125895 ], [ 17.253639948558231, 69.460002491274295 ], [ 17.25287614155005, 69.46027259057513 ], [ 17.252297670159241, 69.460360829701443 ], [ 17.249923478835289, 69.46038254529077 ], [ 17.249257933811531, 69.460615466669964 ] ] ] } },
{ "type": "Feature", "properties": { "fid": 249903, "elvelengde_m": 411.87, "elvID": "195-152-7", "elvenavn": null, "regulert": null, "fid_2": 1050, "id": 1050, "left": 16.986919847, "top": 69.946110046000001, "right": 17.486919847, "bottom": 69.446110046000001, "row_index": 9, "col_index": 26, "tile_id": 1050 }, "geometry": { "type": "MultiLineString", "coordinates": [ [ [ 17.429968122665368, 69.458232462439199 ], [ 17.43111620863483, 69.458216436767316 ], [ 17.4320980260898, 69.458086065748972 ], [ 17.434016812810231, 69.457655430040788 ], [ 17.437275438421302, 69.457098335841891 ], [ 17.438858234905407, 69.45686070946914 ], [ 17.439546030707731, 69.456842190762202 ] ] ] } },
{ "type": "Feature", "properties": { "fid": 249904, "elvelengde_m": 170.03, "elvID": "195-158-2", "elvenavn": null, "regulert": null, "fid_2": 1050, "id": 1050, "left": 16.986919847, "top": 69.946110046000001, "right": 17.486919847, "bottom": 69.446110046000001, "row_index": 9, "col_index": 26, "tile_id": 1050 }, "geometry": { "type": "MultiLineString", "coordinates": [ [ [ 17.290924895816879, 69.459309617151206 ], [ 17.289378597527197, 69.459186381670193 ], [ 17.288591130977242, 69.458990349581128 ], [ 17.286867208035595, 69.458878399640398 ] ] ] } },
{ "type": "Feature", "properties": { "fid": 249905, "elvelengde_m": 503.72, "elvID": "195-158-1", "elvenavn": null, "regulert": null, "fid_2": 1050, "id": 1050, "left": 16.986919847, "top": 69.946110046000001, "right": 17.486919847, "bottom": 69.446110046000001, "row_index": 9, "col_index": 26, "tile_id": 1050 }, "geometry": { "type": "MultiLineString", "coordinates": [ [ [ 17.286856143213154, 69.462853650636291 ], [ 17.287290947769701, 69.462856824500761 ], [ 17.287931571579325, 69.462632964810993 ], [ 17.288306499886858, 69.462314158144608 ], [ 17.288639373840468, 69.461600905554036 ], [ 17.289211447755346, 69.460974238733485 ], [ 17.289249792392365, 69.460614808147469 ], [ 17.289078260441496, 69.460204297332467 ], [ 17.288237296166631, 69.459556898653744 ], [ 17.28758860452751, 69.459174011961537 ], [ 17.286867208035595, 69.458878399640398 ] ] ] } },
{ "type": "Feature", "properties": { "fid": 249906, "elvelengde_m": 331.32, "elvID": "195-152-8", "elvenavn": null, "regulert": null, "fid_2": 1050, "id": 1050, "left": 16.986919847, "top": 69.946110046000001, "right": 17.486919847, "bottom": 69.446110046000001, "row_index": 9, "col_index": 26, "tile_id": 1050 }, "geometry": { "type": "MultiLineString", "coordinates": [ [ [ 17.430574899625928, 69.457048418692381 ], [ 17.438714562038655, 69.456270533550281 ] ] ] } },
{ "type": "Feature", "properties": { "fid": 249908, "elvelengde_m": 322.44, "elvID": "195-152-9", "elvenavn": null, "regulert": null, "fid_2": 1050, "id": 1050, "left": 16.986919847, "top": 69.946110046000001, "right": 17.486919847, "bottom": 69.446110046000001, "row_index": 9, "col_index": 26, "tile_id": 1050 }, "geometry": { "type": "MultiLineString", "coordinates": [ [ [ 17.43057916230606, 69.455729201522871 ], [ 17.431856537818103, 69.455953568943016 ], [ 17.434787059789439, 69.456110127392463 ], [ 17.438568012977868, 69.45587773563139 ] ] ] } },
{ "type": "Feature", "properties": { "fid": 249911, "elvelengde_m": 1005.62, "elvID": "195-169-1", "elvenavn": null, "regulert": null, "fid_2": 1050, "id": 1050, "left": 16.986919847, "top": 69.946110046000001, "right": 17.486919847, "bottom": 69.446110046000001, "row_index": 9, "col_index": 26, "tile_id": 1050 }, "geometry": { "type": "MultiLineString", "coordinates": [ [ [ 17.368710590714009, 69.455155176081362 ], [ 17.364518506469896, 69.456064552490105 ], [ 17.363383420507901, 69.456429930852877 ], [ 17.363068522050295, 69.456586754692481 ], [ 17.362578358134598, 69.457006188161316 ], [ 17.362336884778063, 69.457368405128264 ], [ 17.362479208517403, 69.457967700772244 ], [ 17.363484007632685, 69.459201384908638 ], [ 17.363679509028, 69.459584592810813 ], [ 17.363018307786103, 69.460078136323915 ], [ 17.362218536627427, 69.460241536606844 ], [ 17.361935990171489, 69.460460733335836 ], [ 17.360975211923495, 69.460554523214199 ], [ 17.360684673214614, 69.460468726839224 ], [ 17.360523784301183, 69.460632430836384 ], [ 17.3599447669474, 69.460712066308503 ], [ 17.359752360208844, 69.460589044542687 ], [ 17.359469702389617, 69.460574927409823 ], [ 17.358360715160231, 69.460715488385915 ], [ 17.356232954473999, 69.460654645768173 ] ] ] } },
{ "type": "Feature", "properties": { "fid": 249912, "elvelengde_m": 179.94, "elvID": "195-168-1", "elvenavn": null, "regulert": null, "fid_2": 1050, "id": 1050, "left": 16.986919847, "top": 69.946110046000001, "right": 17.486919847, "bottom": 69.446110046000001, "row_index": 9, "col_index": 26, "tile_id": 1050 }, "geometry": { "type": "MultiLineString", "coordinates": [ [ [ 17.346264034546003, 69.455019317426121 ], [ 17.345690985789272, 69.455152666895302 ], [ 17.345280790134709, 69.455373644942469 ], [ 17.34507563669478, 69.455600654371139 ], [ 17.344660270492689, 69.455776742617431 ], [ 17.344522116816112, 69.455913114709645 ], [ 17.34464178062948, 69.456073114886721 ], [ 17.344113016477021, 69.456338669137963 ] ] ] } },
{ "type": "Feature", "properties": { "fid": 249913, "elvelengde_m": 202.51, "elvID": "195-160-1", "elvenavn": null, "regulert": null, "fid_2": 1050, "id": 1050, "left": 16.986919847, "top": 69.946110046000001, "right": 17.486919847, "bottom": 69.446110046000001, "row_index": 9, "col_index": 26, "tile_id": 1050 }, "geometry": { "type": "MultiLineString", "coordinates": [ [ [ 17.253832939982285, 69.455998035519798 ], [ 17.251425643282673, 69.456432963058958 ], [ 17.250087473000701, 69.456584854892625 ], [ 17.249036933524355, 69.456597350018271 ] ] ] } },
{ "type": "Feature", "properties": { "fid": 249915, "elvelengde_m": 521.2, "elvID": "195-167-1", "elvenavn": null, "regulert": null, "fid_2": 1050, "id": 1050, "left": 16.986919847, "top": 69.946110046000001, "right": 17.486919847, "bottom": 69.446110046000001, "row_index": 9, "col_index": 26, "tile_id": 1050 }, "geometry": { "type": "MultiLineString", "coordinates": [ [ [ 17.343951877755643, 69.453731365801744 ], [ 17.343678373931922, 69.453797861825564 ], [ 17.342196619356372, 69.453799855391921 ], [ 17.340950442657146, 69.454085818289457 ], [ 17.338026566181689, 69.454214841332828 ], [ 17.337204235527363, 69.454405350299055 ], [ 17.337094070553061, 69.454801658611359 ], [ 17.336621881208313, 69.455158048379872 ], [ 17.33632548428141, 69.455251670048483 ], [ 17.33592047313239, 69.455283934658553 ], [ 17.335711265538809, 69.455241964076322 ], [ 17.335539686195609, 69.455073771322191 ], [ 17.33484796571134, 69.455056128578391 ], [ 17.334002984299389, 69.455273845606555 ], [ 17.333840660661977, 69.455407032866859 ] ] ] } },
{ "type": "Feature", "properties": { "fid": 249917, "elvelengde_m": 1242.64, "elvID": "195-153-1", "elvenavn": null, "regulert": null, "fid_2": 1050, "id": 1050, "left": 16.986919847, "top": 69.946110046000001, "right": 17.486919847, "bottom": 69.446110046000001, "row_index": 9, "col_index": 26, "tile_id": 1050 }, "geometry": { "type": "MultiLineString", "coordinates": [ [ [ 17.389994305702391, 69.459530521937197 ], [ 17.390432483128986, 69.459102835536356 ], [ 17.391197808024611, 69.458634581580498 ], [ 17.393604322559931, 69.457757993293725 ], [ 17.395335805013016, 69.457016288539336 ], [ 17.397229727651208, 69.456586406914909 ], [ 17.399078046259884, 69.455977659072445 ], [ 17.401432459066097, 69.455326015767696 ], [ 17.402702402628098, 69.455030309763089 ], [ 17.405020198952176, 69.454738070768315 ], [ 17.406592562031793, 69.454177919109995 ], [ 17.407859353209304, 69.453855296156902 ], [ 17.411440715612255, 69.452531452520688 ], [ 17.412194846540729, 69.452422293274751 ], [ 17.41295636044666, 69.452151501353882 ] ] ] } },
{ "type": "Feature", "properties": { "fid": 249918, "elvelengde_m": 327.08, "elvID": "195-153-3", "elvenavn": null, "regulert": null, "fid_2": 1050, "id": 1050, "left": 16.986919847, "top": 69.946110046000001, "right": 17.486919847, "bottom": 69.446110046000001, "row_index": 9, "col_index": 26, "tile_id": 1050 }, "geometry": { "type": "MultiLineString", "coordinates": [ [ [ 17.411835191164943, 69.454679691269163 ], [ 17.411774469758189, 69.45436645071841 ], [ 17.411514977532089, 69.454100922097751 ], [ 17.411492658295444, 69.453221712778486 ], [ 17.411700094215774, 69.453021416473845 ], [ 17.412834833884208, 69.45288903403744 ], [ 17.41339933887323, 69.452683696481259 ], [ 17.413415715790602, 69.452145043051303 ] ] ] } },
{ "type": "Feature", "properties": { "fid": 249919, "elvelengde_m": 436.25, "elvID": "195-153-2", "elvenavn": null, "regulert": null, "fid_2": 1050, "id": 1050, "left": 16.986919847, "top": 69.946110046000001, "right": 17.486919847, "bottom": 69.446110046000001, "row_index": 9, "col_index": 26, "tile_id": 1050 }, "geometry": { "type": "MultiLineString", "coordinates": [ [ [ 17.421588218222791, 69.454391753839843 ], [ 17.417920000557057, 69.453668209083048 ], [ 17.416797883974773, 69.453372489298076 ], [ 17.415725557105752, 69.453378398537694 ], [ 17.415331861518858, 69.453285149450025 ], [ 17.414827390490998, 69.452888237869573 ], [ 17.414827971505765, 69.452663885311281 ], [ 17.41506769376732, 69.45252613263321 ], [ 17.414874039274434, 69.45239421234723 ], [ 17.414884427013686, 69.452259371803635 ], [ 17.41429912189453, 69.452052119435905 ] ] ] } },
{ "type": "Feature", "properties": { "fid": 249920, "elvelengde_m": 435.37, "elvID": "195-152-10", "elvenavn": null, "regulert": null, "fid_2": 1050, "id": 1050, "left": 16.986919847, "top": 69.946110046000001, "right": 17.486919847, "bottom": 69.446110046000001, "row_index": 9, "col_index": 26, "tile_id": 1050 }, "geometry": { "type": "MultiLineString", "coordinates": [ [ [ 17.464440817986873, 69.453341717228696 ], [ 17.46379661640054, 69.452848290081675 ], [ 17.4622638591926, 69.452403327253961 ], [ 17.459140743121964, 69.451675709181373 ], [ 17.456789728837691, 69.451224309898336 ], [ 17.455941840525306, 69.450958080862762 ] ] ] } },
{ "type": "Feature", "properties": { "fid": 249921, "elvelengde_m": 683.83, "elvID": "195-159-1", "elvenavn": null, "regulert": null, "fid_2": 1050, "id": 1050, "left": 16.986919847, "top": 69.946110046000001, "right": 17.486919847, "bottom": 69.446110046000001, "row_index": 9, "col_index": 26, "tile_id": 1050 }, "geometry": { "type": "MultiLineString", "coordinates": [ [ [ 17.262678375173842, 69.457507436435961 ], [ 17.260524665095396, 69.457678976673051 ], [ 17.259319780905603, 69.457640775445967 ], [ 17.258869053781332, 69.457485108389463 ], [ 17.258693354386448, 69.457272124636788 ], [ 17.259322737516726, 69.456214026694582 ], [ 17.260320126139103, 69.455249940978121 ], [ 17.260759643154216, 69.454571257169803 ], [ 17.261376686187837, 69.4543658372952 ], [ 17.261265197658155, 69.454277465163884 ], [ 17.261452348758375, 69.453871247674456 ], [ 17.262294280687371, 69.453375855370908 ], [ 17.262379955022769, 69.453090564895874 ] ] ] } },
{ "type": "Feature", "properties": { "fid": 249922, "elvelengde_m": 1163.55, "elvID": "195-158-1", "elvenavn": null, "regulert": null, "fid_2": 1050, "id": 1050, "left": 16.986919847, "top": 69.946110046000001, "right": 17.486919847, "bottom": 69.446110046000001, "row_index": 9, "col_index": 26, "tile_id": 1050 }, "geometry": { "type": "MultiLineString", "coordinates": [ [ [ 17.286867208035595, 69.458878399640398 ], [ 17.285622157993206, 69.458464034320642 ], [ 17.279099236670977, 69.458154708982406 ], [ 17.277753411196684, 69.4579928556238 ], [ 17.275964221962518, 69.457504782610243 ], [ 17.274686463618107, 69.457261258704136 ], [ 17.273921869358482, 69.457037944485634 ], [ 17.273025836105795, 69.456538177973229 ], [ 17.270915492355673, 69.455668405154469 ], [ 17.269245600904096, 69.454613407214225 ], [ 17.268348869038473, 69.454346926938157 ], [ 17.2659838476205, 69.453964961889085 ], [ 17.265612517598051, 69.453835198372161 ], [ 17.265542594856608, 69.453656647064392 ], [ 17.265731542228313, 69.453026073210665 ], [ 17.265629235891506, 69.452940096700459 ] ] ] } },
{ "type": "Feature", "properties": { "fid": 249927, "elvelengde_m": 1321.98, "elvID": "195-157-1", "elvenavn": null, "regulert": null, "fid_2": 1050, "id": 1050, "left": 16.986919847, "top": 69.946110046000001, "right": 17.486919847, "bottom": 69.446110046000001, "row_index": 9, "col_index": 26, "tile_id": 1050 }, "geometry": { "type": "MultiLineString", "coordinates": [ [ [ 17.294909857143473, 69.457624026023453 ], [ 17.294944609148278, 69.457471023726455 ], [ 17.29595204201512, 69.45685653912318 ], [ 17.296083347716973, 69.456648424145015 ], [ 17.296450212334417, 69.45650001491326 ], [ 17.296747647012172, 69.456173057499313 ], [ 17.296596128764751, 69.455950725957877 ], [ 17.296644890948478, 69.455689949630383 ], [ 17.29675423865114, 69.455517926679633 ], [ 17.297022416098184, 69.455397737317497 ], [ 17.297207941722696, 69.454982522184693 ], [ 17.297394783614841, 69.454818539205732 ], [ 17.297999975366121, 69.454505463548614 ], [ 17.299009483879768, 69.454151154380625 ], [ 17.299915556271703, 69.45354686547482 ], [ 17.301120424974613, 69.453109203257071 ], [ 17.301627621034307, 69.452600086780492 ], [ 17.301759610386721, 69.452120158323581 ], [ 17.302563284146807, 69.451555792438214 ], [ 17.303516855705723, 69.450681747422237 ], [ 17.30421522705694, 69.450286745216786 ], [ 17.304324487253801, 69.450114717579098 ], [ 17.304480487695976, 69.449664079947937 ], [ 17.304592251969456, 69.448801078920212 ], [ 17.304365673687748, 69.44835541623911 ], [ 17.30373874054359, 69.44798683847101 ], [ 17.302832003591721, 69.44763093393793 ], [ 17.302198110692775, 69.447432934716076 ], [ 17.301107810502998, 69.44726788653449 ] ] ] } },
{ "type": "Feature", "properties": { "fid": 249929, "elvelengde_m": 183.1, "elvID": "195-157-1", "elvenavn": null, "regulert": null, "fid_2": 1050, "id": 1050, "left": 16.986919847, "top": 69.946110046000001, "right": 17.486919847, "bottom": 69.446110046000001, "row_index": 9, "col_index": 26, "tile_id": 1050 }, "geometry": { "type": "MultiLineString", "coordinates": [ [ [ 17.296611458448034, 69.447255485505039 ], [ 17.295804261274384, 69.446871312998198 ], [ 17.295499107025403, 69.446642034349921 ], [ 17.294567638550081, 69.446528601799301 ], [ 17.294532578772273, 69.446439421707368 ], [ 17.294241538747034, 69.446344553003257 ], [ 17.29400256132546, 69.446110046 ] ] ] } },
{ "type": "Feature", "properties": { "fid": 249934, "elvelengde_m": 853.04, "elvID": "195-152-1", "elvenavn": null, "regulert": null, "fid_2": 1050, "id": 1050, "left": 16.986919847, "top": 69.946110046000001, "right": 17.486919847, "bottom": 69.446110046000001, "row_index": 9, "col_index": 26, "tile_id": 1050 }, "geometry": { "type": "MultiLineString", "coordinates": [ [ [ 17.457687240031131, 69.447460510216288 ], [ 17.457787200941095, 69.44699244973809 ], [ 17.458418273290697, 69.44648099259787 ], [ 17.458428597255814, 69.446110046 ] ] ] } },
{ "type": "Feature", "properties": { "fid": 251486, "elvelengde_m": 1190.42, "elvID": "195-153-1", "elvenavn": null, "regulert": null, "fid_2": 1050, "id": 1050, "left": 16.986919847, "top": 69.946110046000001, "right": 17.486919847, "bottom": 69.446110046000001, "row_index": 9, "col_index": 26, "tile_id": 1050 }, "geometry": { "type": "MultiLineString", "coordinates": [ [ [ 17.417242677494134, 69.449606294678048 ], [ 17.41724902700485, 69.449435703503994 ], [ 17.417445283774772, 69.449136843593493 ], [ 17.417760683765351, 69.448988882156058 ], [ 17.4185990738032, 69.448268214563399 ], [ 17.41931267443838, 69.44780072289015 ], [ 17.419430368545594, 69.447485003665733 ], [ 17.419829569440836, 69.447174344512831 ], [ 17.4203434069784, 69.446521085283422 ], [ 17.420503697984632, 69.446110046 ] ] ] } },
{ "type": "Feature", "properties": { "fid": 251488, "elvelengde_m": 1467.83, "elvID": "195-156-1", "elvenavn": null, "regulert": null, "fid_2": 1050, "id": 1050, "left": 16.986919847, "top": 69.946110046000001, "right": 17.486919847, "bottom": 69.446110046000001, "row_index": 9, "col_index": 26, "tile_id": 1050 }, "geometry": { "type": "MultiLineString", "coordinates": [ [ [ 17.373819632972278, 69.449369245881428 ], [ 17.370929214011152, 69.448637001464235 ], [ 17.36984011662511, 69.448256996015786 ], [ 17.368958841897911, 69.447676737537336 ], [ 17.36703996755627, 69.447182377497938 ], [ 17.363829525564697, 69.4467863050902 ], [ 17.36192156823147, 69.446157049116067 ], [ 17.361735119612593, 69.446110046 ] ] ] } },
{ "type": "Feature", "properties": { "fid": 255543, "elvelengde_m": 328.71, "elvID": "195-157-2", "elvenavn": null, "regulert": null, "fid_2": 1050, "id": 1050, "left": 16.986919847, "top": 69.946110046000001, "right": 17.486919847, "bottom": 69.446110046000001, "row_index": 9, "col_index": 26, "tile_id": 1050 }, "geometry": { "type": "MultiLineString", "coordinates": [ [ [ 17.308833994028902, 69.44620543285339 ], [ 17.307935204252107, 69.446396818495359 ], [ 17.306318507149403, 69.446561820444856 ], [ 17.305696352971644, 69.446713635304988 ], [ 17.301107810502998, 69.44726788653449 ] ] ] } },
{ "type": "Feature", "properties": { "fid": 255547, "elvelengde_m": 179.73, "elvID": "195-157-1", "elvenavn": null, "regulert": null, "fid_2": 1050, "id": 1050, "left": 16.986919847, "top": 69.946110046000001, "right": 17.486919847, "bottom": 69.446110046000001, "row_index": 9, "col_index": 26, "tile_id": 1050 }, "geometry": { "type": "MultiLineString", "coordinates": [ [ [ 17.301107810502998, 69.44726788653449 ], [ 17.30048440621816, 69.447356633883331 ], [ 17.298156249498692, 69.447227131432314 ], [ 17.296611458448034, 69.447255485505039 ] ] ] } },
{ "type": "Feature", "properties": { "fid": 255548, "elvelengde_m": 429.29, "elvID": "195-185-1", "elvenavn": null, "regulert": null, "fid_2": 1050, "id": 1050, "left": 16.986919847, "top": 69.946110046000001, "right": 17.486919847, "bottom": 69.446110046000001, "row_index": 9, "col_index": 26, "tile_id": 1050 }, "geometry": { "type": "MultiLineString", "coordinates": [ [ [ 17.482315887870936, 69.49792774708321 ], [ 17.486919847, 69.497754337916987 ] ] ] } },
{ "type": "Feature", "properties": { "fid": 255582, "elvelengde_m": 84.0, "elvID": "195-183-3", "elvenavn": null, "regulert": null, "fid_2": 1050, "id": 1050, "left": 16.986919847, "top": 69.946110046000001, "right": 17.486919847, "bottom": 69.446110046000001, "row_index": 9, "col_index": 26, "tile_id": 1050 }, "geometry": { "type": "MultiLineString", "coordinates": [ [ [ 17.42041757878161, 69.511104478150656 ], [ 17.421967822805726, 69.510582536078189 ] ] ] } },
{ "type": "Feature", "properties": { "fid": 255583, "elvelengde_m": 26.52, "elvID": "195-183-4", "elvenavn": null, "regulert": null, "fid_2": 1050, "id": 1050, "left": 16.986919847, "top": 69.946110046000001, "right": 17.486919847, "bottom": 69.446110046000001, "row_index": 9, "col_index": 26, "tile_id": 1050 }, "geometry": { "type": "MultiLineString", "coordinates": [ [ [ 17.418152261714265, 69.509892145522315 ], [ 17.418802586590328, 69.509960193831034 ] ] ] } },
{ "type": "Feature", "properties": { "fid": 255584, "elvelengde_m": 25.02, "elvID": "195-172-1", "elvenavn": null, "regulert": null, "fid_2": 1050, "id": 1050, "left": 16.986919847, "top": 69.946110046000001, "right": 17.486919847, "bottom": 69.446110046000001, "row_index": 9, "col_index": 26, "tile_id": 1050 }, "geometry": { "type": "MultiLineString", "coordinates": [ [ [ 17.352925864787455, 69.477528453792047 ], [ 17.353372308417935, 69.477689065170338 ] ] ] } },
{ "type": "Feature", "properties": { "fid": 255586, "elvelengde_m": 41.64, "elvID": "195-152-2", "elvenavn": null, "regulert": null, "fid_2": 1050, "id": 1050, "left": 16.986919847, "top": 69.946110046000001, "right": 17.486919847, "bottom": 69.446110046000001, "row_index": 9, "col_index": 26, "tile_id": 1050 }, "geometry": { "type": "MultiLineString", "coordinates": [ [ [ 17.439134012662439, 69.465812971473213 ], [ 17.43833581905422, 69.465566170528902 ] ] ] } },
{ "type": "Feature", "properties": { "fid": 255587, "elvelengde_m": 77.14, "elvID": "195-152-4", "elvenavn": null, "regulert": null, "fid_2": 1050, "id": 1050, "left": 16.986919847, "top": 69.946110046000001, "right": 17.486919847, "bottom": 69.446110046000001, "row_index": 9, "col_index": 26, "tile_id": 1050 }, "geometry": { "type": "MultiLineString", "coordinates": [ [ [ 17.44078707426031, 69.464614144915757 ], [ 17.440803191900994, 69.46445539420337 ], [ 17.439536043561844, 69.46416212312991 ] ] ] } },
{ "type": "Feature", "properties": { "fid": 255588, "elvelengde_m": 107.54, "elvID": "195-152-6", "elvenavn": null, "regulert": null, "fid_2": 1050, "id": 1050, "left": 16.986919847, "top": 69.946110046000001, "right": 17.486919847, "bottom": 69.446110046000001, "row_index": 9, "col_index": 26, "tile_id": 1050 }, "geometry": { "type": "MultiLineString", "coordinates": [ [ [ 17.440380179889679, 69.459011070178946 ], [ 17.441004151332294, 69.459241260788303 ], [ 17.442794806976007, 69.459152613606193 ] ] ] } },
{ "type": "Feature", "properties": { "fid": 255589, "elvelengde_m": 119.4, "elvID": "195-152-7", "elvenavn": null, "regulert": null, "fid_2": 1050, "id": 1050, "left": 16.986919847, "top": 69.946110046000001, "right": 17.486919847, "bottom": 69.446110046000001, "row_index": 9, "col_index": 26, "tile_id": 1050 }, "geometry": { "type": "MultiLineString", "coordinates": [ [ [ 17.439546030707731, 69.456842190762202 ], [ 17.440463554036686, 69.456601873010101 ], [ 17.441436855158834, 69.45602718267547 ] ] ] } },
{ "type": "Feature", "properties": { "fid": 255590, "elvelengde_m": 2.61, "elvID": "195-152-7", "elvenavn": null, "regulert": null, "fid_2": 1050, "id": 1050, "left": 16.986919847, "top": 69.946110046000001, "right": 17.486919847, "bottom": 69.446110046000001, "row_index": 9, "col_index": 26, "tile_id": 1050 }, "geometry": { "type": "MultiLineString", "coordinates": [ [ [ 17.44349020082938, 69.455778528144421 ], [ 17.443555671293623, 69.45578306094886 ] ] ] } },
{ "type": "Feature", "properties": { "fid": 255591, "elvelengde_m": 85.07, "elvID": "195-152-7", "elvenavn": null, "regulert": null, "fid_2": 1050, "id": 1050, "left": 16.986919847, "top": 69.946110046000001, "right": 17.486919847, "bottom": 69.446110046000001, "row_index": 9, "col_index": 26, "tile_id": 1050 }, "geometry": { "type": "MultiLineString", "coordinates": [ [ [ 17.441436855158834, 69.45602718267547 ], [ 17.44349020082938, 69.455778528144421 ] ] ] } },
{ "type": "Feature", "properties": { "fid": 255592, "elvelengde_m": 13.89, "elvID": "195-153-3", "elvenavn": null, "regulert": null, "fid_2": 1050, "id": 1050, "left": 16.986919847, "top": 69.946110046000001, "right": 17.486919847, "bottom": 69.446110046000001, "row_index": 9, "col_index": 26, "tile_id": 1050 }, "geometry": { "type": "MultiLineString", "coordinates": [ [ [ 17.413415715790602, 69.452145043051303 ], [ 17.413406530141653, 69.452020533656565 ] ] ] } },
{ "type": "Feature", "properties": { "fid": 255593, "elvelengde_m": 9.2, "elvID": "195-153-2", "elvenavn": null, "regulert": null, "fid_2": 1050, "id": 1050, "left": 16.986919847, "top": 69.946110046000001, "right": 17.486919847, "bottom": 69.446110046000001, "row_index": 9, "col_index": 26, "tile_id": 1050 }, "geometry": { "type": "MultiLineString", "coordinates": [ [ [ 17.41429912189453, 69.452052119435905 ], [ 17.414182806185018, 69.451980464337012 ] ] ] } },
{ "type": "Feature", "properties": { "fid": 255594, "elvelengde_m": 30.74, "elvID": "195-153-1", "elvenavn": null, "regulert": null, "fid_2": 1050, "id": 1050, "left": 16.986919847, "top": 69.946110046000001, "right": 17.486919847, "bottom": 69.446110046000001, "row_index": 9, "col_index": 26, "tile_id": 1050 }, "geometry": { "type": "MultiLineString", "coordinates": [ [ [ 17.413406530141653, 69.452020533656565 ], [ 17.414182806185018, 69.451980464337012 ] ] ] } },
{ "type": "Feature", "properties": { "fid": 255595, "elvelengde_m": 110.44, "elvID": "195-152-10", "elvenavn": null, "regulert": null, "fid_2": 1050, "id": 1050, "left": 16.986919847, "top": 69.946110046000001, "right": 17.486919847, "bottom": 69.446110046000001, "row_index": 9, "col_index": 26, "tile_id": 1050 }, "geometry": { "type": "MultiLineString", "coordinates": [ [ [ 17.455941840525306, 69.450958080862762 ], [ 17.454192730167566, 69.450181531404837 ] ] ] } },
{ "type": "Feature", "properties": { "fid": 257244, "elvelengde_m": 52.89, "elvID": "195-183-1", "elvenavn": null, "regulert": null, "fid_2": 1050, "id": 1050, "left": 16.986919847, "top": 69.946110046000001, "right": 17.486919847, "bottom": 69.446110046000001, "row_index": 9, "col_index": 26, "tile_id": 1050 }, "geometry": { "type": "MultiLineString", "coordinates": [ [ [ 17.435134334340809, 69.497025988922005 ], [ 17.435350741903637, 69.49704782548784 ], [ 17.435659368659699, 69.496920426542928 ], [ 17.436299878805109, 69.496920062398772 ] ] ] } },
{ "type": "Feature", "properties": { "fid": 257245, "elvelengde_m": 48.81, "elvID": "195-186-1", "elvenavn": null, "regulert": null, "fid_2": 1050, "id": 1050, "left": 16.986919847, "top": 69.946110046000001, "right": 17.486919847, "bottom": 69.446110046000001, "row_index": 9, "col_index": 26, "tile_id": 1050 }, "geometry": { "type": "MultiLineString", "coordinates": [ [ [ 17.47495619091168, 69.491161817133559 ], [ 17.475078938096313, 69.491327216372895 ], [ 17.475487190026044, 69.491549137025999 ] ] ] } },
{ "type": "Feature", "properties": { "fid": 257246, "elvelengde_m": 45.13, "elvID": "195-172-1", "elvenavn": null, "regulert": null, "fid_2": 1050, "id": 1050, "left": 16.986919847, "top": 69.946110046000001, "right": 17.486919847, "bottom": 69.446110046000001, "row_index": 9, "col_index": 26, "tile_id": 1050 }, "geometry": { "type": "MultiLineString", "coordinates": [ [ [ 17.362640899192254, 69.478478949811731 ], [ 17.362592382272279, 69.478624644448999 ], [ 17.36268994767137, 69.478705347619439 ], [ 17.363105658756012, 69.478750916691112 ] ] ] } },
{ "type": "Feature", "properties": { "fid": 257247, "elvelengde_m": 74.46, "elvID": "195-172-1", "elvenavn": null, "regulert": null, "fid_2": 1050, "id": 1050, "left": 16.986919847, "top": 69.946110046000001, "right": 17.486919847, "bottom": 69.446110046000001, "row_index": 9, "col_index": 26, "tile_id": 1050 }, "geometry": { "type": "MultiLineString", "coordinates": [ [ [ 17.360672460852104, 69.478487588395922 ], [ 17.360928167555912, 69.478473860561849 ], [ 17.361166264295761, 69.478141686288168 ], [ 17.361807046371993, 69.478104392131343 ] ] ] } },
{ "type": "Feature", "properties": { "fid": 257248, "elvelengde_m": 19.46, "elvID": "195-165-1", "elvenavn": null, "regulert": null, "fid_2": 1050, "id": 1050, "left": 16.986919847, "top": 69.946110046000001, "right": 17.486919847, "bottom": 69.446110046000001, "row_index": 9, "col_index": 26, "tile_id": 1050 }, "geometry": { "type": "MultiLineString", "coordinates": [ [ [ 17.252457446261765, 69.475038567653613 ], [ 17.252138642230268, 69.475168309022138 ] ] ] } },
{ "type": "Feature", "properties": { "fid": 257249, "elvelengde_m": 29.44, "elvID": "195-165-1", "elvenavn": null, "regulert": null, "fid_2": 1050, "id": 1050, "left": 16.986919847, "top": 69.946110046000001, "right": 17.486919847, "bottom": 69.446110046000001, "row_index": 9, "col_index": 26, "tile_id": 1050 }, "geometry": { "type": "MultiLineString", "coordinates": [ [ [ 17.252896533679824, 69.474593215354105 ], [ 17.252827629003988, 69.474702324833757 ], [ 17.252872745651736, 69.474853738463352 ] ] ] } },
{ "type": "Feature", "properties": { "fid": 257250, "elvelengde_m": 164.11, "elvID": "195-152-1", "elvenavn": null, "regulert": null, "fid_2": 1050, "id": 1050, "left": 16.986919847, "top": 69.946110046000001, "right": 17.486919847, "bottom": 69.446110046000001, "row_index": 9, "col_index": 26, "tile_id": 1050 }, "geometry": { "type": "MultiLineString", "coordinates": [ [ [ 17.43833581905422, 69.465566170528902 ], [ 17.439165789651991, 69.464721387464436 ], [ 17.439536043561844, 69.46416212312991 ] ] ] } },
{ "type": "Feature", "properties": { "fid": 257251, "elvelengde_m": 91.67, "elvID": "195-152-3", "elvenavn": null, "regulert": null, "fid_2": 1050, "id": 1050, "left": 16.986919847, "top": 69.946110046000001, "right": 17.486919847, "bottom": 69.446110046000001, "row_index": 9, "col_index": 26, "tile_id": 1050 }, "geometry": { "type": "MultiLineString", "coordinates": [ [ [ 17.442538180917175, 69.463602466233496 ], [ 17.441806674355256, 69.463342213425307 ], [ 17.440634663198278, 69.463167340524947 ] ] ] } },
{ "type": "Feature", "properties": { "fid": 257252, "elvelengde_m": 110.72, "elvID": "195-152-8", "elvenavn": null, "regulert": null, "fid_2": 1050, "id": 1050, "left": 16.986919847, "top": 69.946110046000001, "right": 17.486919847, "bottom": 69.446110046000001, "row_index": 9, "col_index": 26, "tile_id": 1050 }, "geometry": { "type": "MultiLineString", "coordinates": [ [ [ 17.438714562038655, 69.456270533550281 ], [ 17.441436855158834, 69.45602718267547 ] ] ] } },
{ "type": "Feature", "properties": { "fid": 257253, "elvelengde_m": 25.87, "elvID": "195-153-1", "elvenavn": null, "regulert": null, "fid_2": 1050, "id": 1050, "left": 16.986919847, "top": 69.946110046000001, "right": 17.486919847, "bottom": 69.446110046000001, "row_index": 9, "col_index": 26, "tile_id": 1050 }, "geometry": { "type": "MultiLineString", "coordinates": [ [ [ 17.41295636044666, 69.452151501353882 ], [ 17.41316592118422, 69.452023793797579 ], [ 17.413406530141653, 69.452020533656565 ] ] ] } },
{ "type": "Feature", "properties": { "fid": 257406, "elvelengde_m": 115.9, "elvID": "195-183-3", "elvenavn": null, "regulert": null, "fid_2": 1050, "id": 1050, "left": 16.986919847, "top": 69.946110046000001, "right": 17.486919847, "bottom": 69.446110046000001, "row_index": 9, "col_index": 26, "tile_id": 1050 }, "geometry": { "type": "MultiLineString", "coordinates": [ [ [ 17.426188202832609, 69.510261477235659 ], [ 17.427772218433724, 69.510075097264973 ], [ 17.428118460489497, 69.510408324167258 ], [ 17.428383404360702, 69.510419300339223 ] ] ] } },
{ "type": "Feature", "properties": { "fid": 257407, "elvelengde_m": 92.45, "elvID": "195-183-4", "elvenavn": null, "regulert": null, "fid_2": 1050, "id": 1050, "left": 16.986919847, "top": 69.946110046000001, "right": 17.486919847, "bottom": 69.446110046000001, "row_index": 9, "col_index": 26, "tile_id": 1050 }, "geometry": { "type": "MultiLineString", "coordinates": [ [ [ 17.419927614397025, 69.510168939588951 ], [ 17.421967822805726, 69.510582536078189 ] ] ] } },
{ "type": "Feature", "properties": { "fid": 257408, "elvelengde_m": 449.93, "elvID": "195-165-1", "elvenavn": null, "regulert": null, "fid_2": 1050, "id": 1050, "left": 16.986919847, "top": 69.946110046000001, "right": 17.486919847, "bottom": 69.446110046000001, "row_index": 9, "col_index": 26, "tile_id": 1050 }, "geometry": { "type": "MultiLineString", "coordinates": [ [ [ 17.251266098237352, 69.47903796245636 ], [ 17.25174381253964, 69.479265245412037 ], [ 17.252022769568658, 69.479515823932275 ], [ 17.251942776687535, 69.479778119974554 ], [ 17.252318125590222, 69.480298035373423 ], [ 17.252296878144218, 69.480566331766624 ], [ 17.251880751547287, 69.480983803035713 ], [ 17.251750570726561, 69.481428632964324 ], [ 17.25219453093916, 69.481941519556557 ], [ 17.252307772493985, 69.482207577422955 ], [ 17.252318830495096, 69.482476213633106 ], [ 17.25317113090993, 69.482808914765229 ] ] ] } },
{ "type": "Feature", "properties": { "fid": 257409, "elvelengde_m": 135.75, "elvID": "195-152-1", "elvenavn": null, "regulert": null, "fid_2": 1050, "id": 1050, "left": 16.986919847, "top": 69.946110046000001, "right": 17.486919847, "bottom": 69.446110046000001, "row_index": 9, "col_index": 26, "tile_id": 1050 }, "geometry": { "type": "MultiLineString", "coordinates": [ [ [ 17.437053137223369, 69.466622736835021 ], [ 17.437207519509865, 69.466452099333139 ], [ 17.43774325562196, 69.466278755992434 ], [ 17.43764718980114, 69.466019078921491 ], [ 17.43833581905422, 69.465566170528902 ] ] ] } },
{ "type": "Feature", "properties": { "fid": 257410, "elvelengde_m": 121.19, "elvID": "195-152-1", "elvenavn": null, "regulert": null, "fid_2": 1050, "id": 1050, "left": 16.986919847, "top": 69.946110046000001, "right": 17.486919847, "bottom": 69.446110046000001, "row_index": 9, "col_index": 26, "tile_id": 1050 }, "geometry": { "type": "MultiLineString", "coordinates": [ [ [ 17.439536043561844, 69.46416212312991 ], [ 17.43975623627254, 69.463904817281161 ], [ 17.439778518156565, 69.463725641949779 ], [ 17.440043044079037, 69.463473324162933 ], [ 17.440634663198278, 69.463167340524947 ] ] ] } },
{ "type": "Feature", "properties": { "fid": 257411, "elvelengde_m": 117.65, "elvID": "195-152-1", "elvenavn": null, "regulert": null, "fid_2": 1050, "id": 1050, "left": 16.986919847, "top": 69.946110046000001, "right": 17.486919847, "bottom": 69.446110046000001, "row_index": 9, "col_index": 26, "tile_id": 1050 }, "geometry": { "type": "MultiLineString", "coordinates": [ [ [ 17.440634663198278, 69.463167340524947 ], [ 17.441056138626053, 69.462650288102196 ], [ 17.441187032962372, 69.462294980272503 ], [ 17.441376306981631, 69.462150675724601 ] ] ] } },
{ "type": "Feature", "properties": { "fid": 257412, "elvelengde_m": 105.94, "elvID": "195-152-5", "elvenavn": null, "regulert": null, "fid_2": 1050, "id": 1050, "left": 16.986919847, "top": 69.946110046000001, "right": 17.486919847, "bottom": 69.446110046000001, "row_index": 9, "col_index": 26, "tile_id": 1050 }, "geometry": { "type": "MultiLineString", "coordinates": [ [ [ 17.443129088998077, 69.462508334541624 ], [ 17.442550104863177, 69.462033952045488 ], [ 17.441376306981631, 69.462150675724601 ] ] ] } },
{ "type": "Feature", "properties": { "fid": 257414, "elvelengde_m": 26.53, "elvID": "195-169-1", "elvenavn": null, "regulert": null, "fid_2": 1050, "id": 1050, "left": 16.986919847, "top": 69.946110046000001, "right": 17.486919847, "bottom": 69.446110046000001, "row_index": 9, "col_index": 26, "tile_id": 1050 }, "geometry": { "type": "MultiLineString", "coordinates": [ [ [ 17.356232954473999, 69.460654645768173 ], [ 17.355847245833441, 69.460632943541555 ] ] ] } },
{ "type": "Feature", "properties": { "fid": 257418, "elvelengde_m": 332.77, "elvID": "195-153-1", "elvenavn": null, "regulert": null, "fid_2": 1050, "id": 1050, "left": 16.986919847, "top": 69.946110046000001, "right": 17.486919847, "bottom": 69.446110046000001, "row_index": 9, "col_index": 26, "tile_id": 1050 }, "geometry": { "type": "MultiLineString", "coordinates": [ [ [ 17.414182806185018, 69.451980464337012 ], [ 17.415799362396747, 69.451633956411058 ], [ 17.416770498316058, 69.451526155039645 ], [ 17.416916216057601, 69.451363429300017 ], [ 17.416956498606762, 69.451184973559961 ], [ 17.416726129009529, 69.450749113973302 ], [ 17.417010337604601, 69.450406144374568 ], [ 17.41704010637519, 69.450047754753172 ], [ 17.417242677494134, 69.449606294678048 ] ] ] } },
{ "type": "Feature", "properties": { "fid": 257419, "elvelengde_m": 364.05, "elvID": "195-152-1", "elvenavn": null, "regulert": null, "fid_2": 1050, "id": 1050, "left": 16.986919847, "top": 69.946110046000001, "right": 17.486919847, "bottom": 69.446110046000001, "row_index": 9, "col_index": 26, "tile_id": 1050 }, "geometry": { "type": "MultiLineString", "coordinates": [ [ [ 17.454192730167566, 69.450181531404837 ], [ 17.454936659556619, 69.44993647008981 ], [ 17.455706857788016, 69.449473713510727 ], [ 17.456254205277759, 69.448508001713961 ], [ 17.456347662338793, 69.448063548882743 ], [ 17.456690583034206, 69.447929241181114 ], [ 17.457628469369457, 69.447861367780106 ], [ 17.457724872051774, 69.44778149031157 ], [ 17.457687240031131, 69.447460510216288 ] ] ] } },
{ "type": "Feature", "properties": { "fid": 257563, "elvelengde_m": 177.12, "elvID": "195-183-1", "elvenavn": null, "regulert": null, "fid_2": 1050, "id": 1050, "left": 16.986919847, "top": 69.946110046000001, "right": 17.486919847, "bottom": 69.446110046000001, "row_index": 9, "col_index": 26, "tile_id": 1050 }, "geometry": { "type": "MultiLineString", "coordinates": [ [ [ 17.426591043374927, 69.496409309952668 ], [ 17.427506737590136, 69.496543300385639 ], [ 17.427747078282181, 69.497056392846062 ], [ 17.429374049965684, 69.497474342717766 ] ] ] } },
{ "type": "Feature", "properties": { "fid": 257564, "elvelengde_m": 346.09, "elvID": "195-152-1", "elvenavn": null, "regulert": null, "fid_2": 1050, "id": 1050, "left": 16.986919847, "top": 69.946110046000001, "right": 17.486919847, "bottom": 69.446110046000001, "row_index": 9, "col_index": 26, "tile_id": 1050 }, "geometry": { "type": "MultiLineString", "coordinates": [ [ [ 17.441376306981631, 69.462150675724601 ], [ 17.441877697293076, 69.46164362721305 ], [ 17.442623254778191, 69.461178106241576 ], [ 17.442754808229356, 69.460374965919385 ], [ 17.442713156835953, 69.460196485617047 ], [ 17.442803297154441, 69.459929930721771 ], [ 17.442794806976007, 69.459152613606193 ] ] ] } },
{ "type": "Feature", "properties": { "fid": 257565, "elvelengde_m": 377.95, "elvID": "195-152-1", "elvenavn": null, "regulert": null, "fid_2": 1050, "id": 1050, "left": 16.986919847, "top": 69.946110046000001, "right": 17.486919847, "bottom": 69.446110046000001, "row_index": 9, "col_index": 26, "tile_id": 1050 }, "geometry": { "type": "MultiLineString", "coordinates": [ [ [ 17.442794806976007, 69.459152613606193 ], [ 17.443020509075566, 69.458712150063192 ], [ 17.443306002169606, 69.457822408768649 ], [ 17.443348988901743, 69.45719557051298 ], [ 17.443620370037415, 69.456394393303611 ], [ 17.443555671293623, 69.45578306094886 ] ] ] } },
{ "type": "Feature", "properties": { "fid": 257604, "elvelengde_m": 204.3, "elvID": "195-152-9", "elvenavn": null, "regulert": null, "fid_2": 1050, "id": 1050, "left": 16.986919847, "top": 69.946110046000001, "right": 17.486919847, "bottom": 69.446110046000001, "row_index": 9, "col_index": 26, "tile_id": 1050 }, "geometry": { "type": "MultiLineString", "coordinates": [ [ [ 17.438568012977868, 69.45587773563139 ], [ 17.439276119287911, 69.455711939765749 ], [ 17.442330407335159, 69.455595222331496 ], [ 17.44349020082938, 69.455778528144421 ] ] ] } },
{ "type": "Feature", "properties": { "fid": 257627, "elvelengde_m": 127.79, "elvID": "195-183-3", "elvenavn": null, "regulert": null, "fid_2": 1050, "id": 1050, "left": 16.986919847, "top": 69.946110046000001, "right": 17.486919847, "bottom": 69.446110046000001, "row_index": 9, "col_index": 26, "tile_id": 1050 }, "geometry": { "type": "MultiLineString", "coordinates": [ [ [ 17.421967822805726, 69.510582536078189 ], [ 17.422757440063315, 69.510780280012938 ], [ 17.42482465100321, 69.510432985611743 ] ] ] } },
{ "type": "Feature", "properties": { "fid": 257640, "elvelengde_m": 759.12, "elvID": "195-152-1", "elvenavn": null, "regulert": null, "fid_2": 1050, "id": 1050, "left": 16.986919847, "top": 69.946110046000001, "right": 17.486919847, "bottom": 69.446110046000001, "row_index": 9, "col_index": 26, "tile_id": 1050 }, "geometry": { "type": "MultiLineString", "coordinates": [ [ [ 17.443555671293623, 69.45578306094886 ], [ 17.445832461382615, 69.454707338936828 ], [ 17.446465237788104, 69.454120395653533 ], [ 17.447208209340982, 69.453876965734835 ], [ 17.447959310221371, 69.453514599501219 ], [ 17.448592891694076, 69.453125978194237 ], [ 17.449149575665608, 69.452625806772787 ], [ 17.450678810286426, 69.451804063221076 ], [ 17.452212049210889, 69.451205247888225 ], [ 17.452853612781055, 69.450719811209865 ], [ 17.454192730167566, 69.450181531404837 ] ] ] } },
{ "type": "Feature", "properties": { "fid": 257655, "elvelengde_m": 66.85, "elvID": "195-177-1", "elvenavn": null, "regulert": null, "fid_2": 1050, "id": 1050, "left": 16.986919847, "top": 69.946110046000001, "right": 17.486919847, "bottom": 69.446110046000001, "row_index": 9, "col_index": 26, "tile_id": 1050 }, "geometry": { "type": "MultiLineString", "coordinates": [ [ [ 17.383779525636136, 69.505922640827393 ], [ 17.382211623590774, 69.5061562665596 ] ] ] } },
{ "type": "Feature", "properties": { "fid": 257656, "elvelengde_m": 111.86, "elvID": "195-175-1", "elvenavn": null, "regulert": null, "fid_2": 1050, "id": 1050, "left": 16.986919847, "top": 69.946110046000001, "right": 17.486919847, "bottom": 69.446110046000001, "row_index": 9, "col_index": 26, "tile_id": 1050 }, "geometry": { "type": "MultiLineString", "coordinates": [ [ [ 17.468064038734251, 69.477380748842577 ], [ 17.467073353727109, 69.477115575073199 ], [ 17.465508345426649, 69.477107766432312 ] ] ] } },
{ "type": "Feature", "properties": { "fid": 257659, "elvelengde_m": 51.19, "elvID": "195-165-1", "elvenavn": null, "regulert": null, "fid_2": 1050, "id": 1050, "left": 16.986919847, "top": 69.946110046000001, "right": 17.486919847, "bottom": 69.446110046000001, "row_index": 9, "col_index": 26, "tile_id": 1050 }, "geometry": { "type": "MultiLineString", "coordinates": [ [ [ 17.253564290165382, 69.47407304886768 ], [ 17.252856885937099, 69.474459133225864 ] ] ] } },
{ "type": "Feature", "properties": { "fid": 257660, "elvelengde_m": 1988.21, "elvID": "195-151-7", "elvenavn": "elv fra Roaldsvatnet", "regulert": 1, "fid_2": 1050, "id": 1050, "left": 16.986919847, "top": 69.946110046000001, "right": 17.486919847, "bottom": 69.446110046000001, "row_index": 9, "col_index": 26, "tile_id": 1050 }, "geometry": { "type": "MultiLineString", "coordinates": [ [ [ 17.484393700604432, 69.463234717944189 ], [ 17.48281719954727, 69.461298315049149 ], [ 17.483935101686253, 69.457809801033662 ], [ 17.486919847, 69.455545036766949 ] ] ] } },
{ "type": "Feature", "properties": { "fid": 257662, "elvelengde_m": 154.4, "elvID": "195-156-1", "elvenavn": null, "regulert": null, "fid_2": 1050, "id": 1050, "left": 16.986919847, "top": 69.946110046000001, "right": 17.486919847, "bottom": 69.446110046000001, "row_index": 9, "col_index": 26, "tile_id": 1050 }, "geometry": { "type": "MultiLineString", "coordinates": [ [ [ 17.377017462561305, 69.449191193849586 ], [ 17.375618344472532, 69.449508399610636 ], [ 17.374388668776099, 69.449210356230651 ], [ 17.373819632972278, 69.449369245881428 ] ] ] } }
]
}
