{
"type": "FeatureCollection",
"name": "elvis_tile_id_693",
"crs": { "type": "name", "properties": { "name": "urn:ogc:def:crs:OGC:1.3:CRS84" } },
"xy_coordinate_resolution": 1e-15,
"features": [
{ "type": "Feature", "properties": { "fid": 376786, "elvelengde_m": 973.07, "elvID": "181-155-1", "elvenavn": null, "regulert": null, "fid_2": 693, "id": 693, "left": 12.486919847, "top": 68.446110046000001, "right": 12.986919847, "bottom": 67.946110046000001, "row_index": 12, "col_index": 17, "tile_id": 693 }, "geometry": { "type": "MultiLineString", "coordinates": [ [ [ 12.986919847, 68.022101447982209 ], [ 12.984818762477461, 68.023538973931807 ] ] ] } },
{ "type": "Feature", "properties": { "fid": 376800, "elvelengde_m": 217.33, "elvID": "181-154-1", "elvenavn": null, "regulert": null, "fid_2": 693, "id": 693, "left": 12.486919847, "top": 68.446110046000001, "right": 12.986919847, "bottom": 67.946110046000001, "row_index": 12, "col_index": 17, "tile_id": 693 }, "geometry": { "type": "MultiLineString", "coordinates": [ [ [ 12.963361839139059, 68.005812029562009 ], [ 12.961808384563618, 68.005783757674195 ], [ 12.961095534703912, 68.005451985304802 ], [ 12.960666704645666, 68.00542882115171 ], [ 12.959192412970735, 68.00488562241874 ] ] ] } },
{ "type": "Feature", "properties": { "fid": 376840, "elvelengde_m": 340.67, "elvID": "181-108-1", "elvenavn": null, "regulert": null, "fid_2": 693, "id": 693, "left": 12.486919847, "top": 68.446110046000001, "right": 12.986919847, "bottom": 67.946110046000001, "row_index": 12, "col_index": 17, "tile_id": 693 }, "geometry": { "type": "MultiLineString", "coordinates": [ [ [ 12.982456475392675, 67.973751899269089 ], [ 12.982631424377526, 67.973664310299313 ], [ 12.982288840502825, 67.973480643584693 ], [ 12.982166626359176, 67.973236864641819 ], [ 12.982273837120843, 67.97310357877052 ], [ 12.98363984892559, 67.972788306611662 ], [ 12.983710482888236, 67.97225077014923 ], [ 12.983883355503588, 67.971911900788356 ], [ 12.984667660828448, 67.971688290046714 ], [ 12.985273882257523, 67.97127755498515 ] ] ] } },
{ "type": "Feature", "properties": { "fid": 376849, "elvelengde_m": 374.49, "elvID": "181-109-1", "elvenavn": null, "regulert": null, "fid_2": 693, "id": 693, "left": 12.486919847, "top": 68.446110046000001, "right": 12.986919847, "bottom": 67.946110046000001, "row_index": 12, "col_index": 17, "tile_id": 693 }, "geometry": { "type": "MultiLineString", "coordinates": [ [ [ 12.976924710807182, 67.965643845526472 ], [ 12.978004782279553, 67.965863510172184 ], [ 12.981164566296048, 67.966305753739164 ], [ 12.982199974881189, 67.966534174390389 ], [ 12.98446788270212, 67.967341755375486 ] ] ] } },
{ "type": "Feature", "properties": { "fid": 376856, "elvelengde_m": 1281.64, "elvID": "181-153-2", "elvenavn": null, "regulert": null, "fid_2": 693, "id": 693, "left": 12.486919847, "top": 68.446110046000001, "right": 12.986919847, "bottom": 67.946110046000001, "row_index": 12, "col_index": 17, "tile_id": 693 }, "geometry": { "type": "MultiLineString", "coordinates": [ [ [ 12.931873943470649, 67.968664176869211 ], [ 12.931081564130915, 67.968169643365997 ], [ 12.930483952233939, 67.96763268763452 ], [ 12.930364950547691, 67.967361983795541 ], [ 12.929849508908339, 67.966978519859282 ], [ 12.928991487412606, 67.965881919693871 ], [ 12.928757191172243, 67.965026570287392 ], [ 12.927914916649994, 67.964019897939167 ], [ 12.928337867035385, 67.963567482056391 ], [ 12.92846147730487, 67.962985845598524 ], [ 12.928339882829951, 67.962742027756121 ], [ 12.928276568915175, 67.962113079731679 ], [ 12.928170843744191, 67.961959197349032 ], [ 12.928694429862205, 67.961714530404961 ], [ 12.929236401674812, 67.961263701032834 ], [ 12.929280262690119, 67.961039913681986 ], [ 12.929165068376022, 67.960724388310311 ], [ 12.928639520921918, 67.960188330168847 ], [ 12.92822757211637, 67.959985723483726 ], [ 12.927630472945726, 67.959448760463502 ], [ 12.927264823942984, 67.958995473943091 ], [ 12.92713171668173, 67.958078490418146 ], [ 12.926896457333596, 67.957770423333031 ] ] ] } },
{ "type": "Feature", "properties": { "fid": 376858, "elvelengde_m": 739.12, "elvID": "181-153-1", "elvenavn": null, "regulert": null, "fid_2": 693, "id": 693, "left": 12.486919847, "top": 68.446110046000001, "right": 12.986919847, "bottom": 67.946110046000001, "row_index": 12, "col_index": 17, "tile_id": 693 }, "geometry": { "type": "MultiLineString", "coordinates": [ [ [ 12.957212233847665, 67.955852511845237 ], [ 12.955544403459365, 67.955804868080676 ], [ 12.949818603538814, 67.955186210607167 ], [ 12.948325863514723, 67.9553201456403 ], [ 12.945268810106294, 67.955856287018506 ], [ 12.942776265902042, 67.955950758346745 ], [ 12.940198840950735, 67.955927473104467 ] ] ] } },
{ "type": "Feature", "properties": { "fid": 376864, "elvelengde_m": 365.55, "elvID": "181-153-1", "elvenavn": null, "regulert": null, "fid_2": 693, "id": 693, "left": 12.486919847, "top": 68.446110046000001, "right": 12.986919847, "bottom": 67.946110046000001, "row_index": 12, "col_index": 17, "tile_id": 693 }, "geometry": { "type": "MultiLineString", "coordinates": [ [ [ 12.965975075841275, 67.952892198205774 ], [ 12.963108033844268, 67.953448961491219 ], [ 12.962393346527989, 67.953700338336233 ], [ 12.961804471059899, 67.954150777210899 ], [ 12.961691730619146, 67.954346706238198 ], [ 12.961265429099974, 67.954574732105911 ], [ 12.960798648612338, 67.955268874842929 ] ] ] } },
{ "type": "Feature", "properties": { "fid": 376866, "elvelengde_m": 188.64, "elvID": "181-111-1", "elvenavn": null, "regulert": null, "fid_2": 693, "id": 693, "left": 12.486919847, "top": 68.446110046000001, "right": 12.986919847, "bottom": 67.946110046000001, "row_index": 12, "col_index": 17, "tile_id": 693 }, "geometry": { "type": "MultiLineString", "coordinates": [ [ [ 12.949093197557696, 67.946110046 ], [ 12.949185819562921, 67.946124050702792 ] ] ] } },
{ "type": "Feature", "properties": { "fid": 378599, "elvelengde_m": 109.79, "elvID": "181-153-1", "elvenavn": null, "regulert": null, "fid_2": 693, "id": 693, "left": 12.486919847, "top": 68.446110046000001, "right": 12.986919847, "bottom": 67.946110046000001, "row_index": 12, "col_index": 17, "tile_id": 693 }, "geometry": { "type": "MultiLineString", "coordinates": [ [ [ 12.916042133691153, 67.958934345660936 ], [ 12.915841451551209, 67.959085090666562 ], [ 12.914789990430345, 67.959339256378556 ], [ 12.913881103420593, 67.959391080620037 ] ] ] } },
{ "type": "Feature", "properties": { "fid": 378788, "elvelengde_m": 223.57, "elvID": "181-153-1", "elvenavn": null, "regulert": null, "fid_2": 693, "id": 693, "left": 12.486919847, "top": 68.446110046000001, "right": 12.986919847, "bottom": 67.946110046000001, "row_index": 12, "col_index": 17, "tile_id": 693 }, "geometry": { "type": "MultiLineString", "coordinates": [ [ [ 12.960798648612338, 67.955268874842929 ], [ 12.960161934659039, 67.955992783647901 ], [ 12.959831244147333, 67.956101409314329 ], [ 12.959138624729515, 67.956167141865876 ], [ 12.958442544614293, 67.956109196661217 ], [ 12.957212233847665, 67.955852511845237 ] ] ] } },
{ "type": "Feature", "properties": { "fid": 378804, "elvelengde_m": 514.6, "elvID": "181-111-1", "elvenavn": null, "regulert": null, "fid_2": 693, "id": 693, "left": 12.486919847, "top": 68.446110046000001, "right": 12.986919847, "bottom": 67.946110046000001, "row_index": 12, "col_index": 17, "tile_id": 693 }, "geometry": { "type": "MultiLineString", "coordinates": [ [ [ 12.949185819562921, 67.946124050702792 ], [ 12.951468391512725, 67.946590417856413 ], [ 12.952180896105146, 67.946560697741589 ], [ 12.952774904790848, 67.946413797568184 ], [ 12.953508402188717, 67.946110046 ] ] ] } },
{ "type": "Feature", "properties": { "fid": 378913, "elvelengde_m": 505.39, "elvID": "181-153-1", "elvenavn": null, "regulert": null, "fid_2": 693, "id": 693, "left": 12.486919847, "top": 68.446110046000001, "right": 12.986919847, "bottom": 67.946110046000001, "row_index": 12, "col_index": 17, "tile_id": 693 }, "geometry": { "type": "MultiLineString", "coordinates": [ [ [ 12.926357423834929, 67.957023183189136 ], [ 12.924334287817462, 67.957145963647108 ], [ 12.919427207508123, 67.957669897878844 ], [ 12.916552281376013, 67.958469949029023 ], [ 12.916042133691153, 67.958934345660936 ] ] ] } },
{ "type": "Feature", "properties": { "fid": 378920, "elvelengde_m": 607.49, "elvID": "181-153-1", "elvenavn": null, "regulert": null, "fid_2": 693, "id": 693, "left": 12.486919847, "top": 68.446110046000001, "right": 12.986919847, "bottom": 67.946110046000001, "row_index": 12, "col_index": 17, "tile_id": 693 }, "geometry": { "type": "MultiLineString", "coordinates": [ [ [ 12.940198840950735, 67.955927473104467 ], [ 12.939279995505272, 67.955935122562764 ], [ 12.938176415239758, 67.956063070195526 ], [ 12.935327224194381, 67.955984872348282 ], [ 12.933105235412784, 67.956275413380681 ], [ 12.931234645430369, 67.956414039021226 ], [ 12.929416072314586, 67.956836585498479 ], [ 12.926357423834929, 67.957023183189136 ] ] ] } },
{ "type": "Feature", "properties": { "fid": 378924, "elvelengde_m": 88.89, "elvID": "181-153-2", "elvenavn": null, "regulert": null, "fid_2": 693, "id": 693, "left": 12.486919847, "top": 68.446110046000001, "right": 12.986919847, "bottom": 67.946110046000001, "row_index": 12, "col_index": 17, "tile_id": 693 }, "geometry": { "type": "MultiLineString", "coordinates": [ [ [ 12.926896457333596, 67.957770423333031 ], [ 12.926264135391861, 67.95708887556863 ], [ 12.926357423834929, 67.957023183189136 ] ] ] } }
]
}
