{
"type": "FeatureCollection",
"name": "elvis_tile_id_579",
"crs": { "type": "name", "properties": { "name": "urn:ogc:def:crs:OGC:1.3:CRS84" } },
"xy_coordinate_resolution": 1e-15,
"features": [
{ "type": "Feature", "properties": { "fid": 373638, "elvelengde_m": 63.87, "elvID": "143-221-1", "elvenavn": null, "regulert": null, "fid_2": 579, "id": 579, "left": 10.986919847, "top": 65.446110046000001, "right": 11.486919847, "bottom": 64.946110046000001, "row_index": 18, "col_index": 14, "tile_id": 579 }, "geometry": { "type": "MultiLineString", "coordinates": [ [ [ 11.026417890570141, 65.005402679964206 ], [ 11.025992922684143, 65.0051122349347 ], [ 11.025468017172264, 65.005126470349168 ] ] ] } },
{ "type": "Feature", "properties": { "fid": 373667, "elvelengde_m": 22.18, "elvID": "143-222-1", "elvenavn": null, "regulert": null, "fid_2": 579, "id": 579, "left": 10.986919847, "top": 65.446110046000001, "right": 11.486919847, "bottom": 64.946110046000001, "row_index": 18, "col_index": 14, "tile_id": 579 }, "geometry": { "type": "MultiLineString", "coordinates": [ [ [ 11.019492803492774, 64.994188285520636 ], [ 11.019447370604684, 64.99438630916417 ] ] ] } },
{ "type": "Feature", "properties": { "fid": 373789, "elvelengde_m": 158.59, "elvID": "143-220-1", "elvenavn": null, "regulert": null, "fid_2": 579, "id": 579, "left": 10.986919847, "top": 65.446110046000001, "right": 11.486919847, "bottom": 64.946110046000001, "row_index": 18, "col_index": 14, "tile_id": 579 }, "geometry": { "type": "MultiLineString", "coordinates": [ [ [ 11.080666611796566, 64.975385027552846 ], [ 11.079410778356694, 64.976701302818441 ] ] ] } },
{ "type": "Feature", "properties": { "fid": 373792, "elvelengde_m": 168.26, "elvID": "143-171-1", "elvenavn": null, "regulert": null, "fid_2": 579, "id": 579, "left": 10.986919847, "top": 65.446110046000001, "right": 11.486919847, "bottom": 64.946110046000001, "row_index": 18, "col_index": 14, "tile_id": 579 }, "geometry": { "type": "MultiLineString", "coordinates": [ [ [ 11.120982519448544, 64.975914305024688 ], [ 11.120522649588521, 64.976214603796208 ], [ 11.120413268160469, 64.97644054236612 ], [ 11.120574312434099, 64.976869055001174 ], [ 11.120528696944438, 64.977094226786505 ], [ 11.120299643957003, 64.977336191428108 ] ] ] } },
{ "type": "Feature", "properties": { "fid": 373810, "elvelengde_m": 170.07, "elvID": "143-438-1", "elvenavn": null, "regulert": null, "fid_2": 579, "id": 579, "left": 10.986919847, "top": 65.446110046000001, "right": 11.486919847, "bottom": 64.946110046000001, "row_index": 18, "col_index": 14, "tile_id": 579 }, "geometry": { "type": "MultiLineString", "coordinates": [ [ [ 11.482609438155427, 64.983782530254118 ], [ 11.482560433835458, 64.983711482343779 ], [ 11.482653460482775, 64.98357532731751 ], [ 11.483339517525479, 64.983195773358219 ], [ 11.483772661620957, 64.983062875454308 ], [ 11.485049264753268, 64.983250809881596 ] ] ] } },
{ "type": "Feature", "properties": { "fid": 373813, "elvelengde_m": 319.21, "elvID": "143-219-1", "elvenavn": null, "regulert": null, "fid_2": 579, "id": 579, "left": 10.986919847, "top": 65.446110046000001, "right": 11.486919847, "bottom": 64.946110046000001, "row_index": 18, "col_index": 14, "tile_id": 579 }, "geometry": { "type": "MultiLineString", "coordinates": [ [ [ 11.076283383491262, 64.972904865702887 ], [ 11.075673394624701, 64.972839921428999 ], [ 11.074279343810188, 64.973093742168061 ], [ 11.073703795987955, 64.973252289623346 ], [ 11.0724919099223, 64.973848781019882 ], [ 11.070741396999805, 64.974273894326814 ] ] ] } },
{ "type": "Feature", "properties": { "fid": 373820, "elvelengde_m": 295.32, "elvID": "143-218-1", "elvenavn": null, "regulert": null, "fid_2": 579, "id": 579, "left": 10.986919847, "top": 65.446110046000001, "right": 11.486919847, "bottom": 64.946110046000001, "row_index": 18, "col_index": 14, "tile_id": 579 }, "geometry": { "type": "MultiLineString", "coordinates": [ [ [ 11.061179828292191, 64.971001549028728 ], [ 11.060786787708681, 64.971117692157634 ], [ 11.060081126228447, 64.971135255796895 ], [ 11.05961827703433, 64.971329169981317 ], [ 11.057735734775804, 64.971519777865382 ], [ 11.056595317773485, 64.97188717281702 ], [ 11.05632985892318, 64.972094657214967 ], [ 11.056021895760379, 64.972184641274424 ] ] ] } },
{ "type": "Feature", "properties": { "fid": 373821, "elvelengde_m": 51.77, "elvID": "143-218-1", "elvenavn": null, "regulert": null, "fid_2": 579, "id": 579, "left": 10.986919847, "top": 65.446110046000001, "right": 11.486919847, "bottom": 64.946110046000001, "row_index": 18, "col_index": 14, "tile_id": 579 }, "geometry": { "type": "MultiLineString", "coordinates": [ [ [ 11.062976342270298, 64.971335772209684 ], [ 11.063019228718902, 64.971175598983365 ], [ 11.062477457825658, 64.970997913592797 ] ] ] } },
{ "type": "Feature", "properties": { "fid": 373835, "elvelengde_m": 281.18, "elvID": "143-172-1", "elvenavn": null, "regulert": null, "fid_2": 579, "id": 579, "left": 10.986919847, "top": 65.446110046000001, "right": 11.486919847, "bottom": 64.946110046000001, "row_index": 18, "col_index": 14, "tile_id": 579 }, "geometry": { "type": "MultiLineString", "coordinates": [ [ [ 11.102520386437648, 64.970194532045383 ], [ 11.10104077582297, 64.969972964894339 ], [ 11.098331900238502, 64.970020156614339 ], [ 11.097496585926876, 64.969906179019617 ], [ 11.09693152539084, 64.969681824042439 ] ] ] } },
{ "type": "Feature", "properties": { "fid": 373849, "elvelengde_m": 147.0, "elvID": "143-217-1", "elvenavn": null, "regulert": null, "fid_2": 579, "id": 579, "left": 10.986919847, "top": 65.446110046000001, "right": 11.486919847, "bottom": 64.946110046000001, "row_index": 18, "col_index": 14, "tile_id": 579 }, "geometry": { "type": "MultiLineString", "coordinates": [ [ [ 11.041528510177235, 64.966535353143158 ], [ 11.041106089921128, 64.966828328880609 ], [ 11.040188268817085, 64.967213554130538 ], [ 11.039722478760844, 64.96733651541912 ], [ 11.039315060845309, 64.967305917515901 ] ] ] } },
{ "type": "Feature", "properties": { "fid": 373861, "elvelengde_m": 481.13, "elvID": "143-216-1", "elvenavn": null, "regulert": null, "fid_2": 579, "id": 579, "left": 10.986919847, "top": 65.446110046000001, "right": 11.486919847, "bottom": 64.946110046000001, "row_index": 18, "col_index": 14, "tile_id": 579 }, "geometry": { "type": "MultiLineString", "coordinates": [ [ [ 11.030380933213682, 64.963985592404129 ], [ 11.030333241287703, 64.964192633413731 ], [ 11.029389461116025, 64.964322149404182 ], [ 11.026107279037946, 64.965183653682672 ], [ 11.023675977467752, 64.96553092892502 ], [ 11.021946924160392, 64.966144948181736 ] ] ] } },
{ "type": "Feature", "properties": { "fid": 373866, "elvelengde_m": 350.71, "elvID": "143-172-1", "elvenavn": null, "regulert": null, "fid_2": 579, "id": 579, "left": 10.986919847, "top": 65.446110046000001, "right": 11.486919847, "bottom": 64.946110046000001, "row_index": 18, "col_index": 14, "tile_id": 579 }, "geometry": { "type": "MultiLineString", "coordinates": [ [ [ 11.079457954998457, 64.965780808205167 ], [ 11.076818652055556, 64.965321253058079 ], [ 11.075426062403679, 64.965394398794231 ], [ 11.075162897824015, 64.96528124905366 ], [ 11.075174026410162, 64.964877244961571 ], [ 11.075051017956316, 64.96465455779385 ], [ 11.07437795665628, 64.964193979887511 ] ] ] } },
{ "type": "Feature", "properties": { "fid": 373878, "elvelengde_m": 219.65, "elvID": "143-172-1", "elvenavn": null, "regulert": null, "fid_2": 579, "id": 579, "left": 10.986919847, "top": 65.446110046000001, "right": 11.486919847, "bottom": 64.946110046000001, "row_index": 18, "col_index": 14, "tile_id": 579 }, "geometry": { "type": "MultiLineString", "coordinates": [ [ [ 11.070914252394145, 64.963373536915839 ], [ 11.069820804978502, 64.962500967007671 ], [ 11.069619096621954, 64.962130079233944 ], [ 11.069328427674643, 64.962008194594006 ], [ 11.06956148423391, 64.961874064180265 ], [ 11.068995499646078, 64.961891035664706 ] ] ] } },
{ "type": "Feature", "properties": { "fid": 373908, "elvelengde_m": 190.79, "elvID": "143-173-1", "elvenavn": "Hasfjordvassdraget", "regulert": null, "fid_2": 579, "id": 579, "left": 10.986919847, "top": 65.446110046000001, "right": 11.486919847, "bottom": 64.946110046000001, "row_index": 18, "col_index": 14, "tile_id": 579 }, "geometry": { "type": "MultiLineString", "coordinates": [ [ [ 11.038315080059119, 64.952432332606946 ], [ 11.038780476538752, 64.95270424334015 ], [ 11.041044235529416, 64.953034471589973 ], [ 11.041234873558011, 64.953369616566732 ] ] ] } },
{ "type": "Feature", "properties": { "fid": 373913, "elvelengde_m": 444.75, "elvID": "143-174-1", "elvenavn": null, "regulert": null, "fid_2": 579, "id": 579, "left": 10.986919847, "top": 65.446110046000001, "right": 11.486919847, "bottom": 64.946110046000001, "row_index": 18, "col_index": 14, "tile_id": 579 }, "geometry": { "type": "MultiLineString", "coordinates": [ [ [ 11.059335594244809, 64.952444763746271 ], [ 11.061387415586537, 64.95298187131732 ], [ 11.062059040646224, 64.953865294504737 ], [ 11.062599558339246, 64.954406548439962 ], [ 11.06280832852601, 64.954797585734411 ], [ 11.06397933175497, 64.955427566469965 ], [ 11.06407390061845, 64.955669733893245 ] ] ] } },
{ "type": "Feature", "properties": { "fid": 373914, "elvelengde_m": 50.37, "elvID": "143-173-1", "elvenavn": "Hasfjordvassdraget", "regulert": null, "fid_2": 579, "id": 579, "left": 10.986919847, "top": 65.446110046000001, "right": 11.486919847, "bottom": 64.946110046000001, "row_index": 18, "col_index": 14, "tile_id": 579 }, "geometry": { "type": "MultiLineString", "coordinates": [ [ [ 11.03687609726232, 64.951608172748209 ], [ 11.037399278383148, 64.951807485918735 ], [ 11.037453327387155, 64.951959359327347 ] ] ] } },
{ "type": "Feature", "properties": { "fid": 373916, "elvelengde_m": 616.59, "elvID": "143-168-1", "elvenavn": null, "regulert": null, "fid_2": 579, "id": 579, "left": 10.986919847, "top": 65.446110046000001, "right": 11.486919847, "bottom": 64.946110046000001, "row_index": 18, "col_index": 14, "tile_id": 579 }, "geometry": { "type": "MultiLineString", "coordinates": [ [ [ 11.120151727674383, 64.95443997097874 ], [ 11.117711084303423, 64.954072930759807 ], [ 11.116388778711, 64.953418425428282 ], [ 11.114867612061271, 64.95346691656836 ], [ 11.114435486937836, 64.953356350007539 ], [ 11.113950081389177, 64.953111936890494 ], [ 11.113907898169737, 64.952843229860648 ], [ 11.113572833151455, 64.952623494871489 ], [ 11.112566535906174, 64.952215867564732 ], [ 11.11034329991131, 64.952249763034416 ], [ 11.109654594627209, 64.952173459027719 ] ] ] } },
{ "type": "Feature", "properties": { "fid": 375471, "elvelengde_m": 212.96, "elvID": "143-125-1", "elvenavn": null, "regulert": null, "fid_2": 579, "id": 579, "left": 10.986919847, "top": 65.446110046000001, "right": 11.486919847, "bottom": 64.946110046000001, "row_index": 18, "col_index": 14, "tile_id": 579 }, "geometry": { "type": "MultiLineString", "coordinates": [ [ [ 11.158161683351604, 64.951688667830155 ], [ 11.159117707152156, 64.951728685140964 ], [ 11.161012929766597, 64.951593506979322 ], [ 11.161755303334056, 64.951609670492232 ], [ 11.162553495156445, 64.951755495357702 ] ] ] } },
{ "type": "Feature", "properties": { "fid": 375473, "elvelengde_m": 75.3, "elvID": "143-453-1", "elvenavn": null, "regulert": null, "fid_2": 579, "id": 579, "left": 10.986919847, "top": 65.446110046000001, "right": 11.486919847, "bottom": 64.946110046000001, "row_index": 18, "col_index": 14, "tile_id": 579 }, "geometry": { "type": "MultiLineString", "coordinates": [ [ [ 11.440498135403837, 64.958132524773546 ], [ 11.440374463863083, 64.958230371166351 ], [ 11.439744227991486, 64.958250983227558 ], [ 11.43973335293925, 64.958363023180283 ], [ 11.439913911981099, 64.958516470474933 ] ] ] } },
{ "type": "Feature", "properties": { "fid": 375474, "elvelengde_m": 12.69, "elvID": "143-452-1", "elvenavn": null, "regulert": null, "fid_2": 579, "id": 579, "left": 10.986919847, "top": 65.446110046000001, "right": 11.486919847, "bottom": 64.946110046000001, "row_index": 18, "col_index": 14, "tile_id": 579 }, "geometry": { "type": "MultiLineString", "coordinates": [ [ [ 11.438076798449028, 64.957938027436853 ], [ 11.438128404812499, 64.958047248399012 ] ] ] } },
{ "type": "Feature", "properties": { "fid": 375476, "elvelengde_m": 45.76, "elvID": "143-452-2", "elvenavn": null, "regulert": null, "fid_2": 579, "id": 579, "left": 10.986919847, "top": 65.446110046000001, "right": 11.486919847, "bottom": 64.946110046000001, "row_index": 18, "col_index": 14, "tile_id": 579 }, "geometry": { "type": "MultiLineString", "coordinates": [ [ [ 11.43790864094149, 64.957535388608207 ], [ 11.438076798449028, 64.957938027436853 ] ] ] } },
{ "type": "Feature", "properties": { "fid": 375477, "elvelengde_m": 381.18, "elvID": "143-173-3", "elvenavn": null, "regulert": null, "fid_2": 579, "id": 579, "left": 10.986919847, "top": 65.446110046000001, "right": 11.486919847, "bottom": 64.946110046000001, "row_index": 18, "col_index": 14, "tile_id": 579 }, "geometry": { "type": "MultiLineString", "coordinates": [ [ [ 11.034738771578782, 64.947167055753823 ], [ 11.034357954087193, 64.947728828555256 ], [ 11.033887801995785, 64.947950592446304 ], [ 11.03378819458648, 64.948311001792675 ], [ 11.033841894352557, 64.948741186106034 ], [ 11.034584215636427, 64.949592847082485 ], [ 11.03458266154175, 64.950131376898213 ], [ 11.034435289519177, 64.95042068766945 ] ] ] } },
{ "type": "Feature", "properties": { "fid": 375483, "elvelengde_m": 248.59, "elvID": "143-441-1", "elvenavn": null, "regulert": null, "fid_2": 579, "id": 579, "left": 10.986919847, "top": 65.446110046000001, "right": 11.486919847, "bottom": 64.946110046000001, "row_index": 18, "col_index": 14, "tile_id": 579 }, "geometry": { "type": "MultiLineString", "coordinates": [ [ [ 11.451660589659273, 64.956759414796394 ], [ 11.452404332183999, 64.956811260124894 ], [ 11.453012494197871, 64.95754076443464 ], [ 11.453799907582523, 64.95805999554463 ], [ 11.454946960027772, 64.958159335415573 ] ] ] } },
{ "type": "Feature", "properties": { "fid": 375486, "elvelengde_m": 402.21, "elvID": "143-173-2", "elvenavn": null, "regulert": null, "fid_2": 579, "id": 579, "left": 10.986919847, "top": 65.446110046000001, "right": 11.486919847, "bottom": 64.946110046000001, "row_index": 18, "col_index": 14, "tile_id": 579 }, "geometry": { "type": "MultiLineString", "coordinates": [ [ [ 11.027450671566298, 64.946110046 ], [ 11.027422089638446, 64.946162735875561 ], [ 11.026787136187709, 64.94672777860373 ], [ 11.026575777524473, 64.947017893226132 ], [ 11.026003520810681, 64.947285976866539 ], [ 11.025893470431436, 64.947511842678125 ], [ 11.026324565485766, 64.947892070357625 ], [ 11.026531099541584, 64.948382863766199 ], [ 11.026656952268715, 64.948928839759844 ], [ 11.026488280791369, 64.949218295086652 ] ] ] } },
{ "type": "Feature", "properties": { "fid": 375494, "elvelengde_m": 1316.59, "elvID": "143-167-1", "elvenavn": null, "regulert": null, "fid_2": 579, "id": 579, "left": 10.986919847, "top": 65.446110046000001, "right": 11.486919847, "bottom": 64.946110046000001, "row_index": 18, "col_index": 14, "tile_id": 579 }, "geometry": { "type": "MultiLineString", "coordinates": [ [ [ 11.139146746197952, 64.948077063923932 ], [ 11.13654325441107, 64.948083065021478 ], [ 11.134377636320444, 64.948255123445847 ], [ 11.130328092111755, 64.948309747632635 ], [ 11.127922339745423, 64.948245252795061 ], [ 11.126958502161667, 64.948106431536374 ], [ 11.124598204391493, 64.947978454652969 ], [ 11.123223973873252, 64.94773763226712 ], [ 11.1219922773834, 64.947692360265265 ], [ 11.116173793371448, 64.947748159200273 ], [ 11.113329826550681, 64.947662834177422 ], [ 11.112080837773894, 64.947713359954619 ], [ 11.111607549864654, 64.947638821326592 ] ] ] } },
{ "type": "Feature", "properties": { "fid": 375495, "elvelengde_m": 237.96, "elvID": "143-451-1", "elvenavn": null, "regulert": null, "fid_2": 579, "id": 579, "left": 10.986919847, "top": 65.446110046000001, "right": 11.486919847, "bottom": 64.946110046000001, "row_index": 18, "col_index": 14, "tile_id": 579 }, "geometry": { "type": "MultiLineString", "coordinates": [ [ [ 11.438150582367564, 64.955459130429432 ], [ 11.436790731102894, 64.955774932148842 ], [ 11.433465952771705, 64.956137591148519 ] ] ] } },
{ "type": "Feature", "properties": { "fid": 375496, "elvelengde_m": 470.23, "elvID": "143-452-1", "elvenavn": null, "regulert": null, "fid_2": 579, "id": 579, "left": 10.986919847, "top": 65.446110046000001, "right": 11.486919847, "bottom": 64.946110046000001, "row_index": 18, "col_index": 14, "tile_id": 579 }, "geometry": { "type": "MultiLineString", "coordinates": [ [ [ 11.443849684142004, 64.955456796728882 ], [ 11.442886657424641, 64.955726779638965 ], [ 11.441374959160413, 64.955764446769678 ], [ 11.44058923721526, 64.955870828671678 ], [ 11.44055424724219, 64.956017599666495 ], [ 11.440342615502152, 64.956168057333372 ], [ 11.439202154187184, 64.956491815749558 ], [ 11.438934057557633, 64.956773436248113 ], [ 11.438913020975292, 64.956953871045684 ], [ 11.439051761585047, 64.957112429507433 ], [ 11.438886908137135, 64.957317457854472 ], [ 11.438881565708868, 64.957486678326376 ], [ 11.439046180719462, 64.957683408064028 ], [ 11.438887822054991, 64.957849151958555 ], [ 11.438076798449028, 64.957938027436853 ] ] ] } },
{ "type": "Feature", "properties": { "fid": 375502, "elvelengde_m": 12.48, "elvID": "143-449-1", "elvenavn": null, "regulert": null, "fid_2": 579, "id": 579, "left": 10.986919847, "top": 65.446110046000001, "right": 11.486919847, "bottom": 64.946110046000001, "row_index": 18, "col_index": 14, "tile_id": 579 }, "geometry": { "type": "MultiLineString", "coordinates": [ [ [ 11.406359362396744, 64.952570200585441 ], [ 11.406604523785813, 64.952535954629482 ] ] ] } },
{ "type": "Feature", "properties": { "fid": 375505, "elvelengde_m": 36.71, "elvID": "143-45-3", "elvenavn": null, "regulert": null, "fid_2": 579, "id": 579, "left": 10.986919847, "top": 65.446110046000001, "right": 11.486919847, "bottom": 64.946110046000001, "row_index": 18, "col_index": 14, "tile_id": 579 }, "geometry": { "type": "MultiLineString", "coordinates": [ [ [ 11.432117230254232, 64.953131143288516 ], [ 11.43171678575761, 64.952867665771365 ] ] ] } },
{ "type": "Feature", "properties": { "fid": 375506, "elvelengde_m": 144.3, "elvID": "143-45-1", "elvenavn": null, "regulert": null, "fid_2": 579, "id": 579, "left": 10.986919847, "top": 65.446110046000001, "right": 11.486919847, "bottom": 64.946110046000001, "row_index": 18, "col_index": 14, "tile_id": 579 }, "geometry": { "type": "MultiLineString", "coordinates": [ [ [ 11.43171678575761, 64.952867665771365 ], [ 11.428824123267429, 64.953234453693526 ] ] ] } },
{ "type": "Feature", "properties": { "fid": 375507, "elvelengde_m": 241.88, "elvID": "143-45-3", "elvenavn": null, "regulert": null, "fid_2": 579, "id": 579, "left": 10.986919847, "top": 65.446110046000001, "right": 11.486919847, "bottom": 64.946110046000001, "row_index": 18, "col_index": 14, "tile_id": 579 }, "geometry": { "type": "MultiLineString", "coordinates": [ [ [ 11.43677067409234, 64.952962010981778 ], [ 11.435902136865318, 64.952826423800104 ], [ 11.434461743762323, 64.952990241899414 ], [ 11.433490123912843, 64.95322599902228 ], [ 11.433192784397779, 64.953224182617873 ], [ 11.432906288275916, 64.953104395406328 ], [ 11.432117230254232, 64.953131143288516 ] ] ] } },
{ "type": "Feature", "properties": { "fid": 375513, "elvelengde_m": 75.82, "elvID": "143-450-1", "elvenavn": null, "regulert": null, "fid_2": 579, "id": 579, "left": 10.986919847, "top": 65.446110046000001, "right": 11.486919847, "bottom": 64.946110046000001, "row_index": 18, "col_index": 14, "tile_id": 579 }, "geometry": { "type": "MultiLineString", "coordinates": [ [ [ 11.4285062652866, 64.951624439615244 ], [ 11.428368357741817, 64.951987773342637 ], [ 11.427653276862054, 64.951979704233963 ] ] ] } },
{ "type": "Feature", "properties": { "fid": 375515, "elvelengde_m": 304.09, "elvID": "143-449-1", "elvenavn": null, "regulert": null, "fid_2": 579, "id": 579, "left": 10.986919847, "top": 65.446110046000001, "right": 11.486919847, "bottom": 64.946110046000001, "row_index": 18, "col_index": 14, "tile_id": 579 }, "geometry": { "type": "MultiLineString", "coordinates": [ [ [ 11.408032941554593, 64.951009302606153 ], [ 11.407456920921119, 64.950986970900047 ], [ 11.406130390298147, 64.951155957105556 ], [ 11.405901938286352, 64.951269487273663 ], [ 11.405828632183441, 64.951408231863596 ], [ 11.405245751357477, 64.951481137582448 ], [ 11.405241946220974, 64.951566305857682 ], [ 11.40577917580317, 64.951595078149637 ], [ 11.406221220295734, 64.95209771509677 ], [ 11.406267808434906, 64.95240591852469 ], [ 11.406118083831149, 64.952534464870425 ] ] ] } },
{ "type": "Feature", "properties": { "fid": 375516, "elvelengde_m": 46.38, "elvID": "143-450-3", "elvenavn": null, "regulert": null, "fid_2": 579, "id": 579, "left": 10.986919847, "top": 65.446110046000001, "right": 11.486919847, "bottom": 64.946110046000001, "row_index": 18, "col_index": 14, "tile_id": 579 }, "geometry": { "type": "MultiLineString", "coordinates": [ [ [ 11.427720080476249, 64.951459961705865 ], [ 11.427995634060226, 64.951448599616796 ], [ 11.4285062652866, 64.951624439615244 ] ] ] } },
{ "type": "Feature", "properties": { "fid": 375519, "elvelengde_m": 32.58, "elvID": "143-449-1", "elvenavn": null, "regulert": null, "fid_2": 579, "id": 579, "left": 10.986919847, "top": 65.446110046000001, "right": 11.486919847, "bottom": 64.946110046000001, "row_index": 18, "col_index": 14, "tile_id": 579 }, "geometry": { "type": "MultiLineString", "coordinates": [ [ [ 11.409645675003308, 64.950841087386408 ], [ 11.409016921304442, 64.950941741259911 ] ] ] } },
{ "type": "Feature", "properties": { "fid": 375521, "elvelengde_m": 65.17, "elvID": "143-450-3", "elvenavn": null, "regulert": null, "fid_2": 579, "id": 579, "left": 10.986919847, "top": 65.446110046000001, "right": 11.486919847, "bottom": 64.946110046000001, "row_index": 18, "col_index": 14, "tile_id": 579 }, "geometry": { "type": "MultiLineString", "coordinates": [ [ [ 11.427355919702498, 64.95088694167022 ], [ 11.427299222803866, 64.950973536192606 ], [ 11.427395420919822, 64.951459723484618 ] ] ] } },
{ "type": "Feature", "properties": { "fid": 375527, "elvelengde_m": 247.56, "elvID": "143-450-1", "elvenavn": null, "regulert": null, "fid_2": 579, "id": 579, "left": 10.986919847, "top": 65.446110046000001, "right": 11.486919847, "bottom": 64.946110046000001, "row_index": 18, "col_index": 14, "tile_id": 579 }, "geometry": { "type": "MultiLineString", "coordinates": [ [ [ 11.432282368271872, 64.950283925023641 ], [ 11.431193492660848, 64.950814858633521 ], [ 11.430959244940386, 64.951064933611249 ], [ 11.42971273268031, 64.951251765810795 ], [ 11.429389329869943, 64.951431243896565 ], [ 11.428920892265918, 64.951458649235889 ], [ 11.4285062652866, 64.951624439615244 ] ] ] } },
{ "type": "Feature", "properties": { "fid": 375529, "elvelengde_m": 87.47, "elvID": "143-448-1", "elvenavn": null, "regulert": null, "fid_2": 579, "id": 579, "left": 10.986919847, "top": 65.446110046000001, "right": 11.486919847, "bottom": 64.946110046000001, "row_index": 18, "col_index": 14, "tile_id": 579 }, "geometry": { "type": "MultiLineString", "coordinates": [ [ [ 11.400024042718853, 64.949352032299629 ], [ 11.398317596889987, 64.949103164610293 ] ] ] } },
{ "type": "Feature", "properties": { "fid": 375532, "elvelengde_m": 59.7, "elvID": "143-450-1", "elvenavn": null, "regulert": null, "fid_2": 579, "id": 579, "left": 10.986919847, "top": 65.446110046000001, "right": 11.486919847, "bottom": 64.946110046000001, "row_index": 18, "col_index": 14, "tile_id": 579 }, "geometry": { "type": "MultiLineString", "coordinates": [ [ [ 11.432984673441297, 64.949845069946122 ], [ 11.432282368271872, 64.950283925023641 ] ] ] } },
{ "type": "Feature", "properties": { "fid": 375533, "elvelengde_m": 267.91, "elvID": "143-45-1", "elvenavn": null, "regulert": null, "fid_2": 579, "id": 579, "left": 10.986919847, "top": 65.446110046000001, "right": 11.486919847, "bottom": 64.946110046000001, "row_index": 18, "col_index": 14, "tile_id": 579 }, "geometry": { "type": "MultiLineString", "coordinates": [ [ [ 11.444751795423684, 64.951830747046145 ], [ 11.444323251783104, 64.951553069122511 ], [ 11.443687046649593, 64.951321462517015 ], [ 11.442731861205871, 64.950680115700848 ], [ 11.442459057775919, 64.950586368173106 ], [ 11.442397058755411, 64.950445276993491 ], [ 11.442015758141666, 64.950333934768437 ], [ 11.441954851447973, 64.950039513030219 ], [ 11.44179055564047, 64.949912329477044 ] ] ] } },
{ "type": "Feature", "properties": { "fid": 375536, "elvelengde_m": 155.45, "elvID": "143-450-1", "elvenavn": null, "regulert": null, "fid_2": 579, "id": 579, "left": 10.986919847, "top": 65.446110046000001, "right": 11.486919847, "bottom": 64.946110046000001, "row_index": 18, "col_index": 14, "tile_id": 579 }, "geometry": { "type": "MultiLineString", "coordinates": [ [ [ 11.435732805106307, 64.949658115329143 ], [ 11.435604477006143, 64.949805437778494 ], [ 11.434994970615826, 64.950042677449517 ], [ 11.433458962742698, 64.949991453715697 ], [ 11.433129542759975, 64.949855276110583 ] ] ] } },
{ "type": "Feature", "properties": { "fid": 375539, "elvelengde_m": 180.54, "elvID": "143-450-3", "elvenavn": null, "regulert": null, "fid_2": 579, "id": 579, "left": 10.986919847, "top": 65.446110046000001, "right": 11.486919847, "bottom": 64.946110046000001, "row_index": 18, "col_index": 14, "tile_id": 579 }, "geometry": { "type": "MultiLineString", "coordinates": [ [ [ 11.42548476887737, 64.949334176343626 ], [ 11.425892125243683, 64.949657763297338 ], [ 11.426706634884463, 64.950009710153921 ], [ 11.427435344846506, 64.950684009434212 ] ] ] } },
{ "type": "Feature", "properties": { "fid": 375540, "elvelengde_m": 98.91, "elvID": "143-448-1", "elvenavn": null, "regulert": null, "fid_2": 579, "id": 579, "left": 10.986919847, "top": 65.446110046000001, "right": 11.486919847, "bottom": 64.946110046000001, "row_index": 18, "col_index": 14, "tile_id": 579 }, "geometry": { "type": "MultiLineString", "coordinates": [ [ [ 11.400961842828211, 64.948658106613152 ], [ 11.401161973269138, 64.948927167155006 ], [ 11.401181318883117, 64.949073358653052 ], [ 11.400557905251613, 64.949173746276571 ], [ 11.400462114108468, 64.94932982407451 ] ] ] } },
{ "type": "Feature", "properties": { "fid": 375545, "elvelengde_m": 68.71, "elvID": "143-45-1", "elvenavn": null, "regulert": null, "fid_2": 579, "id": 579, "left": 10.986919847, "top": 65.446110046000001, "right": 11.486919847, "bottom": 64.946110046000001, "row_index": 18, "col_index": 14, "tile_id": 579 }, "geometry": { "type": "MultiLineString", "coordinates": [ [ [ 11.441604056082491, 64.949791172839284 ], [ 11.441335063484207, 64.949464740089809 ], [ 11.440785173759194, 64.94935278151975 ] ] ] } },
{ "type": "Feature", "properties": { "fid": 375546, "elvelengde_m": 667.98, "elvID": "143-45-1", "elvenavn": null, "regulert": null, "fid_2": 579, "id": 579, "left": 10.986919847, "top": 65.446110046000001, "right": 11.486919847, "bottom": 64.946110046000001, "row_index": 18, "col_index": 14, "tile_id": 579 }, "geometry": { "type": "MultiLineString", "coordinates": [ [ [ 11.440785173759194, 64.94935278151975 ], [ 11.438339816015981, 64.949781368640927 ], [ 11.437042861268159, 64.949770035128239 ], [ 11.436837387636082, 64.949949293572374 ], [ 11.436820060947841, 64.950276975046535 ], [ 11.436526299877871, 64.950390245535999 ], [ 11.436246279522916, 64.950959153629356 ], [ 11.436062238009137, 64.951114217834657 ], [ 11.43595582953288, 64.951342022627472 ], [ 11.434024489501001, 64.951753819199851 ], [ 11.433938003519939, 64.951804844959199 ], [ 11.433936119604223, 64.951973340104374 ], [ 11.434068605914959, 64.952105251767009 ], [ 11.433936348369972, 64.95223576882492 ], [ 11.43171678575761, 64.952867665771365 ] ] ] } },
{ "type": "Feature", "properties": { "fid": 375547, "elvelengde_m": 176.02, "elvID": "143-450-2", "elvenavn": null, "regulert": null, "fid_2": 579, "id": 579, "left": 10.986919847, "top": 65.446110046000001, "right": 11.486919847, "bottom": 64.946110046000001, "row_index": 18, "col_index": 14, "tile_id": 579 }, "geometry": { "type": "MultiLineString", "coordinates": [ [ [ 11.430924908305757, 64.948998051185455 ], [ 11.430853666708861, 64.949187525014693 ], [ 11.430959550247644, 64.94950450287962 ], [ 11.431594770944312, 64.949856888616978 ], [ 11.432253288120856, 64.950002747201793 ], [ 11.432282368271872, 64.950283925023641 ] ] ] } },
{ "type": "Feature", "properties": { "fid": 375551, "elvelengde_m": 129.92, "elvID": "143-448-1", "elvenavn": null, "regulert": null, "fid_2": 579, "id": 579, "left": 10.986919847, "top": 65.446110046000001, "right": 11.486919847, "bottom": 64.946110046000001, "row_index": 18, "col_index": 14, "tile_id": 579 }, "geometry": { "type": "MultiLineString", "coordinates": [ [ [ 11.397960811577923, 64.948855108951619 ], [ 11.397670259585333, 64.948779534241027 ], [ 11.397359918235811, 64.948526580446867 ], [ 11.396845502097689, 64.948371290784749 ], [ 11.396558152273412, 64.948078282263509 ], [ 11.396536485523454, 64.947935357697702 ] ] ] } },
{ "type": "Feature", "properties": { "fid": 375552, "elvelengde_m": 51.87, "elvID": "143-45-2", "elvenavn": null, "regulert": null, "fid_2": 579, "id": 579, "left": 10.986919847, "top": 65.446110046000001, "right": 11.486919847, "bottom": 64.946110046000001, "row_index": 18, "col_index": 14, "tile_id": 579 }, "geometry": { "type": "MultiLineString", "coordinates": [ [ [ 11.440850925081843, 64.948891587393462 ], [ 11.4408747797331, 64.949083605836563 ], [ 11.440785173759194, 64.94935278151975 ] ] ] } },
{ "type": "Feature", "properties": { "fid": 375565, "elvelengde_m": 219.1, "elvID": "143-114-1", "elvenavn": null, "regulert": null, "fid_2": 579, "id": 579, "left": 10.986919847, "top": 65.446110046000001, "right": 11.486919847, "bottom": 64.946110046000001, "row_index": 18, "col_index": 14, "tile_id": 579 }, "geometry": { "type": "MultiLineString", "coordinates": [ [ [ 11.363635891307084, 64.946110046 ], [ 11.363799976288526, 64.94614024503818 ], [ 11.363971525338837, 64.946110046 ] ] ] } },
{ "type": "Feature", "properties": { "fid": 375569, "elvelengde_m": 386.35, "elvID": "143-447-1", "elvenavn": null, "regulert": null, "fid_2": 579, "id": 579, "left": 10.986919847, "top": 65.446110046000001, "right": 11.486919847, "bottom": 64.946110046000001, "row_index": 18, "col_index": 14, "tile_id": 579 }, "geometry": { "type": "MultiLineString", "coordinates": [ [ [ 11.406274207115812, 64.948306494206506 ], [ 11.405283977478053, 64.947911378125823 ], [ 11.404362566680009, 64.946917141651014 ], [ 11.403774485434289, 64.946614464022645 ], [ 11.403849144742429, 64.946509803273329 ], [ 11.405664588610264, 64.946110046 ] ] ] } },
{ "type": "Feature", "properties": { "fid": 375571, "elvelengde_m": 536.06, "elvID": "143-446-1", "elvenavn": null, "regulert": null, "fid_2": 579, "id": 579, "left": 10.986919847, "top": 65.446110046000001, "right": 11.486919847, "bottom": 64.946110046000001, "row_index": 18, "col_index": 14, "tile_id": 579 }, "geometry": { "type": "MultiLineString", "coordinates": [ [ [ 11.413197299639458, 64.94924964601698 ], [ 11.412520524097292, 64.949000482496103 ], [ 11.411446281856531, 64.948436011670239 ], [ 11.409814600842921, 64.947414282028618 ], [ 11.409336966613328, 64.947271961614547 ], [ 11.408828434565388, 64.946900247340807 ], [ 11.408349618664488, 64.94667362333513 ], [ 11.407696345318753, 64.946502805457669 ], [ 11.407476563904805, 64.946356184408742 ], [ 11.406741410960635, 64.946201895021375 ], [ 11.406696503110467, 64.946114922939771 ], [ 11.406704738944354, 64.946110046 ] ] ] } },
{ "type": "Feature", "properties": { "fid": 375575, "elvelengde_m": 744.39, "elvID": "143-445-1", "elvenavn": null, "regulert": null, "fid_2": 579, "id": 579, "left": 10.986919847, "top": 65.446110046000001, "right": 11.486919847, "bottom": 64.946110046000001, "row_index": 18, "col_index": 14, "tile_id": 579 }, "geometry": { "type": "MultiLineString", "coordinates": [ [ [ 11.42977335698653, 64.948082388287787 ], [ 11.429506591291981, 64.947961359004594 ], [ 11.429516617432492, 64.947841662191621 ], [ 11.429702547360449, 64.947647121172665 ], [ 11.4296549160456, 64.947387688263902 ], [ 11.429051700546232, 64.947172527533013 ], [ 11.428210208418538, 64.946703961261008 ], [ 11.427782317905434, 64.946300918866825 ], [ 11.427563997293518, 64.946225158948479 ], [ 11.426366339940635, 64.946110046 ] ], [ [ 11.422927617574059, 64.946110046 ], [ 11.422845816040484, 64.946116077786371 ], [ 11.422802038542997, 64.946110046 ] ] ] } },
{ "type": "Feature", "properties": { "fid": 380766, "elvelengde_m": 65.48, "elvID": "143-450-1", "elvenavn": null, "regulert": null, "fid_2": 579, "id": 579, "left": 10.986919847, "top": 65.446110046000001, "right": 11.486919847, "bottom": 64.946110046000001, "row_index": 18, "col_index": 14, "tile_id": 579 }, "geometry": { "type": "MultiLineString", "coordinates": [ [ [ 11.426385051658354, 64.951845977635458 ], [ 11.426244809818156, 64.95242981285972 ] ] ] } },
{ "type": "Feature", "properties": { "fid": 380853, "elvelengde_m": 27.0, "elvID": "143-452-2", "elvenavn": null, "regulert": null, "fid_2": 579, "id": 579, "left": 10.986919847, "top": 65.446110046000001, "right": 11.486919847, "bottom": 64.946110046000001, "row_index": 18, "col_index": 14, "tile_id": 579 }, "geometry": { "type": "MultiLineString", "coordinates": [ [ [ 11.437840653340524, 64.957296016587151 ], [ 11.43790864094149, 64.957535388608207 ] ] ] } },
{ "type": "Feature", "properties": { "fid": 380854, "elvelengde_m": 63.37, "elvID": "143-450-1", "elvenavn": null, "regulert": null, "fid_2": 579, "id": 579, "left": 10.986919847, "top": 65.446110046000001, "right": 11.486919847, "bottom": 64.946110046000001, "row_index": 18, "col_index": 14, "tile_id": 579 }, "geometry": { "type": "MultiLineString", "coordinates": [ [ [ 11.427653276862054, 64.951979704233963 ], [ 11.426385051658354, 64.951845977635458 ] ] ] } },
{ "type": "Feature", "properties": { "fid": 380855, "elvelengde_m": 16.06, "elvID": "143-449-1", "elvenavn": null, "regulert": null, "fid_2": 579, "id": 579, "left": 10.986919847, "top": 65.446110046000001, "right": 11.486919847, "bottom": 64.946110046000001, "row_index": 18, "col_index": 14, "tile_id": 579 }, "geometry": { "type": "MultiLineString", "coordinates": [ [ [ 11.409983156410066, 64.950824530666182 ], [ 11.409645675003308, 64.950841087386408 ] ] ] } },
{ "type": "Feature", "properties": { "fid": 380856, "elvelengde_m": 12.97, "elvID": "143-450-3", "elvenavn": null, "regulert": null, "fid_2": 579, "id": 579, "left": 10.986919847, "top": 65.446110046000001, "right": 11.486919847, "bottom": 64.946110046000001, "row_index": 18, "col_index": 14, "tile_id": 579 }, "geometry": { "type": "MultiLineString", "coordinates": [ [ [ 11.425247644317238, 64.949275566561184 ], [ 11.42548476887737, 64.949334176343626 ] ] ] } },
{ "type": "Feature", "properties": { "fid": 380976, "elvelengde_m": 25.62, "elvID": "143-171-1", "elvenavn": null, "regulert": null, "fid_2": 579, "id": 579, "left": 10.986919847, "top": 65.446110046000001, "right": 11.486919847, "bottom": 64.946110046000001, "row_index": 18, "col_index": 14, "tile_id": 579 }, "geometry": { "type": "MultiLineString", "coordinates": [ [ [ 11.121105282038629, 64.975765593650408 ], [ 11.120837130412095, 64.975858397317865 ], [ 11.120982519448544, 64.975914305024688 ] ] ] } },
{ "type": "Feature", "properties": { "fid": 380991, "elvelengde_m": 68.19, "elvID": "143-173-1", "elvenavn": "Hasfjordvassdraget", "regulert": null, "fid_2": 579, "id": 579, "left": 10.986919847, "top": 65.446110046000001, "right": 11.486919847, "bottom": 64.946110046000001, "row_index": 18, "col_index": 14, "tile_id": 579 }, "geometry": { "type": "MultiLineString", "coordinates": [ [ [ 11.037453327387155, 64.951959359327347 ], [ 11.037704997422043, 64.952194012778065 ], [ 11.038315080059119, 64.952432332606946 ] ] ] } },
{ "type": "Feature", "properties": { "fid": 380993, "elvelengde_m": 129.75, "elvID": "143-173-2", "elvenavn": null, "regulert": null, "fid_2": 579, "id": 579, "left": 10.986919847, "top": 65.446110046000001, "right": 11.486919847, "bottom": 64.946110046000001, "row_index": 18, "col_index": 14, "tile_id": 579 }, "geometry": { "type": "MultiLineString", "coordinates": [ [ [ 11.026488280791369, 64.949218295086652 ], [ 11.025356190150251, 64.950277297215379 ] ] ] } },
{ "type": "Feature", "properties": { "fid": 380996, "elvelengde_m": 40.21, "elvID": "143-453-1", "elvenavn": null, "regulert": null, "fid_2": 579, "id": 579, "left": 10.986919847, "top": 65.446110046000001, "right": 11.486919847, "bottom": 64.946110046000001, "row_index": 18, "col_index": 14, "tile_id": 579 }, "geometry": { "type": "MultiLineString", "coordinates": [ [ [ 11.441332897368245, 64.958080026574365 ], [ 11.440498135403837, 64.958132524773546 ] ] ] } },
{ "type": "Feature", "properties": { "fid": 380998, "elvelengde_m": 23.4, "elvID": "143-450-3", "elvenavn": null, "regulert": null, "fid_2": 579, "id": 579, "left": 10.986919847, "top": 65.446110046000001, "right": 11.486919847, "bottom": 64.946110046000001, "row_index": 18, "col_index": 14, "tile_id": 579 }, "geometry": { "type": "MultiLineString", "coordinates": [ [ [ 11.427435344846506, 64.950684009434212 ], [ 11.427355919702498, 64.95088694167022 ] ] ] } },
{ "type": "Feature", "properties": { "fid": 381134, "elvelengde_m": 92.75, "elvID": "143-218-1", "elvenavn": null, "regulert": null, "fid_2": 579, "id": 579, "left": 10.986919847, "top": 65.446110046000001, "right": 11.486919847, "bottom": 64.946110046000001, "row_index": 18, "col_index": 14, "tile_id": 579 }, "geometry": { "type": "MultiLineString", "coordinates": [ [ [ 11.062477457825658, 64.970997913592797 ], [ 11.062296052541519, 64.970779765361399 ], [ 11.061931042900961, 64.9707152061454 ], [ 11.061179828292191, 64.971001549028728 ] ] ] } },
{ "type": "Feature", "properties": { "fid": 382692, "elvelengde_m": 30.01, "elvID": "143-448-1", "elvenavn": null, "regulert": null, "fid_2": 579, "id": 579, "left": 10.986919847, "top": 65.446110046000001, "right": 11.486919847, "bottom": 64.946110046000001, "row_index": 18, "col_index": 14, "tile_id": 579 }, "geometry": { "type": "MultiLineString", "coordinates": [ [ [ 11.400462114108468, 64.94932982407451 ], [ 11.400336241585382, 64.949414877915459 ], [ 11.400024042718853, 64.949352032299629 ] ] ] } },
{ "type": "Feature", "properties": { "fid": 382693, "elvelengde_m": 34.14, "elvID": "143-448-1", "elvenavn": null, "regulert": null, "fid_2": 579, "id": 579, "left": 10.986919847, "top": 65.446110046000001, "right": 11.486919847, "bottom": 64.946110046000001, "row_index": 18, "col_index": 14, "tile_id": 579 }, "geometry": { "type": "MultiLineString", "coordinates": [ [ [ 11.398317596889987, 64.949103164610293 ], [ 11.398142002649351, 64.949055076538386 ], [ 11.397960811577923, 64.948855108951619 ] ] ] } },
{ "type": "Feature", "properties": { "fid": 382694, "elvelengde_m": 6.94, "elvID": "143-450-1", "elvenavn": null, "regulert": null, "fid_2": 579, "id": 579, "left": 10.986919847, "top": 65.446110046000001, "right": 11.486919847, "bottom": 64.946110046000001, "row_index": 18, "col_index": 14, "tile_id": 579 }, "geometry": { "type": "MultiLineString", "coordinates": [ [ [ 11.433129542759975, 64.949855276110583 ], [ 11.432984673441297, 64.949845069946122 ] ] ] } },
{ "type": "Feature", "properties": { "fid": 382695, "elvelengde_m": 16.13, "elvID": "143-45-1", "elvenavn": null, "regulert": null, "fid_2": 579, "id": 579, "left": 10.986919847, "top": 65.446110046000001, "right": 11.486919847, "bottom": 64.946110046000001, "row_index": 18, "col_index": 14, "tile_id": 579 }, "geometry": { "type": "MultiLineString", "coordinates": [ [ [ 11.44179055564047, 64.949912329477044 ], [ 11.441604056082491, 64.949791172839284 ] ] ] } },
{ "type": "Feature", "properties": { "fid": 382854, "elvelengde_m": 29.37, "elvID": "143-450-3", "elvenavn": null, "regulert": null, "fid_2": 579, "id": 579, "left": 10.986919847, "top": 65.446110046000001, "right": 11.486919847, "bottom": 64.946110046000001, "row_index": 18, "col_index": 14, "tile_id": 579 }, "geometry": { "type": "MultiLineString", "coordinates": [ [ [ 11.427395420919822, 64.951459723484618 ], [ 11.427333994709391, 64.951533959365648 ], [ 11.427720080476249, 64.951459961705865 ] ] ] } },
{ "type": "Feature", "properties": { "fid": 382855, "elvelengde_m": 47.57, "elvID": "143-449-1", "elvenavn": null, "regulert": null, "fid_2": 579, "id": 579, "left": 10.986919847, "top": 65.446110046000001, "right": 11.486919847, "bottom": 64.946110046000001, "row_index": 18, "col_index": 14, "tile_id": 579 }, "geometry": { "type": "MultiLineString", "coordinates": [ [ [ 11.409016921304442, 64.950941741259911 ], [ 11.408032941554593, 64.951009302606153 ] ] ] } },
{ "type": "Feature", "properties": { "fid": 382914, "elvelengde_m": 1012.16, "elvID": "143-172-1", "elvenavn": null, "regulert": null, "fid_2": 579, "id": 579, "left": 10.986919847, "top": 65.446110046000001, "right": 11.486919847, "bottom": 64.946110046000001, "row_index": 18, "col_index": 14, "tile_id": 579 }, "geometry": { "type": "MultiLineString", "coordinates": [ [ [ 11.09693152539084, 64.969681824042439 ], [ 11.09499854747197, 64.969135818491651 ], [ 11.09373956295026, 64.969164486974321 ], [ 11.092574784579998, 64.969365915035524 ], [ 11.090322952834759, 64.969126840160953 ], [ 11.08935105700056, 64.968656181616581 ], [ 11.088121507997126, 64.968310481634632 ], [ 11.086750842229163, 64.968075220330448 ], [ 11.085948991180233, 64.968096703337991 ], [ 11.084058151909357, 64.967379428300177 ], [ 11.08352351655968, 64.967102264503524 ], [ 11.082911870097863, 64.966632620970529 ], [ 11.081046604052926, 64.96621966570585 ], [ 11.080377010761431, 64.966001210385841 ], [ 11.08000849152144, 64.965782909216117 ], [ 11.079614068420724, 64.965719774890346 ], [ 11.079457954998457, 64.965780808205167 ] ] ] } },
{ "type": "Feature", "properties": { "fid": 382924, "elvelengde_m": 12.08, "elvID": "143-449-1", "elvenavn": null, "regulert": null, "fid_2": 579, "id": 579, "left": 10.986919847, "top": 65.446110046000001, "right": 11.486919847, "bottom": 64.946110046000001, "row_index": 18, "col_index": 14, "tile_id": 579 }, "geometry": { "type": "MultiLineString", "coordinates": [ [ [ 11.406118083831149, 64.952534464870425 ], [ 11.406359362396744, 64.952570200585441 ] ] ] } },
{ "type": "Feature", "properties": { "fid": 382976, "elvelengde_m": 224.58, "elvID": "143-172-1", "elvenavn": null, "regulert": null, "fid_2": 579, "id": 579, "left": 10.986919847, "top": 65.446110046000001, "right": 11.486919847, "bottom": 64.946110046000001, "row_index": 18, "col_index": 14, "tile_id": 579 }, "geometry": { "type": "MultiLineString", "coordinates": [ [ [ 11.07437795665628, 64.964193979887511 ], [ 11.073959237758293, 64.964223938490676 ], [ 11.073850906510886, 64.963970468348847 ], [ 11.072610113016855, 64.96397442572129 ], [ 11.071224305394173, 64.963755195890911 ], [ 11.070914252394145, 64.963373536915839 ] ] ] } },
{ "type": "Feature", "properties": { "fid": 383075, "elvelengde_m": 1473.32, "elvID": "143-173-1", "elvenavn": "Hasfjordvassdraget", "regulert": null, "fid_2": 579, "id": 579, "left": 10.986919847, "top": 65.446110046000001, "right": 11.486919847, "bottom": 64.946110046000001, "row_index": 18, "col_index": 14, "tile_id": 579 }, "geometry": { "type": "MultiLineString", "coordinates": [ [ [ 11.002382743944613, 64.946110046 ], [ 11.00257899496501, 64.946476433177679 ], [ 11.002600158587883, 64.946922220200392 ], [ 11.002135339773197, 64.947325827310976 ], [ 11.003869752761506, 64.948338028312577 ], [ 11.004189083441345, 64.948443190367854 ], [ 11.005231053000061, 64.948504789482229 ], [ 11.007637466741095, 64.948828623009959 ], [ 11.010567703206666, 64.948926277147379 ], [ 11.011595490022239, 64.948832492989226 ], [ 11.012099077864281, 64.94899781954841 ], [ 11.014909927628439, 64.949395881319219 ], [ 11.015451194608428, 64.949309718798006 ], [ 11.016782411390411, 64.94928039001249 ], [ 11.019985890717429, 64.949713055470795 ], [ 11.023621497723758, 64.950611508836346 ], [ 11.025356190150251, 64.950277297215379 ] ] ] } },
{ "type": "Feature", "properties": { "fid": 383114, "elvelengde_m": 61.84, "elvID": "143-221-1", "elvenavn": null, "regulert": null, "fid_2": 579, "id": 579, "left": 10.986919847, "top": 65.446110046000001, "right": 11.486919847, "bottom": 64.946110046000001, "row_index": 18, "col_index": 14, "tile_id": 579 }, "geometry": { "type": "MultiLineString", "coordinates": [ [ [ 11.027443440574555, 65.005739014154486 ], [ 11.026417890570141, 65.005402679964206 ] ] ] } },
{ "type": "Feature", "properties": { "fid": 383122, "elvelengde_m": 22.49, "elvID": "143-222-1", "elvenavn": null, "regulert": null, "fid_2": 579, "id": 579, "left": 10.986919847, "top": 65.446110046000001, "right": 11.486919847, "bottom": 64.946110046000001, "row_index": 18, "col_index": 14, "tile_id": 579 }, "geometry": { "type": "MultiLineString", "coordinates": [ [ [ 11.019560449187978, 64.993988590950764 ], [ 11.019492803492774, 64.994188285520636 ] ] ] } },
{ "type": "Feature", "properties": { "fid": 383137, "elvelengde_m": 84.44, "elvID": "143-220-1", "elvenavn": null, "regulert": null, "fid_2": 579, "id": 579, "left": 10.986919847, "top": 65.446110046000001, "right": 11.486919847, "bottom": 64.946110046000001, "row_index": 18, "col_index": 14, "tile_id": 579 }, "geometry": { "type": "MultiLineString", "coordinates": [ [ [ 11.08149512995406, 64.974788908914874 ], [ 11.081336726362569, 64.975063405545399 ], [ 11.080840337250496, 64.975148082895899 ], [ 11.080666611796566, 64.975385027552846 ] ] ] } },
{ "type": "Feature", "properties": { "fid": 383139, "elvelengde_m": 32.02, "elvID": "143-438-1", "elvenavn": null, "regulert": null, "fid_2": 579, "id": 579, "left": 10.986919847, "top": 65.446110046000001, "right": 11.486919847, "bottom": 64.946110046000001, "row_index": 18, "col_index": 14, "tile_id": 579 }, "geometry": { "type": "MultiLineString", "coordinates": [ [ [ 11.482488018892514, 64.984037859941253 ], [ 11.482701781945501, 64.983883805277813 ], [ 11.482609438155427, 64.983782530254118 ] ] ] } },
{ "type": "Feature", "properties": { "fid": 383142, "elvelengde_m": 20.38, "elvID": "143-218-1", "elvenavn": null, "regulert": null, "fid_2": 579, "id": 579, "left": 10.986919847, "top": 65.446110046000001, "right": 11.486919847, "bottom": 64.946110046000001, "row_index": 18, "col_index": 14, "tile_id": 579 }, "geometry": { "type": "MultiLineString", "coordinates": [ [ [ 11.063149027603448, 64.971502983001002 ], [ 11.062976342270298, 64.971335772209684 ] ] ] } },
{ "type": "Feature", "properties": { "fid": 383152, "elvelengde_m": 35.04, "elvID": "143-168-1", "elvenavn": null, "regulert": null, "fid_2": 579, "id": 579, "left": 10.986919847, "top": 65.446110046000001, "right": 11.486919847, "bottom": 64.946110046000001, "row_index": 18, "col_index": 14, "tile_id": 579 }, "geometry": { "type": "MultiLineString", "coordinates": [ [ [ 11.120862979311934, 64.954406382762159 ], [ 11.120151727674383, 64.95443997097874 ] ] ] } },
{ "type": "Feature", "properties": { "fid": 383156, "elvelengde_m": 20.26, "elvID": "143-451-1", "elvenavn": null, "regulert": null, "fid_2": 579, "id": 579, "left": 10.986919847, "top": 65.446110046000001, "right": 11.486919847, "bottom": 64.946110046000001, "row_index": 18, "col_index": 14, "tile_id": 579 }, "geometry": { "type": "MultiLineString", "coordinates": [ [ [ 11.438431637338077, 64.955323769619284 ], [ 11.438150582367564, 64.955459130429432 ] ] ] } },
{ "type": "Feature", "properties": { "fid": 383158, "elvelengde_m": 9.6, "elvID": "143-446-1", "elvenavn": null, "regulert": null, "fid_2": 579, "id": 579, "left": 10.986919847, "top": 65.446110046000001, "right": 11.486919847, "bottom": 64.946110046000001, "row_index": 18, "col_index": 14, "tile_id": 579 }, "geometry": { "type": "MultiLineString", "coordinates": [ [ [ 11.413338495551544, 64.949311496876291 ], [ 11.413197299639458, 64.94924964601698 ] ] ] } },
{ "type": "Feature", "properties": { "fid": 383159, "elvelengde_m": 25.32, "elvID": "143-448-1", "elvenavn": null, "regulert": null, "fid_2": 579, "id": 579, "left": 10.986919847, "top": 65.446110046000001, "right": 11.486919847, "bottom": 64.946110046000001, "row_index": 18, "col_index": 14, "tile_id": 579 }, "geometry": { "type": "MultiLineString", "coordinates": [ [ [ 11.400931109063407, 64.948486175044991 ], [ 11.401118006463882, 64.948601950507637 ], [ 11.400961842828211, 64.948658106613152 ] ] ] } },
{ "type": "Feature", "properties": { "fid": 383161, "elvelengde_m": 26.84, "elvID": "143-45-2", "elvenavn": null, "regulert": null, "fid_2": 579, "id": 579, "left": 10.986919847, "top": 65.446110046000001, "right": 11.486919847, "bottom": 64.946110046000001, "row_index": 18, "col_index": 14, "tile_id": 579 }, "geometry": { "type": "MultiLineString", "coordinates": [ [ [ 11.440540840346497, 64.948690466240691 ], [ 11.440850925081843, 64.948891587393462 ] ] ] } },
{ "type": "Feature", "properties": { "fid": 385921, "elvelengde_m": 11.45, "elvID": "143-173-3", "elvenavn": null, "regulert": null, "fid_2": 579, "id": 579, "left": 10.986919847, "top": 65.446110046000001, "right": 11.486919847, "bottom": 64.946110046000001, "row_index": 18, "col_index": 14, "tile_id": 579 }, "geometry": { "type": "MultiLineString", "coordinates": [ [ [ 11.034435289519177, 64.95042068766945 ], [ 11.034299646093684, 64.950505824273307 ] ] ] } },
{ "type": "Feature", "properties": { "fid": 385934, "elvelengde_m": 178.81, "elvID": "143-173-1", "elvenavn": "Hasfjordvassdraget", "regulert": null, "fid_2": 579, "id": 579, "left": 10.986919847, "top": 65.446110046000001, "right": 11.486919847, "bottom": 64.946110046000001, "row_index": 18, "col_index": 14, "tile_id": 579 }, "geometry": { "type": "MultiLineString", "coordinates": [ [ [ 11.034299646093684, 64.950505824273307 ], [ 11.034646375484751, 64.950633948740659 ], [ 11.034924701528697, 64.950914585834866 ], [ 11.035855008173737, 64.951125610762105 ], [ 11.036333893583384, 64.951296383933794 ], [ 11.03687609726232, 64.951608172748209 ] ] ] } },
{ "type": "Feature", "properties": { "fid": 385937, "elvelengde_m": 440.81, "elvID": "143-173-1", "elvenavn": "Hasfjordvassdraget", "regulert": null, "fid_2": 579, "id": 579, "left": 10.986919847, "top": 65.446110046000001, "right": 11.486919847, "bottom": 64.946110046000001, "row_index": 18, "col_index": 14, "tile_id": 579 }, "geometry": { "type": "MultiLineString", "coordinates": [ [ [ 11.025356190150251, 64.950277297215379 ], [ 11.028077434113746, 64.950420060827526 ], [ 11.030581446408897, 64.950439016033698 ], [ 11.031754875556111, 64.950626382493923 ], [ 11.032321308990937, 64.950624007806923 ], [ 11.033149557557238, 64.950401497698266 ], [ 11.0336021280532, 64.950375505461878 ], [ 11.034299646093684, 64.950505824273307 ] ] ] } },
{ "type": "Feature", "properties": { "fid": 386015, "elvelengde_m": 142.92, "elvID": "143-220-1", "elvenavn": null, "regulert": null, "fid_2": 579, "id": 579, "left": 10.986919847, "top": 65.446110046000001, "right": 11.486919847, "bottom": 64.946110046000001, "row_index": 18, "col_index": 14, "tile_id": 579 }, "geometry": { "type": "MultiLineString", "coordinates": [ [ [ 11.082345534935788, 64.973829774086951 ], [ 11.08129546243075, 64.974004271147749 ], [ 11.08121697887341, 64.974156754788197 ], [ 11.08149512995406, 64.974788908914874 ] ] ] } }
]
}
