{
"type": "FeatureCollection",
"name": "elvis_tile_id_539",
"crs": { "type": "name", "properties": { "name": "urn:ogc:def:crs:OGC:1.3:CRS84" } },
"xy_coordinate_resolution": 1e-15,
"features": [
{ "type": "Feature", "properties": { "fid": 373661, "elvelengde_m": 9.77, "elvID": "143-238-1", "elvenavn": null, "regulert": null, "fid_2": 539, "id": 539, "left": 10.486919847, "top": 65.446110046000001, "right": 10.986919847, "bottom": 64.946110046000001, "row_index": 18, "col_index": 13, "tile_id": 539 }, "geometry": { "type": "MultiLineString", "coordinates": [ [ [ 10.917988809625614, 64.992634306191803 ], [ 10.917908108720521, 64.992714961611156 ] ] ] } },
{ "type": "Feature", "properties": { "fid": 373724, "elvelengde_m": 224.06, "elvID": "143-225-1", "elvenavn": null, "regulert": null, "fid_2": 539, "id": 539, "left": 10.486919847, "top": 65.446110046000001, "right": 10.986919847, "bottom": 64.946110046000001, "row_index": 18, "col_index": 13, "tile_id": 539 }, "geometry": { "type": "MultiLineString", "coordinates": [ [ [ 10.921090715872612, 64.980207150122638 ], [ 10.919551580917858, 64.979832281862045 ], [ 10.916729834947953, 64.979458158210207 ] ] ] } },
{ "type": "Feature", "properties": { "fid": 373756, "elvelengde_m": 192.24, "elvID": "143-230-1", "elvenavn": null, "regulert": null, "fid_2": 539, "id": 539, "left": 10.486919847, "top": 65.446110046000001, "right": 10.986919847, "bottom": 64.946110046000001, "row_index": 18, "col_index": 13, "tile_id": 539 }, "geometry": { "type": "MultiLineString", "coordinates": [ [ [ 10.86326778788831, 64.973693327938619 ], [ 10.864848517333927, 64.973856554705478 ], [ 10.865539405149892, 64.974036695256927 ], [ 10.867132240362686, 64.974003758444354 ] ] ] } },
{ "type": "Feature", "properties": { "fid": 373760, "elvelengde_m": 498.76, "elvID": "143-224-1", "elvenavn": null, "regulert": null, "fid_2": 539, "id": 539, "left": 10.486919847, "top": 65.446110046000001, "right": 10.986919847, "bottom": 64.946110046000001, "row_index": 18, "col_index": 13, "tile_id": 539 }, "geometry": { "type": "MultiLineString", "coordinates": [ [ [ 10.916622365054826, 64.974744600587272 ], [ 10.916356688762132, 64.975771242960846 ], [ 10.916084034497159, 64.97640305311991 ], [ 10.915552268784497, 64.976729108415626 ], [ 10.915658441455907, 64.978212168799004 ], [ 10.915844693883766, 64.978982287761198 ], [ 10.915742193925963, 64.97911833617151 ] ] ] } },
{ "type": "Feature", "properties": { "fid": 373766, "elvelengde_m": 776.65, "elvID": "143-223-1", "elvenavn": null, "regulert": null, "fid_2": 539, "id": 539, "left": 10.486919847, "top": 65.446110046000001, "right": 10.986919847, "bottom": 64.946110046000001, "row_index": 18, "col_index": 13, "tile_id": 539 }, "geometry": { "type": "MultiLineString", "coordinates": [ [ [ 10.905038201013877, 64.973375949380596 ], [ 10.905935487360706, 64.974073589781682 ], [ 10.906193790325251, 64.974429402630093 ], [ 10.906668398366202, 64.975437631102992 ], [ 10.907584210991356, 64.976691468495574 ], [ 10.90938184614307, 64.978418788122013 ], [ 10.909803388585765, 64.978978865318638 ], [ 10.910075824776575, 64.979953129907443 ] ] ] } },
{ "type": "Feature", "properties": { "fid": 373773, "elvelengde_m": 500.62, "elvID": "143-229-1", "elvenavn": null, "regulert": null, "fid_2": 539, "id": 539, "left": 10.486919847, "top": 65.446110046000001, "right": 10.986919847, "bottom": 64.946110046000001, "row_index": 18, "col_index": 13, "tile_id": 539 }, "geometry": { "type": "MultiLineString", "coordinates": [ [ [ 10.89696925170478, 64.975918352728229 ], [ 10.896950381615465, 64.975714983265362 ], [ 10.896764251789335, 64.975610006627647 ], [ 10.896507072042802, 64.975602926265168 ], [ 10.895715377844747, 64.975200141296739 ], [ 10.895033324632413, 64.974840815813963 ], [ 10.894541174379874, 64.974478988575569 ], [ 10.894222600132727, 64.973872713562685 ], [ 10.894133998756923, 64.973218487912334 ], [ 10.893817394777392, 64.972935282187009 ], [ 10.893638758650242, 64.972506771902715 ], [ 10.893228308170507, 64.972395339431628 ], [ 10.89307254621135, 64.971993432856252 ] ] ] } },
{ "type": "Feature", "properties": { "fid": 373774, "elvelengde_m": 31.54, "elvID": "143-236-1", "elvenavn": null, "regulert": null, "fid_2": 539, "id": 539, "left": 10.486919847, "top": 65.446110046000001, "right": 10.986919847, "bottom": 64.946110046000001, "row_index": 18, "col_index": 13, "tile_id": 539 }, "geometry": { "type": "MultiLineString", "coordinates": [ [ [ 10.821383532996837, 64.970120928230315 ], [ 10.821041332987013, 64.969901997776233 ] ] ] } },
{ "type": "Feature", "properties": { "fid": 373775, "elvelengde_m": 278.43, "elvID": "143-229-2", "elvenavn": null, "regulert": null, "fid_2": 539, "id": 539, "left": 10.486919847, "top": 65.446110046000001, "right": 10.986919847, "bottom": 64.946110046000001, "row_index": 18, "col_index": 13, "tile_id": 539 }, "geometry": { "type": "MultiLineString", "coordinates": [ [ [ 10.898723562672522, 64.972190936343154 ], [ 10.898141654675472, 64.972054577052958 ], [ 10.895775141597881, 64.971851283262708 ], [ 10.894825348474713, 64.971908259053109 ], [ 10.893655819505488, 64.971851322559516 ], [ 10.89307254621135, 64.971993432856252 ] ] ] } },
{ "type": "Feature", "properties": { "fid": 373776, "elvelengde_m": 372.62, "elvID": "143-227-1", "elvenavn": null, "regulert": null, "fid_2": 539, "id": 539, "left": 10.486919847, "top": 65.446110046000001, "right": 10.986919847, "bottom": 64.946110046000001, "row_index": 18, "col_index": 13, "tile_id": 539 }, "geometry": { "type": "MultiLineString", "coordinates": [ [ [ 10.923235778351021, 64.974758204021853 ], [ 10.922747315888445, 64.974154097597605 ], [ 10.923184625198308, 64.973753536299284 ], [ 10.923042878828243, 64.973548969273892 ], [ 10.920805327972234, 64.972787891131162 ], [ 10.919532431013611, 64.97247209763141 ], [ 10.919276797058536, 64.972296583212739 ] ] ] } },
{ "type": "Feature", "properties": { "fid": 373777, "elvelengde_m": 242.83, "elvID": "143-226-1", "elvenavn": null, "regulert": null, "fid_2": 539, "id": 539, "left": 10.486919847, "top": 65.446110046000001, "right": 10.986919847, "bottom": 64.946110046000001, "row_index": 18, "col_index": 13, "tile_id": 539 }, "geometry": { "type": "MultiLineString", "coordinates": [ [ [ 10.933502253939404, 64.9740172361916 ], [ 10.931132165581113, 64.973462389719572 ], [ 10.930657528538955, 64.972759469105952 ], [ 10.930303271792999, 64.972500935063664 ] ] ] } },
{ "type": "Feature", "properties": { "fid": 373782, "elvelengde_m": 229.01, "elvID": "143-227-2", "elvenavn": null, "regulert": null, "fid_2": 539, "id": 539, "left": 10.486919847, "top": 65.446110046000001, "right": 10.986919847, "bottom": 64.946110046000001, "row_index": 18, "col_index": 13, "tile_id": 539 }, "geometry": { "type": "MultiLineString", "coordinates": [ [ [ 10.915644275825841, 64.971476368750658 ], [ 10.917515765883563, 64.972429272020051 ], [ 10.919090525408976, 64.972418745449517 ], [ 10.919276797058536, 64.972296583212739 ] ] ] } },
{ "type": "Feature", "properties": { "fid": 373786, "elvelengde_m": 720.99, "elvID": "143-229-1", "elvenavn": null, "regulert": null, "fid_2": 539, "id": 539, "left": 10.486919847, "top": 65.446110046000001, "right": 10.986919847, "bottom": 64.946110046000001, "row_index": 18, "col_index": 13, "tile_id": 539 }, "geometry": { "type": "MultiLineString", "coordinates": [ [ [ 10.89307254621135, 64.971993432856252 ], [ 10.891007572784366, 64.971857870337701 ], [ 10.888613841833381, 64.971268947507653 ], [ 10.886338301631643, 64.97084889008957 ], [ 10.884177832043683, 64.970867160399294 ], [ 10.882579286246601, 64.970734742706682 ], [ 10.881635757128844, 64.970576101295237 ], [ 10.880513155904145, 64.970581383527943 ], [ 10.878672449728391, 64.970302289209712 ] ] ] } },
{ "type": "Feature", "properties": { "fid": 373801, "elvelengde_m": 337.21, "elvID": "143-227-1", "elvenavn": null, "regulert": null, "fid_2": 539, "id": 539, "left": 10.486919847, "top": 65.446110046000001, "right": 10.986919847, "bottom": 64.946110046000001, "row_index": 18, "col_index": 13, "tile_id": 539 }, "geometry": { "type": "MultiLineString", "coordinates": [ [ [ 10.919276797058536, 64.972296583212739 ], [ 10.919108920428046, 64.972181440526228 ], [ 10.919261566333736, 64.971649786961933 ], [ 10.919688736093217, 64.971105787534157 ], [ 10.919686165229903, 64.970773630026784 ], [ 10.919588810591803, 64.970595439113936 ], [ 10.91901123892506, 64.970522014172758 ], [ 10.918730832576655, 64.970062714319852 ], [ 10.919015429929795, 64.970037164627016 ], [ 10.919355399653544, 64.969842009098528 ], [ 10.91946935553552, 64.969683354897214 ] ] ] } },
{ "type": "Feature", "properties": { "fid": 373827, "elvelengde_m": 85.31, "elvID": "143-233-1", "elvenavn": null, "regulert": null, "fid_2": 539, "id": 539, "left": 10.486919847, "top": 65.446110046000001, "right": 10.986919847, "bottom": 64.946110046000001, "row_index": 18, "col_index": 13, "tile_id": 539 }, "geometry": { "type": "MultiLineString", "coordinates": [ [ [ 10.837416214892677, 64.964492541985095 ], [ 10.838344019776811, 64.963840042172095 ] ] ] } },
{ "type": "Feature", "properties": { "fid": 373828, "elvelengde_m": 22.18, "elvID": "143-235-1", "elvenavn": null, "regulert": null, "fid_2": 539, "id": 539, "left": 10.486919847, "top": 65.446110046000001, "right": 10.986919847, "bottom": 64.946110046000001, "row_index": 18, "col_index": 13, "tile_id": 539 }, "geometry": { "type": "MultiLineString", "coordinates": [ [ [ 10.822020772452122, 64.963463719464912 ], [ 10.822125941165238, 64.963269828274036 ] ] ] } },
{ "type": "Feature", "properties": { "fid": 373838, "elvelengde_m": 369.97, "elvID": "143-228-1", "elvenavn": null, "regulert": null, "fid_2": 539, "id": 539, "left": 10.486919847, "top": 65.446110046000001, "right": 10.986919847, "bottom": 64.946110046000001, "row_index": 18, "col_index": 13, "tile_id": 539 }, "geometry": { "type": "MultiLineString", "coordinates": [ [ [ 10.894444077130721, 64.966518554033641 ], [ 10.893014998788068, 64.965782717483862 ], [ 10.891852865006651, 64.964926690661756 ], [ 10.892053913085656, 64.964475390172225 ], [ 10.891849435610936, 64.964280561840226 ], [ 10.891640704919046, 64.963594169563905 ] ] ] } },
{ "type": "Feature", "properties": { "fid": 373850, "elvelengde_m": 72.26, "elvID": "143-232-1", "elvenavn": null, "regulert": null, "fid_2": 539, "id": 539, "left": 10.486919847, "top": 65.446110046000001, "right": 10.986919847, "bottom": 64.946110046000001, "row_index": 18, "col_index": 13, "tile_id": 539 }, "geometry": { "type": "MultiLineString", "coordinates": [ [ [ 10.840115634716636, 64.9610405728545 ], [ 10.838615223999302, 64.960933865827286 ] ] ] } },
{ "type": "Feature", "properties": { "fid": 373851, "elvelengde_m": 10.54, "elvID": "143-232-1", "elvenavn": null, "regulert": null, "fid_2": 539, "id": 539, "left": 10.486919847, "top": 65.446110046000001, "right": 10.986919847, "bottom": 64.946110046000001, "row_index": 18, "col_index": 13, "tile_id": 539 }, "geometry": { "type": "MultiLineString", "coordinates": [ [ [ 10.838084307409197, 64.960913461040832 ], [ 10.837872301363731, 64.960884169975245 ] ] ] } },
{ "type": "Feature", "properties": { "fid": 373852, "elvelengde_m": 36.05, "elvID": "143-232-1", "elvenavn": null, "regulert": null, "fid_2": 539, "id": 539, "left": 10.486919847, "top": 65.446110046000001, "right": 10.986919847, "bottom": 64.946110046000001, "row_index": 18, "col_index": 13, "tile_id": 539 }, "geometry": { "type": "MultiLineString", "coordinates": [ [ [ 10.841236141870063, 64.961004177707764 ], [ 10.840508887877567, 64.961011916819643 ] ] ] } },
{ "type": "Feature", "properties": { "fid": 375464, "elvelengde_m": 215.75, "elvID": "143-215-1", "elvenavn": null, "regulert": null, "fid_2": 539, "id": 539, "left": 10.486919847, "top": 65.446110046000001, "right": 10.986919847, "bottom": 64.946110046000001, "row_index": 18, "col_index": 13, "tile_id": 539 }, "geometry": { "type": "MultiLineString", "coordinates": [ [ [ 10.984548674698141, 64.948157593954789 ], [ 10.985386106108756, 64.94974426981058 ], [ 10.985977330675988, 64.949922599686047 ] ] ] } },
{ "type": "Feature", "properties": { "fid": 375466, "elvelengde_m": 12.58, "elvID": "143-213-1", "elvenavn": null, "regulert": null, "fid_2": 539, "id": 539, "left": 10.486919847, "top": 65.446110046000001, "right": 10.986919847, "bottom": 64.946110046000001, "row_index": 18, "col_index": 13, "tile_id": 539 }, "geometry": { "type": "MultiLineString", "coordinates": [ [ [ 10.939007925587516, 64.946431886811396 ], [ 10.938750674357776, 64.946460642199099 ] ] ] } },
{ "type": "Feature", "properties": { "fid": 375467, "elvelengde_m": 11.66, "elvID": "143-213-1", "elvenavn": null, "regulert": null, "fid_2": 539, "id": 539, "left": 10.486919847, "top": 65.446110046000001, "right": 10.986919847, "bottom": 64.946110046000001, "row_index": 18, "col_index": 13, "tile_id": 539 }, "geometry": { "type": "MultiLineString", "coordinates": [ [ [ 10.93979508016243, 64.946484445720444 ], [ 10.939579813082402, 64.946433461057595 ] ] ] } },
{ "type": "Feature", "properties": { "fid": 375489, "elvelengde_m": 519.71, "elvID": "143-213-1", "elvenavn": null, "regulert": null, "fid_2": 539, "id": 539, "left": 10.486919847, "top": 65.446110046000001, "right": 10.986919847, "bottom": 64.946110046000001, "row_index": 18, "col_index": 13, "tile_id": 539 }, "geometry": { "type": "MultiLineString", "coordinates": [ [ [ 10.944781142617835, 64.946110046 ], [ 10.944729774330575, 64.946213843376043 ], [ 10.943611915501746, 64.946856729048804 ], [ 10.942665949988065, 64.946949772705679 ], [ 10.941742848604184, 64.946773094680267 ] ] ] } },
{ "type": "Feature", "properties": { "fid": 375522, "elvelengde_m": 841.49, "elvID": "143-214-1", "elvenavn": null, "regulert": null, "fid_2": 539, "id": 539, "left": 10.486919847, "top": 65.446110046000001, "right": 10.986919847, "bottom": 64.946110046000001, "row_index": 18, "col_index": 13, "tile_id": 539 }, "geometry": { "type": "MultiLineString", "coordinates": [ [ [ 10.970723620202891, 64.946110046 ], [ 10.970923332462853, 64.946481902278606 ] ] ] } },
{ "type": "Feature", "properties": { "fid": 380780, "elvelengde_m": 86.84, "elvID": "143-233-1", "elvenavn": null, "regulert": null, "fid_2": 539, "id": 539, "left": 10.486919847, "top": 65.446110046000001, "right": 10.986919847, "bottom": 64.946110046000001, "row_index": 18, "col_index": 13, "tile_id": 539 }, "geometry": { "type": "MultiLineString", "coordinates": [ [ [ 10.837433872780267, 64.961746999417144 ], [ 10.836984564881542, 64.96151760102839 ], [ 10.835984018787901, 64.961298962456041 ] ] ] } },
{ "type": "Feature", "properties": { "fid": 380848, "elvelengde_m": 26.45, "elvID": "143-235-1", "elvenavn": null, "regulert": null, "fid_2": 539, "id": 539, "left": 10.486919847, "top": 65.446110046000001, "right": 10.986919847, "bottom": 64.946110046000001, "row_index": 18, "col_index": 13, "tile_id": 539 }, "geometry": { "type": "MultiLineString", "coordinates": [ [ [ 10.821701781112155, 64.963655320809622 ], [ 10.822020772452122, 64.963463719464912 ] ] ] } },
{ "type": "Feature", "properties": { "fid": 380966, "elvelengde_m": 39.31, "elvID": "143-238-1", "elvenavn": null, "regulert": null, "fid_2": 539, "id": 539, "left": 10.486919847, "top": 65.446110046000001, "right": 10.986919847, "bottom": 64.946110046000001, "row_index": 18, "col_index": 13, "tile_id": 539 }, "geometry": { "type": "MultiLineString", "coordinates": [ [ [ 10.917685967272185, 64.992311552436831 ], [ 10.917988809625614, 64.992634306191803 ] ] ] } },
{ "type": "Feature", "properties": { "fid": 380982, "elvelengde_m": 26.47, "elvID": "143-232-1", "elvenavn": null, "regulert": null, "fid_2": 539, "id": 539, "left": 10.486919847, "top": 65.446110046000001, "right": 10.986919847, "bottom": 64.946110046000001, "row_index": 18, "col_index": 13, "tile_id": 539 }, "geometry": { "type": "MultiLineString", "coordinates": [ [ [ 10.838615223999302, 64.960933865827286 ], [ 10.838084307409197, 64.960913461040832 ] ] ] } },
{ "type": "Feature", "properties": { "fid": 380994, "elvelengde_m": 98.62, "elvID": "143-213-1", "elvenavn": null, "regulert": null, "fid_2": 539, "id": 539, "left": 10.486919847, "top": 65.446110046000001, "right": 10.986919847, "bottom": 64.946110046000001, "row_index": 18, "col_index": 13, "tile_id": 539 }, "geometry": { "type": "MultiLineString", "coordinates": [ [ [ 10.941742848604184, 64.946773094680267 ], [ 10.93979508016243, 64.946484445720444 ] ] ] } },
{ "type": "Feature", "properties": { "fid": 380995, "elvelengde_m": 27.25, "elvID": "143-213-1", "elvenavn": null, "regulert": null, "fid_2": 539, "id": 539, "left": 10.486919847, "top": 65.446110046000001, "right": 10.986919847, "bottom": 64.946110046000001, "row_index": 18, "col_index": 13, "tile_id": 539 }, "geometry": { "type": "MultiLineString", "coordinates": [ [ [ 10.939579813082402, 64.946433461057595 ], [ 10.939007925587516, 64.946431886811396 ] ] ] } },
{ "type": "Feature", "properties": { "fid": 381136, "elvelengde_m": 18.85, "elvID": "143-232-1", "elvenavn": null, "regulert": null, "fid_2": 539, "id": 539, "left": 10.486919847, "top": 65.446110046000001, "right": 10.986919847, "bottom": 64.946110046000001, "row_index": 18, "col_index": 13, "tile_id": 539 }, "geometry": { "type": "MultiLineString", "coordinates": [ [ [ 10.840508887877567, 64.961011916819643 ], [ 10.840115634716636, 64.9610405728545 ] ] ] } },
{ "type": "Feature", "properties": { "fid": 383133, "elvelengde_m": 39.85, "elvID": "143-229-1", "elvenavn": null, "regulert": null, "fid_2": 539, "id": 539, "left": 10.486919847, "top": 65.446110046000001, "right": 10.986919847, "bottom": 64.946110046000001, "row_index": 18, "col_index": 13, "tile_id": 539 }, "geometry": { "type": "MultiLineString", "coordinates": [ [ [ 10.89763636541103, 64.975911107277511 ], [ 10.897043341342183, 64.976002463742702 ], [ 10.89696925170478, 64.975918352728229 ] ] ] } },
{ "type": "Feature", "properties": { "fid": 383134, "elvelengde_m": 196.77, "elvID": "143-230-1", "elvenavn": null, "regulert": null, "fid_2": 539, "id": 539, "left": 10.486919847, "top": 65.446110046000001, "right": 10.986919847, "bottom": 64.946110046000001, "row_index": 18, "col_index": 13, "tile_id": 539 }, "geometry": { "type": "MultiLineString", "coordinates": [ [ [ 10.859787120670171, 64.972739946936059 ], [ 10.861631456687983, 64.973177623060948 ], [ 10.86326778788831, 64.973693327938619 ] ] ] } },
{ "type": "Feature", "properties": { "fid": 383135, "elvelengde_m": 19.39, "elvID": "143-236-1", "elvenavn": null, "regulert": null, "fid_2": 539, "id": 539, "left": 10.486919847, "top": 65.446110046000001, "right": 10.986919847, "bottom": 64.946110046000001, "row_index": 18, "col_index": 13, "tile_id": 539 }, "geometry": { "type": "MultiLineString", "coordinates": [ [ [ 10.821677023559459, 64.970242548470722 ], [ 10.821383532996837, 64.970120928230315 ] ] ] } },
{ "type": "Feature", "properties": { "fid": 383143, "elvelengde_m": 40.31, "elvID": "143-233-1", "elvenavn": null, "regulert": null, "fid_2": 539, "id": 539, "left": 10.486919847, "top": 65.446110046000001, "right": 10.986919847, "bottom": 64.946110046000001, "row_index": 18, "col_index": 13, "tile_id": 539 }, "geometry": { "type": "MultiLineString", "coordinates": [ [ [ 10.837018527354914, 64.964812372529025 ], [ 10.837416214892677, 64.964492541985095 ] ] ] } },
{ "type": "Feature", "properties": { "fid": 383144, "elvelengde_m": 281.42, "elvID": "143-233-1", "elvenavn": null, "regulert": null, "fid_2": 539, "id": 539, "left": 10.486919847, "top": 65.446110046000001, "right": 10.986919847, "bottom": 64.946110046000001, "row_index": 18, "col_index": 13, "tile_id": 539 }, "geometry": { "type": "MultiLineString", "coordinates": [ [ [ 10.838344019776811, 64.963840042172095 ], [ 10.838448907709605, 64.963669596628563 ], [ 10.839434173139249, 64.963041943809571 ], [ 10.839162502316814, 64.962629328645392 ], [ 10.837933450031551, 64.96189440843672 ], [ 10.837433872780267, 64.961746999417144 ] ] ] } },
{ "type": "Feature", "properties": { "fid": 383145, "elvelengde_m": 136.59, "elvID": "143-232-1", "elvenavn": null, "regulert": null, "fid_2": 539, "id": 539, "left": 10.486919847, "top": 65.446110046000001, "right": 10.986919847, "bottom": 64.946110046000001, "row_index": 18, "col_index": 13, "tile_id": 539 }, "geometry": { "type": "MultiLineString", "coordinates": [ [ [ 10.843537170030983, 64.961529300971179 ], [ 10.842365504085079, 64.961034384524083 ], [ 10.841545060028732, 64.961008871488644 ], [ 10.841374518423985, 64.961064547483332 ], [ 10.841236141870063, 64.961004177707764 ] ] ] } },
{ "type": "Feature", "properties": { "fid": 386004, "elvelengde_m": 124.46, "elvID": "143-230-1", "elvenavn": null, "regulert": null, "fid_2": 539, "id": 539, "left": 10.486919847, "top": 65.446110046000001, "right": 10.986919847, "bottom": 64.946110046000001, "row_index": 18, "col_index": 13, "tile_id": 539 }, "geometry": { "type": "MultiLineString", "coordinates": [ [ [ 10.843476273880643, 64.967842672861835 ], [ 10.844958415172622, 64.968763226680267 ] ] ] } },
{ "type": "Feature", "properties": { "fid": 386005, "elvelengde_m": 99.39, "elvID": "143-230-1", "elvenavn": null, "regulert": null, "fid_2": 539, "id": 539, "left": 10.486919847, "top": 65.446110046000001, "right": 10.986919847, "bottom": 64.946110046000001, "row_index": 18, "col_index": 13, "tile_id": 539 }, "geometry": { "type": "MultiLineString", "coordinates": [ [ [ 10.850937313320985, 64.970349743323837 ], [ 10.85173148786607, 64.970542385484208 ], [ 10.852545155470617, 64.970909691234596 ] ] ] } },
{ "type": "Feature", "properties": { "fid": 386006, "elvelengde_m": 143.2, "elvID": "143-230-1", "elvenavn": null, "regulert": null, "fid_2": 539, "id": 539, "left": 10.486919847, "top": 65.446110046000001, "right": 10.986919847, "bottom": 64.946110046000001, "row_index": 18, "col_index": 13, "tile_id": 539 }, "geometry": { "type": "MultiLineString", "coordinates": [ [ [ 10.853475166398168, 64.971154608308709 ], [ 10.856037716828112, 64.97183940551092 ] ] ] } },
{ "type": "Feature", "properties": { "fid": 386007, "elvelengde_m": 187.68, "elvID": "143-230-1", "elvenavn": null, "regulert": null, "fid_2": 539, "id": 539, "left": 10.486919847, "top": 65.446110046000001, "right": 10.986919847, "bottom": 64.946110046000001, "row_index": 18, "col_index": 13, "tile_id": 539 }, "geometry": { "type": "MultiLineString", "coordinates": [ [ [ 10.856260987630966, 64.972004790159772 ], [ 10.858193500872797, 64.972534532965426 ], [ 10.859787120670171, 64.972739946936059 ] ] ] } },
{ "type": "Feature", "properties": { "fid": 386008, "elvelengde_m": 21.24, "elvID": "143-230-1", "elvenavn": null, "regulert": null, "fid_2": 539, "id": 539, "left": 10.486919847, "top": 65.446110046000001, "right": 10.986919847, "bottom": 64.946110046000001, "row_index": 18, "col_index": 13, "tile_id": 539 }, "geometry": { "type": "MultiLineString", "coordinates": [ [ [ 10.856037716828112, 64.97183940551092 ], [ 10.856260987630966, 64.972004790159772 ] ] ] } },
{ "type": "Feature", "properties": { "fid": 386009, "elvelengde_m": 51.72, "elvID": "143-230-1", "elvenavn": null, "regulert": null, "fid_2": 539, "id": 539, "left": 10.486919847, "top": 65.446110046000001, "right": 10.986919847, "bottom": 64.946110046000001, "row_index": 18, "col_index": 13, "tile_id": 539 }, "geometry": { "type": "MultiLineString", "coordinates": [ [ [ 10.852545155470617, 64.970909691234596 ], [ 10.853475166398168, 64.971154608308709 ] ] ] } },
{ "type": "Feature", "properties": { "fid": 386010, "elvelengde_m": 342.8, "elvID": "143-230-1", "elvenavn": null, "regulert": null, "fid_2": 539, "id": 539, "left": 10.486919847, "top": 65.446110046000001, "right": 10.986919847, "bottom": 64.946110046000001, "row_index": 18, "col_index": 13, "tile_id": 539 }, "geometry": { "type": "MultiLineString", "coordinates": [ [ [ 10.844958415172622, 64.968763226680267 ], [ 10.845305823046219, 64.969078743274224 ], [ 10.84675640790846, 64.969577265348349 ], [ 10.848553223780597, 64.969965918350454 ], [ 10.850937313320985, 64.970349743323837 ] ] ] } }
]
}
