{
"type": "FeatureCollection",
"name": "innsjo_tile_id_734",
"crs": { "type": "name", "properties": { "name": "urn:ogc:def:crs:OGC:1.3:CRS84" } },
"xy_coordinate_resolution": 1e-15,
"features": [
{ "type": "Feature", "properties": { "fid": 41689, "navn": null, "hoyde_moh": null, "arealInnsjo_km2": 0.0075, "magasinKategori": null, "fid_2": 734, "id": 734, "left": 12.986919847, "top": 67.946110046000001, "right": 13.486919847, "bottom": 67.446110046000001, "row_index": 13, "col_index": 18, "tile_id": 734 }, "geometry": { "type": "MultiPolygon", "coordinates": [ [ [ [ 13.013379114043273, 67.912733011036934 ], [ 13.013329864131924, 67.912472189807502 ], [ 13.013670677999617, 67.911552063637373 ], [ 13.013324077353122, 67.91114407264719 ], [ 13.013016020954369, 67.911122309081264 ], [ 13.012727249253651, 67.911432969674962 ], [ 13.012836372224719, 67.911550943042784 ], [ 13.012542929345368, 67.911637124750229 ], [ 13.012537559278348, 67.912534389194548 ], [ 13.01350143423843, 67.91325494153584 ], [ 13.013924786466855, 67.913322874996453 ], [ 13.013379114043273, 67.912733011036934 ] ] ] ] } },
{ "type": "Feature", "properties": { "fid": 41691, "navn": null, "hoyde_moh": null, "arealInnsjo_km2": 0.0037, "magasinKategori": null, "fid_2": 734, "id": 734, "left": 12.986919847, "top": 67.946110046000001, "right": 13.486919847, "bottom": 67.446110046000001, "row_index": 13, "col_index": 18, "tile_id": 734 }, "geometry": { "type": "MultiPolygon", "coordinates": [ [ [ [ 13.00564778292366, 67.927831120324669 ], [ 13.005828210403029, 67.927671790717298 ], [ 13.005401556610472, 67.927361519524609 ], [ 13.004566684609935, 67.927360355795571 ], [ 13.003812482716709, 67.927808833590035 ], [ 13.004512821009735, 67.927987833379277 ], [ 13.00564778292366, 67.927831120324669 ] ] ] ] } },
{ "type": "Feature", "properties": { "fid": 71406, "navn": null, "hoyde_moh": null, "arealInnsjo_km2": 0.0043, "magasinKategori": null, "fid_2": 734, "id": 734, "left": 12.986919847, "top": 67.946110046000001, "right": 13.486919847, "bottom": 67.446110046000001, "row_index": 13, "col_index": 18, "tile_id": 734 }, "geometry": { "type": "MultiPolygon", "coordinates": [ [ [ [ 13.072591992140028, 67.938150413256253 ], [ 13.071806568902414, 67.937548981016946 ], [ 13.072051651815814, 67.937183961145465 ], [ 13.071588971949391, 67.937295183107466 ], [ 13.071331230769824, 67.937812595580411 ], [ 13.071343438339195, 67.938243444887931 ], [ 13.071585390817926, 67.938488555726124 ], [ 13.072184462853288, 67.938459690583684 ], [ 13.072591992140028, 67.938150413256253 ] ] ] ] } },
{ "type": "Feature", "properties": { "fid": 81785, "navn": "Kjølvatna", "hoyde_moh": null, "arealInnsjo_km2": 0.0115, "magasinKategori": null, "fid_2": 734, "id": 734, "left": 12.986919847, "top": 67.946110046000001, "right": 13.486919847, "bottom": 67.446110046000001, "row_index": 13, "col_index": 18, "tile_id": 734 }, "geometry": { "type": "MultiPolygon", "coordinates": [ [ [ [ 13.014234222484864, 67.915004621359643 ], [ 13.012623646752138, 67.914599288342103 ], [ 13.012736534767701, 67.914394268668573 ], [ 13.01244527856808, 67.914175385054051 ], [ 13.011836734008178, 67.914042392986644 ], [ 13.011358199293962, 67.914619863393568 ], [ 13.011798693480765, 67.915603285720252 ], [ 13.012736081326597, 67.915515924533622 ], [ 13.014234222484864, 67.915004621359643 ] ] ] ] } },
{ "type": "Feature", "properties": { "fid": 132467, "navn": null, "hoyde_moh": null, "arealInnsjo_km2": 0.0172, "magasinKategori": null, "fid_2": 734, "id": 734, "left": 12.986919847, "top": 67.946110046000001, "right": 13.486919847, "bottom": 67.446110046000001, "row_index": 13, "col_index": 18, "tile_id": 734 }, "geometry": { "type": "MultiPolygon", "coordinates": [ [ [ [ 13.038204817925367, 67.919151170896697 ], [ 13.03824603327468, 67.918945279810913 ], [ 13.038844251571499, 67.918638361762518 ], [ 13.039868997159013, 67.918363451715692 ], [ 13.03956987967932, 67.918234257379638 ], [ 13.039560023055083, 67.917785390807381 ], [ 13.038069287083765, 67.917651029549845 ], [ 13.035872035477762, 67.918818114949886 ], [ 13.036119700667291, 67.918991656698935 ], [ 13.036711501616457, 67.919043597164389 ], [ 13.036766323855373, 67.919241662669805 ], [ 13.037901540241574, 67.91935393185662 ], [ 13.038204817925367, 67.919151170896697 ] ] ] ] } },
{ "type": "Feature", "properties": { "fid": 144278, "navn": "Sørvågvatnet", "hoyde_moh": null, "arealInnsjo_km2": 0.2002, "magasinKategori": null, "fid_2": 734, "id": 734, "left": 12.986919847, "top": 67.946110046000001, "right": 13.486919847, "bottom": 67.446110046000001, "row_index": 13, "col_index": 18, "tile_id": 734 }, "geometry": { "type": "MultiPolygon", "coordinates": [ [ [ [ 13.021022385654716, 67.894349333397543 ], [ 13.02222294394516, 67.894238180288212 ], [ 13.022559721524077, 67.893919200754524 ], [ 13.023351128312429, 67.89385694871703 ], [ 13.023581283621569, 67.893671282046398 ], [ 13.02430074670497, 67.893895303607053 ], [ 13.025308844119019, 67.893808730967365 ], [ 13.022810993752662, 67.893204366464474 ], [ 13.022972801163926, 67.892981984073955 ], [ 13.022209593006584, 67.892712562664855 ], [ 13.022379973506611, 67.892669749649471 ], [ 13.022118782167958, 67.892379456959446 ], [ 13.022441831944798, 67.892221831352771 ], [ 13.021661663394035, 67.89214961479351 ], [ 13.021968769438995, 67.891902065127368 ], [ 13.02267101647392, 67.891766956078612 ], [ 13.023989873346222, 67.891944271752735 ], [ 13.024647017817211, 67.891613442678008 ], [ 13.024568876888347, 67.891296284066058 ], [ 13.024214016019755, 67.890986920582293 ], [ 13.024227704894752, 67.89082556655309 ], [ 13.024642094157381, 67.89071390305601 ], [ 13.024327462641141, 67.890494756702466 ], [ 13.022362778616195, 67.890067292300714 ], [ 13.018987905418948, 67.889981715955841 ], [ 13.018446915238238, 67.890181479708417 ], [ 13.019702795068872, 67.89053780551545 ], [ 13.019884938912535, 67.890916791894043 ], [ 13.02060199583072, 67.891167721765925 ], [ 13.020471355182572, 67.891300745104061 ], [ 13.019631913731295, 67.891371376065251 ], [ 13.016855160213485, 67.891059669236569 ], [ 13.016533150247747, 67.891255163974776 ], [ 13.015320517287069, 67.891031513681256 ], [ 13.015105973436386, 67.891159300777872 ], [ 13.015632946723182, 67.891365061049228 ], [ 13.01577039293705, 67.891683660122638 ], [ 13.014642850560588, 67.891777701842969 ], [ 13.014108555260234, 67.891618690464853 ], [ 13.013799889250789, 67.891327808791175 ], [ 13.01214803734598, 67.891146196989908 ], [ 13.01195155144757, 67.891215692876543 ], [ 13.011957745930079, 67.89142215421117 ], [ 13.011243965164539, 67.891691677949126 ], [ 13.010965428403644, 67.892163977697379 ], [ 13.011672415499515, 67.892253215642654 ], [ 13.011723973047735, 67.892765319380104 ], [ 13.01249471180026, 67.892945148831416 ], [ 13.012967664834177, 67.893264942103201 ], [ 13.011910659901917, 67.893368793306152 ], [ 13.011316202289262, 67.893074444420876 ], [ 13.01017803802497, 67.893015781118862 ], [ 13.010838271856393, 67.893373744824956 ], [ 13.010855236250276, 67.893732883209964 ], [ 13.011745752460323, 67.893905194349301 ], [ 13.013648292102376, 67.894780697570866 ], [ 13.014607971558778, 67.894980749548381 ], [ 13.016046697509083, 67.895150694275841 ], [ 13.016218642249425, 67.895089869957715 ], [ 13.016261526125971, 67.894866145637366 ], [ 13.017581132578435, 67.894756375211301 ], [ 13.017937956337851, 67.894482602797453 ], [ 13.019483151690643, 67.894240942487613 ], [ 13.021022385654716, 67.894349333397543 ] ], [ [ 13.016732642474064, 67.892691328679348 ], [ 13.017276902413057, 67.892733798630246 ], [ 13.017145708576807, 67.892875786189762 ], [ 13.016677415428221, 67.892780394191846 ], [ 13.016732642474064, 67.892691328679348 ] ], [ [ 13.01821942431417, 67.893974524452886 ], [ 13.018402938988185, 67.894057500059944 ], [ 13.018226437676105, 67.894172021519637 ], [ 13.017279108369713, 67.894106739272672 ], [ 13.01821942431417, 67.893974524452886 ] ] ] ] } },
{ "type": "Feature", "properties": { "fid": 151477, "navn": "Tridalsvatnet", "hoyde_moh": 103, "arealInnsjo_km2": 0.0901, "magasinKategori": null, "fid_2": 734, "id": 734, "left": 12.986919847, "top": 67.946110046000001, "right": 13.486919847, "bottom": 67.446110046000001, "row_index": 13, "col_index": 18, "tile_id": 734 }, "geometry": { "type": "MultiPolygon", "coordinates": [ [ [ [ 13.004260111486857, 67.910370137281973 ], [ 13.004839913899671, 67.90944395714034 ], [ 13.004904493742238, 67.908412809186743 ], [ 13.005260158734202, 67.907878730818808 ], [ 13.00472250182975, 67.907477371530263 ], [ 13.004836961099839, 67.907254429210255 ], [ 13.004244038909849, 67.906663956549153 ], [ 13.004176497611191, 67.906061922247076 ], [ 13.004472756411344, 67.905661723444624 ], [ 13.004462271675152, 67.905230876052769 ], [ 13.004000702566236, 67.905054771726313 ], [ 13.003329445976624, 67.905100449384292 ], [ 13.00356909302927, 67.904807333395581 ], [ 13.003211205718689, 67.904811864513519 ], [ 13.003034583783359, 67.904648196123148 ], [ 13.002740422953572, 67.904743324469663 ], [ 13.002981472409409, 67.905544883925685 ], [ 13.003281761971213, 67.905656216348547 ], [ 13.003212607416891, 67.90590662871719 ], [ 13.002106453625613, 67.906853319161257 ], [ 13.001440475035647, 67.907114414102281 ], [ 13.00103480173007, 67.90767479621357 ], [ 13.000258904335459, 67.908105042026136 ], [ 13.000255752858994, 67.908419070757404 ], [ 12.999968386224307, 67.908711780811188 ], [ 13.000072046212203, 67.908892420628376 ], [ 13.000628911989262, 67.909069695868979 ], [ 13.00042840348406, 67.909183817985721 ], [ 12.999600341867211, 67.909111008267701 ], [ 12.999613287491474, 67.909514966624101 ], [ 13.000033375823119, 67.909896964355951 ], [ 13.000332797853021, 67.910573611787825 ], [ 13.00080143647431, 67.910390967623528 ], [ 13.001507341296923, 67.910776350958244 ], [ 13.003184357573934, 67.910680099143207 ], [ 13.004260111486857, 67.910370137281973 ] ] ] ] } },
{ "type": "Feature", "properties": { "fid": 179241, "navn": "Moskenesvatnet", "hoyde_moh": 202, "arealInnsjo_km2": 0.1389, "magasinKategori": null, "fid_2": 734, "id": 734, "left": 12.986919847, "top": 67.946110046000001, "right": 13.486919847, "bottom": 67.446110046000001, "row_index": 13, "col_index": 18, "tile_id": 734 }, "geometry": { "type": "MultiPolygon", "coordinates": [ [ [ [ 13.027606088254657, 67.909431858621133 ], [ 13.028313885300694, 67.908955804405394 ], [ 13.028314379595937, 67.908668666779377 ], [ 13.028003793157467, 67.908395739828691 ], [ 13.02781935316308, 67.907478254213373 ], [ 13.028179299880961, 67.907168513991977 ], [ 13.026515588469811, 67.906269147206871 ], [ 13.027281568503016, 67.905668171974355 ], [ 13.028756735710507, 67.905416693218228 ], [ 13.02948364095962, 67.904994704056023 ], [ 13.028636120216085, 67.904589707012363 ], [ 13.025851759231429, 67.905103617526919 ], [ 13.024889733710078, 67.905486869903882 ], [ 13.023156979421062, 67.905403202451325 ], [ 13.021624413332557, 67.906048763507883 ], [ 13.020194293588961, 67.906049470986503 ], [ 13.019591586659962, 67.906410016500899 ], [ 13.019721361412962, 67.907685876071412 ], [ 13.019912781865846, 67.907957382739127 ], [ 13.020498336930357, 67.908359266964553 ], [ 13.02170380455407, 67.908759645654243 ], [ 13.021760000245422, 67.908939787937697 ], [ 13.022829495336014, 67.909257760297024 ], [ 13.024854382893466, 67.909273156576901 ], [ 13.02580865549494, 67.909545036165369 ], [ 13.027606088254657, 67.909431858621133 ] ] ] ] } },
{ "type": "Feature", "properties": { "fid": 191505, "navn": "Fjerddalsvatnet", "hoyde_moh": 222, "arealInnsjo_km2": 0.506, "magasinKategori": null, "fid_2": 734, "id": 734, "left": 12.986919847, "top": 67.946110046000001, "right": 13.486919847, "bottom": 67.446110046000001, "row_index": 13, "col_index": 18, "tile_id": 734 }, "geometry": { "type": "MultiPolygon", "coordinates": [ [ [ [ 12.997540360967818, 67.925013502356094 ], [ 12.999246268583414, 67.924316508766708 ], [ 13.000444834080927, 67.923415821208252 ], [ 13.000497946930917, 67.923075570826711 ], [ 13.000252818120831, 67.922875084089455 ], [ 13.000508045229447, 67.922680777439666 ], [ 13.000368452959549, 67.921530491826132 ], [ 12.99793365503669, 67.9193382599193 ], [ 12.997863065396963, 67.919050162751972 ], [ 12.998579654635803, 67.917928344273349 ], [ 12.999396698010941, 67.917301190887358 ], [ 13.000591039587222, 67.916445320550054 ], [ 13.002677387569456, 67.915474666049917 ], [ 13.002076565020246, 67.915251998204894 ], [ 13.000758574819047, 67.915325692873026 ], [ 12.998987349423547, 67.914855544613104 ], [ 12.998672939593414, 67.914627290144338 ], [ 12.999269335750425, 67.914069236100985 ], [ 12.999395444465431, 67.913711838631926 ], [ 12.998618723746507, 67.913594694568033 ], [ 12.998621627686974, 67.914115184089937 ], [ 12.998248932409885, 67.914290108744268 ], [ 12.995692809594987, 67.914070492248626 ], [ 12.993139672903343, 67.914093152914887 ], [ 12.989917697142577, 67.914681885329117 ], [ 12.987415003283052, 67.914947356664925 ], [ 12.986919847, 67.915264010788007 ], [ 12.986919847, 67.916859216333762 ], [ 12.987135112507119, 67.917079593376968 ], [ 12.987307384089842, 67.917844442518088 ], [ 12.987011993604886, 67.918226588550084 ], [ 12.987909799574178, 67.918874789230756 ], [ 12.987795119492777, 67.919097719004611 ], [ 12.988503534044394, 67.920281819032468 ], [ 12.990474932093861, 67.921203374990341 ], [ 12.991142806366394, 67.921202570446198 ], [ 12.99226302015802, 67.921763641018543 ], [ 12.993418098050871, 67.921921328044434 ], [ 12.993653884061649, 67.922229302165633 ], [ 12.993646533126096, 67.922588146721552 ], [ 12.993459873834391, 67.922819174240274 ], [ 12.993129379640203, 67.924161141083886 ], [ 12.993168367226223, 67.924538498389936 ], [ 12.994012122539759, 67.924988497272096 ], [ 12.996371982532757, 67.925190748715735 ], [ 12.997540360967818, 67.925013502356094 ] ] ] ] } },
{ "type": "Feature", "properties": { "fid": 194860, "navn": "Stuvdalsvatnet", "hoyde_moh": 80, "arealInnsjo_km2": 0.5049, "magasinKategori": null, "fid_2": 734, "id": 734, "left": 12.986919847, "top": 67.946110046000001, "right": 13.486919847, "bottom": 67.446110046000001, "row_index": 13, "col_index": 18, "tile_id": 734 }, "geometry": { "type": "MultiPolygon", "coordinates": [ [ [ [ 13.001186187155074, 67.903692474054381 ], [ 13.00373515654033, 67.90314919572009 ], [ 13.005722992318329, 67.902258614943307 ], [ 13.008505655272346, 67.902543111057625 ], [ 13.008774926159424, 67.902417969287313 ], [ 13.006241756689338, 67.901151685134153 ], [ 13.006058229370021, 67.900790522722261 ], [ 13.006418360255688, 67.900480830344918 ], [ 13.005873173317742, 67.900169114838434 ], [ 13.006168029061358, 67.899786843395944 ], [ 13.005815589142623, 67.899450548663992 ], [ 13.00611273988487, 67.899041385260219 ], [ 13.005700413138396, 67.898848025711331 ], [ 13.005499261489867, 67.898414771759292 ], [ 13.005512317136047, 67.898262383707561 ], [ 13.0062125449126, 67.897876064416536 ], [ 13.005380266061366, 67.897856978913879 ], [ 13.005695061637397, 67.897519817437896 ], [ 13.005559935043603, 67.897428442135293 ], [ 13.005079308858061, 67.8974764410749 ], [ 13.004548798328075, 67.897272488905401 ], [ 13.003060888092143, 67.897119792182394 ], [ 13.002949566911775, 67.897028793971089 ], [ 13.00312770264398, 67.896896361189476 ], [ 13.002872856478987, 67.896534326479085 ], [ 13.001456296544363, 67.896938830679559 ], [ 13.001165362677957, 67.896719927277005 ], [ 12.999849427552279, 67.89678465582152 ], [ 12.998650857892446, 67.897146926075095 ], [ 12.996163681943147, 67.89752935406446 ], [ 12.99402599283847, 67.896902024824172 ], [ 12.992403717399981, 67.896927056004088 ], [ 12.991054131013728, 67.89793350901104 ], [ 12.988966762886969, 67.898652738879264 ], [ 12.987903210110352, 67.898828145995125 ], [ 12.987004896033424, 67.900674626553027 ], [ 12.987490607427205, 67.901120279037784 ], [ 12.98724148760553, 67.901521027780774 ], [ 12.988136345647783, 67.902196029242873 ], [ 12.990754772416025, 67.902506274176659 ], [ 12.993093623798652, 67.903019446708313 ], [ 12.993805352441729, 67.903333240960507 ], [ 12.997911494804807, 67.903805117322364 ], [ 13.001186187155074, 67.903692474054381 ] ] ] ] } },
{ "type": "Feature", "properties": { "fid": 205937, "navn": "Tindsvatnet", "hoyde_moh": 11, "arealInnsjo_km2": 0.1132, "magasinKategori": null, "fid_2": 734, "id": 734, "left": 12.986919847, "top": 67.946110046000001, "right": 13.486919847, "bottom": 67.446110046000001, "row_index": 13, "col_index": 18, "tile_id": 734 }, "geometry": { "type": "MultiPolygon", "coordinates": [ [ [ [ 13.002928644843214, 67.892550838393689 ], [ 13.004702067391163, 67.89242883746924 ], [ 13.005301323688645, 67.892660456286322 ], [ 13.005474037946435, 67.89259076885709 ], [ 13.005953792224313, 67.891717211943543 ], [ 13.004470117594501, 67.890685187934551 ], [ 13.004632081999171, 67.890462823883439 ], [ 13.004460933939329, 67.89023640890467 ], [ 13.004159307770188, 67.890142917196627 ], [ 13.003573658431382, 67.890306376094912 ], [ 13.003158439862162, 67.890148776684114 ], [ 13.002666420162262, 67.890331318512366 ], [ 13.001369373781076, 67.889902660998828 ], [ 13.001661863629131, 67.889547289055074 ], [ 13.002606695025726, 67.889361379458052 ], [ 13.002242929070123, 67.889159537028618 ], [ 12.998914998922494, 67.889361265142526 ], [ 12.997843468873334, 67.889635341576309 ], [ 12.997315198562127, 67.890239084255725 ], [ 12.996720254173464, 67.890509996553433 ], [ 12.996969543156126, 67.890934788492842 ], [ 12.996729062710624, 67.891515212014028 ], [ 12.997972372560548, 67.892014857992294 ], [ 12.999003712384249, 67.893041427739533 ], [ 13.001725676405041, 67.89324508917025 ], [ 13.002928644843214, 67.892550838393689 ] ] ] ] } },
{ "type": "Feature", "properties": { "fid": 215455, "navn": "Austerdalsvatnet", "hoyde_moh": 229, "arealInnsjo_km2": 0.1655, "magasinKategori": null, "fid_2": 734, "id": 734, "left": 12.986919847, "top": 67.946110046000001, "right": 13.486919847, "bottom": 67.446110046000001, "row_index": 13, "col_index": 18, "tile_id": 734 }, "geometry": { "type": "MultiPolygon", "coordinates": [ [ [ [ 13.033134248854186, 67.92975967137221 ], [ 13.034385342424146, 67.929918212680775 ], [ 13.037840230579082, 67.929124997445442 ], [ 13.038081215861094, 67.928813813643274 ], [ 13.03813039314921, 67.928231144153187 ], [ 13.038358505408203, 67.928072350383076 ], [ 13.038059640797947, 67.927090795200058 ], [ 13.037402970209179, 67.926391927909719 ], [ 13.038468545905264, 67.925920100998013 ], [ 13.040574591646214, 67.926124694358137 ], [ 13.041686003043139, 67.925671340296589 ], [ 13.044542468088459, 67.925175945913153 ], [ 13.045255678790864, 67.924637070530281 ], [ 13.045252721539022, 67.924385697252092 ], [ 13.043778122362385, 67.924054174872694 ], [ 13.042566312926924, 67.924282016689375 ], [ 13.042454393143759, 67.92447809285602 ], [ 13.041691530417095, 67.924756142965293 ], [ 13.036976332147962, 67.925229290136045 ], [ 13.035142129622264, 67.925763702691 ], [ 13.033657730877051, 67.926391924601901 ], [ 13.031275988962905, 67.926910858504627 ], [ 13.030271843808924, 67.927500028812787 ], [ 13.030569798315815, 67.927925341234328 ], [ 13.029423352834966, 67.928503828068472 ], [ 13.029494644667555, 67.929069995407517 ], [ 13.030679781276021, 67.929443131567808 ], [ 13.03098308325584, 67.929805694473956 ], [ 13.032359407986721, 67.929893966265581 ], [ 13.033134248854186, 67.92975967137221 ] ] ] ] } },
{ "type": "Feature", "properties": { "fid": 224489, "navn": "Reinevatnet", "hoyde_moh": 67, "arealInnsjo_km2": 0.1655, "magasinKategori": null, "fid_2": 734, "id": 734, "left": 12.986919847, "top": 67.946110046000001, "right": 13.486919847, "bottom": 67.446110046000001, "row_index": 13, "col_index": 18, "tile_id": 734 }, "geometry": { "type": "MultiPolygon", "coordinates": [ [ [ [ 13.061784491649599, 67.934667399859492 ], [ 13.067035237043726, 67.934657363420484 ], [ 13.069536165453261, 67.934139491214012 ], [ 13.069464638163481, 67.933851513306223 ], [ 13.070047182227759, 67.933445594739638 ], [ 13.070046404796509, 67.932880283283438 ], [ 13.069811732811761, 67.932545524264697 ], [ 13.068615379632289, 67.931723893433784 ], [ 13.066408275308762, 67.931294151286664 ], [ 13.063546416409981, 67.931278399193346 ], [ 13.061163438658049, 67.931528467410871 ], [ 13.060026544353994, 67.931999687023364 ], [ 13.057889192962312, 67.932449926674096 ], [ 13.057290117904614, 67.932765877606144 ], [ 13.057361483644303, 67.933053950185908 ], [ 13.058506216904705, 67.933632692944045 ], [ 13.058446302805239, 67.934349832832353 ], [ 13.059030938139429, 67.934778473715753 ], [ 13.061128850216381, 67.934803235962249 ], [ 13.061784491649599, 67.934667399859492 ] ] ] ] } },
{ "type": "Feature", "properties": { "fid": 268532, "navn": "Tennesvatnet", "hoyde_moh": 239, "arealInnsjo_km2": 0.8735, "magasinKategori": 1, "fid_2": 734, "id": 734, "left": 12.986919847, "top": 67.946110046000001, "right": 13.486919847, "bottom": 67.446110046000001, "row_index": 13, "col_index": 18, "tile_id": 734 }, "geometry": { "type": "MultiPolygon", "coordinates": [ [ [ [ 13.003543155628057, 67.937891561083546 ], [ 13.006590115757977, 67.93659152106865 ], [ 13.007126904035486, 67.935898113688765 ], [ 13.006815434844503, 67.935355939120456 ], [ 13.006450687413242, 67.935154013048077 ], [ 13.006455533260581, 67.934265805237217 ], [ 13.005803453438659, 67.933522083622819 ], [ 13.005245209973202, 67.93307561694445 ], [ 13.003592835376546, 67.932310767530581 ], [ 13.002565738175983, 67.931212515767996 ], [ 13.001616233278133, 67.930877932248933 ], [ 13.000364544096463, 67.930728105825253 ], [ 12.999830148300385, 67.930838255296734 ], [ 12.999641701607086, 67.931087214578056 ], [ 12.999174941779996, 67.931243051985092 ], [ 12.998698233899306, 67.931237247037004 ], [ 12.997671100866405, 67.930973481410177 ], [ 12.997013873486289, 67.930570644958621 ], [ 12.996774212400883, 67.930029323209027 ], [ 12.996463537231074, 67.928374440823873 ], [ 12.996184624877252, 67.928012105962353 ], [ 12.995706566079182, 67.927746048171969 ], [ 12.994207777765059, 67.927144490717922 ], [ 12.993478290057983, 67.927027993162611 ], [ 12.990390101333691, 67.926873596567901 ], [ 12.986919847, 67.927042643131756 ], [ 12.986919847, 67.935009754211123 ], [ 12.987210854684198, 67.935215722875057 ], [ 12.987504235200737, 67.935685930829933 ], [ 12.987910841589803, 67.935951136822396 ], [ 12.988521371745787, 67.936066290322543 ], [ 12.989293930079947, 67.936515438172719 ], [ 12.989887997946363, 67.937096999654727 ], [ 12.990666810696002, 67.937474519759746 ], [ 12.991751737088325, 67.937900463571026 ], [ 12.993351325350881, 67.938171253159965 ], [ 12.995321874787484, 67.938015831307794 ], [ 12.996886850698324, 67.938411790468436 ], [ 13.000000020541048, 67.938513230643863 ], [ 13.003543155628057, 67.937891561083546 ] ] ] ] } }
]
}
