{
"type": "FeatureCollection",
"name": "innsjo_tile_id_1732",
"crs": { "type": "name", "properties": { "name": "urn:ogc:def:crs:OGC:1.3:CRS84" } },
"xy_coordinate_resolution": 1e-15,
"features": [
{ "type": "Feature", "properties": { "fid": 256891, "navn": null, "hoyde_moh": 231, "arealInnsjo_km2": 0.0119, "magasinKategori": null, "fid_2": 1732, "id": 1732, "left": 25.486919847, "top": 68.946110046000001, "right": 25.986919847, "bottom": 68.446110046000001, "row_index": 11, "col_index": 43, "tile_id": 1732 }, "geometry": { "type": "MultiPolygon", "coordinates": [ [ [ [ 25.601542523979752, 68.89849756917701 ], [ 25.602073144270101, 68.898116169648219 ], [ 25.599068966861832, 68.89794609447074 ], [ 25.598316790935471, 68.89836512793751 ], [ 25.598887793897088, 68.898781410224288 ], [ 25.600512347687467, 68.898884961360167 ], [ 25.601082792030454, 68.899061183035101 ], [ 25.601561152417837, 68.898949055550915 ], [ 25.601542523979752, 68.89849756917701 ] ] ] ] } },
{ "type": "Feature", "properties": { "fid": 256892, "navn": null, "hoyde_moh": 230, "arealInnsjo_km2": 0.0025, "magasinKategori": null, "fid_2": 1732, "id": 1732, "left": 25.486919847, "top": 68.946110046000001, "right": 25.986919847, "bottom": 68.446110046000001, "row_index": 11, "col_index": 43, "tile_id": 1732 }, "geometry": { "type": "MultiPolygon", "coordinates": [ [ [ [ 25.598095412123186, 68.898730875776351 ], [ 25.598119395359877, 68.898576392981653 ], [ 25.597524421801737, 68.898638797647862 ], [ 25.596798217202657, 68.89931035703367 ], [ 25.597485893767917, 68.89934195815529 ], [ 25.598095412123186, 68.898730875776351 ] ] ] ] } },
{ "type": "Feature", "properties": { "fid": 256893, "navn": null, "hoyde_moh": 269, "arealInnsjo_km2": 0.0075, "magasinKategori": null, "fid_2": 1732, "id": 1732, "left": 25.486919847, "top": 68.946110046000001, "right": 25.986919847, "bottom": 68.446110046000001, "row_index": 11, "col_index": 43, "tile_id": 1732 }, "geometry": { "type": "MultiPolygon", "coordinates": [ [ [ [ 25.524795946942799, 68.922562290382913 ], [ 25.525054332497767, 68.92242555266327 ], [ 25.524800254271689, 68.922296179255483 ], [ 25.523496040760243, 68.922190458926167 ], [ 25.52281645615189, 68.921977552468846 ], [ 25.521945440842202, 68.922548767911849 ], [ 25.52243526082912, 68.922771064528206 ], [ 25.525077391500933, 68.922796674793531 ], [ 25.524795946942799, 68.922562290382913 ] ] ] ] } },
{ "type": "Feature", "properties": { "fid": 256930, "navn": null, "hoyde_moh": 231, "arealInnsjo_km2": 0.0055, "magasinKategori": null, "fid_2": 1732, "id": 1732, "left": 25.486919847, "top": 68.946110046000001, "right": 25.986919847, "bottom": 68.446110046000001, "row_index": 11, "col_index": 43, "tile_id": 1732 }, "geometry": { "type": "MultiPolygon", "coordinates": [ [ [ [ 25.592935903226543, 68.900209346702113 ], [ 25.592451396994672, 68.900025153519948 ], [ 25.592552606957234, 68.899597935853919 ], [ 25.592359396563779, 68.899500894066463 ], [ 25.590721385512165, 68.900631238420246 ], [ 25.5924978870244, 68.900660553763458 ], [ 25.592935903226543, 68.900209346702113 ] ] ] ] } },
{ "type": "Feature", "properties": { "fid": 256958, "navn": null, "hoyde_moh": 245, "arealInnsjo_km2": 0.0029, "magasinKategori": null, "fid_2": 1732, "id": 1732, "left": 25.486919847, "top": 68.946110046000001, "right": 25.986919847, "bottom": 68.446110046000001, "row_index": 11, "col_index": 43, "tile_id": 1732 }, "geometry": { "type": "MultiPolygon", "coordinates": [ [ [ [ 25.567047819209655, 68.94003440208256 ], [ 25.567493075933591, 68.939746919031933 ], [ 25.567524711721195, 68.939517489659963 ], [ 25.56658274212894, 68.93960680856425 ], [ 25.566723343441137, 68.93982163832348 ], [ 25.566308391960554, 68.939880591081433 ], [ 25.566500489423145, 68.940136069650578 ], [ 25.567114475029374, 68.940390203603172 ], [ 25.567851851406321, 68.940408252865723 ], [ 25.567047819209655, 68.94003440208256 ] ] ] ] } },
{ "type": "Feature", "properties": { "fid": 256963, "navn": "Vuolitjávri", "hoyde_moh": 203, "arealInnsjo_km2": 0.0121, "magasinKategori": null, "fid_2": 1732, "id": 1732, "left": 25.486919847, "top": 68.946110046000001, "right": 25.986919847, "bottom": 68.446110046000001, "row_index": 11, "col_index": 43, "tile_id": 1732 }, "geometry": { "type": "MultiPolygon", "coordinates": [ [ [ [ 25.661672242569264, 68.932686897405858 ], [ 25.661162569833014, 68.932474710987321 ], [ 25.660966165365171, 68.931942632005132 ], [ 25.660618456504888, 68.93163853044787 ], [ 25.660034488746113, 68.931369257050406 ], [ 25.659041638984402, 68.931212586904465 ], [ 25.658647988280187, 68.931303149554068 ], [ 25.658573767175145, 68.931439759689454 ], [ 25.658754018939515, 68.931710744417842 ], [ 25.660571874239057, 68.932921524582611 ], [ 25.661121585297259, 68.933150534698385 ], [ 25.661481094011137, 68.933047406863537 ], [ 25.661672242569264, 68.932686897405858 ] ] ] ] } },
{ "type": "Feature", "properties": { "fid": 256999, "navn": null, "hoyde_moh": 198, "arealInnsjo_km2": 0.004, "magasinKategori": null, "fid_2": 1732, "id": 1732, "left": 25.486919847, "top": 68.946110046000001, "right": 25.986919847, "bottom": 68.446110046000001, "row_index": 11, "col_index": 43, "tile_id": 1732 }, "geometry": { "type": "MultiPolygon", "coordinates": [ [ [ [ 25.624717149802137, 68.900535883075506 ], [ 25.624438833962213, 68.900248918248735 ], [ 25.623852055228593, 68.90015119401393 ], [ 25.623168916597749, 68.900309822658656 ], [ 25.623168636581561, 68.900473816278364 ], [ 25.62371869892532, 68.900881642946672 ], [ 25.62446872646337, 68.900963987601273 ], [ 25.624717149802137, 68.900535883075506 ] ] ] ] } },
{ "type": "Feature", "properties": { "fid": 257034, "navn": null, "hoyde_moh": 202, "arealInnsjo_km2": 0.0091, "magasinKategori": null, "fid_2": 1732, "id": 1732, "left": 25.486919847, "top": 68.946110046000001, "right": 25.986919847, "bottom": 68.446110046000001, "row_index": 11, "col_index": 43, "tile_id": 1732 }, "geometry": { "type": "MultiPolygon", "coordinates": [ [ [ [ 25.624885760858088, 68.902449001715965 ], [ 25.624427016271426, 68.902202301161822 ], [ 25.622964214089841, 68.902132641567775 ], [ 25.623050670850535, 68.901952949441153 ], [ 25.622495597646576, 68.901835958843918 ], [ 25.621849246000103, 68.901891330807828 ], [ 25.621866946538084, 68.902193092775747 ], [ 25.622520221823802, 68.902781196357651 ], [ 25.623937913262985, 68.902931288391912 ], [ 25.624885760858088, 68.902449001715965 ] ] ] ] } },
{ "type": "Feature", "properties": { "fid": 257066, "navn": null, "hoyde_moh": 235, "arealInnsjo_km2": 0.0052, "magasinKategori": null, "fid_2": 1732, "id": 1732, "left": 25.486919847, "top": 68.946110046000001, "right": 25.986919847, "bottom": 68.446110046000001, "row_index": 11, "col_index": 43, "tile_id": 1732 }, "geometry": { "type": "MultiPolygon", "coordinates": [ [ [ [ 25.492274485584016, 68.911475249916478 ], [ 25.49181269014051, 68.910949550394321 ], [ 25.490614188282397, 68.910686378632803 ], [ 25.490376944513407, 68.910901480543217 ], [ 25.490456763215423, 68.911191394988407 ], [ 25.491410869993853, 68.911650501379484 ], [ 25.492134263093025, 68.911652349832821 ], [ 25.492274485584016, 68.911475249916478 ] ] ] ] } },
{ "type": "Feature", "properties": { "fid": 257152, "navn": null, "hoyde_moh": 207, "arealInnsjo_km2": 0.0026, "magasinKategori": null, "fid_2": 1732, "id": 1732, "left": 25.486919847, "top": 68.946110046000001, "right": 25.986919847, "bottom": 68.446110046000001, "row_index": 11, "col_index": 43, "tile_id": 1732 }, "geometry": { "type": "MultiPolygon", "coordinates": [ [ [ [ 25.522367296600862, 68.892091482345791 ], [ 25.522165500585892, 68.891933793064069 ], [ 25.522290437885786, 68.891704654557216 ], [ 25.521267707219213, 68.891751363424831 ], [ 25.520917702176462, 68.892082108924399 ], [ 25.521440235865516, 68.892203057700911 ], [ 25.522367296600862, 68.892091482345791 ] ] ] ] } },
{ "type": "Feature", "properties": { "fid": 257154, "navn": null, "hoyde_moh": 198, "arealInnsjo_km2": 0.0104, "magasinKategori": null, "fid_2": 1732, "id": 1732, "left": 25.486919847, "top": 68.946110046000001, "right": 25.986919847, "bottom": 68.446110046000001, "row_index": 11, "col_index": 43, "tile_id": 1732 }, "geometry": { "type": "MultiPolygon", "coordinates": [ [ [ [ 25.554314549301459, 68.889743722881136 ], [ 25.555163082377163, 68.889646319800832 ], [ 25.55529906941215, 68.889534342995447 ], [ 25.555185979192967, 68.889299821647583 ], [ 25.555744998044247, 68.888912460402821 ], [ 25.556076173461587, 68.888454449298578 ], [ 25.555443832065382, 68.888001051769464 ], [ 25.555246194891669, 68.888013891353125 ], [ 25.554942972002234, 68.888252429142952 ], [ 25.555284933715846, 68.888432824288586 ], [ 25.554906464978206, 68.888940664779156 ], [ 25.555129823697154, 68.888968086876801 ], [ 25.555025035839844, 68.889180292401178 ], [ 25.554260910167354, 68.889148060880032 ], [ 25.553914834509492, 68.889406992340767 ], [ 25.552621384191962, 68.889779409875672 ], [ 25.552711821330902, 68.889949226891034 ], [ 25.552591908298186, 68.890059558008971 ], [ 25.551896784077528, 68.890332538086525 ], [ 25.552423685135498, 68.890351395253475 ], [ 25.554314549301459, 68.889743722881136 ] ] ] ] } },
{ "type": "Feature", "properties": { "fid": 257192, "navn": "Bartageavgŋájávrrit", "hoyde_moh": 208, "arealInnsjo_km2": 0.0454, "magasinKategori": null, "fid_2": 1732, "id": 1732, "left": 25.486919847, "top": 68.946110046000001, "right": 25.986919847, "bottom": 68.446110046000001, "row_index": 11, "col_index": 43, "tile_id": 1732 }, "geometry": { "type": "MultiPolygon", "coordinates": [ [ [ [ 25.534990827556818, 68.892549589656255 ], [ 25.535011839976388, 68.892353999563952 ], [ 25.536729822031987, 68.892155460313617 ], [ 25.539371885876673, 68.891336967061406 ], [ 25.539471217640742, 68.891114676036693 ], [ 25.539299143575928, 68.890941517684467 ], [ 25.540528414949442, 68.891162608994151 ], [ 25.540841638659131, 68.890850275119135 ], [ 25.540057660773954, 68.890698874099229 ], [ 25.540125670854913, 68.890517779118326 ], [ 25.540015248036884, 68.890479456418234 ], [ 25.539486639329542, 68.890506716880878 ], [ 25.539008491938546, 68.890787403554882 ], [ 25.539068637163503, 68.891036865134993 ], [ 25.53838317529781, 68.891467394143618 ], [ 25.537685362741733, 68.891085160883947 ], [ 25.537206850860166, 68.891015002065842 ], [ 25.537072933726343, 68.89041911258073 ], [ 25.538129257022799, 68.889671383896285 ], [ 25.539236862675523, 68.889312897736787 ], [ 25.537788911370114, 68.889629096853014 ], [ 25.537581318838512, 68.889952072825608 ], [ 25.536638376584641, 68.890400971699407 ], [ 25.534316570829471, 68.890267072902773 ], [ 25.533126901257802, 68.890684601392252 ], [ 25.533199975274695, 68.891389377475335 ], [ 25.533018166253775, 68.891762955918921 ], [ 25.533566124382009, 68.892263293050888 ], [ 25.533568354060581, 68.892631813768645 ], [ 25.534269842929501, 68.892835360971645 ], [ 25.534990827556818, 68.892549589656255 ] ], [ [ 25.536980199232058, 68.891524544439761 ], [ 25.537341936317162, 68.891371491903755 ], [ 25.537612308832959, 68.891594451915523 ], [ 25.537485227794317, 68.891736642062085 ], [ 25.537024393992905, 68.891742487583969 ], [ 25.536980199232058, 68.891524544439761 ] ], [ [ 25.535075715559135, 68.892003505200009 ], [ 25.535690290685853, 68.89204953970237 ], [ 25.535603122478538, 68.892101403022991 ], [ 25.535101875717437, 68.892118580284986 ], [ 25.535075715559135, 68.892003505200009 ] ] ] ] } },
{ "type": "Feature", "properties": { "fid": 257193, "navn": null, "hoyde_moh": 209, "arealInnsjo_km2": 0.0094, "magasinKategori": null, "fid_2": 1732, "id": 1732, "left": 25.486919847, "top": 68.946110046000001, "right": 25.986919847, "bottom": 68.446110046000001, "row_index": 11, "col_index": 43, "tile_id": 1732 }, "geometry": { "type": "MultiPolygon", "coordinates": [ [ [ [ 25.527950131051163, 68.893397420613141 ], [ 25.529259248330117, 68.892978379841878 ], [ 25.529018994687146, 68.892848257487415 ], [ 25.526549450178308, 68.893099120861336 ], [ 25.523235121445008, 68.893683173952141 ], [ 25.523461639111208, 68.893795269953358 ], [ 25.527950131051163, 68.893397420613141 ] ] ] ] } },
{ "type": "Feature", "properties": { "fid": 257195, "navn": null, "hoyde_moh": 222, "arealInnsjo_km2": 0.0026, "magasinKategori": null, "fid_2": 1732, "id": 1732, "left": 25.486919847, "top": 68.946110046000001, "right": 25.986919847, "bottom": 68.446110046000001, "row_index": 11, "col_index": 43, "tile_id": 1732 }, "geometry": { "type": "MultiPolygon", "coordinates": [ [ [ [ 25.624022884699489, 68.907867302793505 ], [ 25.62320735502907, 68.907458030744095 ], [ 25.62331486739031, 68.907351232907274 ], [ 25.623201673186681, 68.907145244121224 ], [ 25.62299212851957, 68.907059158079193 ], [ 25.622774345312017, 68.907184534387454 ], [ 25.62276595861962, 68.907627753126008 ], [ 25.623007196887858, 68.907938955952318 ], [ 25.624022884699489, 68.907867302793505 ] ] ] ] } },
{ "type": "Feature", "properties": { "fid": 257261, "navn": null, "hoyde_moh": 195, "arealInnsjo_km2": 0.0043, "magasinKategori": null, "fid_2": 1732, "id": 1732, "left": 25.486919847, "top": 68.946110046000001, "right": 25.986919847, "bottom": 68.446110046000001, "row_index": 11, "col_index": 43, "tile_id": 1732 }, "geometry": { "type": "MultiPolygon", "coordinates": [ [ [ [ 25.6088463041879, 68.890436256206726 ], [ 25.608046582639755, 68.889762253593247 ], [ 25.607146905910543, 68.889725803166897 ], [ 25.607206062545409, 68.890223795710526 ], [ 25.607566343289001, 68.890414947160181 ], [ 25.608848044521935, 68.890602569082816 ], [ 25.6088463041879, 68.890436256206726 ] ] ] ] } },
{ "type": "Feature", "properties": { "fid": 257262, "navn": null, "hoyde_moh": 226, "arealInnsjo_km2": 0.0139, "magasinKategori": null, "fid_2": 1732, "id": 1732, "left": 25.486919847, "top": 68.946110046000001, "right": 25.986919847, "bottom": 68.446110046000001, "row_index": 11, "col_index": 43, "tile_id": 1732 }, "geometry": { "type": "MultiPolygon", "coordinates": [ [ [ [ 25.614151157464047, 68.910898088010811 ], [ 25.614277858268188, 68.909966683628369 ], [ 25.613833535932276, 68.909755471820958 ], [ 25.612505980043274, 68.910095240567045 ], [ 25.61122840325223, 68.910018878106442 ], [ 25.610863369892886, 68.910126886803397 ], [ 25.611501757563843, 68.910591422449912 ], [ 25.611631049528551, 68.910911317440139 ], [ 25.612349256241355, 68.911254911209284 ], [ 25.614151157464047, 68.910898088010811 ] ] ] ] } },
{ "type": "Feature", "properties": { "fid": 257292, "navn": null, "hoyde_moh": 256, "arealInnsjo_km2": 0.0025, "magasinKategori": null, "fid_2": 1732, "id": 1732, "left": 25.486919847, "top": 68.946110046000001, "right": 25.986919847, "bottom": 68.446110046000001, "row_index": 11, "col_index": 43, "tile_id": 1732 }, "geometry": { "type": "MultiPolygon", "coordinates": [ [ [ [ 25.58612864520191, 68.893597728589285 ], [ 25.585505991326713, 68.893416666986354 ], [ 25.585030134999521, 68.893466642888413 ], [ 25.584811996303273, 68.893733147984733 ], [ 25.584976603608737, 68.893789479367683 ], [ 25.584705720817659, 68.893860456654821 ], [ 25.58515639198858, 68.893950136594313 ], [ 25.585477086612254, 68.89376538927101 ], [ 25.585773814322341, 68.893986462310494 ], [ 25.586125439721297, 68.893958916312229 ], [ 25.58612864520191, 68.893597728589285 ] ] ] ] } },
{ "type": "Feature", "properties": { "fid": 257294, "navn": null, "hoyde_moh": 249, "arealInnsjo_km2": 0.0042, "magasinKategori": null, "fid_2": 1732, "id": 1732, "left": 25.486919847, "top": 68.946110046000001, "right": 25.986919847, "bottom": 68.446110046000001, "row_index": 11, "col_index": 43, "tile_id": 1732 }, "geometry": { "type": "MultiPolygon", "coordinates": [ [ [ [ 25.596439859282146, 68.913130796426884 ], [ 25.595946566385006, 68.912619489317791 ], [ 25.594517087024833, 68.912607137830491 ], [ 25.595163907627096, 68.91288097291212 ], [ 25.595194634839984, 68.913254572285652 ], [ 25.595990170078849, 68.913307947815653 ], [ 25.596439859282146, 68.913130796426884 ] ] ] ] } },
{ "type": "Feature", "properties": { "fid": 257295, "navn": null, "hoyde_moh": 211, "arealInnsjo_km2": 0.0318, "magasinKategori": null, "fid_2": 1732, "id": 1732, "left": 25.486919847, "top": 68.946110046000001, "right": 25.986919847, "bottom": 68.446110046000001, "row_index": 11, "col_index": 43, "tile_id": 1732 }, "geometry": { "type": "MultiPolygon", "coordinates": [ [ [ [ 25.631931379300998, 68.910932808127754 ], [ 25.631593110657811, 68.910444217439846 ], [ 25.631750299643262, 68.909933368977093 ], [ 25.630465697355202, 68.90907139974621 ], [ 25.630660093367272, 68.908763612305663 ], [ 25.630043987009028, 68.908078510842401 ], [ 25.628764723769802, 68.907671798713267 ], [ 25.627602650193396, 68.907556938225895 ], [ 25.627745312255968, 68.907684393660048 ], [ 25.62761282781948, 68.907823839632542 ], [ 25.627694570198283, 68.90805842927945 ], [ 25.628552521470816, 68.908807411905201 ], [ 25.628698168940087, 68.90929379670672 ], [ 25.629156149425754, 68.909661462233828 ], [ 25.629337585744967, 68.910163305874988 ], [ 25.629645113381851, 68.910321608865004 ], [ 25.629922835524845, 68.910759965307989 ], [ 25.630541885434099, 68.911039070914569 ], [ 25.631480403867545, 68.911076630036376 ], [ 25.631931379300998, 68.910932808127754 ] ] ] ] } },
{ "type": "Feature", "properties": { "fid": 257296, "navn": "Ruovdegáldu", "hoyde_moh": 241, "arealInnsjo_km2": 0.0036, "magasinKategori": null, "fid_2": 1732, "id": 1732, "left": 25.486919847, "top": 68.946110046000001, "right": 25.986919847, "bottom": 68.446110046000001, "row_index": 11, "col_index": 43, "tile_id": 1732 }, "geometry": { "type": "MultiPolygon", "coordinates": [ [ [ [ 25.545205938475302, 68.932379086360584 ], [ 25.54438772632837, 68.932277629268384 ], [ 25.543028251383603, 68.932589290481815 ], [ 25.544411926380061, 68.932862689016815 ], [ 25.545205938475302, 68.932379086360584 ] ] ] ] } },
{ "type": "Feature", "properties": { "fid": 257339, "navn": null, "hoyde_moh": 226, "arealInnsjo_km2": 0.0219, "magasinKategori": null, "fid_2": 1732, "id": 1732, "left": 25.486919847, "top": 68.946110046000001, "right": 25.986919847, "bottom": 68.446110046000001, "row_index": 11, "col_index": 43, "tile_id": 1732 }, "geometry": { "type": "MultiPolygon", "coordinates": [ [ [ [ 25.621556760821473, 68.911646194884014 ], [ 25.620634981151447, 68.910923916042321 ], [ 25.620465784905644, 68.910153490846781 ], [ 25.619664430868042, 68.909494573983196 ], [ 25.619586618318213, 68.908947503382848 ], [ 25.619062561351264, 68.908614780913013 ], [ 25.617894686590979, 68.908865504716886 ], [ 25.617865611203673, 68.909246066889139 ], [ 25.618681530235033, 68.909945496426516 ], [ 25.618875899676468, 68.910732048763577 ], [ 25.619746413061488, 68.911058663414607 ], [ 25.619679736657861, 68.911199222402374 ], [ 25.620487155065781, 68.911421340928811 ], [ 25.621061889863711, 68.91225070135809 ], [ 25.621619194653082, 68.912335410886286 ], [ 25.621556760821473, 68.911646194884014 ] ] ] ] } },
{ "type": "Feature", "properties": { "fid": 257340, "navn": null, "hoyde_moh": 225, "arealInnsjo_km2": 0.0046, "magasinKategori": null, "fid_2": 1732, "id": 1732, "left": 25.486919847, "top": 68.946110046000001, "right": 25.986919847, "bottom": 68.446110046000001, "row_index": 11, "col_index": 43, "tile_id": 1732 }, "geometry": { "type": "MultiPolygon", "coordinates": [ [ [ [ 25.615269258845306, 68.912801262934735 ], [ 25.614679931960779, 68.912335733603513 ], [ 25.612738348004889, 68.911736321303522 ], [ 25.611805055918886, 68.911642914970798 ], [ 25.613829330020419, 68.912401284138525 ], [ 25.614097275147135, 68.912676203115367 ], [ 25.615255059912617, 68.912946053905046 ], [ 25.615269258845306, 68.912801262934735 ] ] ] ] } },
{ "type": "Feature", "properties": { "fid": 257366, "navn": "Njállajávri", "hoyde_moh": 208, "arealInnsjo_km2": 0.0167, "magasinKategori": null, "fid_2": 1732, "id": 1732, "left": 25.486919847, "top": 68.946110046000001, "right": 25.986919847, "bottom": 68.446110046000001, "row_index": 11, "col_index": 43, "tile_id": 1732 }, "geometry": { "type": "MultiPolygon", "coordinates": [ [ [ [ 25.505021258583948, 68.901898663198423 ], [ 25.504886382159093, 68.901676570473711 ], [ 25.502727100784156, 68.901160423568271 ], [ 25.502782525644303, 68.900963979745157 ], [ 25.502307030873141, 68.900880813736393 ], [ 25.502317824978942, 68.900676979709601 ], [ 25.502001062442147, 68.900598906832272 ], [ 25.501851483304147, 68.900473180315061 ], [ 25.502062804946881, 68.900413513014641 ], [ 25.501672287258486, 68.900221154304305 ], [ 25.501037807655329, 68.900389106108335 ], [ 25.501435407461443, 68.90045233507918 ], [ 25.500849879631581, 68.900576821387489 ], [ 25.500672181811797, 68.900865161335943 ], [ 25.500686168685608, 68.901110680019954 ], [ 25.501847310981944, 68.901531022743555 ], [ 25.502167038064531, 68.901985446121031 ], [ 25.503687673494301, 68.902238705080464 ], [ 25.505021258583948, 68.901898663198423 ] ] ] ] } },
{ "type": "Feature", "properties": { "fid": 257445, "navn": null, "hoyde_moh": 210, "arealInnsjo_km2": 0.0031, "magasinKategori": null, "fid_2": 1732, "id": 1732, "left": 25.486919847, "top": 68.946110046000001, "right": 25.986919847, "bottom": 68.446110046000001, "row_index": 11, "col_index": 43, "tile_id": 1732 }, "geometry": { "type": "MultiPolygon", "coordinates": [ [ [ [ 25.502016392381829, 68.903953246790152 ], [ 25.501997867903953, 68.903804913398091 ], [ 25.503182028969871, 68.903678999088712 ], [ 25.502926707144074, 68.903431806462677 ], [ 25.502320885850807, 68.90336084529892 ], [ 25.501674388081547, 68.903494487923268 ], [ 25.501840618610718, 68.903591841861953 ], [ 25.501370286319052, 68.903787888160792 ], [ 25.501646339592796, 68.904049411624499 ], [ 25.502377539288865, 68.904037547877238 ], [ 25.502016392381829, 68.903953246790152 ] ] ] ] } },
{ "type": "Feature", "properties": { "fid": 257451, "navn": null, "hoyde_moh": 225, "arealInnsjo_km2": 0.0056, "magasinKategori": null, "fid_2": 1732, "id": 1732, "left": 25.486919847, "top": 68.946110046000001, "right": 25.986919847, "bottom": 68.446110046000001, "row_index": 11, "col_index": 43, "tile_id": 1732 }, "geometry": { "type": "MultiPolygon", "coordinates": [ [ [ [ 25.644474962226262, 68.913025699397949 ], [ 25.643919873011519, 68.912616311307161 ], [ 25.643344672237195, 68.912669711560724 ], [ 25.643419759248086, 68.913072615436647 ], [ 25.642895718287058, 68.913282406840565 ], [ 25.644698396493879, 68.91376528590078 ], [ 25.644474962226262, 68.913025699397949 ] ] ] ] } },
{ "type": "Feature", "properties": { "fid": 257453, "navn": "Njukčajávri", "hoyde_moh": 202, "arealInnsjo_km2": 0.0918, "magasinKategori": null, "fid_2": 1732, "id": 1732, "left": 25.486919847, "top": 68.946110046000001, "right": 25.986919847, "bottom": 68.446110046000001, "row_index": 11, "col_index": 43, "tile_id": 1732 }, "geometry": { "type": "MultiPolygon", "coordinates": [ [ [ [ 25.653567209469426, 68.930287673660331 ], [ 25.654457337935515, 68.930186386524909 ], [ 25.654548605601491, 68.930016358880025 ], [ 25.654268955807581, 68.929851499589745 ], [ 25.654378007364169, 68.929771746946642 ], [ 25.654143761087152, 68.929570040610542 ], [ 25.654173859446896, 68.92937762051038 ], [ 25.653464638849059, 68.92912714634079 ], [ 25.653149585826529, 68.928814615319581 ], [ 25.653514104528075, 68.928746164658037 ], [ 25.656377516401356, 68.929198976521533 ], [ 25.657446373395267, 68.929658575460337 ], [ 25.657870451697296, 68.930009640412365 ], [ 25.658754920398451, 68.930076312450595 ], [ 25.658605744707959, 68.930006060230369 ], [ 25.658632103217833, 68.929680863197007 ], [ 25.657808002970913, 68.929030093086126 ], [ 25.655885417628422, 68.927957573799205 ], [ 25.65252835129942, 68.926980379842362 ], [ 25.650100612458413, 68.926725960282809 ], [ 25.649821485586109, 68.9266091255585 ], [ 25.650103984529579, 68.926537683514141 ], [ 25.650149542121817, 68.926356191360028 ], [ 25.649405866086873, 68.925703865538438 ], [ 25.647422330036086, 68.92556745552659 ], [ 25.646430541068476, 68.925665955649464 ], [ 25.647592714458199, 68.926357190827446 ], [ 25.649349227934295, 68.926546641139737 ], [ 25.649091129490579, 68.926743733679046 ], [ 25.649399781366242, 68.927052128948674 ], [ 25.648909557509079, 68.9272562463631 ], [ 25.648781665917266, 68.92748481877193 ], [ 25.649729813925806, 68.928130780403748 ], [ 25.650197824225394, 68.928814054136211 ], [ 25.651888839875316, 68.930229138561657 ], [ 25.653171184985233, 68.930504840345932 ], [ 25.653567209469426, 68.930287673660331 ] ] ] ] } },
{ "type": "Feature", "properties": { "fid": 257459, "navn": "Vuolitjárjávri", "hoyde_moh": 196, "arealInnsjo_km2": 0.1056, "magasinKategori": null, "fid_2": 1732, "id": 1732, "left": 25.486919847, "top": 68.946110046000001, "right": 25.986919847, "bottom": 68.446110046000001, "row_index": 11, "col_index": 43, "tile_id": 1732 }, "geometry": { "type": "MultiPolygon", "coordinates": [ [ [ [ 25.686543093884559, 68.945904214387156 ], [ 25.685599726216342, 68.945381441605633 ], [ 25.684942817930565, 68.945370790007615 ], [ 25.684662149151464, 68.945192392778125 ], [ 25.684709746460133, 68.944937151000914 ], [ 25.684970153777389, 68.944759931320817 ], [ 25.684941243524374, 68.944490361931429 ], [ 25.68458206496895, 68.944271324364351 ], [ 25.684697788435425, 68.943866756122432 ], [ 25.684139259022359, 68.943504242830244 ], [ 25.684163002094895, 68.943303483251498 ], [ 25.683180151437654, 68.942959292909549 ], [ 25.680934605861687, 68.941686034529795 ], [ 25.679869446239998, 68.940357676979332 ], [ 25.676914709820366, 68.938389147857151 ], [ 25.676987532310015, 68.938197189385505 ], [ 25.676776496865735, 68.937951143789235 ], [ 25.675475137534526, 68.937225037768783 ], [ 25.675232766914853, 68.936743380945671 ], [ 25.673769378756294, 68.936160355381247 ], [ 25.673311058936655, 68.936350170144181 ], [ 25.673457561387906, 68.936644638291426 ], [ 25.674136060800446, 68.937176295030227 ], [ 25.674071675316515, 68.93773732651745 ], [ 25.674861193567843, 68.938449399289524 ], [ 25.675377957787322, 68.938669287987111 ], [ 25.675657547175554, 68.93935920038551 ], [ 25.676681236334904, 68.940175842375325 ], [ 25.678008181010448, 68.940662555017667 ], [ 25.677992848991586, 68.940869774526917 ], [ 25.67852621203382, 68.941224078627656 ], [ 25.679369665733208, 68.942259007218468 ], [ 25.679914869839827, 68.942686429229894 ], [ 25.680285314277512, 68.943298271129493 ], [ 25.679517354815118, 68.94352468578505 ], [ 25.68053052858372, 68.943503993462798 ], [ 25.682931191829823, 68.944645240629711 ], [ 25.684633576634184, 68.945614975865368 ], [ 25.684652108384835, 68.945881931377329 ], [ 25.684872100491219, 68.946110046 ], [ 25.686544481831493, 68.946110046 ], [ 25.686543093884559, 68.945904214387156 ] ] ] ] } },
{ "type": "Feature", "properties": { "fid": 266350, "navn": null, "hoyde_moh": 241, "arealInnsjo_km2": 0.0027, "magasinKategori": null, "fid_2": 1732, "id": 1732, "left": 25.486919847, "top": 68.946110046000001, "right": 25.986919847, "bottom": 68.446110046000001, "row_index": 11, "col_index": 43, "tile_id": 1732 }, "geometry": { "type": "MultiPolygon", "coordinates": [ [ [ [ 25.586544124968931, 68.891316679439512 ], [ 25.586081430935113, 68.891081695662507 ], [ 25.584742385560393, 68.890497287165772 ], [ 25.584053055838837, 68.890369376465529 ], [ 25.586334262120737, 68.89153561478021 ], [ 25.586571119897556, 68.891531901711346 ], [ 25.586544124968931, 68.891316679439512 ] ] ] ] } },
{ "type": "Feature", "properties": { "fid": 266351, "navn": null, "hoyde_moh": 249, "arealInnsjo_km2": 0.0121, "magasinKategori": null, "fid_2": 1732, "id": 1732, "left": 25.486919847, "top": 68.946110046000001, "right": 25.986919847, "bottom": 68.446110046000001, "row_index": 11, "col_index": 43, "tile_id": 1732 }, "geometry": { "type": "MultiPolygon", "coordinates": [ [ [ [ 25.547805899607802, 68.904092960973472 ], [ 25.546144504217398, 68.903375293473346 ], [ 25.545148575854491, 68.903137241353846 ], [ 25.543564860832898, 68.903007711500749 ], [ 25.542778364574549, 68.903254826081536 ], [ 25.542983961669968, 68.903481568440654 ], [ 25.544194291057714, 68.903561894058555 ], [ 25.546795469093745, 68.904278812048474 ], [ 25.547479013993915, 68.904320144266975 ], [ 25.547805899607802, 68.904092960973472 ] ] ] ] } },
{ "type": "Feature", "properties": { "fid": 266352, "navn": null, "hoyde_moh": 234, "arealInnsjo_km2": 0.0037, "magasinKategori": null, "fid_2": 1732, "id": 1732, "left": 25.486919847, "top": 68.946110046000001, "right": 25.986919847, "bottom": 68.446110046000001, "row_index": 11, "col_index": 43, "tile_id": 1732 }, "geometry": { "type": "MultiPolygon", "coordinates": [ [ [ [ 25.613187747040303, 68.901691911864177 ], [ 25.612376359437313, 68.901659712529678 ], [ 25.611815726024005, 68.901442749925607 ], [ 25.611746821441933, 68.9017975612893 ], [ 25.612132143284725, 68.902203526973423 ], [ 25.612983033173006, 68.90226149280727 ], [ 25.613187747040303, 68.901691911864177 ] ] ] ] } },
{ "type": "Feature", "properties": { "fid": 266354, "navn": null, "hoyde_moh": 226, "arealInnsjo_km2": 0.0036, "magasinKategori": null, "fid_2": 1732, "id": 1732, "left": 25.486919847, "top": 68.946110046000001, "right": 25.986919847, "bottom": 68.446110046000001, "row_index": 11, "col_index": 43, "tile_id": 1732 }, "geometry": { "type": "MultiPolygon", "coordinates": [ [ [ [ 25.619711687922511, 68.907419153003787 ], [ 25.619695942131145, 68.907147338191763 ], [ 25.619116455534154, 68.907111175963706 ], [ 25.618508267984524, 68.907537856244303 ], [ 25.618549187113054, 68.907985140493196 ], [ 25.618833909723268, 68.908136717986267 ], [ 25.619711687922511, 68.907419153003787 ] ] ] ] } },
{ "type": "Feature", "properties": { "fid": 266355, "navn": null, "hoyde_moh": 206, "arealInnsjo_km2": 0.003, "magasinKategori": null, "fid_2": 1732, "id": 1732, "left": 25.486919847, "top": 68.946110046000001, "right": 25.986919847, "bottom": 68.446110046000001, "row_index": 11, "col_index": 43, "tile_id": 1732 }, "geometry": { "type": "MultiPolygon", "coordinates": [ [ [ [ 25.616745438771527, 68.914693247606309 ], [ 25.615234745561267, 68.914453344697279 ], [ 25.614581458190212, 68.914179341624603 ], [ 25.614194354287267, 68.914490871836321 ], [ 25.614957640486697, 68.914497319384182 ], [ 25.616848704259453, 68.9150949081357 ], [ 25.616745438771527, 68.914693247606309 ] ] ] ] } },
{ "type": "Feature", "properties": { "fid": 266356, "navn": null, "hoyde_moh": 217, "arealInnsjo_km2": 0.0046, "magasinKategori": null, "fid_2": 1732, "id": 1732, "left": 25.486919847, "top": 68.946110046000001, "right": 25.986919847, "bottom": 68.446110046000001, "row_index": 11, "col_index": 43, "tile_id": 1732 }, "geometry": { "type": "MultiPolygon", "coordinates": [ [ [ [ 25.636399084598104, 68.914827250133783 ], [ 25.636131464007079, 68.914549513113258 ], [ 25.635203409718727, 68.914382397238185 ], [ 25.634595200941302, 68.914490447697261 ], [ 25.634676065891167, 68.914755165916702 ], [ 25.635803395780584, 68.915242582276491 ], [ 25.63617001586292, 68.915228082421947 ], [ 25.636399084598104, 68.914827250133783 ] ] ] ] } },
{ "type": "Feature", "properties": { "fid": 266418, "navn": null, "hoyde_moh": 207, "arealInnsjo_km2": 0.0275, "magasinKategori": null, "fid_2": 1732, "id": 1732, "left": 25.486919847, "top": 68.946110046000001, "right": 25.986919847, "bottom": 68.446110046000001, "row_index": 11, "col_index": 43, "tile_id": 1732 }, "geometry": { "type": "MultiPolygon", "coordinates": [ [ [ [ 25.625990379069204, 68.921010928890382 ], [ 25.623938470487982, 68.92000945828309 ], [ 25.622421626543396, 68.918725347854405 ], [ 25.620913964704719, 68.918282155937533 ], [ 25.620237075321899, 68.917694145844223 ], [ 25.620259378681855, 68.917135133137947 ], [ 25.619703338344358, 68.917057419009481 ], [ 25.619695763258662, 68.918242879354395 ], [ 25.62339797954041, 68.920362562792235 ], [ 25.623200961217954, 68.920537135253682 ], [ 25.622116116694322, 68.920350927844396 ], [ 25.621992935562929, 68.920441720463188 ], [ 25.622074705475573, 68.920650420204296 ], [ 25.624536264587665, 68.921356198086414 ], [ 25.625990379069204, 68.921010928890382 ] ] ] ] } },
{ "type": "Feature", "properties": { "fid": 269668, "navn": null, "hoyde_moh": null, "arealInnsjo_km2": 0.2794, "magasinKategori": null, "fid_2": 1732, "id": 1732, "left": 25.486919847, "top": 68.946110046000001, "right": 25.986919847, "bottom": 68.446110046000001, "row_index": 11, "col_index": 43, "tile_id": 1732 }, "geometry": { "type": "MultiPolygon", "coordinates": [ [ [ [ 25.683602578246816, 68.939246846999595 ], [ 25.683115035345232, 68.938852087263456 ], [ 25.682553154938145, 68.938011300127215 ], [ 25.682191631001636, 68.937357277036227 ], [ 25.682163930863425, 68.93673654863963 ], [ 25.681372843454405, 68.935669475579886 ], [ 25.680253462352621, 68.934751636149869 ], [ 25.678755094465011, 68.934330833607135 ], [ 25.678642790341442, 68.933967809188843 ], [ 25.678206371837021, 68.933956217557835 ], [ 25.677685079439765, 68.933649184006114 ], [ 25.677171621384424, 68.933064243351069 ], [ 25.677271305749525, 68.932817881292465 ], [ 25.676906942811225, 68.932635531375908 ], [ 25.677001099976074, 68.932487409197833 ], [ 25.67482364004892, 68.930685803626631 ], [ 25.674454919504146, 68.930582032091252 ], [ 25.674356545208791, 68.930249994090701 ], [ 25.673310108944783, 68.929571303677022 ], [ 25.67237440030269, 68.928590168193608 ], [ 25.670949415485165, 68.927525775935379 ], [ 25.66941946161996, 68.925911622324307 ], [ 25.669262250927261, 68.925312896544895 ], [ 25.668848349627986, 68.924999832080815 ], [ 25.667914938223117, 68.924544706334757 ], [ 25.667213055034939, 68.924520027049724 ], [ 25.664728641155449, 68.923338159821753 ], [ 25.664433390435228, 68.923037991123508 ], [ 25.663788577845271, 68.923140157978963 ], [ 25.663469820530413, 68.92343915094412 ], [ 25.663739760068783, 68.923630682601356 ], [ 25.663613898491658, 68.923811357346466 ], [ 25.662869401168408, 68.924086301003854 ], [ 25.662766888223743, 68.924356716505159 ], [ 25.662516743794548, 68.924411056646491 ], [ 25.66245132115203, 68.924657139612734 ], [ 25.662086106684715, 68.924933443369582 ], [ 25.663139257944874, 68.925569434046295 ], [ 25.663905571937057, 68.926695915668532 ], [ 25.664400706870008, 68.927003678170934 ], [ 25.664446251088538, 68.927316702092767 ], [ 25.664247375216213, 68.927779102231668 ], [ 25.664786008267967, 68.928383209940904 ], [ 25.665375588230994, 68.928592145997015 ], [ 25.665368667485438, 68.928718600297728 ], [ 25.667124813413778, 68.929423877032434 ], [ 25.66821029193181, 68.929379933724348 ], [ 25.666635991859032, 68.928872316094001 ], [ 25.666507309499366, 68.928684841848622 ], [ 25.666620187264126, 68.927983382794267 ], [ 25.666211288198472, 68.927474920997668 ], [ 25.665715522875018, 68.927329834100959 ], [ 25.665216374191299, 68.926862422216189 ], [ 25.664993546397504, 68.926536896168514 ], [ 25.665115645489482, 68.926244070254086 ], [ 25.664934594297588, 68.926127141352055 ], [ 25.664960801225885, 68.925844740848675 ], [ 25.665557452016998, 68.926078119775582 ], [ 25.665935372005588, 68.926431722287859 ], [ 25.667675036099574, 68.926842563429247 ], [ 25.668558879349227, 68.927575375395179 ], [ 25.669618726361012, 68.928090534778931 ], [ 25.669374723946323, 68.928345105284421 ], [ 25.669823934921386, 68.928553458019479 ], [ 25.669945103848949, 68.928955464667382 ], [ 25.669799574986509, 68.929078787137144 ], [ 25.670330754278773, 68.929578874644136 ], [ 25.669990153849199, 68.92981457126595 ], [ 25.670195451053818, 68.930283305706695 ], [ 25.670605337784675, 68.930741278099873 ], [ 25.671787916279772, 68.931295280568207 ], [ 25.671968515911129, 68.932236762554069 ], [ 25.676231245070881, 68.934918715448617 ], [ 25.676570624254509, 68.93547736650514 ], [ 25.678276636717552, 68.936413805495462 ], [ 25.681150073567238, 68.938569074026745 ], [ 25.681090431697587, 68.938701688371651 ], [ 25.682899744100627, 68.939433765330278 ], [ 25.683602578246816, 68.939246846999595 ] ] ] ] } }
]
}
