{
"type": "FeatureCollection",
"name": "innsjo_tile_id_706",
"crs": { "type": "name", "properties": { "name": "urn:ogc:def:crs:OGC:1.3:CRS84" } },
"xy_coordinate_resolution": 1e-15,
"features": [
{ "type": "Feature", "properties": { "fid": 4170, "navn": null, "hoyde_moh": 530, "arealInnsjo_km2": 0.0031, "magasinKategori": null, "fid_2": 706, "id": 706, "left": 12.486919847, "top": 61.946110046000001, "right": 12.986919847, "bottom": 61.446110046000001, "row_index": 25, "col_index": 17, "tile_id": 706 }, "geometry": { "type": "MultiPolygon", "coordinates": [ [ [ [ 12.509676327847551, 61.504553168409366 ], [ 12.509300218862565, 61.504221514776113 ], [ 12.507930337709555, 61.50425351960363 ], [ 12.508250966107525, 61.504503146960197 ], [ 12.509350984418733, 61.504695965588709 ], [ 12.509676327847551, 61.504553168409366 ] ] ] ] } },
{ "type": "Feature", "properties": { "fid": 10742, "navn": null, "hoyde_moh": 506, "arealInnsjo_km2": 0.0262, "magasinKategori": null, "fid_2": 706, "id": 706, "left": 12.486919847, "top": 61.946110046000001, "right": 12.986919847, "bottom": 61.446110046000001, "row_index": 25, "col_index": 17, "tile_id": 706 }, "geometry": { "type": "MultiPolygon", "coordinates": [ [ [ [ 12.552295067250862, 61.463796537767806 ], [ 12.552292506377299, 61.464065944043803 ], [ 12.551875080474234, 61.464363822674521 ], [ 12.552017484471195, 61.464941213201662 ], [ 12.55173646049589, 61.465412105786768 ], [ 12.552857764614783, 61.465477250485471 ], [ 12.553843378501764, 61.465836257047904 ], [ 12.554089212957569, 61.465813635815117 ], [ 12.55469101703464, 61.465321551723065 ], [ 12.55384694889146, 61.465072783809596 ], [ 12.554055517224523, 61.464807166352479 ], [ 12.554413817301903, 61.464786653623158 ], [ 12.5536122275347, 61.463757325194351 ], [ 12.553220922902456, 61.463480845479793 ], [ 12.552186634544228, 61.463264666586007 ], [ 12.551922326362087, 61.463455898798166 ], [ 12.552295067250862, 61.463796537767806 ] ] ] ] } },
{ "type": "Feature", "properties": { "fid": 25990, "navn": null, "hoyde_moh": 530, "arealInnsjo_km2": 0.0029, "magasinKategori": null, "fid_2": 706, "id": 706, "left": 12.486919847, "top": 61.946110046000001, "right": 12.986919847, "bottom": 61.446110046000001, "row_index": 25, "col_index": 17, "tile_id": 706 }, "geometry": { "type": "MultiPolygon", "coordinates": [ [ [ [ 12.518474259188181, 61.509057893919042 ], [ 12.518079771586052, 61.508773356157796 ], [ 12.518098474323404, 61.508239368062753 ], [ 12.517866309349346, 61.508196790003076 ], [ 12.517696837738121, 61.508299241571976 ], [ 12.517697689527759, 61.508529012080665 ], [ 12.517986743548992, 61.509034650688371 ], [ 12.517551450289869, 61.509278308111782 ], [ 12.51817266436578, 61.509353116696381 ], [ 12.518474259188181, 61.509057893919042 ] ] ] ] } },
{ "type": "Feature", "properties": { "fid": 26081, "navn": null, "hoyde_moh": 581, "arealInnsjo_km2": 0.0017, "magasinKategori": null, "fid_2": 706, "id": 706, "left": 12.486919847, "top": 61.946110046000001, "right": 12.986919847, "bottom": 61.446110046000001, "row_index": 25, "col_index": 17, "tile_id": 706 }, "geometry": { "type": "MultiPolygon", "coordinates": [ [ [ [ 12.495680863037798, 61.523015114978698 ], [ 12.495010056489397, 61.52312827515432 ], [ 12.495580477603783, 61.523217699768125 ], [ 12.49574065306204, 61.523442942119175 ], [ 12.496172989794406, 61.523556146036277 ], [ 12.495680863037798, 61.523015114978698 ] ] ] ] } },
{ "type": "Feature", "properties": { "fid": 32372, "navn": "Øytjønna", "hoyde_moh": null, "arealInnsjo_km2": 0.0044, "magasinKategori": null, "fid_2": 706, "id": 706, "left": 12.486919847, "top": 61.946110046000001, "right": 12.986919847, "bottom": 61.446110046000001, "row_index": 25, "col_index": 17, "tile_id": 706 }, "geometry": { "type": "MultiPolygon", "coordinates": [ [ [ [ 12.518429838639832, 61.495392764476613 ], [ 12.518436086808844, 61.495078514045645 ], [ 12.517764852854418, 61.495012402682384 ], [ 12.516774969005311, 61.495407539613936 ], [ 12.517507816838709, 61.495657917413304 ], [ 12.518429838639832, 61.495392764476613 ] ] ] ] } },
{ "type": "Feature", "properties": { "fid": 34531, "navn": null, "hoyde_moh": null, "arealInnsjo_km2": 0.0044, "magasinKategori": null, "fid_2": 706, "id": 706, "left": 12.486919847, "top": 61.946110046000001, "right": 12.986919847, "bottom": 61.446110046000001, "row_index": 25, "col_index": 17, "tile_id": 706 }, "geometry": { "type": "MultiPolygon", "coordinates": [ [ [ [ 12.572602123269624, 61.46627057832081 ], [ 12.572758493325679, 61.465950024317692 ], [ 12.571380938905143, 61.465799731207809 ], [ 12.570968884912014, 61.466025908664818 ], [ 12.571342631296156, 61.466050535122925 ], [ 12.571491104191242, 61.466313650250349 ], [ 12.571798458997991, 61.466443524724539 ], [ 12.572602123269624, 61.46627057832081 ] ] ] ] } },
{ "type": "Feature", "properties": { "fid": 35798, "navn": null, "hoyde_moh": null, "arealInnsjo_km2": 0.0074, "magasinKategori": null, "fid_2": 706, "id": 706, "left": 12.486919847, "top": 61.946110046000001, "right": 12.986919847, "bottom": 61.446110046000001, "row_index": 25, "col_index": 17, "tile_id": 706 }, "geometry": { "type": "MultiPolygon", "coordinates": [ [ [ [ 12.522066441762291, 61.486530980253335 ], [ 12.521492747912381, 61.486421749028715 ], [ 12.520366672495582, 61.486643776858251 ], [ 12.520680587575145, 61.486712360279384 ], [ 12.521508065977317, 61.487409939169581 ], [ 12.522160377762155, 61.48747577998725 ], [ 12.522066441762291, 61.486530980253335 ] ] ] ] } },
{ "type": "Feature", "properties": { "fid": 42033, "navn": "Fisketjønna", "hoyde_moh": null, "arealInnsjo_km2": 0.0259, "magasinKategori": null, "fid_2": 706, "id": 706, "left": 12.486919847, "top": 61.946110046000001, "right": 12.986919847, "bottom": 61.446110046000001, "row_index": 25, "col_index": 17, "tile_id": 706 }, "geometry": { "type": "MultiPolygon", "coordinates": [ [ [ [ 12.532544758434854, 61.476625535752063 ], [ 12.531748575975289, 61.476718988174717 ], [ 12.531186255352505, 61.476942238778513 ], [ 12.531203442708252, 61.477436549480899 ], [ 12.532167872889273, 61.478064780981136 ], [ 12.532228687368978, 61.478245518305172 ], [ 12.533638014043877, 61.478711140413317 ], [ 12.53507991403384, 61.478288139362547 ], [ 12.535079080913306, 61.478063579531607 ], [ 12.534849460421498, 61.477879790111146 ], [ 12.533160260699665, 61.477391150540761 ], [ 12.533176993491915, 61.476942453335475 ], [ 12.532544758434854, 61.476625535752063 ] ] ] ] } },
{ "type": "Feature", "properties": { "fid": 43759, "navn": null, "hoyde_moh": null, "arealInnsjo_km2": 0.0152, "magasinKategori": null, "fid_2": 706, "id": 706, "left": 12.486919847, "top": 61.946110046000001, "right": 12.986919847, "bottom": 61.446110046000001, "row_index": 25, "col_index": 17, "tile_id": 706 }, "geometry": { "type": "MultiPolygon", "coordinates": [ [ [ [ 12.550901086302256, 61.466250446502869 ], [ 12.550896247389806, 61.466070634785595 ], [ 12.549347529379521, 61.465710550016759 ], [ 12.548224807417864, 61.465663404248325 ], [ 12.546477171320321, 61.466161865510124 ], [ 12.54760414065707, 61.466155211398267 ], [ 12.547744951355002, 61.466274508891225 ], [ 12.547424125447286, 61.466295678968386 ], [ 12.547510809271106, 61.466387057018011 ], [ 12.548120307768658, 61.466514880192754 ], [ 12.550000028080516, 61.466545463083335 ], [ 12.550901086302256, 61.466250446502869 ] ] ] ] } },
{ "type": "Feature", "properties": { "fid": 63923, "navn": null, "hoyde_moh": null, "arealInnsjo_km2": 0.0057, "magasinKategori": null, "fid_2": 706, "id": 706, "left": 12.486919847, "top": 61.946110046000001, "right": 12.986919847, "bottom": 61.446110046000001, "row_index": 25, "col_index": 17, "tile_id": 706 }, "geometry": { "type": "MultiPolygon", "coordinates": [ [ [ [ 12.52810054963051, 61.48340709651886 ], [ 12.528105076909455, 61.483586814837764 ], [ 12.529379183100788, 61.483627881010705 ], [ 12.530480366213689, 61.483243657367467 ], [ 12.529850869440132, 61.482890941023136 ], [ 12.52810054963051, 61.48340709651886 ] ] ] ] } },
{ "type": "Feature", "properties": { "fid": 64020, "navn": null, "hoyde_moh": null, "arealInnsjo_km2": 0.0073, "magasinKategori": null, "fid_2": 706, "id": 706, "left": 12.486919847, "top": 61.946110046000001, "right": 12.986919847, "bottom": 61.446110046000001, "row_index": 25, "col_index": 17, "tile_id": 706 }, "geometry": { "type": "MultiPolygon", "coordinates": [ [ [ [ 12.55604923659488, 61.463801066569246 ], [ 12.556094699782079, 61.46346048662808 ], [ 12.555705759313115, 61.463390726321478 ], [ 12.554865410547539, 61.463815750710701 ], [ 12.554081338451939, 61.463999273714052 ], [ 12.554210400475018, 61.464270953114401 ], [ 12.554822269723495, 61.464605368931146 ], [ 12.555103017006221, 61.464563522998461 ], [ 12.55604923659488, 61.463801066569246 ] ] ] ] } },
{ "type": "Feature", "properties": { "fid": 66423, "navn": null, "hoyde_moh": 973, "arealInnsjo_km2": 0.0035, "magasinKategori": null, "fid_2": 706, "id": 706, "left": 12.486919847, "top": 61.946110046000001, "right": 12.986919847, "bottom": 61.446110046000001, "row_index": 25, "col_index": 17, "tile_id": 706 }, "geometry": { "type": "MultiPolygon", "coordinates": [ [ [ [ 12.54144248146102, 61.557930132741561 ], [ 12.540912745938153, 61.557997475163539 ], [ 12.540687671453922, 61.557667655190279 ], [ 12.540352883294233, 61.557691443045378 ], [ 12.54032973, 61.558238279948611 ], [ 12.541131870919864, 61.558423920245239 ], [ 12.54144248146102, 61.557930132741561 ] ] ] ] } },
{ "type": "Feature", "properties": { "fid": 66466, "navn": null, "hoyde_moh": 923, "arealInnsjo_km2": 0.0042, "magasinKategori": null, "fid_2": 706, "id": 706, "left": 12.486919847, "top": 61.946110046000001, "right": 12.986919847, "bottom": 61.446110046000001, "row_index": 25, "col_index": 17, "tile_id": 706 }, "geometry": { "type": "MultiPolygon", "coordinates": [ [ [ [ 12.528669833658279, 61.555489203732314 ], [ 12.528666291846022, 61.555254446995129 ], [ 12.52921980149255, 61.554542335222827 ], [ 12.528869814617055, 61.554516060723245 ], [ 12.5287689366849, 61.554683630026403 ], [ 12.527875044122764, 61.55490070076366 ], [ 12.527894841308328, 61.555210300367335 ], [ 12.528351275893533, 61.555318621668661 ], [ 12.528438089562099, 61.555697066897835 ], [ 12.528669833658279, 61.555489203732314 ] ] ] ] } },
{ "type": "Feature", "properties": { "fid": 66555, "navn": null, "hoyde_moh": 561, "arealInnsjo_km2": 0.003, "magasinKategori": null, "fid_2": 706, "id": 706, "left": 12.486919847, "top": 61.946110046000001, "right": 12.986919847, "bottom": 61.446110046000001, "row_index": 25, "col_index": 17, "tile_id": 706 }, "geometry": { "type": "MultiPolygon", "coordinates": [ [ [ [ 12.50403595444911, 61.548527314023644 ], [ 12.504029178063615, 61.547782057499269 ], [ 12.503321760436911, 61.547974443708654 ], [ 12.503428474457278, 61.548583837003761 ], [ 12.5038018776182, 61.54867374842064 ], [ 12.50403595444911, 61.548527314023644 ] ] ] ] } },
{ "type": "Feature", "properties": { "fid": 66569, "navn": null, "hoyde_moh": 548, "arealInnsjo_km2": 0.0031, "magasinKategori": null, "fid_2": 706, "id": 706, "left": 12.486919847, "top": 61.946110046000001, "right": 12.986919847, "bottom": 61.446110046000001, "row_index": 25, "col_index": 17, "tile_id": 706 }, "geometry": { "type": "MultiPolygon", "coordinates": [ [ [ [ 12.502940741392896, 61.535752978483551 ], [ 12.501690967028704, 61.53556779960887 ], [ 12.501476661756453, 61.535708124194443 ], [ 12.501718805369158, 61.535973031552558 ], [ 12.502745715344018, 61.536072666039423 ], [ 12.502940741392896, 61.535752978483551 ] ] ] ] } },
{ "type": "Feature", "properties": { "fid": 74252, "navn": null, "hoyde_moh": null, "arealInnsjo_km2": 0.0025, "magasinKategori": null, "fid_2": 706, "id": 706, "left": 12.486919847, "top": 61.946110046000001, "right": 12.986919847, "bottom": 61.446110046000001, "row_index": 25, "col_index": 17, "tile_id": 706 }, "geometry": { "type": "MultiPolygon", "coordinates": [ [ [ [ 12.539740017536294, 61.470171898658812 ], [ 12.539973501303104, 61.470068422936897 ], [ 12.539595334823808, 61.469863905421093 ], [ 12.538064192728051, 61.470231535522487 ], [ 12.539740017536294, 61.470171898658812 ] ] ] ] } },
{ "type": "Feature", "properties": { "fid": 78353, "navn": null, "hoyde_moh": null, "arealInnsjo_km2": 0.0035, "magasinKategori": null, "fid_2": 706, "id": 706, "left": 12.486919847, "top": 61.946110046000001, "right": 12.986919847, "bottom": 61.446110046000001, "row_index": 25, "col_index": 17, "tile_id": 706 }, "geometry": { "type": "MultiPolygon", "coordinates": [ [ [ [ 12.560199086974155, 61.46978541668441 ], [ 12.5601964804933, 61.469578790728214 ], [ 12.559543252739459, 61.469288658781203 ], [ 12.559157026058498, 61.469425447564433 ], [ 12.559154710373548, 61.469694857434824 ], [ 12.55939354349349, 61.46976200780248 ], [ 12.559111180992396, 61.470250853914955 ], [ 12.560199086974155, 61.46978541668441 ] ] ] ] } },
{ "type": "Feature", "properties": { "fid": 89050, "navn": null, "hoyde_moh": null, "arealInnsjo_km2": 0.0029, "magasinKategori": null, "fid_2": 706, "id": 706, "left": 12.486919847, "top": 61.946110046000001, "right": 12.986919847, "bottom": 61.446110046000001, "row_index": 25, "col_index": 17, "tile_id": 706 }, "geometry": { "type": "MultiPolygon", "coordinates": [ [ [ [ 12.600725345449616, 61.4523623028104 ], [ 12.600268184363214, 61.452453046066907 ], [ 12.600041848267875, 61.452709523882845 ], [ 12.600270983488899, 61.452902174493431 ], [ 12.600876881360428, 61.452832014357107 ], [ 12.601409072285106, 61.452500087767326 ], [ 12.600725345449616, 61.4523623028104 ] ] ] ] } },
{ "type": "Feature", "properties": { "fid": 103857, "navn": null, "hoyde_moh": null, "arealInnsjo_km2": 0.0121, "magasinKategori": null, "fid_2": 706, "id": 706, "left": 12.486919847, "top": 61.946110046000001, "right": 12.986919847, "bottom": 61.446110046000001, "row_index": 25, "col_index": 17, "tile_id": 706 }, "geometry": { "type": "MultiPolygon", "coordinates": [ [ [ [ 12.525992339513634, 61.483225044320605 ], [ 12.525708352625282, 61.482779869540536 ], [ 12.525153471557664, 61.482670994503714 ], [ 12.524812280475482, 61.482709707464601 ], [ 12.524357587682889, 61.483231286595043 ], [ 12.524362086246811, 61.483411094615271 ], [ 12.524910799821948, 61.483834224494629 ], [ 12.525668476753664, 61.483991691214726 ], [ 12.526234064218515, 61.483966030890834 ], [ 12.52683768591775, 61.483676543971484 ], [ 12.525992339513634, 61.483225044320605 ] ] ] ] } },
{ "type": "Feature", "properties": { "fid": 117081, "navn": null, "hoyde_moh": null, "arealInnsjo_km2": 0.0074, "magasinKategori": null, "fid_2": 706, "id": 706, "left": 12.486919847, "top": 61.946110046000001, "right": 12.986919847, "bottom": 61.446110046000001, "row_index": 25, "col_index": 17, "tile_id": 706 }, "geometry": { "type": "MultiPolygon", "coordinates": [ [ [ [ 12.600756865485048, 61.454392695066787 ], [ 12.601330582854095, 61.453765107948087 ], [ 12.600832856931921, 61.453648562607114 ], [ 12.599715342414804, 61.454024062903017 ], [ 12.599440840074038, 61.454423396371809 ], [ 12.599531886180767, 61.454703519880788 ], [ 12.59999994002078, 61.454813170059744 ], [ 12.600756865485048, 61.454392695066787 ] ] ] ] } },
{ "type": "Feature", "properties": { "fid": 132464, "navn": null, "hoyde_moh": 975, "arealInnsjo_km2": 0.0018, "magasinKategori": null, "fid_2": 706, "id": 706, "left": 12.486919847, "top": 61.946110046000001, "right": 12.986919847, "bottom": 61.446110046000001, "row_index": 25, "col_index": 17, "tile_id": 706 }, "geometry": { "type": "MultiPolygon", "coordinates": [ [ [ [ 12.538761409232304, 61.55371333076733 ], [ 12.538851194577978, 61.553487802496754 ], [ 12.538324512848137, 61.553317892639491 ], [ 12.537941873731818, 61.553815404036378 ], [ 12.538761409232304, 61.55371333076733 ] ] ] ] } },
{ "type": "Feature", "properties": { "fid": 132465, "navn": null, "hoyde_moh": 564, "arealInnsjo_km2": 0.0026, "magasinKategori": null, "fid_2": 706, "id": 706, "left": 12.486919847, "top": 61.946110046000001, "right": 12.986919847, "bottom": 61.446110046000001, "row_index": 25, "col_index": 17, "tile_id": 706 }, "geometry": { "type": "MultiPolygon", "coordinates": [ [ [ [ 12.504129570409789, 61.551894336971912 ], [ 12.504377445225517, 61.551456873464133 ], [ 12.503707104077078, 61.551446861384932 ], [ 12.50325022462467, 61.551802628566072 ], [ 12.503407999820181, 61.551961798179768 ], [ 12.504129570409789, 61.551894336971912 ] ] ] ] } },
{ "type": "Feature", "properties": { "fid": 132838, "navn": null, "hoyde_moh": 534, "arealInnsjo_km2": 0.0043, "magasinKategori": null, "fid_2": 706, "id": 706, "left": 12.486919847, "top": 61.946110046000001, "right": 12.986919847, "bottom": 61.446110046000001, "row_index": 25, "col_index": 17, "tile_id": 706 }, "geometry": { "type": "MultiPolygon", "coordinates": [ [ [ [ 12.5196955428415, 61.509354866122635 ], [ 12.520038744008025, 61.508976147409577 ], [ 12.520067073476135, 61.508755081283724 ], [ 12.519722780144484, 61.508201467875246 ], [ 12.519424925400768, 61.508355656899546 ], [ 12.519197134401839, 61.508963444189803 ], [ 12.519210898443029, 61.509335631562827 ], [ 12.519376475011322, 61.50945190426804 ], [ 12.5196955428415, 61.509354866122635 ] ] ] ] } },
{ "type": "Feature", "properties": { "fid": 174371, "navn": null, "hoyde_moh": 523, "arealInnsjo_km2": 0.0041, "magasinKategori": null, "fid_2": 706, "id": 706, "left": 12.486919847, "top": 61.946110046000001, "right": 12.986919847, "bottom": 61.446110046000001, "row_index": 25, "col_index": 17, "tile_id": 706 }, "geometry": { "type": "MultiPolygon", "coordinates": [ [ [ [ 12.551890304602304, 61.456756555634854 ], [ 12.551461796087059, 61.456955343777018 ], [ 12.55189515608528, 61.456936277873751 ], [ 12.552157096518894, 61.457183492793426 ], [ 12.553115315009244, 61.45693125726654 ], [ 12.553108533279403, 61.456778445727693 ], [ 12.552642798275643, 61.456734151325577 ], [ 12.552772393742574, 61.456278410589618 ], [ 12.552352335437932, 61.456369662021984 ], [ 12.551890304602304, 61.456756555634854 ] ] ] ] } },
{ "type": "Feature", "properties": { "fid": 190126, "navn": null, "hoyde_moh": 520, "arealInnsjo_km2": 0.006, "magasinKategori": null, "fid_2": 706, "id": 706, "left": 12.486919847, "top": 61.946110046000001, "right": 12.986919847, "bottom": 61.446110046000001, "row_index": 25, "col_index": 17, "tile_id": 706 }, "geometry": { "type": "MultiPolygon", "coordinates": [ [ [ [ 12.594979180868174, 61.45947317935024 ], [ 12.596321770264103, 61.459344189742801 ], [ 12.59635287391391, 61.458940567075217 ], [ 12.595321960517081, 61.458922372103672 ], [ 12.5947838039499, 61.45908352117538 ], [ 12.594184509480415, 61.459557854482831 ], [ 12.594280869223306, 61.459766222805776 ], [ 12.594979180868174, 61.45947317935024 ] ] ] ] } },
{ "type": "Feature", "properties": { "fid": 207463, "navn": "Stortjønna", "hoyde_moh": 518, "arealInnsjo_km2": 0.0442, "magasinKategori": null, "fid_2": 706, "id": 706, "left": 12.486919847, "top": 61.946110046000001, "right": 12.986919847, "bottom": 61.446110046000001, "row_index": 25, "col_index": 17, "tile_id": 706 }, "geometry": { "type": "MultiPolygon", "coordinates": [ [ [ [ 12.528947388787461, 61.484572124397474 ], [ 12.528674550082341, 61.484459395747173 ], [ 12.526006847106576, 61.48469841557376 ], [ 12.524228346083941, 61.485330685663847 ], [ 12.523556588653861, 61.485273662349371 ], [ 12.523417960914292, 61.485360961701168 ], [ 12.523421445640343, 61.485792152639227 ], [ 12.52458948246403, 61.486459972748293 ], [ 12.526648250329229, 61.486084274308148 ], [ 12.528679237946504, 61.486058152458135 ], [ 12.529008096879256, 61.485938459427636 ], [ 12.529201034497282, 61.485403048905994 ], [ 12.528947388787461, 61.484572124397474 ] ] ] ] } },
{ "type": "Feature", "properties": { "fid": 222129, "navn": null, "hoyde_moh": 535, "arealInnsjo_km2": 0.003, "magasinKategori": null, "fid_2": 706, "id": 706, "left": 12.486919847, "top": 61.946110046000001, "right": 12.986919847, "bottom": 61.446110046000001, "row_index": 25, "col_index": 17, "tile_id": 706 }, "geometry": { "type": "MultiPolygon", "coordinates": [ [ [ [ 12.579234228320006, 61.46886751493107 ], [ 12.57908638162578, 61.468595348966439 ], [ 12.578578107748939, 61.468370847098576 ], [ 12.57801645051455, 61.468594386695962 ], [ 12.57802107785634, 61.468774101843131 ], [ 12.578344629968946, 61.468959575710684 ], [ 12.579234228320006, 61.46886751493107 ] ] ] ] } },
{ "type": "Feature", "properties": { "fid": 227906, "navn": "Sloangtjønna", "hoyde_moh": 976, "arealInnsjo_km2": 0.017, "magasinKategori": null, "fid_2": 706, "id": 706, "left": 12.486919847, "top": 61.946110046000001, "right": 12.986919847, "bottom": 61.446110046000001, "row_index": 25, "col_index": 17, "tile_id": 706 }, "geometry": { "type": "MultiPolygon", "coordinates": [ [ [ [ 12.540078472757724, 61.555645051176491 ], [ 12.540520596398073, 61.555275966080629 ], [ 12.540987143792313, 61.555257066449279 ], [ 12.540971112460941, 61.554498633587876 ], [ 12.541127362098534, 61.554232446597688 ], [ 12.540932963887039, 61.554100506771981 ], [ 12.54125382246645, 61.553973896240919 ], [ 12.541375157028291, 61.55365875866449 ], [ 12.540659448380113, 61.553334111918964 ], [ 12.539050670241922, 61.554097393656839 ], [ 12.539682254988794, 61.554462028082895 ], [ 12.540430441746382, 61.55440518387082 ], [ 12.540161974665692, 61.554830659247543 ], [ 12.539346330360761, 61.55510436167701 ], [ 12.539458315519118, 61.555266523718537 ], [ 12.539245185036963, 61.555760896472059 ], [ 12.540078472757724, 61.555645051176491 ] ] ] ] } }
]
}
