{
"type": "FeatureCollection",
"name": "innsjo_tile_id_1011",
"crs": { "type": "name", "properties": { "name": "urn:ogc:def:crs:OGC:1.3:CRS84" } },
"xy_coordinate_resolution": 1e-15,
"features": [
{ "type": "Feature", "properties": { "fid": 8777, "navn": null, "hoyde_moh": null, "arealInnsjo_km2": 0.0025, "magasinKategori": null, "fid_2": 1011, "id": 1011, "left": 16.486919847, "top": 69.446110046000001, "right": 16.986919847, "bottom": 68.946110046000001, "row_index": 10, "col_index": 25, "tile_id": 1011 }, "geometry": { "type": "MultiPolygon", "coordinates": [ [ [ [ 16.514774055110014, 69.078815510871877 ], [ 16.514395926067646, 69.07879193698551 ], [ 16.513637493949133, 69.07907671426679 ], [ 16.513634698324708, 69.079399676776987 ], [ 16.514586703653567, 69.079373335592507 ], [ 16.514774055110014, 69.078815510871877 ] ] ] ] } },
{ "type": "Feature", "properties": { "fid": 37355, "navn": null, "hoyde_moh": 443, "arealInnsjo_km2": 0.0027, "magasinKategori": null, "fid_2": 1011, "id": 1011, "left": 16.486919847, "top": 69.446110046000001, "right": 16.986919847, "bottom": 68.946110046000001, "row_index": 10, "col_index": 25, "tile_id": 1011 }, "geometry": { "type": "MultiPolygon", "coordinates": [ [ [ [ 16.854924684056499, 69.096383377565203 ], [ 16.855129208563572, 69.096010010565394 ], [ 16.855010249424094, 69.095898791402405 ], [ 16.854402084201833, 69.095825334199404 ], [ 16.853983030912531, 69.096086359313375 ], [ 16.854083179489109, 69.096307774680966 ], [ 16.85514647520786, 69.096605182773729 ], [ 16.854924684056499, 69.096383377565203 ] ] ] ] } },
{ "type": "Feature", "properties": { "fid": 37947, "navn": null, "hoyde_moh": 420, "arealInnsjo_km2": 0.0139, "magasinKategori": null, "fid_2": 1011, "id": 1011, "left": 16.486919847, "top": 69.446110046000001, "right": 16.986919847, "bottom": 68.946110046000001, "row_index": 10, "col_index": 25, "tile_id": 1011 }, "geometry": { "type": "MultiPolygon", "coordinates": [ [ [ [ 16.863144044104239, 69.09637709829137 ], [ 16.863218185179871, 69.09560688224721 ], [ 16.863609634990805, 69.095300377524765 ], [ 16.863580538199557, 69.094958513325736 ], [ 16.86405008259386, 69.094740338246794 ], [ 16.863895405315439, 69.094481479866801 ], [ 16.862489456616082, 69.09462727643195 ], [ 16.862471322758342, 69.094910260529559 ], [ 16.861776479780719, 69.095318292817467 ], [ 16.861300968530873, 69.095886331644579 ], [ 16.862190792432269, 69.096494472263132 ], [ 16.862774775369907, 69.09666703256876 ], [ 16.863144044104239, 69.09637709829137 ] ] ] ] } },
{ "type": "Feature", "properties": { "fid": 42774, "navn": null, "hoyde_moh": 104, "arealInnsjo_km2": 0.0028, "magasinKategori": null, "fid_2": 1011, "id": 1011, "left": 16.486919847, "top": 69.446110046000001, "right": 16.986919847, "bottom": 68.946110046000001, "row_index": 10, "col_index": 25, "tile_id": 1011 }, "geometry": { "type": "MultiPolygon", "coordinates": [ [ [ [ 16.955449370303874, 69.202267820325105 ], [ 16.955474965053284, 69.202055253855193 ], [ 16.954652498015211, 69.201904073011448 ], [ 16.953876666584705, 69.20206144300839 ], [ 16.95401292654768, 69.202319456767171 ], [ 16.955449370303874, 69.202267820325105 ] ] ] ] } },
{ "type": "Feature", "properties": { "fid": 43076, "navn": null, "hoyde_moh": 437, "arealInnsjo_km2": 0.0087, "magasinKategori": null, "fid_2": 1011, "id": 1011, "left": 16.486919847, "top": 69.446110046000001, "right": 16.986919847, "bottom": 68.946110046000001, "row_index": 10, "col_index": 25, "tile_id": 1011 }, "geometry": { "type": "MultiPolygon", "coordinates": [ [ [ [ 16.81990219035875, 69.102398572049907 ], [ 16.820168444026926, 69.102424279694418 ], [ 16.819902073623833, 69.102536196303333 ], [ 16.820001248849341, 69.102562328979332 ], [ 16.820907937945016, 69.102326635447966 ], [ 16.821247114003842, 69.101739800329824 ], [ 16.820670871669133, 69.101766634841056 ], [ 16.821915501207865, 69.101413144914076 ], [ 16.82087176682662, 69.101390392532267 ], [ 16.819656498317521, 69.10160755550308 ], [ 16.819283337840076, 69.102027877032924 ], [ 16.819301311964981, 69.102319709316632 ], [ 16.818997474251066, 69.102470688619547 ], [ 16.819061563915646, 69.102742923111592 ], [ 16.81990219035875, 69.102398572049907 ] ] ] ] } },
{ "type": "Feature", "properties": { "fid": 43298, "navn": null, "hoyde_moh": 440, "arealInnsjo_km2": 0.0123, "magasinKategori": null, "fid_2": 1011, "id": 1011, "left": 16.486919847, "top": 69.446110046000001, "right": 16.986919847, "bottom": 68.946110046000001, "row_index": 10, "col_index": 25, "tile_id": 1011 }, "geometry": { "type": "MultiPolygon", "coordinates": [ [ [ [ 16.822152444437986, 69.100815190932266 ], [ 16.822535792747349, 69.100771648066441 ], [ 16.823015123591247, 69.100160802616372 ], [ 16.82299995398629, 69.099936406334464 ], [ 16.823597141905697, 69.099389440948315 ], [ 16.82263114603758, 69.099354660099294 ], [ 16.820854090261506, 69.100023948525376 ], [ 16.820840230983432, 69.100382956249277 ], [ 16.821261554529574, 69.100838188890776 ], [ 16.82211154962015, 69.101148019793868 ], [ 16.822152444437986, 69.100815190932266 ] ] ] ] } },
{ "type": "Feature", "properties": { "fid": 44754, "navn": null, "hoyde_moh": 273, "arealInnsjo_km2": 0.0074, "magasinKategori": null, "fid_2": 1011, "id": 1011, "left": 16.486919847, "top": 69.446110046000001, "right": 16.986919847, "bottom": 68.946110046000001, "row_index": 10, "col_index": 25, "tile_id": 1011 }, "geometry": { "type": "MultiPolygon", "coordinates": [ [ [ [ 16.951099844412887, 69.129578919755872 ], [ 16.951254190836718, 69.12933483436035 ], [ 16.950991497136418, 69.128647062216757 ], [ 16.950535048265898, 69.128607382125807 ], [ 16.949387776671944, 69.129006191648301 ], [ 16.949286326787863, 69.129276501631296 ], [ 16.949591614339472, 69.129596031128969 ], [ 16.950686912377375, 69.129745101758573 ], [ 16.951099844412887, 69.129578919755872 ] ] ] ] } },
{ "type": "Feature", "properties": { "fid": 46692, "navn": null, "hoyde_moh": 149, "arealInnsjo_km2": 0.0028, "magasinKategori": null, "fid_2": 1011, "id": 1011, "left": 16.486919847, "top": 69.446110046000001, "right": 16.986919847, "bottom": 68.946110046000001, "row_index": 10, "col_index": 25, "tile_id": 1011 }, "geometry": { "type": "MultiPolygon", "coordinates": [ [ [ [ 16.957813266049346, 69.205480224257542 ], [ 16.957333632618969, 69.2050350985959 ], [ 16.956612313905861, 69.205221289083653 ], [ 16.956363797447803, 69.205481962717798 ], [ 16.95748445407148, 69.2056593591347 ], [ 16.957813266049346, 69.205480224257542 ] ] ] ] } },
{ "type": "Feature", "properties": { "fid": 48235, "navn": null, "hoyde_moh": 379, "arealInnsjo_km2": 0.0026, "magasinKategori": null, "fid_2": 1011, "id": 1011, "left": 16.486919847, "top": 69.446110046000001, "right": 16.986919847, "bottom": 68.946110046000001, "row_index": 10, "col_index": 25, "tile_id": 1011 }, "geometry": { "type": "MultiPolygon", "coordinates": [ [ [ [ 16.981678151360974, 69.216603512944701 ], [ 16.980791749459758, 69.216429767337857 ], [ 16.979156349035726, 69.216492502289654 ], [ 16.979916529388269, 69.216711847401527 ], [ 16.98077549327548, 69.216625813446981 ], [ 16.981684027072024, 69.216753996180785 ], [ 16.981678151360974, 69.216603512944701 ] ] ] ] } },
{ "type": "Feature", "properties": { "fid": 57026, "navn": null, "hoyde_moh": null, "arealInnsjo_km2": 0.0028, "magasinKategori": 2, "fid_2": 1011, "id": 1011, "left": 16.486919847, "top": 69.446110046000001, "right": 16.986919847, "bottom": 68.946110046000001, "row_index": 10, "col_index": 25, "tile_id": 1011 }, "geometry": { "type": "MultiPolygon", "coordinates": [ [ [ [ 16.514847548100725, 68.995604035151175 ], [ 16.513405890902511, 68.995733325381991 ], [ 16.514479789858235, 68.996073851817343 ], [ 16.51548125774811, 68.996091893117352 ], [ 16.514847548100725, 68.995604035151175 ] ] ] ] } },
{ "type": "Feature", "properties": { "fid": 122292, "navn": "Horsevikvatnet", "hoyde_moh": null, "arealInnsjo_km2": 0.0064, "magasinKategori": null, "fid_2": 1011, "id": 1011, "left": 16.486919847, "top": 69.446110046000001, "right": 16.986919847, "bottom": 68.946110046000001, "row_index": 10, "col_index": 25, "tile_id": 1011 }, "geometry": { "type": "MultiPolygon", "coordinates": [ [ [ [ 16.586082740405661, 68.958393275782072 ], [ 16.585655881839102, 68.958011582978827 ], [ 16.585667931385149, 68.957831964561294 ], [ 16.58459056064104, 68.957429305644141 ], [ 16.584339821022127, 68.957413779986467 ], [ 16.584465358385131, 68.957771359140054 ], [ 16.583859085341434, 68.958019195433096 ], [ 16.583921854606039, 68.958198030015609 ], [ 16.584539647629114, 68.958461424409521 ], [ 16.585109416730837, 68.958393341346152 ], [ 16.585729163094086, 68.958683625981479 ], [ 16.586082740405661, 68.958393275782072 ] ] ] ] } },
{ "type": "Feature", "properties": { "fid": 138024, "navn": null, "hoyde_moh": null, "arealInnsjo_km2": 0.004, "magasinKategori": null, "fid_2": 1011, "id": 1011, "left": 16.486919847, "top": 69.446110046000001, "right": 16.986919847, "bottom": 68.946110046000001, "row_index": 10, "col_index": 25, "tile_id": 1011 }, "geometry": { "type": "MultiPolygon", "coordinates": [ [ [ [ 16.518458034180195, 69.010247987536104 ], [ 16.51692883641865, 69.009839932137183 ], [ 16.516141949495626, 69.01040308080448 ], [ 16.517178353402532, 69.01055536618199 ], [ 16.518458034180195, 69.010247987536104 ] ] ] ] } },
{ "type": "Feature", "properties": { "fid": 162517, "navn": "Stillevatnet", "hoyde_moh": 269, "arealInnsjo_km2": 0.0817, "magasinKategori": null, "fid_2": 1011, "id": 1011, "left": 16.486919847, "top": 69.446110046000001, "right": 16.986919847, "bottom": 68.946110046000001, "row_index": 10, "col_index": 25, "tile_id": 1011 }, "geometry": { "type": "MultiPolygon", "coordinates": [ [ [ [ 16.868981085570997, 69.074950749701841 ], [ 16.870801777012257, 69.074098057867346 ], [ 16.870955822821909, 69.073515188950083 ], [ 16.871358369520689, 69.072944681412494 ], [ 16.87123043009311, 69.071928054384244 ], [ 16.871446697401176, 69.071762768179326 ], [ 16.871392050198754, 69.071590030465529 ], [ 16.869491754324816, 69.071209357832402 ], [ 16.869190597502318, 69.07131213649879 ], [ 16.869207861956369, 69.071697104640492 ], [ 16.868633777015084, 69.072236998088371 ], [ 16.867143136629064, 69.072597116756697 ], [ 16.865537138966562, 69.072593148484586 ], [ 16.865144883182335, 69.072696372132995 ], [ 16.864587678780619, 69.073164742177042 ], [ 16.86429522541372, 69.0744416341918 ], [ 16.864716495323162, 69.07479116870023 ], [ 16.865901476192381, 69.075125130087997 ], [ 16.867969672071052, 69.075175472385283 ], [ 16.868981085570997, 69.074950749701841 ] ] ] ] } },
{ "type": "Feature", "properties": { "fid": 163022, "navn": "Storvatnet", "hoyde_moh": 306, "arealInnsjo_km2": 0.0949, "magasinKategori": null, "fid_2": 1011, "id": 1011, "left": 16.486919847, "top": 69.446110046000001, "right": 16.986919847, "bottom": 68.946110046000001, "row_index": 10, "col_index": 25, "tile_id": 1011 }, "geometry": { "type": "MultiPolygon", "coordinates": [ [ [ [ 16.831085846640576, 69.082358780218215 ], [ 16.831361580092999, 69.081857825548212 ], [ 16.830792279612069, 69.081525672204052 ], [ 16.831303123640282, 69.081344647283956 ], [ 16.831423691020163, 69.081219193869259 ], [ 16.83130710576545, 69.08104683817534 ], [ 16.831708898647904, 69.080873883850288 ], [ 16.831749239488868, 69.080605651597267 ], [ 16.829452587855286, 69.079543696740046 ], [ 16.825922087496057, 69.079382225295731 ], [ 16.822859439764837, 69.080818657866018 ], [ 16.824026980940776, 69.081387427494789 ], [ 16.824177430678571, 69.08165057855841 ], [ 16.825547853930455, 69.08216738950523 ], [ 16.826103558385956, 69.082590227332417 ], [ 16.827300409970988, 69.082794777848008 ], [ 16.829479924128371, 69.082869076265538 ], [ 16.831085846640576, 69.082358780218215 ] ] ] ] } },
{ "type": "Feature", "properties": { "fid": 169789, "navn": null, "hoyde_moh": 8, "arealInnsjo_km2": 0.0063, "magasinKategori": null, "fid_2": 1011, "id": 1011, "left": 16.486919847, "top": 69.446110046000001, "right": 16.986919847, "bottom": 68.946110046000001, "row_index": 10, "col_index": 25, "tile_id": 1011 }, "geometry": { "type": "MultiPolygon", "coordinates": [ [ [ [ 16.821323473769496, 69.063676345571778 ], [ 16.821556973525563, 69.06341602273173 ], [ 16.821292800084091, 69.063198218309722 ], [ 16.820502872522681, 69.063107560868502 ], [ 16.819876060204269, 69.0631475887985 ], [ 16.819025249290309, 69.063538625161229 ], [ 16.819270378291623, 69.063829483925147 ], [ 16.819931503761158, 69.06395784908031 ], [ 16.821323473769496, 69.063676345571778 ] ] ] ] } },
{ "type": "Feature", "properties": { "fid": 169949, "navn": "Stallbuvatnet", "hoyde_moh": 130, "arealInnsjo_km2": 0.0054, "magasinKategori": null, "fid_2": 1011, "id": 1011, "left": 16.486919847, "top": 69.446110046000001, "right": 16.986919847, "bottom": 68.946110046000001, "row_index": 10, "col_index": 25, "tile_id": 1011 }, "geometry": { "type": "MultiPolygon", "coordinates": [ [ [ [ 16.836808984260511, 69.063351289956273 ], [ 16.837008234100221, 69.063130517208393 ], [ 16.835467239990976, 69.062830590887941 ], [ 16.83412234450979, 69.063303341294116 ], [ 16.834349878732436, 69.063348456833523 ], [ 16.834210238259018, 69.063448458828617 ], [ 16.834308595449638, 69.063478717579599 ], [ 16.836108998264773, 69.063487888344213 ], [ 16.836808984260511, 69.063351289956273 ] ] ] ] } },
{ "type": "Feature", "properties": { "fid": 170098, "navn": null, "hoyde_moh": 248, "arealInnsjo_km2": 0.003, "magasinKategori": null, "fid_2": 1011, "id": 1011, "left": 16.486919847, "top": 69.446110046000001, "right": 16.986919847, "bottom": 68.946110046000001, "row_index": 10, "col_index": 25, "tile_id": 1011 }, "geometry": { "type": "MultiPolygon", "coordinates": [ [ [ [ 16.867698093057303, 69.068241404117103 ], [ 16.867901317318303, 69.067976139804586 ], [ 16.866523414578538, 69.067921252140906 ], [ 16.865932271153966, 69.068098147548071 ], [ 16.866337223673973, 69.068319021051138 ], [ 16.867698093057303, 69.068241404117103 ] ] ] ] } },
{ "type": "Feature", "properties": { "fid": 170971, "navn": null, "hoyde_moh": 276, "arealInnsjo_km2": 0.0065, "magasinKategori": null, "fid_2": 1011, "id": 1011, "left": 16.486919847, "top": 69.446110046000001, "right": 16.986919847, "bottom": 68.946110046000001, "row_index": 10, "col_index": 25, "tile_id": 1011 }, "geometry": { "type": "MultiPolygon", "coordinates": [ [ [ [ 16.939540179938014, 69.130032719572455 ], [ 16.939280536025414, 69.129658827035925 ], [ 16.938914299414161, 69.129501463124541 ], [ 16.937492599532316, 69.129643099476084 ], [ 16.937233566025309, 69.129843401334298 ], [ 16.93737910963614, 69.130065969880789 ], [ 16.937897219394845, 69.130230597041773 ], [ 16.939110760918652, 69.130297750225751 ], [ 16.939540179938014, 69.130032719572455 ] ] ] ] } },
{ "type": "Feature", "properties": { "fid": 185232, "navn": null, "hoyde_moh": 371, "arealInnsjo_km2": 0.0021, "magasinKategori": null, "fid_2": 1011, "id": 1011, "left": 16.486919847, "top": 69.446110046000001, "right": 16.986919847, "bottom": 68.946110046000001, "row_index": 10, "col_index": 25, "tile_id": 1011 }, "geometry": { "type": "MultiPolygon", "coordinates": [ [ [ [ 16.97388679430701, 69.110295970731812 ], [ 16.973516232346103, 69.110162327301822 ], [ 16.973484558032659, 69.110017432901444 ], [ 16.973866976410587, 69.109769805246259 ], [ 16.97383475766928, 69.109624468538399 ], [ 16.972966875632146, 69.109880364446269 ], [ 16.973030238509459, 69.110265167723952 ], [ 16.973788833533234, 69.110425128261156 ], [ 16.97388679430701, 69.110295970731812 ] ] ] ] } },
{ "type": "Feature", "properties": { "fid": 185240, "navn": null, "hoyde_moh": 157, "arealInnsjo_km2": 0.0062, "magasinKategori": null, "fid_2": 1011, "id": 1011, "left": 16.486919847, "top": 69.446110046000001, "right": 16.986919847, "bottom": 68.946110046000001, "row_index": 10, "col_index": 25, "tile_id": 1011 }, "geometry": { "type": "MultiPolygon", "coordinates": [ [ [ [ 16.942476415073077, 69.11117297188477 ], [ 16.941522835097718, 69.111125165032462 ], [ 16.941325224909331, 69.110938179469358 ], [ 16.94037133854145, 69.110739371598839 ], [ 16.939905874437017, 69.110979155843907 ], [ 16.940062433477078, 69.110794090517089 ], [ 16.939775048805128, 69.110649208791543 ], [ 16.939029083591212, 69.110818946614955 ], [ 16.93934356451528, 69.111048308709968 ], [ 16.939162789448368, 69.111136121431301 ], [ 16.93930483253315, 69.11123249176913 ], [ 16.940774741581983, 69.111412646682297 ], [ 16.942476415073077, 69.11117297188477 ] ] ] ] } },
{ "type": "Feature", "properties": { "fid": 185782, "navn": null, "hoyde_moh": 153, "arealInnsjo_km2": 0.0074, "magasinKategori": null, "fid_2": 1011, "id": 1011, "left": 16.486919847, "top": 69.446110046000001, "right": 16.986919847, "bottom": 68.946110046000001, "row_index": 10, "col_index": 25, "tile_id": 1011 }, "geometry": { "type": "MultiPolygon", "coordinates": [ [ [ [ 16.957246498344563, 69.088999407474759 ], [ 16.958974836101234, 69.088789930360036 ], [ 16.95867561842568, 69.08851090482932 ], [ 16.9574400946351, 69.088105197862191 ], [ 16.956822538936976, 69.088262880841839 ], [ 16.956740855723275, 69.08859676502928 ], [ 16.956245986736029, 69.089051277947817 ], [ 16.956858541391476, 69.0891915264978 ], [ 16.957246498344563, 69.088999407474759 ] ] ] ] } },
{ "type": "Feature", "properties": { "fid": 185785, "navn": null, "hoyde_moh": 134, "arealInnsjo_km2": 0.0185, "magasinKategori": null, "fid_2": 1011, "id": 1011, "left": 16.486919847, "top": 69.446110046000001, "right": 16.986919847, "bottom": 68.946110046000001, "row_index": 10, "col_index": 25, "tile_id": 1011 }, "geometry": { "type": "MultiPolygon", "coordinates": [ [ [ [ 16.968805049548617, 69.230392632822429 ], [ 16.970267794585133, 69.229913704197742 ], [ 16.970556384493023, 69.229550094753051 ], [ 16.969955130012249, 69.229333825806648 ], [ 16.967981312177102, 69.22914568307722 ], [ 16.965821047721796, 69.229573323962526 ], [ 16.965823923349312, 69.229800820071816 ], [ 16.966170489584492, 69.230138972993927 ], [ 16.967137704297571, 69.23043829167591 ], [ 16.968805049548617, 69.230392632822429 ] ] ] ] } },
{ "type": "Feature", "properties": { "fid": 185820, "navn": "Rakelvatnet", "hoyde_moh": 120, "arealInnsjo_km2": 0.0056, "magasinKategori": null, "fid_2": 1011, "id": 1011, "left": 16.486919847, "top": 69.446110046000001, "right": 16.986919847, "bottom": 68.946110046000001, "row_index": 10, "col_index": 25, "tile_id": 1011 }, "geometry": { "type": "MultiPolygon", "coordinates": [ [ [ [ 16.836012918000137, 69.060098634673892 ], [ 16.834568337136389, 69.059449302171743 ], [ 16.834687286522254, 69.059225174513514 ], [ 16.834478123780677, 69.05906933298688 ], [ 16.833987870910757, 69.059139173713803 ], [ 16.833751993016552, 69.059416766275348 ], [ 16.833994641794678, 69.059811164339649 ], [ 16.833874833624197, 69.059911133571887 ], [ 16.835652866222819, 69.060267926561252 ], [ 16.836012918000137, 69.060098634673892 ] ] ] ] } },
{ "type": "Feature", "properties": { "fid": 185852, "navn": null, "hoyde_moh": 126, "arealInnsjo_km2": 0.002, "magasinKategori": null, "fid_2": 1011, "id": 1011, "left": 16.486919847, "top": 69.446110046000001, "right": 16.986919847, "bottom": 68.946110046000001, "row_index": 10, "col_index": 25, "tile_id": 1011 }, "geometry": { "type": "MultiPolygon", "coordinates": [ [ [ [ 16.895651372552184, 69.065401684568698 ], [ 16.895600910646731, 69.065166193418563 ], [ 16.895115745184416, 69.064995349165216 ], [ 16.894499059054365, 69.065154774332413 ], [ 16.895036010864558, 69.065544588775637 ], [ 16.895651372552184, 69.065401684568698 ] ] ] ] } },
{ "type": "Feature", "properties": { "fid": 185853, "navn": "Langvatnet", "hoyde_moh": 155, "arealInnsjo_km2": 0.0211, "magasinKategori": null, "fid_2": 1011, "id": 1011, "left": 16.486919847, "top": 69.446110046000001, "right": 16.986919847, "bottom": 68.946110046000001, "row_index": 10, "col_index": 25, "tile_id": 1011 }, "geometry": { "type": "MultiPolygon", "coordinates": [ [ [ [ 16.846577007281212, 69.066095411850313 ], [ 16.844735636006295, 69.065300694511123 ], [ 16.84321951842546, 69.065562551202547 ], [ 16.841941184758713, 69.06519992682918 ], [ 16.839907153725772, 69.065087098824776 ], [ 16.838473138897324, 69.065565683685449 ], [ 16.838774152740658, 69.065774635059753 ], [ 16.839670362084906, 69.065703567426269 ], [ 16.839282093206243, 69.065878193061735 ], [ 16.839802205468768, 69.065992205531757 ], [ 16.84092842857558, 69.065866717796411 ], [ 16.841791433940781, 69.066048546873915 ], [ 16.844187318287922, 69.065958202340084 ], [ 16.846402503200796, 69.066195081768413 ], [ 16.846577007281212, 69.066095411850313 ] ] ] ] } },
{ "type": "Feature", "properties": { "fid": 185854, "navn": "Marvatnet", "hoyde_moh": 215, "arealInnsjo_km2": 0.0049, "magasinKategori": null, "fid_2": 1011, "id": 1011, "left": 16.486919847, "top": 69.446110046000001, "right": 16.986919847, "bottom": 68.946110046000001, "row_index": 10, "col_index": 25, "tile_id": 1011 }, "geometry": { "type": "MultiPolygon", "coordinates": [ [ [ [ 16.881203831879979, 69.067472853019922 ], [ 16.88015790920279, 69.067181435942288 ], [ 16.878443654100668, 69.067236018906215 ], [ 16.878019690900661, 69.067383223596522 ], [ 16.880206337251398, 69.067693552155902 ], [ 16.881203831879979, 69.067472853019922 ] ] ] ] } },
{ "type": "Feature", "properties": { "fid": 185855, "navn": null, "hoyde_moh": 268, "arealInnsjo_km2": 0.0055, "magasinKategori": null, "fid_2": 1011, "id": 1011, "left": 16.486919847, "top": 69.446110046000001, "right": 16.986919847, "bottom": 68.946110046000001, "row_index": 10, "col_index": 25, "tile_id": 1011 }, "geometry": { "type": "MultiPolygon", "coordinates": [ [ [ [ 16.94468597407942, 69.130614736188292 ], [ 16.944764733343742, 69.13045351621146 ], [ 16.944304702736073, 69.130023130779207 ], [ 16.943538774423455, 69.129961272076386 ], [ 16.943144938783075, 69.130122195139293 ], [ 16.943063031721859, 69.130661348796878 ], [ 16.942729687688423, 69.130715987084002 ], [ 16.943810879760914, 69.130805418005679 ], [ 16.94468597407942, 69.130614736188292 ] ] ] ] } },
{ "type": "Feature", "properties": { "fid": 200747, "navn": null, "hoyde_moh": 319, "arealInnsjo_km2": 0.0404, "magasinKategori": null, "fid_2": 1011, "id": 1011, "left": 16.486919847, "top": 69.446110046000001, "right": 16.986919847, "bottom": 68.946110046000001, "row_index": 10, "col_index": 25, "tile_id": 1011 }, "geometry": { "type": "MultiPolygon", "coordinates": [ [ [ [ 16.957420142837599, 69.121216921757494 ], [ 16.95849095287786, 69.120518181877017 ], [ 16.958832546920714, 69.11988113215557 ], [ 16.959273558474941, 69.119607212598652 ], [ 16.959158360414438, 69.119211334072276 ], [ 16.959421704345274, 69.119079582706561 ], [ 16.959694444554202, 69.118589649755094 ], [ 16.959621375780621, 69.118467476440998 ], [ 16.959084785904533, 69.1182806065666 ], [ 16.958017375626991, 69.118240645569244 ], [ 16.95684982871461, 69.118815684391365 ], [ 16.956532801125995, 69.119255514214132 ], [ 16.954830841867089, 69.119778752671579 ], [ 16.954761433581869, 69.120434409672839 ], [ 16.955917642387625, 69.121291629404396 ], [ 16.956427983255576, 69.121395458317153 ], [ 16.957420142837599, 69.121216921757494 ] ] ] ] } },
{ "type": "Feature", "properties": { "fid": 200753, "navn": "Storvatnet", "hoyde_moh": 102, "arealInnsjo_km2": 0.0553, "magasinKategori": null, "fid_2": 1011, "id": 1011, "left": 16.486919847, "top": 69.446110046000001, "right": 16.986919847, "bottom": 68.946110046000001, "row_index": 10, "col_index": 25, "tile_id": 1011 }, "geometry": { "type": "MultiPolygon", "coordinates": [ [ [ [ 16.962734226840531, 69.203006331175047 ], [ 16.964273212762791, 69.202045310485261 ], [ 16.964230803528135, 69.201572432138178 ], [ 16.96261613987771, 69.200858978116372 ], [ 16.958678422848489, 69.200839434400905 ], [ 16.957928574604434, 69.200431564163495 ], [ 16.957269908695928, 69.200596860527384 ], [ 16.95744623265259, 69.20078910122281 ], [ 16.95734917245542, 69.200835511653011 ], [ 16.955503324481928, 69.200881222573585 ], [ 16.95673451762659, 69.201218234714077 ], [ 16.956678359232065, 69.201363051336998 ], [ 16.956839605189838, 69.201432458369027 ], [ 16.958262148155466, 69.201583452648521 ], [ 16.95757924750837, 69.201757548498705 ], [ 16.959895602212502, 69.202918938315079 ], [ 16.960474545532847, 69.203000460508591 ], [ 16.960856099508835, 69.202746072649731 ], [ 16.961725442440116, 69.203147637139097 ], [ 16.962734226840531, 69.203006331175047 ] ], [ [ 16.958833490467338, 69.202052385645672 ], [ 16.958987368935148, 69.201989268974188 ], [ 16.958871854266995, 69.201914768529221 ], [ 16.959219880045808, 69.20178718011401 ], [ 16.959629801988548, 69.201864883571417 ], [ 16.959534044503759, 69.202015534578649 ], [ 16.95965144150971, 69.202217504748816 ], [ 16.959181407266517, 69.202232177829046 ], [ 16.958833490467338, 69.202052385645672 ] ] ] ] } },
{ "type": "Feature", "properties": { "fid": 201994, "navn": null, "hoyde_moh": 377, "arealInnsjo_km2": 0.0297, "magasinKategori": null, "fid_2": 1011, "id": 1011, "left": 16.486919847, "top": 69.446110046000001, "right": 16.986919847, "bottom": 68.946110046000001, "row_index": 10, "col_index": 25, "tile_id": 1011 }, "geometry": { "type": "MultiPolygon", "coordinates": [ [ [ [ 16.983330992243623, 69.219821897671821 ], [ 16.985298449365796, 69.219469096261449 ], [ 16.985125289702616, 69.219113822035368 ], [ 16.984843249761312, 69.218988497895822 ], [ 16.981566871143713, 69.218382868885357 ], [ 16.98078996119467, 69.217952879749703 ], [ 16.980029290191695, 69.218145090494247 ], [ 16.979608271752319, 69.21865486800931 ], [ 16.980206466173001, 69.218778635140239 ], [ 16.979657935093787, 69.219089530989635 ], [ 16.979604469430857, 69.219457100294761 ], [ 16.979929257056106, 69.219633172411619 ], [ 16.981008322113436, 69.219876308148301 ], [ 16.983330992243623, 69.219821897671821 ] ] ] ] } },
{ "type": "Feature", "properties": { "fid": 208259, "navn": null, "hoyde_moh": 204, "arealInnsjo_km2": 0.0088, "magasinKategori": null, "fid_2": 1011, "id": 1011, "left": 16.486919847, "top": 69.446110046000001, "right": 16.986919847, "bottom": 68.946110046000001, "row_index": 10, "col_index": 25, "tile_id": 1011 }, "geometry": { "type": "MultiPolygon", "coordinates": [ [ [ [ 16.805939088768795, 69.083255786820146 ], [ 16.806519764156242, 69.083294532339679 ], [ 16.806511591891567, 69.08289090166322 ], [ 16.805486708567297, 69.082336394938665 ], [ 16.80399489608816, 69.082513660842125 ], [ 16.804286346325839, 69.083004027745702 ], [ 16.804197812914296, 69.083148502168228 ], [ 16.805754652844659, 69.083455100231987 ], [ 16.805939088768795, 69.083255786820146 ] ] ] ] } },
{ "type": "Feature", "properties": { "fid": 211367, "navn": null, "hoyde_moh": 338, "arealInnsjo_km2": 0.0387, "magasinKategori": null, "fid_2": 1011, "id": 1011, "left": 16.486919847, "top": 69.446110046000001, "right": 16.986919847, "bottom": 68.946110046000001, "row_index": 10, "col_index": 25, "tile_id": 1011 }, "geometry": { "type": "MultiPolygon", "coordinates": [ [ [ [ 16.852161487849504, 69.105801935401303 ], [ 16.851380925493508, 69.105384288441627 ], [ 16.852739162090334, 69.104870819178785 ], [ 16.855502316272208, 69.104328528822734 ], [ 16.85559719123578, 69.104187725539489 ], [ 16.855070392031429, 69.104045115273891 ], [ 16.855879112923898, 69.103964694501499 ], [ 16.854618030265794, 69.103529286753172 ], [ 16.854268416609553, 69.103641618764442 ], [ 16.8537695180712, 69.103412755149336 ], [ 16.852617581076714, 69.103470223124148 ], [ 16.852130046436372, 69.103627820021487 ], [ 16.850094052525488, 69.103725037157929 ], [ 16.849132685389403, 69.104078106872478 ], [ 16.848786956269731, 69.104367754477735 ], [ 16.848983807960764, 69.104612444577228 ], [ 16.849849964502376, 69.104937489915869 ], [ 16.849540867177723, 69.105033136826606 ], [ 16.849647806022599, 69.105218953788707 ], [ 16.851270642216555, 69.105542390972744 ], [ 16.851630555190575, 69.105821566086746 ], [ 16.852161487849504, 69.105801935401303 ] ] ] ] } },
{ "type": "Feature", "properties": { "fid": 214560, "navn": null, "hoyde_moh": 108, "arealInnsjo_km2": 0.0075, "magasinKategori": null, "fid_2": 1011, "id": 1011, "left": 16.486919847, "top": 69.446110046000001, "right": 16.986919847, "bottom": 68.946110046000001, "row_index": 10, "col_index": 25, "tile_id": 1011 }, "geometry": { "type": "MultiPolygon", "coordinates": [ [ [ [ 16.49970079255019, 68.956863618108812 ], [ 16.500073240674062, 68.95613731872028 ], [ 16.499138648796208, 68.956154496042288 ], [ 16.498414045987101, 68.955779606076604 ], [ 16.497537991762812, 68.955816893417108 ], [ 16.497590387451353, 68.956221006568114 ], [ 16.497776569275999, 68.956316255926907 ], [ 16.499027188381021, 68.956905414263318 ], [ 16.49970079255019, 68.956863618108812 ] ] ] ] } },
{ "type": "Feature", "properties": { "fid": 217151, "navn": "Aborsvatnet", "hoyde_moh": 182, "arealInnsjo_km2": 0.3961, "magasinKategori": null, "fid_2": 1011, "id": 1011, "left": 16.486919847, "top": 69.446110046000001, "right": 16.986919847, "bottom": 68.946110046000001, "row_index": 10, "col_index": 25, "tile_id": 1011 }, "geometry": { "type": "MultiPolygon", "coordinates": [ [ [ [ 16.871406481476729, 69.105242437680474 ], [ 16.873364257156645, 69.103719857507642 ], [ 16.876357023649312, 69.10266503687798 ], [ 16.878080117319158, 69.101635535739177 ], [ 16.879738982335237, 69.101364023406816 ], [ 16.88347486533484, 69.101345248473223 ], [ 16.885646878070553, 69.100678136274794 ], [ 16.887625589167477, 69.099399810047146 ], [ 16.889920063113802, 69.098376550089583 ], [ 16.890614912092602, 69.097659232267446 ], [ 16.890867649737409, 69.097164436313818 ], [ 16.889780397286771, 69.096461714611479 ], [ 16.889788646454086, 69.096161427936707 ], [ 16.88941599098035, 69.095889826555677 ], [ 16.888038833024936, 69.095523855751821 ], [ 16.886646860813219, 69.09594755306604 ], [ 16.881518490635308, 69.09599180978212 ], [ 16.879688165864103, 69.096763242284382 ], [ 16.878334407291295, 69.096979114657813 ], [ 16.875066511343746, 69.097932821584067 ], [ 16.87490119843779, 69.098094323527448 ], [ 16.875190434577416, 69.098455596434732 ], [ 16.874755987391801, 69.098965897163325 ], [ 16.873770840004969, 69.099624229246487 ], [ 16.872635382807434, 69.100132931245497 ], [ 16.871321132786722, 69.101163932819446 ], [ 16.871138729782135, 69.101393622378367 ], [ 16.871160282328173, 69.101692773402803 ], [ 16.87076602151053, 69.102198766679763 ], [ 16.870069730513112, 69.102749587052244 ], [ 16.870148460932199, 69.103518053132291 ], [ 16.869612751759639, 69.104451828773577 ], [ 16.869930820366292, 69.104668172601436 ], [ 16.86995436645962, 69.105223174707177 ], [ 16.870781935705271, 69.105548537692911 ], [ 16.871406481476729, 69.105242437680474 ] ] ] ] } },
{ "type": "Feature", "properties": { "fid": 217556, "navn": "Strupvatnet", "hoyde_moh": 226, "arealInnsjo_km2": 0.0625, "magasinKategori": null, "fid_2": 1011, "id": 1011, "left": 16.486919847, "top": 69.446110046000001, "right": 16.986919847, "bottom": 68.946110046000001, "row_index": 10, "col_index": 25, "tile_id": 1011 }, "geometry": { "type": "MultiPolygon", "coordinates": [ [ [ [ 16.985584534355951, 69.225022281026099 ], [ 16.986919847, 69.224913002650098 ], [ 16.986919847, 69.224383676724813 ], [ 16.985996044274394, 69.224153985904721 ], [ 16.982595367571445, 69.223857091515086 ], [ 16.978623761226007, 69.223991952625852 ], [ 16.977228958889217, 69.224222282907121 ], [ 16.974736318483913, 69.224995683665043 ], [ 16.977318628887211, 69.225255728021935 ], [ 16.980217355130371, 69.225276229065855 ], [ 16.983708317091548, 69.225646512400871 ], [ 16.985584534355951, 69.225022281026099 ] ] ] ] } },
{ "type": "Feature", "properties": { "fid": 223478, "navn": "Blyfjordvatnet", "hoyde_moh": 131, "arealInnsjo_km2": 1.4382, "magasinKategori": null, "fid_2": 1011, "id": 1011, "left": 16.486919847, "top": 69.446110046000001, "right": 16.986919847, "bottom": 68.946110046000001, "row_index": 10, "col_index": 25, "tile_id": 1011 }, "geometry": { "type": "MultiPolygon", "coordinates": [ [ [ [ 16.949398341459325, 69.110176994514248 ], [ 16.951053919439193, 69.109261804688742 ], [ 16.952420816124011, 69.109054182470985 ], [ 16.953586049490291, 69.108539397809963 ], [ 16.95436822437221, 69.108005995302619 ], [ 16.954629570681618, 69.107298717292409 ], [ 16.955993374223983, 69.106675784870859 ], [ 16.955731329865195, 69.106533780901245 ], [ 16.955896319654467, 69.106264894381411 ], [ 16.956923559382858, 69.105606488572874 ], [ 16.957154095277627, 69.10525852783185 ], [ 16.957758337327256, 69.10504223347651 ], [ 16.9576549953842, 69.104668110983695 ], [ 16.955532368924228, 69.103643642361973 ], [ 16.955358707748726, 69.10342993207945 ], [ 16.955645444958993, 69.103395892919494 ], [ 16.956002569896761, 69.103016166486057 ], [ 16.95471587451965, 69.102417578881415 ], [ 16.95411018488916, 69.101893776728232 ], [ 16.953943907042742, 69.101326124364022 ], [ 16.954537781676027, 69.100555576556914 ], [ 16.954373852995122, 69.100253469956726 ], [ 16.954894955770243, 69.099791220343221 ], [ 16.955047517381441, 69.099341419860465 ], [ 16.955847136039925, 69.099288529837693 ], [ 16.95617855668608, 69.098849700073288 ], [ 16.957782082187776, 69.09842992446977 ], [ 16.959382369781277, 69.097721987817465 ], [ 16.960278782645524, 69.097075636467139 ], [ 16.961091801329413, 69.096287038355371 ], [ 16.961521659737944, 69.095507210347208 ], [ 16.962381725534044, 69.095135358393378 ], [ 16.962138162844958, 69.094870505529016 ], [ 16.962324043178437, 69.094603884291431 ], [ 16.962187830768222, 69.094390291017788 ], [ 16.962427458739104, 69.09420766188461 ], [ 16.962367974277562, 69.09411296876165 ], [ 16.961146309200359, 69.093829864394522 ], [ 16.961196708399115, 69.093629660144842 ], [ 16.959933156569523, 69.093251383904175 ], [ 16.959950706550355, 69.093102247304316 ], [ 16.959386749832206, 69.092832794545032 ], [ 16.959345417129811, 69.092581420610898 ], [ 16.958962080244543, 69.092469069206359 ], [ 16.958533353993246, 69.092012079832742 ], [ 16.957853967812721, 69.09191763842621 ], [ 16.956483379993575, 69.091385432337944 ], [ 16.955686183510888, 69.091619715367827 ], [ 16.955771764032285, 69.09110697475343 ], [ 16.954373508784791, 69.090170698073933 ], [ 16.95370257982723, 69.089975926968961 ], [ 16.951723483665194, 69.089740676147358 ], [ 16.951578782326248, 69.090098331700958 ], [ 16.951373536718005, 69.090143013219219 ], [ 16.950217705399155, 69.090073248285279 ], [ 16.949644194573771, 69.089790146717732 ], [ 16.947220383567988, 69.0895101008296 ], [ 16.945508638423849, 69.089823345142989 ], [ 16.944774421584956, 69.089619118986704 ], [ 16.944596929557829, 69.0898180654725 ], [ 16.945047252236829, 69.090072343630681 ], [ 16.943864843030028, 69.090449912113783 ], [ 16.944940675769526, 69.091089630819738 ], [ 16.944675537533012, 69.091297375980986 ], [ 16.945010908491696, 69.091470324613994 ], [ 16.944537989897974, 69.09187278348206 ], [ 16.944861472514258, 69.092194622947844 ], [ 16.944723269555663, 69.09236665676579 ], [ 16.945027323920083, 69.092554494937843 ], [ 16.944645071074735, 69.092812733372895 ], [ 16.94424713450989, 69.093485744576782 ], [ 16.944342128742914, 69.093695510643613 ], [ 16.94420353889619, 69.093857679068961 ], [ 16.943189951186877, 69.094597232682688 ], [ 16.941027744792034, 69.095360356936254 ], [ 16.940703824226446, 69.095676871997654 ], [ 16.940136067993656, 69.095889913799283 ], [ 16.940057218194116, 69.096281624291791 ], [ 16.939604675089914, 69.096788629938828 ], [ 16.938270587871042, 69.097211921060477 ], [ 16.938051365436323, 69.09750562596885 ], [ 16.937099227103261, 69.097495645754037 ], [ 16.937275688174815, 69.097811711007495 ], [ 16.936764830096596, 69.098245706292488 ], [ 16.936686668064219, 69.098921459102456 ], [ 16.936378495835871, 69.099306512375932 ], [ 16.936731108916515, 69.100324083198927 ], [ 16.93736143460535, 69.100694243734551 ], [ 16.937076037031847, 69.101084065409438 ], [ 16.937333147165827, 69.101416626588531 ], [ 16.93713690773787, 69.101777539542908 ], [ 16.93742121191541, 69.102261061196586 ], [ 16.938318117073425, 69.102459448340028 ], [ 16.939111833633696, 69.102982166527042 ], [ 16.939848245100841, 69.10317266852428 ], [ 16.938845741953646, 69.103314711350279 ], [ 16.939519601532989, 69.103908134474736 ], [ 16.939300765522436, 69.104198247136253 ], [ 16.940177521555306, 69.105234207153771 ], [ 16.940040019176276, 69.105415469033858 ], [ 16.94055646256178, 69.105689560056376 ], [ 16.940630307046906, 69.106247320713464 ], [ 16.941503128083966, 69.106628185953696 ], [ 16.941418446746088, 69.106874975296165 ], [ 16.941609091194234, 69.106975369941921 ], [ 16.941679742508143, 69.10726167448378 ], [ 16.943034236311316, 69.107747083161001 ], [ 16.94285402180477, 69.108095529877517 ], [ 16.943254620939562, 69.108439739046204 ], [ 16.943082958811807, 69.108675042252031 ], [ 16.943295013418435, 69.109106797441683 ], [ 16.945578079502599, 69.110239775208157 ], [ 16.947611539002654, 69.110373741806526 ], [ 16.949398341459325, 69.110176994514248 ] ], [ [ 16.953619954285891, 69.098817193267664 ], [ 16.955227466771621, 69.098669428795347 ], [ 16.954073046794846, 69.098927507402792 ], [ 16.95461598273215, 69.099208163515073 ], [ 16.953619954285891, 69.098817193267664 ] ], [ [ 16.945054213510698, 69.102514813099987 ], [ 16.945659991793395, 69.102558463001088 ], [ 16.945425855823924, 69.102632981292288 ], [ 16.945054213510698, 69.102514813099987 ] ], [ [ 16.940223910632898, 69.103600066289104 ], [ 16.940091152291252, 69.103443479962451 ], [ 16.941258544868138, 69.10359070668558 ], [ 16.941009914264995, 69.103740119107158 ], [ 16.940223910632898, 69.103600066289104 ] ] ] ] } },
{ "type": "Feature", "properties": { "fid": 226116, "navn": null, "hoyde_moh": 214, "arealInnsjo_km2": 0.0255, "magasinKategori": null, "fid_2": 1011, "id": 1011, "left": 16.486919847, "top": 69.446110046000001, "right": 16.986919847, "bottom": 68.946110046000001, "row_index": 10, "col_index": 25, "tile_id": 1011 }, "geometry": { "type": "MultiPolygon", "coordinates": [ [ [ [ 16.813088939250409, 69.082274271908361 ], [ 16.813398583674989, 69.08176859546704 ], [ 16.813200741064207, 69.081501540882044 ], [ 16.812068135162779, 69.081163616552487 ], [ 16.811884279899584, 69.080761840349126 ], [ 16.811243864305197, 69.080607114576509 ], [ 16.809744806118299, 69.080694703778704 ], [ 16.809312634273489, 69.081237551050563 ], [ 16.809504505290583, 69.081432900689833 ], [ 16.809007343062728, 69.081797002429767 ], [ 16.808887916394411, 69.082175064089839 ], [ 16.811517484045368, 69.08239852654539 ], [ 16.813088939250409, 69.082274271908361 ] ] ] ] } },
{ "type": "Feature", "properties": { "fid": 240450, "navn": null, "hoyde_moh": 50, "arealInnsjo_km2": 0.0101, "magasinKategori": null, "fid_2": 1011, "id": 1011, "left": 16.486919847, "top": 69.446110046000001, "right": 16.986919847, "bottom": 68.946110046000001, "row_index": 10, "col_index": 25, "tile_id": 1011 }, "geometry": { "type": "MultiPolygon", "coordinates": [ [ [ [ 16.953629798687739, 69.314594082101095 ], [ 16.954535943152202, 69.31415751520548 ], [ 16.954080703934274, 69.313842986581506 ], [ 16.952900587287889, 69.313912194355979 ], [ 16.952723739246032, 69.314030643062182 ], [ 16.952775739936939, 69.314224476160561 ], [ 16.953127056650537, 69.314354911994343 ], [ 16.952610759658747, 69.314314170755438 ], [ 16.952467861802937, 69.314218258264248 ], [ 16.952542033625413, 69.314123397197292 ], [ 16.95224386301706, 69.314047537808335 ], [ 16.951582106659039, 69.314048358056098 ], [ 16.951017124487407, 69.314480886079394 ], [ 16.951079165806259, 69.31469335752108 ], [ 16.951586803031031, 69.314868778315287 ], [ 16.952502180175628, 69.314879992094205 ], [ 16.953629798687739, 69.314594082101095 ] ] ] ] } },
{ "type": "Feature", "properties": { "fid": 240472, "navn": null, "hoyde_moh": 171, "arealInnsjo_km2": 0.0032, "magasinKategori": null, "fid_2": 1011, "id": 1011, "left": 16.486919847, "top": 69.446110046000001, "right": 16.986919847, "bottom": 68.946110046000001, "row_index": 10, "col_index": 25, "tile_id": 1011 }, "geometry": { "type": "MultiPolygon", "coordinates": [ [ [ [ 16.951942065783967, 69.387277798409443 ], [ 16.95211644476894, 69.387086085719233 ], [ 16.952026759914943, 69.386835166853544 ], [ 16.950947205563512, 69.386866766560246 ], [ 16.950920146721977, 69.387527301827262 ], [ 16.951942065783967, 69.387277798409443 ] ] ] ] } },
{ "type": "Feature", "properties": { "fid": 242413, "navn": null, "hoyde_moh": 251, "arealInnsjo_km2": 0.003, "magasinKategori": null, "fid_2": 1011, "id": 1011, "left": 16.486919847, "top": 69.446110046000001, "right": 16.986919847, "bottom": 68.946110046000001, "row_index": 10, "col_index": 25, "tile_id": 1011 }, "geometry": { "type": "MultiPolygon", "coordinates": [ [ [ [ 16.875022005611296, 69.069817045270412 ], [ 16.874531168206573, 69.06912422898202 ], [ 16.874256706208648, 69.069071962602834 ], [ 16.874454621277501, 69.069326571118353 ], [ 16.874094853707444, 69.069485803710236 ], [ 16.873031293364669, 69.068749985984951 ], [ 16.872614845788096, 69.068827294434996 ], [ 16.87364053932054, 69.069463672776408 ], [ 16.874069860721082, 69.069560362886889 ], [ 16.874454184434203, 69.069444733841038 ], [ 16.874793024251478, 69.069724537585714 ], [ 16.874652509444793, 69.069853741515999 ], [ 16.873924927867851, 69.069858103890184 ], [ 16.874176136028154, 69.070034524832138 ], [ 16.875022005611296, 69.069817045270412 ] ] ] ] } },
{ "type": "Feature", "properties": { "fid": 242858, "navn": null, "hoyde_moh": 1, "arealInnsjo_km2": 0.0048, "magasinKategori": null, "fid_2": 1011, "id": 1011, "left": 16.486919847, "top": 69.446110046000001, "right": 16.986919847, "bottom": 68.946110046000001, "row_index": 10, "col_index": 25, "tile_id": 1011 }, "geometry": { "type": "MultiPolygon", "coordinates": [ [ [ [ 16.936279032004574, 69.298053469769087 ], [ 16.935923340264893, 69.297657128561511 ], [ 16.934875859310413, 69.297444638965231 ], [ 16.933821412257466, 69.297571443605463 ], [ 16.934054152771981, 69.29775276385628 ], [ 16.936065535673688, 69.298164327190932 ], [ 16.936279032004574, 69.298053469769087 ] ] ] ] } },
{ "type": "Feature", "properties": { "fid": 243197, "navn": null, "hoyde_moh": 194, "arealInnsjo_km2": 0.0028, "magasinKategori": null, "fid_2": 1011, "id": 1011, "left": 16.486919847, "top": 69.446110046000001, "right": 16.986919847, "bottom": 68.946110046000001, "row_index": 10, "col_index": 25, "tile_id": 1011 }, "geometry": { "type": "MultiPolygon", "coordinates": [ [ [ [ 16.961953961843257, 69.384474428249661 ], [ 16.962110848888543, 69.384259575339541 ], [ 16.960919817966889, 69.384021280628986 ], [ 16.96052807119845, 69.384489725251768 ], [ 16.961418037599763, 69.384625646208463 ], [ 16.961953961843257, 69.384474428249661 ] ] ] ] } },
{ "type": "Feature", "properties": { "fid": 243692, "navn": null, "hoyde_moh": 43, "arealInnsjo_km2": 0.0027, "magasinKategori": null, "fid_2": 1011, "id": 1011, "left": 16.486919847, "top": 69.446110046000001, "right": 16.986919847, "bottom": 68.946110046000001, "row_index": 10, "col_index": 25, "tile_id": 1011 }, "geometry": { "type": "MultiPolygon", "coordinates": [ [ [ [ 16.948272117901787, 69.375806461543505 ], [ 16.948234444775874, 69.375516109856306 ], [ 16.947840250907543, 69.375256943536627 ], [ 16.947423306022941, 69.375253098501531 ], [ 16.94695130086858, 69.375614840737043 ], [ 16.948050581338791, 69.375895256061227 ], [ 16.948272117901787, 69.375806461543505 ] ] ] ] } },
{ "type": "Feature", "properties": { "fid": 244766, "navn": "Storvatnet", "hoyde_moh": 37, "arealInnsjo_km2": 0.0427, "magasinKategori": null, "fid_2": 1011, "id": 1011, "left": 16.486919847, "top": 69.446110046000001, "right": 16.986919847, "bottom": 68.946110046000001, "row_index": 10, "col_index": 25, "tile_id": 1011 }, "geometry": { "type": "MultiPolygon", "coordinates": [ [ [ [ 16.945503364036039, 69.374967165730638 ], [ 16.945456844848689, 69.374747610265601 ], [ 16.944568257852055, 69.374135646046739 ], [ 16.944669813166758, 69.373376396258635 ], [ 16.943861287683095, 69.372869847154291 ], [ 16.943893757454934, 69.372490248140934 ], [ 16.939532663082719, 69.372085605426747 ], [ 16.938297537748536, 69.372232633208583 ], [ 16.93768493250262, 69.372593766393223 ], [ 16.93774025376344, 69.372878269841351 ], [ 16.938246953327603, 69.373097174317166 ], [ 16.940689286264046, 69.373199076729293 ], [ 16.941639738673469, 69.373776274846023 ], [ 16.942746644531045, 69.373956691848932 ], [ 16.943806322897256, 69.374431814082598 ], [ 16.944189103553917, 69.37519479013271 ], [ 16.9452344148253, 69.375247047805047 ], [ 16.945503364036039, 69.374967165730638 ] ] ] ] } },
{ "type": "Feature", "properties": { "fid": 268189, "navn": null, "hoyde_moh": null, "arealInnsjo_km2": 0.01, "magasinKategori": null, "fid_2": 1011, "id": 1011, "left": 16.486919847, "top": 69.446110046000001, "right": 16.986919847, "bottom": 68.946110046000001, "row_index": 10, "col_index": 25, "tile_id": 1011 }, "geometry": { "type": "MultiPolygon", "coordinates": [ [ [ [ 16.494182378730422, 69.013513424495372 ], [ 16.494493538546248, 69.013098692661956 ], [ 16.494474482446222, 69.012818261739369 ], [ 16.494713911805434, 69.012718033611335 ], [ 16.493310871795, 69.012365361045013 ], [ 16.492352866456038, 69.013009456191142 ], [ 16.492409645912506, 69.013440531659853 ], [ 16.49167263399838, 69.013550924493217 ], [ 16.492315354723207, 69.01374742710766 ], [ 16.494182378730422, 69.013513424495372 ] ] ] ] } }
]
}
