{
"type": "FeatureCollection",
"name": "innsjo_tile_id_421",
"crs": { "type": "name", "properties": { "name": "urn:ogc:def:crs:OGC:1.3:CRS84" } },
"xy_coordinate_resolution": 1e-15,
"features": [
{ "type": "Feature", "properties": { "fid": 21555, "navn": null, "hoyde_moh": 2, "arealInnsjo_km2": 0.0027, "magasinKategori": null, "fid_2": 421, "id": 421, "left": 8.986919847, "top": 64.446110046000001, "right": 9.486919847, "bottom": 63.946110046000001, "row_index": 20, "col_index": 10, "tile_id": 421 }, "geometry": { "type": "MultiPolygon", "coordinates": [ [ [ [ 9.164410299977106, 64.041375539126761 ], [ 9.16422161214402, 64.041341831273996 ], [ 9.164375092210403, 64.041119250707766 ], [ 9.164266988382568, 64.040891266102534 ], [ 9.16367326163514, 64.040876084110906 ], [ 9.163699986425208, 64.041557775839948 ], [ 9.164026262874161, 64.041694526986902 ], [ 9.164410299977106, 64.041375539126761 ] ] ] ] } },
{ "type": "Feature", "properties": { "fid": 38975, "navn": null, "hoyde_moh": 0, "arealInnsjo_km2": 0.0028, "magasinKategori": null, "fid_2": 421, "id": 421, "left": 8.986919847, "top": 64.446110046000001, "right": 9.486919847, "bottom": 63.946110046000001, "row_index": 20, "col_index": 10, "tile_id": 421 }, "geometry": { "type": "MultiPolygon", "coordinates": [ [ [ [ 9.002242589095507, 63.981611539314457 ], [ 9.002669608765011, 63.981225307091563 ], [ 9.00163667069712, 63.981031374272987 ], [ 9.001266608704231, 63.981136415192381 ], [ 9.001814313404603, 63.981705073124438 ], [ 9.002242589095507, 63.981611539314457 ] ], [ [ 9.001540436509783, 63.981154796239039 ], [ 9.001713755714304, 63.981397541815511 ], [ 9.001587142033189, 63.98137905393321 ], [ 9.001540436509783, 63.981154796239039 ] ] ] ] } },
{ "type": "Feature", "properties": { "fid": 111838, "navn": null, "hoyde_moh": 6, "arealInnsjo_km2": 0.0034, "magasinKategori": null, "fid_2": 421, "id": 421, "left": 8.986919847, "top": 64.446110046000001, "right": 9.486919847, "bottom": 63.946110046000001, "row_index": 20, "col_index": 10, "tile_id": 421 }, "geometry": { "type": "MultiPolygon", "coordinates": [ [ [ [ 9.175623262924697, 63.996081146273823 ], [ 9.17645958974385, 63.996395238532536 ], [ 9.176782762136719, 63.996188126642693 ], [ 9.175587764201804, 63.995964392598594 ], [ 9.176011774356075, 63.995672123885655 ], [ 9.175897753507364, 63.995651510199828 ], [ 9.174749868764385, 63.996016282691031 ], [ 9.17426832108219, 63.996401300956236 ], [ 9.175623262924697, 63.996081146273823 ] ] ] ] } },
{ "type": "Feature", "properties": { "fid": 142636, "navn": null, "hoyde_moh": 1, "arealInnsjo_km2": 0.0057, "magasinKategori": null, "fid_2": 421, "id": 421, "left": 8.986919847, "top": 64.446110046000001, "right": 9.486919847, "bottom": 63.946110046000001, "row_index": 20, "col_index": 10, "tile_id": 421 }, "geometry": { "type": "MultiPolygon", "coordinates": [ [ [ [ 9.183866875032924, 63.99889004064552 ], [ 9.184452709274746, 63.99879420736233 ], [ 9.183659761630121, 63.998698153246892 ], [ 9.183851811489351, 63.998579744277791 ], [ 9.18359846022037, 63.998422729322556 ], [ 9.184044522718084, 63.998411937167944 ], [ 9.183775862513528, 63.998216226103118 ], [ 9.183001767533058, 63.998175391521293 ], [ 9.182347278983675, 63.998362446690763 ], [ 9.182919885453883, 63.998616111280803 ], [ 9.18247996121967, 63.998970058108377 ], [ 9.18284855218424, 63.998849923915209 ], [ 9.182910667323574, 63.999133213372374 ], [ 9.183131949538099, 63.999020211364048 ], [ 9.183128551264815, 63.999230196696175 ], [ 9.183399176715699, 63.999249355791434 ], [ 9.183866875032924, 63.99889004064552 ] ] ] ] } },
{ "type": "Feature", "properties": { "fid": 142818, "navn": null, "hoyde_moh": 9, "arealInnsjo_km2": 0.0037, "magasinKategori": null, "fid_2": 421, "id": 421, "left": 8.986919847, "top": 64.446110046000001, "right": 9.486919847, "bottom": 63.946110046000001, "row_index": 20, "col_index": 10, "tile_id": 421 }, "geometry": { "type": "MultiPolygon", "coordinates": [ [ [ [ 9.124283443792041, 63.983426005422565 ], [ 9.124675866450254, 63.98338576442525 ], [ 9.124584995619815, 63.983068670983052 ], [ 9.12496914884739, 63.982369597181041 ], [ 9.124720522799642, 63.982359769075678 ], [ 9.124090444203238, 63.983153920807197 ], [ 9.123674685653146, 63.983384801189175 ], [ 9.123774301285946, 63.983517234085852 ], [ 9.123471205552123, 63.983873064068469 ], [ 9.124283443792041, 63.983426005422565 ] ] ] ] } }
]
}
