{
"type": "FeatureCollection",
"name": "innsjo_tile_id_592",
"crs": { "type": "name", "properties": { "name": "urn:ogc:def:crs:OGC:1.3:CRS84" } },
"xy_coordinate_resolution": 1e-15,
"features": [
{ "type": "Feature", "properties": { "fid": 17087, "navn": null, "hoyde_moh": null, "arealInnsjo_km2": 0.0036, "magasinKategori": null, "fid_2": 592, "id": 592, "left": 10.986919847, "top": 58.946110046000001, "right": 11.486919847, "bottom": 58.446110046000001, "row_index": 31, "col_index": 14, "tile_id": 592 }, "geometry": { "type": "MultiPolygon", "coordinates": [ [ [ [ 11.479796733368541, 58.929344920889669 ], [ 11.480210742426234, 58.929786217059984 ], [ 11.481221279571978, 58.930305958645 ], [ 11.481658949830956, 58.930351403749562 ], [ 11.48035598001181, 58.929388019758235 ], [ 11.479796733368541, 58.929344920889669 ] ] ] ] } },
{ "type": "Feature", "properties": { "fid": 23211, "navn": "Kutjern", "hoyde_moh": null, "arealInnsjo_km2": 0.0081, "magasinKategori": null, "fid_2": 592, "id": 592, "left": 10.986919847, "top": 58.946110046000001, "right": 11.486919847, "bottom": 58.446110046000001, "row_index": 31, "col_index": 14, "tile_id": 592 }, "geometry": { "type": "MultiPolygon", "coordinates": [ [ [ [ 11.473247158068734, 58.937687260348845 ], [ 11.473038207038705, 58.937439672172367 ], [ 11.473337151978775, 58.9372454047055 ], [ 11.473028552209964, 58.937062602307236 ], [ 11.473347708218794, 58.936903672715665 ], [ 11.473255566176791, 58.936833653114824 ], [ 11.472464286619454, 58.936704911855273 ], [ 11.471954417262213, 58.937110137108249 ], [ 11.472128681332762, 58.937843518748807 ], [ 11.472473375911635, 58.938042409471471 ], [ 11.473247158068734, 58.937687260348845 ] ] ] ] } },
{ "type": "Feature", "properties": { "fid": 33740, "navn": "Olsrødtjern", "hoyde_moh": null, "arealInnsjo_km2": 0.0057, "magasinKategori": null, "fid_2": 592, "id": 592, "left": 10.986919847, "top": 58.946110046000001, "right": 11.486919847, "bottom": 58.446110046000001, "row_index": 31, "col_index": 14, "tile_id": 592 }, "geometry": { "type": "MultiPolygon", "coordinates": [ [ [ [ 11.477553075004062, 58.891490499916586 ], [ 11.478454657079412, 58.89220101988802 ], [ 11.478810209115952, 58.892319928726316 ], [ 11.479237820205435, 58.89223082493897 ], [ 11.478984884201266, 58.891849368555548 ], [ 11.478196446443793, 58.891262476966048 ], [ 11.477497196087246, 58.891195044391111 ], [ 11.477553075004062, 58.891490499916586 ] ] ] ] } },
{ "type": "Feature", "properties": { "fid": 35088, "navn": null, "hoyde_moh": null, "arealInnsjo_km2": 0.0039, "magasinKategori": null, "fid_2": 592, "id": 592, "left": 10.986919847, "top": 58.946110046000001, "right": 11.486919847, "bottom": 58.446110046000001, "row_index": 31, "col_index": 14, "tile_id": 592 }, "geometry": { "type": "MultiPolygon", "coordinates": [ [ [ [ 11.467070773998406, 58.937706429611374 ], [ 11.466941053431794, 58.937349446566756 ], [ 11.466111869012407, 58.937176573901041 ], [ 11.465642383868364, 58.937419195042558 ], [ 11.466768084218593, 58.937846828263588 ], [ 11.467070773998406, 58.937706429611374 ] ] ] ] } },
{ "type": "Feature", "properties": { "fid": 36700, "navn": "Svarttjern", "hoyde_moh": null, "arealInnsjo_km2": 0.0153, "magasinKategori": null, "fid_2": 592, "id": 592, "left": 10.986919847, "top": 58.946110046000001, "right": 11.486919847, "bottom": 58.446110046000001, "row_index": 31, "col_index": 14, "tile_id": 592 }, "geometry": { "type": "MultiPolygon", "coordinates": [ [ [ [ 11.470036827776488, 58.941716983791984 ], [ 11.470187342202211, 58.941898262010085 ], [ 11.471988939852178, 58.942313831495625 ], [ 11.473420792744893, 58.942331245129878 ], [ 11.474161722073434, 58.942153887970889 ], [ 11.474371665811313, 58.941957818852146 ], [ 11.470648017643176, 58.941434171255715 ], [ 11.47013760336986, 58.94155973705822 ], [ 11.470036827776488, 58.941716983791984 ] ] ] ] } },
{ "type": "Feature", "properties": { "fid": 59275, "navn": null, "hoyde_moh": null, "arealInnsjo_km2": 0.0025, "magasinKategori": null, "fid_2": 592, "id": 592, "left": 10.986919847, "top": 58.946110046000001, "right": 11.486919847, "bottom": 58.446110046000001, "row_index": 31, "col_index": 14, "tile_id": 592 }, "geometry": { "type": "MultiPolygon", "coordinates": [ [ [ [ 11.47088710829135, 58.938492852779696 ], [ 11.470548665556199, 58.938586711060672 ], [ 11.470615862065353, 58.938795286503364 ], [ 11.472290307784711, 58.93895938391266 ], [ 11.47088710829135, 58.938492852779696 ] ] ] ] } },
{ "type": "Feature", "properties": { "fid": 60840, "navn": "Trinsetjern", "hoyde_moh": null, "arealInnsjo_km2": 0.0165, "magasinKategori": null, "fid_2": 592, "id": 592, "left": 10.986919847, "top": 58.946110046000001, "right": 11.486919847, "bottom": 58.446110046000001, "row_index": 31, "col_index": 14, "tile_id": 592 }, "geometry": { "type": "MultiPolygon", "coordinates": [ [ [ [ 11.476794146861982, 58.920911871283593 ], [ 11.476358076899892, 58.920884338618244 ], [ 11.475829977511193, 58.921271729553631 ], [ 11.475226414247331, 58.921337241615433 ], [ 11.475234785564098, 58.921696478898738 ], [ 11.476223878343852, 58.922162736940329 ], [ 11.476742372781878, 58.922611121153359 ], [ 11.477093214153284, 58.922658170788303 ], [ 11.477397866763182, 58.922544500711105 ], [ 11.477440246264932, 58.922166333234401 ], [ 11.477750612979602, 58.921890841944212 ], [ 11.477235172941885, 58.921487488553112 ], [ 11.477144600078265, 58.921192706516351 ], [ 11.476794146861982, 58.920911871283593 ] ] ] ] } },
{ "type": "Feature", "properties": { "fid": 85178, "navn": null, "hoyde_moh": null, "arealInnsjo_km2": 0.0076, "magasinKategori": null, "fid_2": 592, "id": 592, "left": 10.986919847, "top": 58.946110046000001, "right": 11.486919847, "bottom": 58.446110046000001, "row_index": 31, "col_index": 14, "tile_id": 592 }, "geometry": { "type": "MultiPolygon", "coordinates": [ [ [ [ 11.461345833512476, 58.921108096971437 ], [ 11.462599273452028, 58.921874916464226 ], [ 11.462302331875602, 58.922096179240377 ], [ 11.463595128609189, 58.922439976063316 ], [ 11.462990698039226, 58.92175961047829 ], [ 11.462997302330734, 58.92160680257183 ], [ 11.463390485881032, 58.921518419991429 ], [ 11.461437882298739, 58.920935696690805 ], [ 11.461345833512476, 58.921108096971437 ] ] ] ] } },
{ "type": "Feature", "properties": { "fid": 87327, "navn": "Lundetjern", "hoyde_moh": null, "arealInnsjo_km2": 0.0227, "magasinKategori": null, "fid_2": 592, "id": 592, "left": 10.986919847, "top": 58.946110046000001, "right": 11.486919847, "bottom": 58.446110046000001, "row_index": 31, "col_index": 14, "tile_id": 592 }, "geometry": { "type": "MultiPolygon", "coordinates": [ [ [ [ 11.462896505630196, 58.912875592548566 ], [ 11.463330838285795, 58.912633731741742 ], [ 11.463344515582159, 58.91233702744811 ], [ 11.462997023810725, 58.912092007383109 ], [ 11.460089730256596, 58.911509536128811 ], [ 11.459344502374561, 58.911532707132402 ], [ 11.460174005425896, 58.912451263218898 ], [ 11.46090555351147, 58.912967488427824 ], [ 11.462896505630196, 58.912875592548566 ] ] ] ] } },
{ "type": "Feature", "properties": { "fid": 118590, "navn": "Tatertjern", "hoyde_moh": null, "arealInnsjo_km2": 0.0032, "magasinKategori": null, "fid_2": 592, "id": 592, "left": 10.986919847, "top": 58.946110046000001, "right": 11.486919847, "bottom": 58.446110046000001, "row_index": 31, "col_index": 14, "tile_id": 592 }, "geometry": { "type": "MultiPolygon", "coordinates": [ [ [ [ 11.473378095778651, 58.944310469382167 ], [ 11.473904020396821, 58.944857487781867 ], [ 11.474428654306896, 58.944901281732363 ], [ 11.474298169269632, 58.944535478354958 ], [ 11.473905865756292, 58.944156599964167 ], [ 11.473383843386671, 58.944148649936018 ], [ 11.473378095778651, 58.944310469382167 ] ] ] ] } },
{ "type": "Feature", "properties": { "fid": 124921, "navn": null, "hoyde_moh": null, "arealInnsjo_km2": 0.003, "magasinKategori": null, "fid_2": 592, "id": 592, "left": 10.986919847, "top": 58.946110046000001, "right": 11.486919847, "bottom": 58.446110046000001, "row_index": 31, "col_index": 14, "tile_id": 592 }, "geometry": { "type": "MultiPolygon", "coordinates": [ [ [ [ 11.48582965908299, 58.894583938482789 ], [ 11.485572256084792, 58.894382328524799 ], [ 11.485132916615441, 58.894309877232978 ], [ 11.484840265668197, 58.894585054954298 ], [ 11.485015554856743, 58.894851217291624 ], [ 11.485698798017362, 58.894936868404073 ], [ 11.48582965908299, 58.894583938482789 ] ] ] ] } },
{ "type": "Feature", "properties": { "fid": 130397, "navn": "Svantjern", "hoyde_moh": null, "arealInnsjo_km2": 0.0423, "magasinKategori": null, "fid_2": 592, "id": 592, "left": 10.986919847, "top": 58.946110046000001, "right": 11.486919847, "bottom": 58.446110046000001, "row_index": 31, "col_index": 14, "tile_id": 592 }, "geometry": { "type": "MultiPolygon", "coordinates": [ [ [ [ 11.47007147562813, 58.929189636471911 ], [ 11.469939440071265, 58.928705582228197 ], [ 11.469516953929359, 58.928195524865131 ], [ 11.469091066273283, 58.927968877402293 ], [ 11.469293015676124, 58.927542577289906 ], [ 11.469093466868705, 58.927297395133102 ], [ 11.468249277650846, 58.927032077357211 ], [ 11.46811227194784, 58.927304286590847 ], [ 11.467578074632527, 58.92757939064461 ], [ 11.467631477316395, 58.927919096638 ], [ 11.46810257497653, 58.928431208560703 ], [ 11.467516744315166, 58.928699328294961 ], [ 11.466082176357975, 58.928807427614686 ], [ 11.465988987579555, 58.928962092038716 ], [ 11.469199988824311, 58.929394948978796 ], [ 11.471412787025196, 58.930448826462374 ], [ 11.472466310006624, 58.930599387547126 ], [ 11.473112222858244, 58.930398323182985 ], [ 11.472988942453249, 58.930131139767767 ], [ 11.472682350838481, 58.92997526633166 ], [ 11.471590292861487, 58.929771519917715 ], [ 11.470935974409494, 58.929370822068606 ], [ 11.47007147562813, 58.929189636471911 ] ] ] ] } },
{ "type": "Feature", "properties": { "fid": 133926, "navn": "Halvfarsvann", "hoyde_moh": 154, "arealInnsjo_km2": 0.0349, "magasinKategori": null, "fid_2": 592, "id": 592, "left": 10.986919847, "top": 58.946110046000001, "right": 11.486919847, "bottom": 58.446110046000001, "row_index": 31, "col_index": 14, "tile_id": 592 }, "geometry": { "type": "MultiPolygon", "coordinates": [ [ [ [ 11.472311208848486, 58.893441688362593 ], [ 11.472606562431475, 58.893687598774264 ], [ 11.473871395910729, 58.894139579847781 ], [ 11.474054337820816, 58.894028260922717 ], [ 11.474033106563045, 58.89373222148356 ], [ 11.474523583653127, 58.893309479724685 ], [ 11.473689739415653, 58.893055970956162 ], [ 11.472091028204146, 58.893032617849236 ], [ 11.47130008726403, 58.892409839014739 ], [ 11.471744549022658, 58.892068906056672 ], [ 11.47164817057333, 58.891936025655099 ], [ 11.470876523719125, 58.891582354683784 ], [ 11.469187438653956, 58.891264269807166 ], [ 11.468007441154148, 58.891268852547661 ], [ 11.468006035451564, 58.891493533210678 ], [ 11.469226469521463, 58.892054190528704 ], [ 11.469269402430287, 58.89241284735489 ], [ 11.470430839383631, 58.89263309309765 ], [ 11.472125023720171, 58.89350815231635 ], [ 11.472311208848486, 58.893441688362593 ] ] ] ] } },
{ "type": "Feature", "properties": { "fid": 135287, "navn": "Trolldalsvannet", "hoyde_moh": 121, "arealInnsjo_km2": 0.0601, "magasinKategori": null, "fid_2": 592, "id": 592, "left": 10.986919847, "top": 58.946110046000001, "right": 11.486919847, "bottom": 58.446110046000001, "row_index": 31, "col_index": 14, "tile_id": 592 }, "geometry": { "type": "MultiPolygon", "coordinates": [ [ [ [ 11.479492911546249, 58.936008398964788 ], [ 11.479881682425011, 58.935857013146915 ], [ 11.480927761174955, 58.935899974153969 ], [ 11.482007032894019, 58.936166749042741 ], [ 11.48253806970011, 58.936057699513441 ], [ 11.481753787193689, 58.935542693365974 ], [ 11.482010047612716, 58.934998664519028 ], [ 11.481624437549245, 58.934709608014515 ], [ 11.478414553004978, 58.934303978148513 ], [ 11.47697402639305, 58.934574285286317 ], [ 11.475798290073703, 58.934417014988348 ], [ 11.475580463955957, 58.934529006158982 ], [ 11.475856100520952, 58.934981912789205 ], [ 11.475674243370914, 58.935111154571629 ], [ 11.476107699776998, 58.935336456186768 ], [ 11.47628943026924, 58.935692419759874 ], [ 11.477029386466738, 58.936073579115401 ], [ 11.479240854194101, 58.936372584826074 ], [ 11.479492911546249, 58.936008398964788 ] ] ] ] } },
{ "type": "Feature", "properties": { "fid": 176301, "navn": "Langevannet", "hoyde_moh": 168, "arealInnsjo_km2": 0.1257, "magasinKategori": null, "fid_2": 592, "id": 592, "left": 10.986919847, "top": 58.946110046000001, "right": 11.486919847, "bottom": 58.446110046000001, "row_index": 31, "col_index": 14, "tile_id": 592 }, "geometry": { "type": "MultiPolygon", "coordinates": [ [ [ [ 11.478739480287402, 58.911934863528245 ], [ 11.478129769089529, 58.911910601359452 ], [ 11.477779661736788, 58.912114896753394 ], [ 11.47799433485296, 58.912443354485788 ], [ 11.480698982425146, 58.913101242779952 ], [ 11.480995688984915, 58.913365053915108 ], [ 11.480866823950056, 58.913744910925928 ], [ 11.481206668109525, 58.91388207747633 ], [ 11.483112851475202, 58.914061176062923 ], [ 11.483337674453706, 58.914290485330532 ], [ 11.483779698196612, 58.914398786239524 ], [ 11.483778570901402, 58.914623382495627 ], [ 11.485906586904198, 58.915229415783102 ], [ 11.48515449764494, 58.916124360936145 ], [ 11.485254721796499, 58.916553779658699 ], [ 11.485863242467596, 58.916802511041347 ], [ 11.485774577185945, 58.917019871957812 ], [ 11.486031176745568, 58.917203658724652 ], [ 11.485471016757639, 58.917627697053291 ], [ 11.484902361386023, 58.917692584630743 ], [ 11.485122853186205, 58.918344149560902 ], [ 11.484692503444865, 58.918639942744818 ], [ 11.484168088226664, 58.918596099745187 ], [ 11.483870016238024, 58.918799401206634 ], [ 11.483250060034903, 58.919602113997776 ], [ 11.483363478447764, 58.919968343531089 ], [ 11.484651859624476, 58.920006462195545 ], [ 11.484949302122459, 58.920279271201196 ], [ 11.485121635819281, 58.920257892639256 ], [ 11.485215167625221, 58.919869789957538 ], [ 11.485429773833133, 58.919713023281858 ], [ 11.485511275863463, 58.919154347954262 ], [ 11.485941168002158, 58.919334758788821 ], [ 11.486125339546815, 58.91899864848579 ], [ 11.486517471871505, 58.919135064592425 ], [ 11.486516624099044, 58.918640845181571 ], [ 11.486856023371555, 58.918283877069278 ], [ 11.486919847, 58.918134218377709 ], [ 11.486919847, 58.914624871671116 ], [ 11.486336199757226, 58.91443949261096 ], [ 11.486339282952022, 58.914241646141107 ], [ 11.486919847, 58.913965689568521 ], [ 11.486919847, 58.913184709617838 ], [ 11.484907759650531, 58.913658348121238 ], [ 11.48376734234817, 58.91350048143169 ], [ 11.483772546628176, 58.913814867127172 ], [ 11.483602379041178, 58.913863088571674 ], [ 11.483345990007496, 58.913679301994165 ], [ 11.483207069157533, 58.91271166430333 ], [ 11.481290680523825, 58.912874217429106 ], [ 11.480595561546249, 58.912627058342188 ], [ 11.47995443942226, 58.912648330896857 ], [ 11.478739480287402, 58.911934863528245 ] ] ] ] } },
{ "type": "Feature", "properties": { "fid": 197269, "navn": "Nordre Hogsjøen", "hoyde_moh": 130, "arealInnsjo_km2": 0.1006, "magasinKategori": null, "fid_2": 592, "id": 592, "left": 10.986919847, "top": 58.946110046000001, "right": 11.486919847, "bottom": 58.446110046000001, "row_index": 31, "col_index": 14, "tile_id": 592 }, "geometry": { "type": "MultiPolygon", "coordinates": [ [ [ [ 11.485960127582789, 58.897366698676443 ], [ 11.4848384840802, 58.897945336193715 ], [ 11.483315952492509, 58.898019569735844 ], [ 11.482927472717112, 58.898170786960705 ], [ 11.482243509286349, 58.898803748661592 ], [ 11.483067637190906, 58.899156438719636 ], [ 11.483449140365998, 58.899634239089167 ], [ 11.484882454141236, 58.899768538814726 ], [ 11.486919847, 58.898585929237044 ], [ 11.486919847, 58.897187856380263 ], [ 11.485960127582789, 58.897366698676443 ] ] ] ] } },
{ "type": "Feature", "properties": { "fid": 210929, "navn": "Årbutjernet", "hoyde_moh": 134, "arealInnsjo_km2": 0.0322, "magasinKategori": null, "fid_2": 592, "id": 592, "left": 10.986919847, "top": 58.946110046000001, "right": 11.486919847, "bottom": 58.446110046000001, "row_index": 31, "col_index": 14, "tile_id": 592 }, "geometry": { "type": "MultiPolygon", "coordinates": [ [ [ [ 11.463945568792127, 58.897123537214 ], [ 11.464270359017748, 58.897297014597463 ], [ 11.4662383108441, 58.89811312764985 ], [ 11.467832206051968, 58.897821990707911 ], [ 11.468180465996353, 58.897590706710965 ], [ 11.468569677810686, 58.896963418430438 ], [ 11.467966271322924, 58.896534781702272 ], [ 11.466488656544376, 58.896266404202564 ], [ 11.465795073336192, 58.89676481786347 ], [ 11.464001444872743, 58.896933785991955 ], [ 11.463945568792127, 58.897123537214 ] ] ] ] } },
{ "type": "Feature", "properties": { "fid": 269385, "navn": "Lurkevanna", "hoyde_moh": 156, "arealInnsjo_km2": 0.1163, "magasinKategori": null, "fid_2": 592, "id": 592, "left": 10.986919847, "top": 58.946110046000001, "right": 11.486919847, "bottom": 58.446110046000001, "row_index": 31, "col_index": 14, "tile_id": 592 }, "geometry": { "type": "MultiPolygon", "coordinates": [ [ [ [ 11.467966742043563, 58.92600889718257 ], [ 11.46928052500483, 58.924928044115632 ], [ 11.471030471717976, 58.924858638632131 ], [ 11.473547147186309, 58.925062091808407 ], [ 11.474937776060745, 58.925556574979346 ], [ 11.475490452162232, 58.925510079278752 ], [ 11.475881930995257, 58.925152220653999 ], [ 11.476880042598529, 58.925016295302044 ], [ 11.477190494148136, 58.924498202375368 ], [ 11.476760412186605, 58.924317757638974 ], [ 11.475789369123415, 58.924345297230609 ], [ 11.474150723994924, 58.924026255795503 ], [ 11.473806592051664, 58.92432041309867 ], [ 11.4705924422555, 58.924318946171823 ], [ 11.469930981428627, 58.92454725681403 ], [ 11.468589730691145, 58.924500987138011 ], [ 11.468123857746214, 58.924788387033125 ], [ 11.466822944313543, 58.925064908777429 ], [ 11.466851200019699, 58.92521696193122 ], [ 11.467426768652437, 58.925352968805889 ], [ 11.467424861182351, 58.926055026920515 ], [ 11.467120920244298, 58.926074402130041 ], [ 11.464976218690893, 58.92549718218541 ], [ 11.465345229428435, 58.925162918628146 ], [ 11.465210077400384, 58.9250787719659 ], [ 11.462439122978493, 58.92490414875973 ], [ 11.461289155130071, 58.924383669468391 ], [ 11.459873788295141, 58.923243952029935 ], [ 11.459520611473078, 58.923158768781022 ], [ 11.458504974785866, 58.922095246199909 ], [ 11.45766922872769, 58.92155458065136 ], [ 11.457211207267196, 58.921602156797142 ], [ 11.456959564459083, 58.92194411099338 ], [ 11.457114200439207, 58.922371903178124 ], [ 11.457504455345449, 58.922447952575688 ], [ 11.457782465262532, 58.922727036244474 ], [ 11.457730582944578, 58.922860086007361 ], [ 11.457998000283528, 58.923084856115509 ], [ 11.45842640200034, 58.923962309287532 ], [ 11.459591621747123, 58.924121165206806 ], [ 11.459508695677535, 58.924340286374417 ], [ 11.460061630754678, 58.924622133732861 ], [ 11.4613133330681, 58.924722938476769 ], [ 11.462125098910983, 58.925217258413355 ], [ 11.463805576608708, 58.925718182349534 ], [ 11.466775567556613, 58.927078259508122 ], [ 11.467182359895819, 58.927131000258875 ], [ 11.467362425119742, 58.927061676394878 ], [ 11.467403891738257, 58.92683638381844 ], [ 11.467919733719645, 58.926793407322876 ], [ 11.468146262827249, 58.926628364109504 ], [ 11.467966742043563, 58.92600889718257 ] ] ] ] } },
{ "type": "Feature", "properties": { "fid": 269386, "navn": "Kløvtjern", "hoyde_moh": null, "arealInnsjo_km2": 0.01, "magasinKategori": null, "fid_2": 592, "id": 592, "left": 10.986919847, "top": 58.946110046000001, "right": 11.486919847, "bottom": 58.446110046000001, "row_index": 31, "col_index": 14, "tile_id": 592 }, "geometry": { "type": "MultiPolygon", "coordinates": [ [ [ [ 11.463991719088364, 58.927938284835577 ], [ 11.462549017817642, 58.927581043660581 ], [ 11.460710759045794, 58.926635783715938 ], [ 11.460506074148846, 58.926773996250596 ], [ 11.460451266917055, 58.926933933158253 ], [ 11.460900403332714, 58.92706201116831 ], [ 11.461232099959993, 58.927362331903296 ], [ 11.461068411093402, 58.927439558456918 ], [ 11.461128736600148, 58.927575411127393 ], [ 11.461694665890745, 58.927956752190312 ], [ 11.463632326149019, 58.928071190689309 ], [ 11.463991719088364, 58.927938284835577 ] ] ] ] } },
{ "type": "Feature", "properties": { "fid": 269388, "navn": "Damtjern", "hoyde_moh": null, "arealInnsjo_km2": 0.0223, "magasinKategori": null, "fid_2": 592, "id": 592, "left": 10.986919847, "top": 58.946110046000001, "right": 11.486919847, "bottom": 58.446110046000001, "row_index": 31, "col_index": 14, "tile_id": 592 }, "geometry": { "type": "MultiPolygon", "coordinates": [ [ [ [ 11.464634767725046, 58.931685581199083 ], [ 11.465196125755993, 58.931482331840812 ], [ 11.464062253061723, 58.930929513474887 ], [ 11.461417486929539, 58.930445250933033 ], [ 11.460724292222784, 58.930565771966172 ], [ 11.460913666944911, 58.93099468900165 ], [ 11.462098875913, 58.93166372779487 ], [ 11.461901995487676, 58.931845932717522 ], [ 11.464634767725046, 58.931685581199083 ] ] ] ] } },
{ "type": "Feature", "properties": { "fid": 269389, "navn": null, "hoyde_moh": null, "arealInnsjo_km2": 0.0176, "magasinKategori": null, "fid_2": 592, "id": 592, "left": 10.986919847, "top": 58.946110046000001, "right": 11.486919847, "bottom": 58.446110046000001, "row_index": 31, "col_index": 14, "tile_id": 592 }, "geometry": { "type": "MultiPolygon", "coordinates": [ [ [ [ 11.457575955170316, 58.918224194517279 ], [ 11.457626713214228, 58.91772904563971 ], [ 11.457151091672072, 58.917379193096735 ], [ 11.456536019521101, 58.917252121194728 ], [ 11.455769929541065, 58.917175824752682 ], [ 11.455400085136958, 58.917352105253521 ], [ 11.455969952856867, 58.918485946092289 ], [ 11.456359734005199, 58.918840729282145 ], [ 11.456900032582453, 58.918966739625056 ], [ 11.457225073907267, 58.91886985550839 ], [ 11.457575955170316, 58.918224194517279 ] ] ] ] } },
{ "type": "Feature", "properties": { "fid": 269390, "navn": "Søre Vammen", "hoyde_moh": null, "arealInnsjo_km2": 0.5603, "magasinKategori": null, "fid_2": 592, "id": 592, "left": 10.986919847, "top": 58.946110046000001, "right": 11.486919847, "bottom": 58.446110046000001, "row_index": 31, "col_index": 14, "tile_id": 592 }, "geometry": { "type": "MultiPolygon", "coordinates": [ [ [ [ 11.436805691159144, 58.892639345773787 ], [ 11.437031689664819, 58.892590941074964 ], [ 11.437928120651025, 58.892224689203204 ], [ 11.438195991949554, 58.891773649087718 ], [ 11.440126287383732, 58.890844532179358 ], [ 11.443627984676482, 58.890474411216474 ], [ 11.444319730742064, 58.890206944345003 ], [ 11.44507421185679, 58.890252278086955 ], [ 11.445504561265196, 58.890681621644724 ], [ 11.44507438065269, 58.890866248576231 ], [ 11.445616648252422, 58.891437838412912 ], [ 11.446436083906168, 58.891313040567198 ], [ 11.446396640643018, 58.890927203866561 ], [ 11.446943238430647, 58.890532935190507 ], [ 11.447121228479832, 58.890185826362128 ], [ 11.447408299844756, 58.890316518250806 ], [ 11.449116736754732, 58.890158856544062 ], [ 11.450148428936574, 58.889352233215519 ], [ 11.450728588076496, 58.889400926630429 ], [ 11.45131768124196, 58.889670890476772 ], [ 11.451103714776053, 58.889955546222467 ], [ 11.451351864799943, 58.890121681913769 ], [ 11.452745281284406, 58.88978379317561 ], [ 11.453359373583346, 58.889964385757239 ], [ 11.453938001986684, 58.889873858273589 ], [ 11.454000830250816, 58.890186658327501 ], [ 11.454155851750937, 58.890249413891922 ], [ 11.454835142120503, 58.89007040283137 ], [ 11.455031799602361, 58.890157663328694 ], [ 11.455808161211493, 58.890915730724174 ], [ 11.455835404492355, 58.891112946234621 ], [ 11.456076391897174, 58.890767555707164 ], [ 11.456321206302107, 58.890847949695882 ], [ 11.456330053671781, 58.89122475655028 ], [ 11.4561133178881, 58.891333414854344 ], [ 11.454865819178734, 58.891160005707626 ], [ 11.454435431940039, 58.891655731000789 ], [ 11.455492364515424, 58.892454247880529 ], [ 11.456012841500559, 58.892468533746197 ], [ 11.456733221851174, 58.892692956745712 ], [ 11.456779637330678, 58.892875530261499 ], [ 11.457610294277217, 58.893047779099618 ], [ 11.458247017301963, 58.892932120458539 ], [ 11.458943750477552, 58.892481293898136 ], [ 11.458889392612779, 58.892259038188797 ], [ 11.459273336052901, 58.891596035591945 ], [ 11.458154133072853, 58.89143410472861 ], [ 11.457834112761766, 58.890862087441818 ], [ 11.456960907294869, 58.89034347594535 ], [ 11.457647786710297, 58.890059758196749 ], [ 11.457005654609103, 58.889852296461719 ], [ 11.456905257246287, 58.889630394255235 ], [ 11.457096300715026, 58.889523366064729 ], [ 11.458414508278098, 58.889932385022071 ], [ 11.458938876373811, 58.889836473794993 ], [ 11.459118793794797, 58.889622620223193 ], [ 11.458796206517681, 58.889219883960372 ], [ 11.458944666685181, 58.88906224684461 ], [ 11.459407112663021, 58.889233580816096 ], [ 11.461096095833669, 58.889281623398801 ], [ 11.461264623586349, 58.889059778506436 ], [ 11.463244122240937, 58.889343225931619 ], [ 11.465638762177464, 58.887730639990316 ], [ 11.467604120347053, 58.887997262045104 ], [ 11.468294863237405, 58.887582293072768 ], [ 11.468355567781892, 58.887297439261417 ], [ 11.468910013523615, 58.88728804528759 ], [ 11.469253793364611, 58.886863582352589 ], [ 11.469222370804305, 58.88655165075118 ], [ 11.468678768024953, 58.886454923523047 ], [ 11.465570219159511, 58.887008384095004 ], [ 11.464872027042716, 58.88734127317921 ], [ 11.465187347268072, 58.887505442549219 ], [ 11.464337199066966, 58.887932402737995 ], [ 11.463389325255147, 58.887922815525378 ], [ 11.461802485759337, 58.887666501766475 ], [ 11.460548699355313, 58.887091851704589 ], [ 11.462344206630961, 58.886699007820667 ], [ 11.462108678993102, 58.886373294750321 ], [ 11.460715035289128, 58.886547939885027 ], [ 11.457183036182961, 58.885984460473061 ], [ 11.456804464551679, 58.886129609124147 ], [ 11.45735376636336, 58.886324777716922 ], [ 11.456987617208965, 58.886503012272463 ], [ 11.456369617804855, 58.886052185165838 ], [ 11.456374145764061, 58.885544767286781 ], [ 11.455977532053071, 58.885402902232144 ], [ 11.453414237584818, 58.885880990066234 ], [ 11.449324517952045, 58.885514811499391 ], [ 11.448864411085324, 58.885837791245926 ], [ 11.449505470581908, 58.88637115260957 ], [ 11.448051687378195, 58.887737986679468 ], [ 11.447646826040982, 58.887531585161973 ], [ 11.446972085944088, 58.887480274578799 ], [ 11.446160641962887, 58.887990046480439 ], [ 11.446131357206802, 58.888275134929977 ], [ 11.44563163950022, 58.888500215530271 ], [ 11.445229058548369, 58.889053167977814 ], [ 11.438868358658775, 58.890466023456526 ], [ 11.436415891406892, 58.890169147140085 ], [ 11.435603597984787, 58.889917510648473 ], [ 11.43518914775758, 58.890102538736684 ], [ 11.434552829142671, 58.891059134276837 ], [ 11.434672850053678, 58.891216277474705 ], [ 11.434533889073279, 58.891549786369062 ], [ 11.434585374346995, 58.892738215016834 ], [ 11.435124768066984, 58.892875900585246 ], [ 11.435572899241269, 58.892364352058024 ], [ 11.43621133355988, 58.89230829826284 ], [ 11.436805691159144, 58.892639345773787 ] ], [ [ 11.456211459678276, 58.888448522977804 ], [ 11.456083052345077, 58.888308164503137 ], [ 11.456759110312667, 58.888206863508742 ], [ 11.457557886519494, 58.888414556457903 ], [ 11.457386327616417, 58.888614194939763 ], [ 11.456211459678276, 58.888448522977804 ] ], [ [ 11.453043284196003, 58.887802737988373 ], [ 11.453727244763639, 58.887764222371928 ], [ 11.454638426220871, 58.887977527219206 ], [ 11.455183805636688, 58.887902454042106 ], [ 11.455431793948579, 58.888389216845518 ], [ 11.454572339412652, 58.88862242008247 ], [ 11.45438070983424, 58.888870115351757 ], [ 11.453623486541977, 58.888776458007655 ], [ 11.453233283524241, 58.888880346813345 ], [ 11.452830942242942, 58.889319200751096 ], [ 11.452572336891716, 58.889156892159626 ], [ 11.452784445356418, 58.888630618135217 ], [ 11.452744933272371, 58.888244781671439 ], [ 11.453043284196003, 58.887802737988373 ] ] ] ] } },
{ "type": "Feature", "properties": { "fid": 269391, "navn": "Knappdalstjern", "hoyde_moh": null, "arealInnsjo_km2": 0.0116, "magasinKategori": null, "fid_2": 592, "id": 592, "left": 10.986919847, "top": 58.946110046000001, "right": 11.486919847, "bottom": 58.446110046000001, "row_index": 31, "col_index": 14, "tile_id": 592 }, "geometry": { "type": "MultiPolygon", "coordinates": [ [ [ [ 11.455762815131003, 58.903296197649887 ], [ 11.455541374500799, 58.903261716030492 ], [ 11.45635376527731, 58.902995962227088 ], [ 11.456401212475969, 58.902741985529687 ], [ 11.456238556134625, 58.902691990653999 ], [ 11.45621838968073, 58.902439570905109 ], [ 11.457110949216798, 58.901936236111474 ], [ 11.457227606844363, 58.901730176880235 ], [ 11.45709938358598, 58.901511647245236 ], [ 11.456503911054853, 58.901421512399487 ], [ 11.455212185812131, 58.902702296436125 ], [ 11.455052847402117, 58.903002553916068 ], [ 11.455116038556508, 58.903328335052024 ], [ 11.455762815131003, 58.903296197649887 ] ] ] ] } },
{ "type": "Feature", "properties": { "fid": 269392, "navn": "Nord Vammsjøn", "hoyde_moh": null, "arealInnsjo_km2": 0.1244, "magasinKategori": null, "fid_2": 592, "id": 592, "left": 10.986919847, "top": 58.946110046000001, "right": 11.486919847, "bottom": 58.446110046000001, "row_index": 31, "col_index": 14, "tile_id": 592 }, "geometry": { "type": "MultiPolygon", "coordinates": [ [ [ [ 11.444046150927463, 58.898868609690211 ], [ 11.444546745191486, 58.898923323507603 ], [ 11.445739580796518, 58.898399496277776 ], [ 11.446955221487361, 58.898269223946699 ], [ 11.449473188918166, 58.89762627839697 ], [ 11.449693339031354, 58.897484979570663 ], [ 11.449664058906425, 58.896845652152564 ], [ 11.451157424938543, 58.896166315888969 ], [ 11.453594362258659, 58.895848512821132 ], [ 11.453699494819169, 58.896211592119037 ], [ 11.454675666797048, 58.896410305129947 ], [ 11.455359796396337, 58.896371782589412 ], [ 11.456061731114843, 58.896931334025581 ], [ 11.456329053919804, 58.896946855991558 ], [ 11.457224399685506, 58.896191455821821 ], [ 11.457513680087258, 58.895741232160063 ], [ 11.45680156408573, 58.895088433414138 ], [ 11.455785822415045, 58.89502546248071 ], [ 11.455536082560831, 58.895266781026557 ], [ 11.453822273251641, 58.895322670968149 ], [ 11.452893058291165, 58.895591852646874 ], [ 11.451181018977358, 58.895782213303775 ], [ 11.448746882536367, 58.895764414432172 ], [ 11.448076235666052, 58.896441795702557 ], [ 11.446203711675718, 58.896807774431743 ], [ 11.443618563585169, 58.896549835529363 ], [ 11.442939199573724, 58.896865246935029 ], [ 11.442863814605937, 58.897444391913908 ], [ 11.443274559331215, 58.898372561160997 ], [ 11.442452361415608, 58.89901758416601 ], [ 11.443047129560931, 58.899087674811369 ], [ 11.444046150927463, 58.898868609690211 ] ] ] ] } },
{ "type": "Feature", "properties": { "fid": 269393, "navn": "Svenstjernet", "hoyde_moh": null, "arealInnsjo_km2": 0.0164, "magasinKategori": null, "fid_2": 592, "id": 592, "left": 10.986919847, "top": 58.946110046000001, "right": 11.486919847, "bottom": 58.446110046000001, "row_index": 31, "col_index": 14, "tile_id": 592 }, "geometry": { "type": "MultiPolygon", "coordinates": [ [ [ [ 11.486512178007496, 58.890521739262873 ], [ 11.486181771252621, 58.891105824538059 ], [ 11.486225617573396, 58.8913956415768 ], [ 11.48651778572926, 58.891596758357785 ], [ 11.486919847, 58.891557285297225 ], [ 11.486919847, 58.890401984832103 ], [ 11.486512178007496, 58.890521739262873 ] ] ] ] } }
]
}
