{
"type": "FeatureCollection",
"name": "innsjo_tile_id_472",
"crs": { "type": "name", "properties": { "name": "urn:ogc:def:crs:OGC:1.3:CRS84" } },
"xy_coordinate_resolution": 1e-15,
"features": [
{ "type": "Feature", "properties": { "fid": 38450, "navn": null, "hoyde_moh": null, "arealInnsjo_km2": 0.0179, "magasinKategori": null, "fid_2": 472, "id": 472, "left": 9.486919847, "top": 58.946110046000001, "right": 9.986919847, "bottom": 58.446110046000001, "row_index": 31, "col_index": 11, "tile_id": 472 }, "geometry": { "type": "MultiPolygon", "coordinates": [ [ [ [ 9.582804094970756, 58.940411807754998 ], [ 9.58177048772121, 58.939913475566023 ], [ 9.581187156406598, 58.939323351529588 ], [ 9.580608315781662, 58.939002681425592 ], [ 9.579791507620191, 58.938997347531107 ], [ 9.579157519824467, 58.939521218308592 ], [ 9.579335730839894, 58.939789694983212 ], [ 9.580875978638151, 58.940456472319973 ], [ 9.582804094970756, 58.940411807754998 ] ] ] ] } },
{ "type": "Feature", "properties": { "fid": 76350, "navn": null, "hoyde_moh": null, "arealInnsjo_km2": 0.003, "magasinKategori": null, "fid_2": 472, "id": 472, "left": 9.486919847, "top": 58.946110046000001, "right": 9.986919847, "bottom": 58.446110046000001, "row_index": 31, "col_index": 11, "tile_id": 472 }, "geometry": { "type": "MultiPolygon", "coordinates": [ [ [ [ 9.518411156973945, 58.859470964501391 ], [ 9.517433663725742, 58.859025892636261 ], [ 9.517500715691229, 58.858863775098897 ], [ 9.516351590554512, 58.858527310359179 ], [ 9.51710512382483, 58.85907211983578 ], [ 9.518239637886662, 58.859597316763434 ], [ 9.518411156973945, 58.859470964501391 ] ] ] ] } },
{ "type": "Feature", "properties": { "fid": 88141, "navn": "Grummestadvannet", "hoyde_moh": null, "arealInnsjo_km2": 0.9304, "magasinKategori": 1, "fid_2": 472, "id": 472, "left": 9.486919847, "top": 58.946110046000001, "right": 9.986919847, "bottom": 58.446110046000001, "row_index": 31, "col_index": 11, "tile_id": 472 }, "geometry": { "type": "MultiPolygon", "coordinates": [ [ [ [ 9.490441941536972, 58.945958776749599 ], [ 9.486919847, 58.945661675669186 ], [ 9.486919847, 58.946110046 ], [ 9.491236851518675, 58.946110046 ], [ 9.490441941536972, 58.945958776749599 ] ] ] ] } },
{ "type": "Feature", "properties": { "fid": 97670, "navn": null, "hoyde_moh": null, "arealInnsjo_km2": 0.0057, "magasinKategori": null, "fid_2": 472, "id": 472, "left": 9.486919847, "top": 58.946110046000001, "right": 9.986919847, "bottom": 58.446110046000001, "row_index": 31, "col_index": 11, "tile_id": 472 }, "geometry": { "type": "MultiPolygon", "coordinates": [ [ [ [ 9.490887626261207, 58.904016116335356 ], [ 9.49043733165075, 58.903981932924616 ], [ 9.490348498680246, 58.904274695015246 ], [ 9.490587546359285, 58.904590469524649 ], [ 9.490413121583549, 58.904658797643265 ], [ 9.491014223924976, 58.905129007201921 ], [ 9.491670090146927, 58.90491834447964 ], [ 9.491430088649928, 58.904608471725126 ], [ 9.491639296134959, 58.904541268416402 ], [ 9.490887626261207, 58.904016116335356 ] ] ] ] } },
{ "type": "Feature", "properties": { "fid": 150576, "navn": null, "hoyde_moh": null, "arealInnsjo_km2": 0.0067, "magasinKategori": null, "fid_2": 472, "id": 472, "left": 9.486919847, "top": 58.946110046000001, "right": 9.986919847, "bottom": 58.446110046000001, "row_index": 31, "col_index": 11, "tile_id": 472 }, "geometry": { "type": "MultiPolygon", "coordinates": [ [ [ [ 9.520071982483131, 58.897373066091433 ], [ 9.52024226760253, 58.897165833679168 ], [ 9.519926841443048, 58.896960633886366 ], [ 9.517933546879034, 58.897121132353426 ], [ 9.518409074104252, 58.897586317044542 ], [ 9.520071982483131, 58.897373066091433 ] ] ] ] } },
{ "type": "Feature", "properties": { "fid": 196524, "navn": "Ringsjøvannet", "hoyde_moh": 46, "arealInnsjo_km2": 0.2539, "magasinKategori": null, "fid_2": 472, "id": 472, "left": 9.486919847, "top": 58.946110046000001, "right": 9.986919847, "bottom": 58.446110046000001, "row_index": 31, "col_index": 11, "tile_id": 472 }, "geometry": { "type": "MultiPolygon", "coordinates": [ [ [ [ 9.518751519199126, 58.94592027643214 ], [ 9.517487583792869, 58.94508114053157 ], [ 9.516970146674415, 58.944176156083707 ], [ 9.51617957953767, 58.943604442599373 ], [ 9.514456992237042, 58.943449673670763 ], [ 9.514112086770396, 58.943630760546178 ], [ 9.51444913305343, 58.944096355368956 ], [ 9.516307168427803, 58.945157697266154 ], [ 9.516205794268235, 58.945364620272983 ], [ 9.515652328800101, 58.945537477133868 ], [ 9.51555057230059, 58.94570847321679 ], [ 9.517031403101436, 58.945945111637307 ], [ 9.51722337741753, 58.94600717987597 ], [ 9.517155363436164, 58.946106260386244 ], [ 9.513469618331053, 58.946013214827659 ], [ 9.513143064485089, 58.946110046 ], [ 9.519395116542675, 58.946110046 ], [ 9.518751519199126, 58.94592027643214 ] ] ] ] } },
{ "type": "Feature", "properties": { "fid": 214534, "navn": null, "hoyde_moh": 31, "arealInnsjo_km2": 0.0806, "magasinKategori": null, "fid_2": 472, "id": 472, "left": 9.486919847, "top": 58.946110046000001, "right": 9.986919847, "bottom": 58.446110046000001, "row_index": 31, "col_index": 11, "tile_id": 472 }, "geometry": { "type": "MultiPolygon", "coordinates": [ [ [ [ 9.510362181392443, 58.942702470287188 ], [ 9.510479464133848, 58.942405686924715 ], [ 9.510406107425084, 58.942154522591856 ], [ 9.509724929386511, 58.941914753946371 ], [ 9.509790127440937, 58.94161809464881 ], [ 9.509630132382281, 58.941376292894688 ], [ 9.508874691364783, 58.940822404568351 ], [ 9.506605186397602, 58.940094877804583 ], [ 9.505874388723914, 58.940025866811787 ], [ 9.505321182407528, 58.940225689838812 ], [ 9.503590909096154, 58.939531872754358 ], [ 9.50291263476387, 58.939489562671753 ], [ 9.502689098085499, 58.939643210454399 ], [ 9.502848948123544, 58.9398670158754 ], [ 9.504526134277462, 58.940507190655431 ], [ 9.505226934158838, 58.940908566903666 ], [ 9.505265124886513, 58.941141947279426 ], [ 9.503983417839592, 58.941416397492716 ], [ 9.502277312439745, 58.941198532126393 ], [ 9.501757061572315, 58.941272302845661 ], [ 9.50513994431676, 58.942085411248556 ], [ 9.507734485049603, 58.942452482999848 ], [ 9.509113115556993, 58.942833188968905 ], [ 9.510362181392443, 58.942702470287188 ] ] ] ] } }
]
}
