{
"type": "FeatureCollection",
"name": "innsjo_tile_id_708",
"crs": { "type": "name", "properties": { "name": "urn:ogc:def:crs:OGC:1.3:CRS84" } },
"xy_coordinate_resolution": 1e-15,
"features": [
{ "type": "Feature", "properties": { "fid": 161, "navn": null, "hoyde_moh": null, "arealInnsjo_km2": 0.0078, "magasinKategori": null, "fid_2": 708, "id": 708, "left": 12.486919847, "top": 60.946110046000001, "right": 12.986919847, "bottom": 60.446110046000001, "row_index": 27, "col_index": 17, "tile_id": 708 }, "geometry": { "type": "MultiPolygon", "coordinates": [ [ [ [ 12.542597056614449, 60.544979655002429 ], [ 12.54282279348838, 60.545439416528218 ], [ 12.542625769648637, 60.54598580633408 ], [ 12.542748894887076, 60.546149043910177 ], [ 12.54298411166373, 60.546161816478318 ], [ 12.544014107987744, 60.545573890215614 ], [ 12.54365493041213, 60.544807698631885 ], [ 12.543215243931208, 60.544756940393114 ], [ 12.542597056614449, 60.544979655002429 ] ] ] ] } },
{ "type": "Feature", "properties": { "fid": 498, "navn": "Tvengsbergtjennet", "hoyde_moh": 306, "arealInnsjo_km2": 0.172, "magasinKategori": null, "fid_2": 708, "id": 708, "left": 12.486919847, "top": 60.946110046000001, "right": 12.986919847, "bottom": 60.446110046000001, "row_index": 27, "col_index": 17, "tile_id": 708 }, "geometry": { "type": "MultiPolygon", "coordinates": [ [ [ [ 12.510253992071556, 60.449778356328132 ], [ 12.510293812569504, 60.448968563882048 ], [ 12.510158090318367, 60.448891109475703 ], [ 12.507932816129948, 60.450522503908374 ], [ 12.506849904628403, 60.451108329985765 ], [ 12.505099445642873, 60.451747585798906 ], [ 12.502145319206488, 60.452022996061231 ], [ 12.501744320989328, 60.452186335701256 ], [ 12.501654056491221, 60.452530310388561 ], [ 12.504305753601185, 60.453835737866171 ], [ 12.507290800551566, 60.453676018507913 ], [ 12.513570145324099, 60.454031922647367 ], [ 12.51506907585717, 60.453758593686871 ], [ 12.51498167637288, 60.453455405074543 ], [ 12.512149424025568, 60.45266738870329 ], [ 12.511168613812425, 60.452180879155769 ], [ 12.510414674212798, 60.451265979599704 ], [ 12.510402676498854, 60.450817054460721 ], [ 12.510581506795729, 60.450452721355347 ], [ 12.510253992071556, 60.449778356328132 ] ] ] ] } },
{ "type": "Feature", "properties": { "fid": 2966, "navn": null, "hoyde_moh": null, "arealInnsjo_km2": 0.0058, "magasinKategori": null, "fid_2": 708, "id": 708, "left": 12.486919847, "top": 60.946110046000001, "right": 12.986919847, "bottom": 60.446110046000001, "row_index": 27, "col_index": 17, "tile_id": 708 }, "geometry": { "type": "MultiPolygon", "coordinates": [ [ [ [ 12.512262766141401, 60.536326891362762 ], [ 12.512235360448265, 60.536579339127506 ], [ 12.512679278165558, 60.53697198984721 ], [ 12.513470185820008, 60.537032088297359 ], [ 12.51388207140829, 60.536625828136252 ], [ 12.512700497524182, 60.536239560242848 ], [ 12.512262766141401, 60.536326891362762 ] ] ] ] } },
{ "type": "Feature", "properties": { "fid": 8048, "navn": "Igletjern", "hoyde_moh": null, "arealInnsjo_km2": 0.012, "magasinKategori": null, "fid_2": 708, "id": 708, "left": 12.486919847, "top": 60.946110046000001, "right": 12.986919847, "bottom": 60.446110046000001, "row_index": 27, "col_index": 17, "tile_id": 708 }, "geometry": { "type": "MultiPolygon", "coordinates": [ [ [ [ 12.592949179230938, 60.527131849297682 ], [ 12.59251205652803, 60.526972787358993 ], [ 12.591551389047595, 60.527025609508428 ], [ 12.590908439561129, 60.526818184077975 ], [ 12.590682641417892, 60.52692315740893 ], [ 12.590760211308572, 60.527127745009174 ], [ 12.591393060486677, 60.527407388869371 ], [ 12.591606713619228, 60.527851034298635 ], [ 12.59237583784561, 60.528046000623178 ], [ 12.592909959023135, 60.528094439476966 ], [ 12.593514712669872, 60.527790593394698 ], [ 12.593083540667699, 60.527521783188533 ], [ 12.592949179230938, 60.527131849297682 ] ] ] ] } },
{ "type": "Feature", "properties": { "fid": 13724, "navn": null, "hoyde_moh": null, "arealInnsjo_km2": 0.0104, "magasinKategori": null, "fid_2": 708, "id": 708, "left": 12.486919847, "top": 60.946110046000001, "right": 12.986919847, "bottom": 60.446110046000001, "row_index": 27, "col_index": 17, "tile_id": 708 }, "geometry": { "type": "MultiPolygon", "coordinates": [ [ [ [ 12.499069042170756, 60.606989285408574 ], [ 12.498381438459601, 60.60722282047211 ], [ 12.497526606853544, 60.607263144244783 ], [ 12.497193950146565, 60.607568532838641 ], [ 12.497264455978426, 60.607710434802648 ], [ 12.497673824971384, 60.607780618687329 ], [ 12.498677344358189, 60.607592522934148 ], [ 12.500070682996812, 60.607627927532235 ], [ 12.50062383210261, 60.607334828982786 ], [ 12.500356862196039, 60.607063226046087 ], [ 12.499069042170756, 60.606989285408574 ] ] ] ] } },
{ "type": "Feature", "properties": { "fid": 23343, "navn": null, "hoyde_moh": null, "arealInnsjo_km2": 0.0081, "magasinKategori": null, "fid_2": 708, "id": 708, "left": 12.486919847, "top": 60.946110046000001, "right": 12.986919847, "bottom": 60.446110046000001, "row_index": 27, "col_index": 17, "tile_id": 708 }, "geometry": { "type": "MultiPolygon", "coordinates": [ [ [ [ 12.555385872842237, 60.548279339417654 ], [ 12.555439016424483, 60.548430683422616 ], [ 12.555877643865458, 60.548769457474727 ], [ 12.556386214328365, 60.548747056661895 ], [ 12.556382254337958, 60.549043683899498 ], [ 12.556983782015964, 60.549701627286716 ], [ 12.557443693100758, 60.549734474053182 ], [ 12.557584696247158, 60.549523982948905 ], [ 12.55707032877902, 60.548827574065939 ], [ 12.556189811685705, 60.54812293482437 ], [ 12.555566654745762, 60.548126708820291 ], [ 12.555385872842237, 60.548279339417654 ] ] ] ] } },
{ "type": "Feature", "properties": { "fid": 23932, "navn": null, "hoyde_moh": null, "arealInnsjo_km2": 0.0037, "magasinKategori": null, "fid_2": 708, "id": 708, "left": 12.486919847, "top": 60.946110046000001, "right": 12.986919847, "bottom": 60.446110046000001, "row_index": 27, "col_index": 17, "tile_id": 708 }, "geometry": { "type": "MultiPolygon", "coordinates": [ [ [ [ 12.582225135891933, 60.506676764468864 ], [ 12.582007366836606, 60.50701523787216 ], [ 12.582097821983819, 60.507668841105804 ], [ 12.582316513272234, 60.507833774260028 ], [ 12.582625538034172, 60.507825450903304 ], [ 12.582731798733914, 60.507633978975029 ], [ 12.582680767118982, 60.507006062551532 ], [ 12.582502497190193, 60.50671430819893 ], [ 12.582225135891933, 60.506676764468864 ] ] ] ] } },
{ "type": "Feature", "properties": { "fid": 29270, "navn": null, "hoyde_moh": null, "arealInnsjo_km2": 0.005, "magasinKategori": null, "fid_2": 708, "id": 708, "left": 12.486919847, "top": 60.946110046000001, "right": 12.986919847, "bottom": 60.446110046000001, "row_index": 27, "col_index": 17, "tile_id": 708 }, "geometry": { "type": "MultiPolygon", "coordinates": [ [ [ [ 12.560503445116757, 60.499154754230851 ], [ 12.56021643120855, 60.499154714698527 ], [ 12.560180197988103, 60.498955981721274 ], [ 12.559723302456753, 60.499139585540568 ], [ 12.559713115977237, 60.499400977668323 ], [ 12.56030230130686, 60.49993832577686 ], [ 12.561160373351534, 60.499731065028037 ], [ 12.560503445116757, 60.499154754230851 ] ] ] ] } },
{ "type": "Feature", "properties": { "fid": 29442, "navn": null, "hoyde_moh": null, "arealInnsjo_km2": 0.0099, "magasinKategori": null, "fid_2": 708, "id": 708, "left": 12.486919847, "top": 60.946110046000001, "right": 12.986919847, "bottom": 60.446110046000001, "row_index": 27, "col_index": 17, "tile_id": 708 }, "geometry": { "type": "MultiPolygon", "coordinates": [ [ [ [ 12.58786629479631, 60.53261633057916 ], [ 12.586892214225978, 60.532876288235919 ], [ 12.587089763717962, 60.533508914136839 ], [ 12.587373932284041, 60.533600194158495 ], [ 12.588138481707613, 60.533588679602772 ], [ 12.588927287179654, 60.533297699752943 ], [ 12.589161295680602, 60.53294091411658 ], [ 12.58786629479631, 60.53261633057916 ] ] ] ] } },
{ "type": "Feature", "properties": { "fid": 31870, "navn": "Langfløyta", "hoyde_moh": null, "arealInnsjo_km2": 0.0226, "magasinKategori": null, "fid_2": 708, "id": 708, "left": 12.486919847, "top": 60.946110046000001, "right": 12.986919847, "bottom": 60.446110046000001, "row_index": 27, "col_index": 17, "tile_id": 708 }, "geometry": { "type": "MultiPolygon", "coordinates": [ [ [ [ 12.489008714035261, 60.558371462393104 ], [ 12.488721252136971, 60.558415014283234 ], [ 12.488378700690157, 60.558792324498107 ], [ 12.488419123290388, 60.558997986063524 ], [ 12.489099888558687, 60.559555334048298 ], [ 12.490491909852995, 60.559599823557477 ], [ 12.491622791420722, 60.559929722903981 ], [ 12.493138381467059, 60.559764238424712 ], [ 12.492748129726868, 60.559360944302448 ], [ 12.49164640863752, 60.559300012596019 ], [ 12.490546749038138, 60.558753581829471 ], [ 12.490454901935156, 60.558549739460872 ], [ 12.489008714035261, 60.558371462393104 ] ] ] ] } },
{ "type": "Feature", "properties": { "fid": 32796, "navn": null, "hoyde_moh": null, "arealInnsjo_km2": 0.0046, "magasinKategori": null, "fid_2": 708, "id": 708, "left": 12.486919847, "top": 60.946110046000001, "right": 12.986919847, "bottom": 60.446110046000001, "row_index": 27, "col_index": 17, "tile_id": 708 }, "geometry": { "type": "MultiPolygon", "coordinates": [ [ [ [ 12.569172022546628, 60.520715003593253 ], [ 12.568293064122431, 60.521006917574624 ], [ 12.56833527669219, 60.521231356599664 ], [ 12.569880192442342, 60.521352110688404 ], [ 12.570018952233911, 60.521285470534266 ], [ 12.56994634027444, 60.520943703284878 ], [ 12.569172022546628, 60.520715003593253 ] ] ] ] } },
{ "type": "Feature", "properties": { "fid": 33981, "navn": "Gombalamb", "hoyde_moh": null, "arealInnsjo_km2": 0.0026, "magasinKategori": null, "fid_2": 708, "id": 708, "left": 12.486919847, "top": 60.946110046000001, "right": 12.986919847, "bottom": 60.446110046000001, "row_index": 27, "col_index": 17, "tile_id": 708 }, "geometry": { "type": "MultiPolygon", "coordinates": [ [ [ [ 12.549558368843904, 60.536741860713732 ], [ 12.549449697117876, 60.536915478997187 ], [ 12.550546067201072, 60.537064773253448 ], [ 12.550880653979538, 60.536823437010639 ], [ 12.549999941440444, 60.536650616369663 ], [ 12.549558368843904, 60.536741860713732 ] ] ] ] } },
{ "type": "Feature", "properties": { "fid": 35371, "navn": null, "hoyde_moh": null, "arealInnsjo_km2": 0.005, "magasinKategori": null, "fid_2": 708, "id": 708, "left": 12.486919847, "top": 60.946110046000001, "right": 12.986919847, "bottom": 60.446110046000001, "row_index": 27, "col_index": 17, "tile_id": 708 }, "geometry": { "type": "MultiPolygon", "coordinates": [ [ [ [ 12.527127272753354, 60.54316945646373 ], [ 12.526756333972214, 60.543448958302847 ], [ 12.527244605183569, 60.543648708409826 ], [ 12.528257285852911, 60.543660903324671 ], [ 12.52857825662519, 60.543256958473293 ], [ 12.528277210204232, 60.543055649260168 ], [ 12.527127272753354, 60.54316945646373 ] ] ] ] } },
{ "type": "Feature", "properties": { "fid": 36008, "navn": null, "hoyde_moh": null, "arealInnsjo_km2": 0.003, "magasinKategori": null, "fid_2": 708, "id": 708, "left": 12.486919847, "top": 60.946110046000001, "right": 12.986919847, "bottom": 60.446110046000001, "row_index": 27, "col_index": 17, "tile_id": 708 }, "geometry": { "type": "MultiPolygon", "coordinates": [ [ [ [ 12.572771413106354, 60.534010063918146 ], [ 12.572844823328463, 60.534178836178839 ], [ 12.573524340954025, 60.534385306105307 ], [ 12.574031975321761, 60.53419197319819 ], [ 12.573735849073998, 60.533822522566275 ], [ 12.572771413106354, 60.534010063918146 ] ] ] ] } },
{ "type": "Feature", "properties": { "fid": 38775, "navn": "Hemtjennet", "hoyde_moh": null, "arealInnsjo_km2": 0.0062, "magasinKategori": null, "fid_2": 708, "id": 708, "left": 12.486919847, "top": 60.946110046000001, "right": 12.986919847, "bottom": 60.446110046000001, "row_index": 27, "col_index": 17, "tile_id": 708 }, "geometry": { "type": "MultiPolygon", "coordinates": [ [ [ [ 12.493248360970037, 60.464038917190422 ], [ 12.492805410105703, 60.463816788895471 ], [ 12.491933543896886, 60.46365997998609 ], [ 12.491294475746999, 60.463640766085966 ], [ 12.490611761896517, 60.463892285210385 ], [ 12.493182914622961, 60.46426235231327 ], [ 12.493248360970037, 60.464038917190422 ] ] ] ] } },
{ "type": "Feature", "properties": { "fid": 43799, "navn": "Egletjenn", "hoyde_moh": null, "arealInnsjo_km2": 0.0074, "magasinKategori": null, "fid_2": 708, "id": 708, "left": 12.486919847, "top": 60.946110046000001, "right": 12.986919847, "bottom": 60.446110046000001, "row_index": 27, "col_index": 17, "tile_id": 708 }, "geometry": { "type": "MultiPolygon", "coordinates": [ [ [ [ 12.548247094803104, 60.480479303305813 ], [ 12.548253995033308, 60.480209495896837 ], [ 12.54747322972171, 60.479897714697891 ], [ 12.545984304649808, 60.479937330534447 ], [ 12.545836631937556, 60.480085075142931 ], [ 12.547439646013965, 60.480590662117422 ], [ 12.548247094803104, 60.480479303305813 ] ] ] ] } },
{ "type": "Feature", "properties": { "fid": 44582, "navn": null, "hoyde_moh": null, "arealInnsjo_km2": 0.004, "magasinKategori": null, "fid_2": 708, "id": 708, "left": 12.486919847, "top": 60.946110046000001, "right": 12.986919847, "bottom": 60.446110046000001, "row_index": 27, "col_index": 17, "tile_id": 708 }, "geometry": { "type": "MultiPolygon", "coordinates": [ [ [ [ 12.559174738083211, 60.477833056143922 ], [ 12.558217427345427, 60.477903288932573 ], [ 12.558587370269795, 60.478289048281859 ], [ 12.559238521897209, 60.478415590846488 ], [ 12.559600653258363, 60.478396888251872 ], [ 12.55962959557349, 60.478084367374215 ], [ 12.559174738083211, 60.477833056143922 ] ] ] ] } },
{ "type": "Feature", "properties": { "fid": 45847, "navn": "Svarttjennet", "hoyde_moh": null, "arealInnsjo_km2": 0.0441, "magasinKategori": null, "fid_2": 708, "id": 708, "left": 12.486919847, "top": 60.946110046000001, "right": 12.986919847, "bottom": 60.446110046000001, "row_index": 27, "col_index": 17, "tile_id": 708 }, "geometry": { "type": "MultiPolygon", "coordinates": [ [ [ [ 12.597188644340701, 60.486635715982814 ], [ 12.59593939496283, 60.485060546152432 ], [ 12.595369003672033, 60.484680534851549 ], [ 12.594922189898202, 60.484099471961734 ], [ 12.59459028390064, 60.484063482990116 ], [ 12.593925198814629, 60.484305963117187 ], [ 12.593116510574449, 60.484894286250039 ], [ 12.594211956296256, 60.485251084258316 ], [ 12.594218615952084, 60.485475681466163 ], [ 12.59136131251439, 60.486649070112726 ], [ 12.594373064891066, 60.486540938529778 ], [ 12.596468791621721, 60.486879827264808 ], [ 12.597006753376052, 60.486830416377096 ], [ 12.597188644340701, 60.486635715982814 ] ] ] ] } },
{ "type": "Feature", "properties": { "fid": 55285, "navn": null, "hoyde_moh": null, "arealInnsjo_km2": 0.0061, "magasinKategori": null, "fid_2": 708, "id": 708, "left": 12.486919847, "top": 60.946110046000001, "right": 12.986919847, "bottom": 60.446110046000001, "row_index": 27, "col_index": 17, "tile_id": 708 }, "geometry": { "type": "MultiPolygon", "coordinates": [ [ [ [ 12.563846825662138, 60.524021004809732 ], [ 12.564147451950532, 60.524597165372718 ], [ 12.565422419535519, 60.524419216790697 ], [ 12.565799752747763, 60.524202429796638 ], [ 12.564995628777623, 60.523855489104896 ], [ 12.563846825662138, 60.524021004809732 ] ] ] ] } },
{ "type": "Feature", "properties": { "fid": 59562, "navn": "Veslefløyta", "hoyde_moh": null, "arealInnsjo_km2": 0.0215, "magasinKategori": null, "fid_2": 708, "id": 708, "left": 12.486919847, "top": 60.946110046000001, "right": 12.986919847, "bottom": 60.446110046000001, "row_index": 27, "col_index": 17, "tile_id": 708 }, "geometry": { "type": "MultiPolygon", "coordinates": [ [ [ [ 12.503419005002, 60.563332413042779 ], [ 12.503944185163638, 60.562788253260166 ], [ 12.504678814173646, 60.562490453421553 ], [ 12.505503238016221, 60.562855198564677 ], [ 12.505566997285763, 60.56310521559481 ], [ 12.506393180369976, 60.563317188737969 ], [ 12.506734716331341, 60.563604729273571 ], [ 12.507919511360726, 60.563932708236536 ], [ 12.508112048557321, 60.563847190281486 ], [ 12.507563433881309, 60.563502071634467 ], [ 12.5069558273673, 60.562781083227151 ], [ 12.506917013722257, 60.562422659974366 ], [ 12.506297563728339, 60.562097412958622 ], [ 12.505834828179411, 60.56220842451512 ], [ 12.505057615541457, 60.562111984074811 ], [ 12.503683863891522, 60.56240871108497 ], [ 12.502944212243326, 60.562823548732055 ], [ 12.502600451669018, 60.563192067854693 ], [ 12.502651468149839, 60.563325519640706 ], [ 12.503419005002, 60.563332413042779 ] ] ] ] } },
{ "type": "Feature", "properties": { "fid": 64655, "navn": null, "hoyde_moh": null, "arealInnsjo_km2": 0.0097, "magasinKategori": null, "fid_2": 708, "id": 708, "left": 12.486919847, "top": 60.946110046000001, "right": 12.986919847, "bottom": 60.446110046000001, "row_index": 27, "col_index": 17, "tile_id": 708 }, "geometry": { "type": "MultiPolygon", "coordinates": [ [ [ [ 12.51553922413628, 60.543655158015284 ], [ 12.51588075108668, 60.543439456281149 ], [ 12.515474589802327, 60.54289292536388 ], [ 12.51503286836515, 60.542688877327933 ], [ 12.514445358102437, 60.542659435760626 ], [ 12.513927327454731, 60.542924666589784 ], [ 12.513831016844767, 60.543214816995658 ], [ 12.514300166254127, 60.543669822556772 ], [ 12.51553922413628, 60.543655158015284 ] ] ] ] } },
{ "type": "Feature", "properties": { "fid": 65053, "navn": "Radalamp", "hoyde_moh": null, "arealInnsjo_km2": 0.0187, "magasinKategori": null, "fid_2": 708, "id": 708, "left": 12.486919847, "top": 60.946110046000001, "right": 12.986919847, "bottom": 60.446110046000001, "row_index": 27, "col_index": 17, "tile_id": 708 }, "geometry": { "type": "MultiPolygon", "coordinates": [ [ [ [ 12.54928505764609, 60.47664986893021 ], [ 12.549591739329761, 60.477288796054296 ], [ 12.552124574095467, 60.477805485375853 ], [ 12.552854026542798, 60.477812678170082 ], [ 12.553078419144349, 60.47753743081244 ], [ 12.553072401027691, 60.477312929392781 ], [ 12.552899015278014, 60.477227644044568 ], [ 12.551120219931386, 60.476780784546513 ], [ 12.550331815135653, 60.476397285750551 ], [ 12.54928505764609, 60.47664986893021 ] ] ] ] } },
{ "type": "Feature", "properties": { "fid": 69496, "navn": null, "hoyde_moh": null, "arealInnsjo_km2": 0.0056, "magasinKategori": null, "fid_2": 708, "id": 708, "left": 12.486919847, "top": 60.946110046000001, "right": 12.986919847, "bottom": 60.446110046000001, "row_index": 27, "col_index": 17, "tile_id": 708 }, "geometry": { "type": "MultiPolygon", "coordinates": [ [ [ [ 12.564651067814729, 60.520224847723334 ], [ 12.564518819677433, 60.519996069145371 ], [ 12.564082368605042, 60.52019497527197 ], [ 12.562823377036212, 60.520021885837764 ], [ 12.562687869437486, 60.52011543644057 ], [ 12.563393182295403, 60.520725669182745 ], [ 12.564289811683167, 60.520621130175101 ], [ 12.564651067814729, 60.520224847723334 ] ] ] ] } },
{ "type": "Feature", "properties": { "fid": 74560, "navn": null, "hoyde_moh": null, "arealInnsjo_km2": 0.0071, "magasinKategori": null, "fid_2": 708, "id": 708, "left": 12.486919847, "top": 60.946110046000001, "right": 12.986919847, "bottom": 60.446110046000001, "row_index": 27, "col_index": 17, "tile_id": 708 }, "geometry": { "type": "MultiPolygon", "coordinates": [ [ [ [ 12.573468435375165, 60.528095505116944 ], [ 12.573625487317837, 60.528028295295229 ], [ 12.573392755335439, 60.527738054994281 ], [ 12.573756841090441, 60.527566547188208 ], [ 12.574263666776041, 60.527696756596264 ], [ 12.574316599372287, 60.527515549553293 ], [ 12.573462464280066, 60.526882372865316 ], [ 12.573231681506304, 60.527104271325648 ], [ 12.573412882221767, 60.527422948531473 ], [ 12.572883279376111, 60.52791347535679 ], [ 12.571570985343916, 60.527921762694774 ], [ 12.571866068230634, 60.52828221768889 ], [ 12.573468435375165, 60.528095505116944 ] ] ] ] } },
{ "type": "Feature", "properties": { "fid": 87122, "navn": "Åja", "hoyde_moh": null, "arealInnsjo_km2": 0.0075, "magasinKategori": null, "fid_2": 708, "id": 708, "left": 12.486919847, "top": 60.946110046000001, "right": 12.986919847, "bottom": 60.446110046000001, "row_index": 27, "col_index": 17, "tile_id": 708 }, "geometry": { "type": "MultiPolygon", "coordinates": [ [ [ [ 12.534888393755107, 60.484231538635044 ], [ 12.536482763027353, 60.484153389678617 ], [ 12.537877322778149, 60.483747789803161 ], [ 12.53874149800974, 60.48382374950662 ], [ 12.539613110995354, 60.484133125780225 ], [ 12.540423375250333, 60.484048633847976 ], [ 12.5404744926707, 60.483849618243504 ], [ 12.539654893750063, 60.48368259764338 ], [ 12.539012861801773, 60.483807558615808 ], [ 12.537561626057668, 60.483693272939107 ], [ 12.536197615669803, 60.484044099495804 ], [ 12.534513548304464, 60.484133701497974 ], [ 12.53376004448412, 60.484405332922812 ], [ 12.534888393755107, 60.484231538635044 ] ] ] ] } },
{ "type": "Feature", "properties": { "fid": 89611, "navn": "Gadiska", "hoyde_moh": null, "arealInnsjo_km2": 0.0946, "magasinKategori": null, "fid_2": 708, "id": 708, "left": 12.486919847, "top": 60.946110046000001, "right": 12.986919847, "bottom": 60.446110046000001, "row_index": 27, "col_index": 17, "tile_id": 708 }, "geometry": { "type": "MultiPolygon", "coordinates": [ [ [ [ 12.533173284738943, 60.489552720218313 ], [ 12.5331807793638, 60.489121051781147 ], [ 12.533361982714991, 60.488945464603702 ], [ 12.532993477120128, 60.488739587244709 ], [ 12.532042654314056, 60.488872636913484 ], [ 12.531575782484502, 60.488768148403388 ], [ 12.531026250641618, 60.488405217211216 ], [ 12.530739991659319, 60.487783690648364 ], [ 12.530428932985746, 60.487603213169272 ], [ 12.526748785459477, 60.487260310986734 ], [ 12.525552914206481, 60.486815569539147 ], [ 12.524818050932671, 60.486745338818416 ], [ 12.52238105678707, 60.487294930418017 ], [ 12.521927842102935, 60.487620404159884 ], [ 12.524379361547851, 60.488590190539526 ], [ 12.526175246406179, 60.488857253180143 ], [ 12.527570109047101, 60.48878439964642 ], [ 12.530172193461844, 60.488257083956029 ], [ 12.52968445912007, 60.489132774892916 ], [ 12.52986215309538, 60.489424686771983 ], [ 12.531824303427829, 60.490046790992082 ], [ 12.532643716246804, 60.490043000240306 ], [ 12.533173284738943, 60.489552720218313 ] ] ] ] } },
{ "type": "Feature", "properties": { "fid": 103480, "navn": null, "hoyde_moh": null, "arealInnsjo_km2": 0.0083, "magasinKategori": null, "fid_2": 708, "id": 708, "left": 12.486919847, "top": 60.946110046000001, "right": 12.986919847, "bottom": 60.446110046000001, "row_index": 27, "col_index": 17, "tile_id": 708 }, "geometry": { "type": "MultiPolygon", "coordinates": [ [ [ [ 12.510521557747616, 60.554589987955907 ], [ 12.510759268039815, 60.554089311494543 ], [ 12.510534742616848, 60.553870434915503 ], [ 12.510129458070567, 60.553836289363339 ], [ 12.509335466097285, 60.553920114617789 ], [ 12.508602207107973, 60.554226945828162 ], [ 12.508956220767843, 60.554631133065108 ], [ 12.510521557747616, 60.554589987955907 ] ] ] ] } },
{ "type": "Feature", "properties": { "fid": 103921, "navn": null, "hoyde_moh": null, "arealInnsjo_km2": 0.0049, "magasinKategori": null, "fid_2": 708, "id": 708, "left": 12.486919847, "top": 60.946110046000001, "right": 12.986919847, "bottom": 60.446110046000001, "row_index": 27, "col_index": 17, "tile_id": 708 }, "geometry": { "type": "MultiPolygon", "coordinates": [ [ [ [ 12.503584174583869, 60.551204260753195 ], [ 12.503307444226227, 60.551346316772864 ], [ 12.50329538064647, 60.551571382764706 ], [ 12.504246757590241, 60.551762089150571 ], [ 12.504622130756527, 60.55168924649945 ], [ 12.50489295941853, 60.551493539367684 ], [ 12.504689106107069, 60.551130233886084 ], [ 12.503584174583869, 60.551204260753195 ] ] ] ] } },
{ "type": "Feature", "properties": { "fid": 104776, "navn": "Baksjøen", "hoyde_moh": 357, "arealInnsjo_km2": 1.0633, "magasinKategori": null, "fid_2": 708, "id": 708, "left": 12.486919847, "top": 60.946110046000001, "right": 12.986919847, "bottom": 60.446110046000001, "row_index": 27, "col_index": 17, "tile_id": 708 }, "geometry": { "type": "MultiPolygon", "coordinates": [ [ [ [ 12.595768490720923, 60.506033589980049 ], [ 12.597414575475597, 60.505099407753853 ], [ 12.598256798482259, 60.504807007783178 ], [ 12.598667391380472, 60.50440047930671 ], [ 12.598802064920338, 60.504136208910225 ], [ 12.598710515807962, 60.503967933057751 ], [ 12.597047396928389, 60.503761117385928 ], [ 12.596645251705858, 60.503915740195417 ], [ 12.595683828638395, 60.503789007015918 ], [ 12.595192595395268, 60.503469532370318 ], [ 12.595390810975838, 60.50328455962638 ], [ 12.596580104000394, 60.503162539264153 ], [ 12.596816584737539, 60.5029944226916 ], [ 12.596688229747084, 60.502494561451947 ], [ 12.596887234787006, 60.502318403856471 ], [ 12.596809216103074, 60.501943050710061 ], [ 12.596949931612762, 60.501732517300148 ], [ 12.597477113528814, 60.501556521574187 ], [ 12.598838627299893, 60.501510792155862 ], [ 12.599219028254959, 60.500997184814885 ], [ 12.598775329681883, 60.50061381382703 ], [ 12.597472457465301, 60.500037741569436 ], [ 12.595767522683621, 60.499616456761615 ], [ 12.596569910560007, 60.49962166465815 ], [ 12.597239052343149, 60.498588049467884 ], [ 12.597152550252108, 60.498302729285967 ], [ 12.596060982707828, 60.497496359981014 ], [ 12.595869971842369, 60.496593932995374 ], [ 12.594910859693078, 60.495505190073985 ], [ 12.59486822082374, 60.495119783602384 ], [ 12.596217292301597, 60.494149274787809 ], [ 12.596871084964313, 60.49231565928131 ], [ 12.59749887682492, 60.491570360630263 ], [ 12.59722466918476, 60.490903847875074 ], [ 12.596232320332202, 60.490004945818839 ], [ 12.596007324281281, 60.4894537561132 ], [ 12.595243446143083, 60.489465404960356 ], [ 12.59490889597382, 60.489240733761534 ], [ 12.594676431105885, 60.488950443107932 ], [ 12.594829802262097, 60.488362059808424 ], [ 12.594401808006651, 60.488071924804103 ], [ 12.593168341889124, 60.487669971000209 ], [ 12.591750839492716, 60.48819349121645 ], [ 12.591032241064859, 60.488628209198396 ], [ 12.590779813966751, 60.488965619872026 ], [ 12.590632332056396, 60.489434366638683 ], [ 12.59081488361698, 60.489611748996538 ], [ 12.591543079124467, 60.489771948495097 ], [ 12.591830528336692, 60.490393261334148 ], [ 12.59147731429262, 60.490825237495692 ], [ 12.590126059989473, 60.491616634497653 ], [ 12.590263635056312, 60.493518418382934 ], [ 12.589104930434313, 60.496218871377742 ], [ 12.588366136280127, 60.49629264723584 ], [ 12.586447744823122, 60.495751143461995 ], [ 12.585825845367163, 60.495893672004534 ], [ 12.585118883724954, 60.496748602160466 ], [ 12.585029401932987, 60.49791931333511 ], [ 12.584454043792221, 60.498483068759896 ], [ 12.584284517393272, 60.498928055385583 ], [ 12.585089211675264, 60.500272513868275 ], [ 12.58493813419553, 60.500555248544593 ], [ 12.585026687911197, 60.500696622446327 ], [ 12.585695298079472, 60.500975241921147 ], [ 12.586926091512062, 60.500735398093113 ], [ 12.589571400929483, 60.500924792905593 ], [ 12.589879817080419, 60.501078220502009 ], [ 12.589869969416254, 60.501482981445697 ], [ 12.589627084645848, 60.501759031873085 ], [ 12.588502240939331, 60.501474880509519 ], [ 12.587363096051293, 60.501883025420447 ], [ 12.586034582851729, 60.501900849980778 ], [ 12.585735536291839, 60.502493056028129 ], [ 12.585167302959432, 60.502957685317782 ], [ 12.585009205530003, 60.503339461908205 ], [ 12.584046712184799, 60.503536091344969 ], [ 12.58307445520189, 60.504137476857544 ], [ 12.583379739955021, 60.504425872539677 ], [ 12.584286556327221, 60.504554221083247 ], [ 12.584358200431081, 60.504705080179704 ], [ 12.584111140838086, 60.505107162663236 ], [ 12.58439256317661, 60.505180527245308 ], [ 12.587971022245036, 60.504742605663729 ], [ 12.588630976069132, 60.504778879578886 ], [ 12.589339916638693, 60.505254120249901 ], [ 12.589277255328883, 60.505678227507175 ], [ 12.588628403268361, 60.506073146276378 ], [ 12.585834671517729, 60.506355068203867 ], [ 12.584356790421927, 60.506835208835696 ], [ 12.584120972673297, 60.50717416705492 ], [ 12.584481408217913, 60.507358460935066 ], [ 12.584567310853924, 60.507584583349356 ], [ 12.585300728943809, 60.507456921806771 ], [ 12.586285325558316, 60.507628163327283 ], [ 12.586567933127544, 60.507710437259725 ], [ 12.586508112765923, 60.507828914507776 ], [ 12.58686104498153, 60.508053128676885 ], [ 12.589627424013274, 60.508347107088959 ], [ 12.591426361929118, 60.507804346866934 ], [ 12.593800420165907, 60.507515636613661 ], [ 12.594129792428259, 60.507363032980244 ], [ 12.594144306584743, 60.507164867957975 ], [ 12.594795394249033, 60.506626151049481 ], [ 12.594810026633336, 60.506269085044899 ], [ 12.595768490720923, 60.506033589980049 ] ], [ [ 12.594959817956758, 60.498083287903128 ], [ 12.594735401980307, 60.498197093782139 ], [ 12.594593597287718, 60.498066084571356 ], [ 12.594716050116327, 60.497856212193746 ], [ 12.594958201072918, 60.49790360557386 ], [ 12.594959817956758, 60.498083287903128 ] ], [ [ 12.594404521504558, 60.500899308588977 ], [ 12.594221353976979, 60.500790548813825 ], [ 12.594221503204526, 60.500628863657099 ], [ 12.594511580079105, 60.500450130191645 ], [ 12.595152416817267, 60.500477853873193 ], [ 12.594404521504558, 60.500899308588977 ] ], [ [ 12.589886600201607, 60.502470387701919 ], [ 12.589505963820741, 60.50231071482451 ], [ 12.589620873612768, 60.501867160847624 ], [ 12.590133561482089, 60.50188935893808 ], [ 12.590331532585033, 60.502360303586038 ], [ 12.589886600201607, 60.502470387701919 ] ], [ [ 12.591841460440628, 60.502337626766419 ], [ 12.592648960165461, 60.502387773200084 ], [ 12.592424863177657, 60.502501671177534 ], [ 12.591822065668937, 60.502490970026265 ], [ 12.591841460440628, 60.502337626766419 ] ], [ [ 12.593339506314814, 60.504508283641592 ], [ 12.592886565530874, 60.504367617323531 ], [ 12.592715401742566, 60.504138614837977 ], [ 12.593004696108951, 60.503789289430017 ], [ 12.594178532456679, 60.503856455455512 ], [ 12.594349698522503, 60.504085545830506 ], [ 12.594114933483725, 60.504380075152071 ], [ 12.593339506314814, 60.504508283641592 ] ], [ [ 12.58947006636407, 60.506760530042783 ], [ 12.589064680989857, 60.50655576552996 ], [ 12.589172247206038, 60.506373115568046 ], [ 12.589484970727495, 60.506400594368891 ], [ 12.589739041316685, 60.506555554730099 ], [ 12.58947006636407, 60.506760530042783 ] ] ] ] } },
{ "type": "Feature", "properties": { "fid": 106800, "navn": null, "hoyde_moh": 395, "arealInnsjo_km2": 0.0184, "magasinKategori": null, "fid_2": 708, "id": 708, "left": 12.486919847, "top": 60.946110046000001, "right": 12.986919847, "bottom": 60.446110046000001, "row_index": 27, "col_index": 17, "tile_id": 708 }, "geometry": { "type": "MultiPolygon", "coordinates": [ [ [ [ 12.49692924118029, 60.561731997467298 ], [ 12.496615591349409, 60.561533524807771 ], [ 12.495928347391651, 60.561425691754991 ], [ 12.495797944265043, 60.561231461129076 ], [ 12.494823794494504, 60.560834561264357 ], [ 12.493809476182925, 60.560061233607655 ], [ 12.493504578481454, 60.559943404550197 ], [ 12.493299731500631, 60.560074573468626 ], [ 12.493207826235947, 60.560238763386337 ], [ 12.493916730031764, 60.560714509418382 ], [ 12.493944698720307, 60.561145137382567 ], [ 12.494639909099478, 60.5616661656736 ], [ 12.495554191170477, 60.561848958603385 ], [ 12.496750799462049, 60.562446658536878 ], [ 12.497566668575248, 60.562616453863853 ], [ 12.49692924118029, 60.561731997467298 ] ] ] ] } },
{ "type": "Feature", "properties": { "fid": 125244, "navn": "Kverntjenna", "hoyde_moh": null, "arealInnsjo_km2": 0.0077, "magasinKategori": null, "fid_2": 708, "id": 708, "left": 12.486919847, "top": 60.946110046000001, "right": 12.986919847, "bottom": 60.446110046000001, "row_index": 27, "col_index": 17, "tile_id": 708 }, "geometry": { "type": "MultiPolygon", "coordinates": [ [ [ [ 12.564442710610912, 60.522144608399493 ], [ 12.564987998887318, 60.522129946486011 ], [ 12.565247088804499, 60.521997327755074 ], [ 12.565309252056149, 60.521734998321193 ], [ 12.564820825800201, 60.521271739639545 ], [ 12.563925176675511, 60.521088942487843 ], [ 12.563548049779834, 60.521305727736262 ], [ 12.563766736292257, 60.521470690965252 ], [ 12.563759954781293, 60.521740408641989 ], [ 12.564442710610912, 60.522144608399493 ] ] ] ] } },
{ "type": "Feature", "properties": { "fid": 125668, "navn": "Fisketjennet", "hoyde_moh": null, "arealInnsjo_km2": 0.0213, "magasinKategori": null, "fid_2": 708, "id": 708, "left": 12.486919847, "top": 60.946110046000001, "right": 12.986919847, "bottom": 60.446110046000001, "row_index": 27, "col_index": 17, "tile_id": 708 }, "geometry": { "type": "MultiPolygon", "coordinates": [ [ [ [ 12.564832535156974, 60.497633310716829 ], [ 12.5642602816369, 60.49774098507681 ], [ 12.563773817510654, 60.497564572059041 ], [ 12.5633807944082, 60.497708123668119 ], [ 12.562920186801573, 60.497500290989372 ], [ 12.562335848353447, 60.497761521362357 ], [ 12.562044485394175, 60.498209826067445 ], [ 12.562142105445394, 60.498391535216797 ], [ 12.56265124813687, 60.498418805441474 ], [ 12.563072783271922, 60.499074344749268 ], [ 12.563959104710596, 60.499162217226804 ], [ 12.564480009398954, 60.499030520572738 ], [ 12.56468110703498, 60.498559183913059 ], [ 12.565194699685948, 60.49800776638476 ], [ 12.564832535156974, 60.497633310716829 ] ] ] ] } },
{ "type": "Feature", "properties": { "fid": 162333, "navn": null, "hoyde_moh": null, "arealInnsjo_km2": 0.0403, "magasinKategori": null, "fid_2": 708, "id": 708, "left": 12.486919847, "top": 60.946110046000001, "right": 12.986919847, "bottom": 60.446110046000001, "row_index": 27, "col_index": 17, "tile_id": 708 }, "geometry": { "type": "MultiPolygon", "coordinates": [ [ [ [ 12.527234471104368, 60.468940131762729 ], [ 12.526130821239727, 60.468502037441318 ], [ 12.525033810388722, 60.468791674355195 ], [ 12.525921489122975, 60.469253526722071 ], [ 12.526100101531323, 60.469725121715577 ], [ 12.525884481348337, 60.470422866161719 ], [ 12.526975818668822, 60.470447428935891 ], [ 12.527573684701954, 60.470890418036838 ], [ 12.529083430288699, 60.471380672038634 ], [ 12.529258815006088, 60.471151355169376 ], [ 12.529108121030188, 60.470768944039847 ], [ 12.529322358055259, 60.470062186699103 ], [ 12.52922379629597, 60.469489585380074 ], [ 12.528770834035775, 60.469007429623638 ], [ 12.527234471104368, 60.468940131762729 ] ] ] ] } },
{ "type": "Feature", "properties": { "fid": 162335, "navn": "Storfløyta", "hoyde_moh": 330, "arealInnsjo_km2": 0.2434, "magasinKategori": null, "fid_2": 708, "id": 708, "left": 12.486919847, "top": 60.946110046000001, "right": 12.986919847, "bottom": 60.446110046000001, "row_index": 27, "col_index": 17, "tile_id": 708 }, "geometry": { "type": "MultiPolygon", "coordinates": [ [ [ [ 12.52144816913435, 60.486930673637907 ], [ 12.521444743454667, 60.486555842357163 ], [ 12.521864320154053, 60.486391886978183 ], [ 12.523758074203011, 60.486054186447888 ], [ 12.525400953626582, 60.485417613670592 ], [ 12.527076042475951, 60.485076707245362 ], [ 12.527399580934398, 60.484870440988182 ], [ 12.527783396689895, 60.483709869780171 ], [ 12.52814799913544, 60.483547391367516 ], [ 12.529019869477361, 60.483524296040237 ], [ 12.530192473880909, 60.484257197010599 ], [ 12.530938300321116, 60.484417250974069 ], [ 12.531987193588106, 60.485018400933001 ], [ 12.532303349026421, 60.484911247441524 ], [ 12.532026382186945, 60.484541146695435 ], [ 12.528553158603934, 60.482916576509268 ], [ 12.527297061442807, 60.481916307290739 ], [ 12.526703607936572, 60.481149927247124 ], [ 12.525555972026991, 60.480641220747991 ], [ 12.524825362231653, 60.479862674132434 ], [ 12.524406760320087, 60.479850410887302 ], [ 12.524148556338583, 60.479923498340547 ], [ 12.523552584431567, 60.480640406262339 ], [ 12.523025134422118, 60.481651787427609 ], [ 12.522396113090304, 60.482063914897395 ], [ 12.520141658845855, 60.482770551716612 ], [ 12.51937926855552, 60.483464674684306 ], [ 12.519287859522766, 60.48413220275679 ], [ 12.520508991003249, 60.484477402760312 ], [ 12.520833496114616, 60.484783466390162 ], [ 12.520849186860282, 60.485097711471155 ], [ 12.519672323136414, 60.486000438862973 ], [ 12.519320196344925, 60.486782590018642 ], [ 12.51832114739833, 60.487815633022173 ], [ 12.518344634687823, 60.488201437986682 ], [ 12.519162285618327, 60.488853900943994 ], [ 12.518666913417945, 60.489325271211527 ], [ 12.517641004389212, 60.489774907678004 ], [ 12.517815151753741, 60.489868966697983 ], [ 12.518659756737948, 60.489595164957834 ], [ 12.519526879877599, 60.489024082641137 ], [ 12.519569380501929, 60.488744246484643 ], [ 12.519285670064733, 60.488311381565993 ], [ 12.520058888210398, 60.487212509033817 ], [ 12.521125819756357, 60.487182581498423 ], [ 12.52144816913435, 60.486930673637907 ] ], [ [ 12.524754754759774, 60.48449996247696 ], [ 12.524238027781669, 60.484100241267519 ], [ 12.524325547879037, 60.483900199749016 ], [ 12.524606379568214, 60.483802918478951 ], [ 12.526013221801202, 60.484179272199157 ], [ 12.526030610929997, 60.484340478772687 ], [ 12.525544468389317, 60.484544892157373 ], [ 12.524754754759774, 60.48449996247696 ] ] ] ] } },
{ "type": "Feature", "properties": { "fid": 162943, "navn": null, "hoyde_moh": null, "arealInnsjo_km2": 0.0046, "magasinKategori": null, "fid_2": 708, "id": 708, "left": 12.486919847, "top": 60.946110046000001, "right": 12.986919847, "bottom": 60.446110046000001, "row_index": 27, "col_index": 17, "tile_id": 708 }, "geometry": { "type": "MultiPolygon", "coordinates": [ [ [ [ 12.600292147825874, 60.485221768621457 ], [ 12.600220847178791, 60.485070744629233 ], [ 12.599381986717537, 60.484733976563838 ], [ 12.598989359056684, 60.484807571884865 ], [ 12.598920888918077, 60.485339639527915 ], [ 12.600000004275083, 60.485423381522615 ], [ 12.600292147825874, 60.485221768621457 ] ] ] ] } },
{ "type": "Feature", "properties": { "fid": 189856, "navn": "Abbortjennet", "hoyde_moh": 362, "arealInnsjo_km2": 0.0324, "magasinKategori": null, "fid_2": 708, "id": 708, "left": 12.486919847, "top": 60.946110046000001, "right": 12.986919847, "bottom": 60.446110046000001, "row_index": 27, "col_index": 17, "tile_id": 708 }, "geometry": { "type": "MultiPolygon", "coordinates": [ [ [ [ 12.576414042256884, 60.506536199583181 ], [ 12.575377510306147, 60.506393134042661 ], [ 12.574320083182753, 60.506556440280008 ], [ 12.573845680299845, 60.506883677504852 ], [ 12.572861958189277, 60.506721341680795 ], [ 12.572563518533018, 60.506989974643545 ], [ 12.573059254972145, 60.507354170813848 ], [ 12.573003263985727, 60.507508463510881 ], [ 12.573627387566518, 60.507878226717168 ], [ 12.574393917123034, 60.50821716031372 ], [ 12.575435168160878, 60.508405052476 ], [ 12.576011878077585, 60.508344568642698 ], [ 12.577107017112379, 60.507533112267538 ], [ 12.576479153563362, 60.507127636431221 ], [ 12.576403652831283, 60.506941041332816 ], [ 12.576593947290046, 60.50674436342625 ], [ 12.576414042256884, 60.506536199583181 ] ], [ [ 12.575204158788742, 60.507961778931815 ], [ 12.575239414422194, 60.507619279998913 ], [ 12.575461666520821, 60.507487500662116 ], [ 12.576377265444503, 60.507525875453297 ], [ 12.576125054718357, 60.507883117003395 ], [ 12.575750000687027, 60.508038799576589 ], [ 12.575204158788742, 60.507961778931815 ] ] ] ] } },
{ "type": "Feature", "properties": { "fid": 190924, "navn": "Lorttjernet", "hoyde_moh": 481, "arealInnsjo_km2": 0.0127, "magasinKategori": null, "fid_2": 708, "id": 708, "left": 12.486919847, "top": 60.946110046000001, "right": 12.986919847, "bottom": 60.446110046000001, "row_index": 27, "col_index": 17, "tile_id": 708 }, "geometry": { "type": "MultiPolygon", "coordinates": [ [ [ [ 12.493825580195972, 60.623743512583559 ], [ 12.493704177046064, 60.623468068288247 ], [ 12.491495246474702, 60.623337092782222 ], [ 12.490977063802026, 60.623620213776334 ], [ 12.491282960123426, 60.624250352489923 ], [ 12.49160866901709, 60.624385635847148 ], [ 12.492856644529823, 60.624260999873869 ], [ 12.493825580195972, 60.623743512583559 ] ] ] ] } },
{ "type": "Feature", "properties": { "fid": 202932, "navn": "Dollasinlamb", "hoyde_moh": 371, "arealInnsjo_km2": 0.0508, "magasinKategori": null, "fid_2": 708, "id": 708, "left": 12.486919847, "top": 60.946110046000001, "right": 12.986919847, "bottom": 60.446110046000001, "row_index": 27, "col_index": 17, "tile_id": 708 }, "geometry": { "type": "MultiPolygon", "coordinates": [ [ [ [ 12.572268248180333, 60.533250588956832 ], [ 12.57185453007386, 60.532974031905525 ], [ 12.572033836463504, 60.532780482621718 ], [ 12.572100438401218, 60.531565436681547 ], [ 12.570285190697831, 60.531479228006184 ], [ 12.570016814912169, 60.531360531523212 ], [ 12.5702461733647, 60.530958958040237 ], [ 12.569770819517663, 60.530782956106734 ], [ 12.569754956343269, 60.530639572735566 ], [ 12.570001652632318, 60.530561064032177 ], [ 12.568966965259786, 60.530274178635551 ], [ 12.568813166773744, 60.530368210952403 ], [ 12.56871980658878, 60.530514365828985 ], [ 12.568902225785983, 60.53068036544407 ], [ 12.5687573233665, 60.530855044845893 ], [ 12.568971265435863, 60.530975088075031 ], [ 12.568839135992713, 60.531266236486765 ], [ 12.569004266728948, 60.531441622318027 ], [ 12.568868735018516, 60.531535089170731 ], [ 12.569080270086848, 60.531799081146247 ], [ 12.56947887748886, 60.531941170512276 ], [ 12.569744571863509, 60.532365500719841 ], [ 12.569710874436412, 60.532887770520432 ], [ 12.569574379577181, 60.532972148053275 ], [ 12.569654763455382, 60.533536288352728 ], [ 12.568810386589993, 60.533819497143377 ], [ 12.568816878915253, 60.534044003434651 ], [ 12.57047246176657, 60.53417044135238 ], [ 12.571725524417216, 60.53411904517084 ], [ 12.572268248180333, 60.533250588956832 ] ] ] ] } },
{ "type": "Feature", "properties": { "fid": 207908, "navn": "Lauvbergstjennet", "hoyde_moh": 332, "arealInnsjo_km2": 0.1562, "magasinKategori": null, "fid_2": 708, "id": 708, "left": 12.486919847, "top": 60.946110046000001, "right": 12.986919847, "bottom": 60.446110046000001, "row_index": 27, "col_index": 17, "tile_id": 708 }, "geometry": { "type": "MultiPolygon", "coordinates": [ [ [ [ 12.50189475134135, 60.496786010487732 ], [ 12.501886155971068, 60.496202135304962 ], [ 12.502598307984202, 60.49452981582732 ], [ 12.503525309571067, 60.494172940371193 ], [ 12.50403781563247, 60.494195378537555 ], [ 12.505187053799121, 60.494884136718397 ], [ 12.505549200910748, 60.49486575824421 ], [ 12.506895999146714, 60.49367087444277 ], [ 12.507255345361411, 60.492951408417269 ], [ 12.508979490678527, 60.492384729669844 ], [ 12.51069729846412, 60.491593606628918 ], [ 12.508474643072992, 60.491759965855934 ], [ 12.507015683946765, 60.49241846059023 ], [ 12.505920606776305, 60.492231620843775 ], [ 12.505207740393516, 60.492546884439925 ], [ 12.504156617069542, 60.492468109129746 ], [ 12.503617995631663, 60.492669577078146 ], [ 12.503255989268167, 60.493029665265055 ], [ 12.503256490718503, 60.493371117765122 ], [ 12.503897613722383, 60.493740641310019 ], [ 12.503711289202506, 60.493871449431985 ], [ 12.500313546641106, 60.494967333119718 ], [ 12.498368593731977, 60.495009376831938 ], [ 12.497253186371925, 60.496153006339924 ], [ 12.497503058434559, 60.496443174656022 ], [ 12.498155163536877, 60.496407978361717 ], [ 12.498426963239433, 60.496562643423971 ], [ 12.498408863868169, 60.498252723680309 ], [ 12.499049207403226, 60.498784128650755 ], [ 12.499768573119606, 60.49903476608943 ], [ 12.50113234876811, 60.499008042227203 ], [ 12.502317528306772, 60.498509587690549 ], [ 12.502589339203148, 60.49799016130499 ], [ 12.50189475134135, 60.496786010487732 ] ] ] ] } },
{ "type": "Feature", "properties": { "fid": 213588, "navn": "Abbortjernet", "hoyde_moh": 426, "arealInnsjo_km2": 0.0162, "magasinKategori": null, "fid_2": 708, "id": 708, "left": 12.486919847, "top": 60.946110046000001, "right": 12.986919847, "bottom": 60.446110046000001, "row_index": 27, "col_index": 17, "tile_id": 708 }, "geometry": { "type": "MultiPolygon", "coordinates": [ [ [ [ 12.511775674870306, 60.549497069171245 ], [ 12.511838497034836, 60.549234951374309 ], [ 12.511616860925866, 60.549042899004903 ], [ 12.510834225817115, 60.548892759312245 ], [ 12.509069214066564, 60.548939162609763 ], [ 12.508253020769624, 60.549490844476153 ], [ 12.508889390842953, 60.549806699879703 ], [ 12.510955095968432, 60.549790606915103 ], [ 12.511775674870306, 60.549497069171245 ] ] ] ] } },
{ "type": "Feature", "properties": { "fid": 215342, "navn": "Fisketjennet", "hoyde_moh": 330, "arealInnsjo_km2": 0.0605, "magasinKategori": null, "fid_2": 708, "id": 708, "left": 12.486919847, "top": 60.946110046000001, "right": 12.986919847, "bottom": 60.446110046000001, "row_index": 27, "col_index": 17, "tile_id": 708 }, "geometry": { "type": "MultiPolygon", "coordinates": [ [ [ [ 12.547696334159806, 60.469277536132189 ], [ 12.547783668061872, 60.469077477733883 ], [ 12.546505034688893, 60.468203811910485 ], [ 12.545300545743922, 60.46834368723848 ], [ 12.544396448245967, 60.468233074279105 ], [ 12.544273638529894, 60.467607131439912 ], [ 12.542847397280489, 60.466548536269663 ], [ 12.542273701841646, 60.466294253972563 ], [ 12.540197087336997, 60.466448271168247 ], [ 12.539697216631996, 60.466704220204299 ], [ 12.539694862583863, 60.467018847142704 ], [ 12.541123551559037, 60.467933436830251 ], [ 12.542809959412077, 60.468374063896093 ], [ 12.544276058429096, 60.468964127684018 ], [ 12.545701715123482, 60.469015985546207 ], [ 12.546330549780235, 60.469439785427838 ], [ 12.547696334159806, 60.469277536132189 ] ] ] ] } },
{ "type": "Feature", "properties": { "fid": 218886, "navn": "Kottern", "hoyde_moh": 480, "arealInnsjo_km2": 0.1384, "magasinKategori": null, "fid_2": 708, "id": 708, "left": 12.486919847, "top": 60.946110046000001, "right": 12.986919847, "bottom": 60.446110046000001, "row_index": 27, "col_index": 17, "tile_id": 708 }, "geometry": { "type": "MultiPolygon", "coordinates": [ [ [ [ 12.521743389526348, 60.589937658231314 ], [ 12.518483284753698, 60.590203507461339 ], [ 12.51574875896182, 60.589924898102211 ], [ 12.515389882709355, 60.589314220704203 ], [ 12.514989468570297, 60.588992286467196 ], [ 12.514115671820726, 60.588853598921197 ], [ 12.513138743154471, 60.588438919892951 ], [ 12.513163527702183, 60.587827020800233 ], [ 12.511993709289005, 60.587318555253411 ], [ 12.511208033540717, 60.587653806802834 ], [ 12.511141300313147, 60.587880189328047 ], [ 12.511233749871998, 60.588228379609596 ], [ 12.51257880328707, 60.588498474869574 ], [ 12.512880232272316, 60.588751203214841 ], [ 12.512648204009489, 60.589305527640455 ], [ 12.512233332793558, 60.589523094785513 ], [ 12.511982791065069, 60.589907207996553 ], [ 12.513061388344726, 60.590921325522594 ], [ 12.513835703096973, 60.591152578233782 ], [ 12.513818167754412, 60.591494587894275 ], [ 12.514525027831938, 60.592114077095054 ], [ 12.51561036209811, 60.592346162277586 ], [ 12.520075119733118, 60.592570025178091 ], [ 12.522171034122165, 60.591849763386726 ], [ 12.522247272789947, 60.59171293148664 ], [ 12.522032527454712, 60.591583729619799 ], [ 12.521826840254734, 60.591040947225864 ], [ 12.521991567834984, 60.590371548739242 ], [ 12.521743389526348, 60.589937658231314 ] ], [ [ 12.513404360748826, 60.589537253910265 ], [ 12.51481622231328, 60.589751707419104 ], [ 12.515028635202054, 60.590024783048747 ], [ 12.515010161491922, 60.590357792463806 ], [ 12.515289512280708, 60.590575071274266 ], [ 12.51518541838416, 60.590793574555434 ], [ 12.514627344773135, 60.590871138937089 ], [ 12.513477230585936, 60.590712666762741 ], [ 12.513219058369721, 60.590521738525794 ], [ 12.512939540029052, 60.589801143538089 ], [ 12.513404360748826, 60.589537253910265 ] ] ] ] } },
{ "type": "Feature", "properties": { "fid": 224354, "navn": null, "hoyde_moh": 375, "arealInnsjo_km2": 0.105, "magasinKategori": null, "fid_2": 708, "id": 708, "left": 12.486919847, "top": 60.946110046000001, "right": 12.986919847, "bottom": 60.446110046000001, "row_index": 27, "col_index": 17, "tile_id": 708 }, "geometry": { "type": "MultiPolygon", "coordinates": [ [ [ [ 12.541621979694254, 60.549409262054489 ], [ 12.542702120991351, 60.549272754270369 ], [ 12.544485072626326, 60.548722033383797 ], [ 12.545259980103157, 60.548800328930881 ], [ 12.546570642613299, 60.548271259164601 ], [ 12.547474658298238, 60.548193278539216 ], [ 12.548092355266503, 60.547502799547182 ], [ 12.548605343462766, 60.547354391693091 ], [ 12.54888416723592, 60.547400831237823 ], [ 12.549703336385246, 60.548214883091205 ], [ 12.550200964720457, 60.548426305894907 ], [ 12.55125890582139, 60.548254379492832 ], [ 12.551183649457661, 60.548067685114496 ], [ 12.549816072720303, 60.547744548649852 ], [ 12.549292283302073, 60.547129407943828 ], [ 12.549267827347359, 60.546572836323918 ], [ 12.548997296285171, 60.546436183134468 ], [ 12.547737554541538, 60.546262949864669 ], [ 12.547328872450056, 60.546031233204609 ], [ 12.546056230625839, 60.5464065043776 ], [ 12.544672268218866, 60.545598571246231 ], [ 12.543115887680976, 60.546396176860519 ], [ 12.54331162143432, 60.546506314264363 ], [ 12.543332717313611, 60.546865384900606 ], [ 12.543976899212769, 60.547081953487762 ], [ 12.543509591509084, 60.547813358199058 ], [ 12.542319715774596, 60.548447205036126 ], [ 12.541912843386953, 60.548898286491358 ], [ 12.541462321462259, 60.549116897093782 ], [ 12.540588437443414, 60.54930192837196 ], [ 12.540179492682574, 60.549573310972505 ], [ 12.538670241774811, 60.549451628707487 ], [ 12.537998617126119, 60.550152480750981 ], [ 12.538230839386559, 60.55027219123042 ], [ 12.540259520182145, 60.550299157318577 ], [ 12.541621979694254, 60.549409262054489 ] ] ] ] } },
{ "type": "Feature", "properties": { "fid": 226331, "navn": "Djuptjennet", "hoyde_moh": 494, "arealInnsjo_km2": 0.0419, "magasinKategori": null, "fid_2": 708, "id": 708, "left": 12.486919847, "top": 60.946110046000001, "right": 12.986919847, "bottom": 60.446110046000001, "row_index": 27, "col_index": 17, "tile_id": 708 }, "geometry": { "type": "MultiPolygon", "coordinates": [ [ [ [ 12.49069667174645, 60.634385062529248 ], [ 12.491429649299132, 60.63440186484624 ], [ 12.491651198750658, 60.634243250005504 ], [ 12.490010978565506, 60.633459358022286 ], [ 12.489436422860738, 60.633051981362875 ], [ 12.489352806978431, 60.632784518767053 ], [ 12.48842083199863, 60.632458370551575 ], [ 12.488411869651745, 60.632206951082054 ], [ 12.48739259171732, 60.631748185521381 ], [ 12.486919847, 60.63160937818482 ], [ 12.486919847, 60.632805390222416 ], [ 12.487840399882394, 60.633012673421675 ], [ 12.487884681450636, 60.633254336144297 ], [ 12.48729736559933, 60.633574952653227 ], [ 12.487162338107531, 60.633848190620533 ], [ 12.49069667174645, 60.634385062529248 ] ] ] ] } },
{ "type": "Feature", "properties": { "fid": 226335, "navn": "Breisjøen", "hoyde_moh": 386, "arealInnsjo_km2": 0.5933, "magasinKategori": null, "fid_2": 708, "id": 708, "left": 12.486919847, "top": 60.946110046000001, "right": 12.986919847, "bottom": 60.446110046000001, "row_index": 27, "col_index": 17, "tile_id": 708 }, "geometry": { "type": "MultiPolygon", "coordinates": [ [ [ [ 12.529747318383547, 60.560670508210862 ], [ 12.529989078638659, 60.560376480697151 ], [ 12.531276726085707, 60.5599649816197 ], [ 12.533117837068378, 60.55977245509095 ], [ 12.533724700140466, 60.559477888545509 ], [ 12.533281974464764, 60.55910303416249 ], [ 12.533397224120302, 60.558821306209623 ], [ 12.53287106328421, 60.558179197861072 ], [ 12.532934990208576, 60.557764115589322 ], [ 12.533314851849291, 60.557565336247109 ], [ 12.532841911170307, 60.556409495547364 ], [ 12.53231011229289, 60.556387722680725 ], [ 12.532185279147065, 60.556247080630818 ], [ 12.532543312861286, 60.5561837203145 ], [ 12.532850238672276, 60.556319372175921 ], [ 12.533594702105654, 60.555949198498162 ], [ 12.53371166757759, 60.555685467640309 ], [ 12.533526101548098, 60.555321829916146 ], [ 12.532816121554468, 60.554837476735266 ], [ 12.532807966090077, 60.554594969857625 ], [ 12.532441306161063, 60.554245141614238 ], [ 12.531611635337029, 60.553835732086362 ], [ 12.530327964406366, 60.553779839217782 ], [ 12.530041275742651, 60.553661532927265 ], [ 12.52993779383266, 60.553214969193654 ], [ 12.528604757631351, 60.553375979791497 ], [ 12.527272534804347, 60.554049283098031 ], [ 12.526063477822854, 60.554341917379006 ], [ 12.524149106691459, 60.554527325954766 ], [ 12.523309957971158, 60.555034836162463 ], [ 12.522461751696138, 60.555290833351215 ], [ 12.52126531731531, 60.555367352440634 ], [ 12.520713252522773, 60.555660544794321 ], [ 12.519121026041278, 60.555816470570015 ], [ 12.518520175578351, 60.556038861225019 ], [ 12.517939416663932, 60.556477390995383 ], [ 12.518165109347574, 60.556734273372157 ], [ 12.517512996601054, 60.556949149599518 ], [ 12.51762126598814, 60.557440638234262 ], [ 12.51724968188061, 60.557549250260244 ], [ 12.516138964252892, 60.558414396696122 ], [ 12.514733193488238, 60.559925391949456 ], [ 12.516008708573009, 60.560071468228905 ], [ 12.516864254505229, 60.560552240896897 ], [ 12.517731163481502, 60.560466400725588 ], [ 12.518024745583119, 60.56083530325666 ], [ 12.520848453748689, 60.560258410324096 ], [ 12.522271871204188, 60.560589523295235 ], [ 12.525701328431843, 60.56073251070152 ], [ 12.527171945228545, 60.561160830618576 ], [ 12.527994105411759, 60.561166169321716 ], [ 12.529747318383547, 60.560670508210862 ] ], [ [ 12.527027569005462, 60.558352731561996 ], [ 12.526838630680755, 60.558437623824197 ], [ 12.526478964839152, 60.558321282497182 ], [ 12.527027569005462, 60.558352731561996 ] ] ] ] } },
{ "type": "Feature", "properties": { "fid": 268038, "navn": "Mellom-Røgden", "hoyde_moh": 331, "arealInnsjo_km2": 4.9379, "magasinKategori": 1, "fid_2": 708, "id": 708, "left": 12.486919847, "top": 60.946110046000001, "right": 12.986919847, "bottom": 60.446110046000001, "row_index": 27, "col_index": 17, "tile_id": 708 }, "geometry": { "type": "MultiPolygon", "coordinates": [ [ [ [ 12.522276761875217, 60.513342972372911 ], [ 12.523007312589224, 60.513188826519283 ], [ 12.523222153160695, 60.512482268329528 ], [ 12.523599370416889, 60.51209474189303 ], [ 12.52592005610674, 60.512482738700726 ], [ 12.526281349873685, 60.51228444856104 ], [ 12.526281839139019, 60.512122765803277 ], [ 12.525929474812759, 60.511898307483889 ], [ 12.525941353032541, 60.511673326921162 ], [ 12.526734415256326, 60.511921944988913 ], [ 12.527295515177851, 60.511889137626945 ], [ 12.527628115584417, 60.511763522655983 ], [ 12.527685489685313, 60.51128570876196 ], [ 12.527876608938943, 60.51119960111216 ], [ 12.528222646346592, 60.511361326387885 ], [ 12.528024846292363, 60.512058595312631 ], [ 12.528343001822845, 60.51230181716371 ], [ 12.530102293118176, 60.512389911218122 ], [ 12.530872341847846, 60.512261785873321 ], [ 12.531827232412239, 60.512658979889203 ], [ 12.532361652086488, 60.512545889782103 ], [ 12.533118387805573, 60.512130413250233 ], [ 12.532934331149702, 60.511946544399564 ], [ 12.532968114295183, 60.511586237905519 ], [ 12.533643001139234, 60.510588773122208 ], [ 12.535593661368033, 60.510590864134286 ], [ 12.536291892614106, 60.510140963533452 ], [ 12.537862490923645, 60.5096679068415 ], [ 12.539389285630833, 60.508962356936848 ], [ 12.540855328366836, 60.508033614859087 ], [ 12.540886034947032, 60.507313757623301 ], [ 12.541704017239033, 60.506959548952338 ], [ 12.541805066767886, 60.506049114590517 ], [ 12.542270768721771, 60.505641340966804 ], [ 12.543010475204387, 60.505405962859875 ], [ 12.544269853505982, 60.504590605444371 ], [ 12.544920329070761, 60.504537363079137 ], [ 12.545524681937323, 60.504898724402487 ], [ 12.546611966003669, 60.505175364332111 ], [ 12.547586064669723, 60.504583252618332 ], [ 12.547751698249574, 60.504264353488992 ], [ 12.54879020609253, 60.504434351389705 ], [ 12.549453869372533, 60.503832569636494 ], [ 12.551607368976338, 60.503361799629573 ], [ 12.552129410217992, 60.502970388118079 ], [ 12.552128030893368, 60.502790706807801 ], [ 12.552979518810373, 60.501914157930074 ], [ 12.553960744079177, 60.500557786731413 ], [ 12.554598581942372, 60.500226249112508 ], [ 12.554661963572793, 60.499307842385733 ], [ 12.55484846133743, 60.499015278217328 ], [ 12.555975905733199, 60.498329085480762 ], [ 12.554890567529014, 60.496740348554553 ], [ 12.55438923632042, 60.496322260092555 ], [ 12.554764031001893, 60.49624936459476 ], [ 12.555386568214164, 60.496610476560527 ], [ 12.556624982624381, 60.496604154679936 ], [ 12.558572572099601, 60.49625562504373 ], [ 12.55929808092905, 60.495894590755476 ], [ 12.560862125878549, 60.494208210618737 ], [ 12.562431944230074, 60.493240451542064 ], [ 12.564294053177758, 60.491617959592247 ], [ 12.56835333114306, 60.489603992563929 ], [ 12.568925625278652, 60.489175169645783 ], [ 12.569156573406005, 60.488459052285613 ], [ 12.568965728119894, 60.487718178724897 ], [ 12.567378905142563, 60.486870911612321 ], [ 12.566392339419961, 60.485683893191563 ], [ 12.565329740649586, 60.485460856935262 ], [ 12.5643010564302, 60.485712901809592 ], [ 12.562926592054607, 60.485471034504563 ], [ 12.560913685709442, 60.48422173403641 ], [ 12.559756638383263, 60.483803255524045 ], [ 12.558247445349409, 60.483493028862135 ], [ 12.55686052846476, 60.484132172178008 ], [ 12.555539045324483, 60.484041659920592 ], [ 12.555077875636497, 60.483820312239487 ], [ 12.555021433201706, 60.483138739511006 ], [ 12.554241492571236, 60.482835997694892 ], [ 12.553972083641217, 60.482456741861981 ], [ 12.554086456455945, 60.482344758173866 ], [ 12.554294803026821, 60.482519702504646 ], [ 12.554724044062745, 60.482446819521989 ], [ 12.554606866640958, 60.482211746185648 ], [ 12.553138814000087, 60.481912724501065 ], [ 12.552860009457561, 60.482027977644904 ], [ 12.553139654069458, 60.482254266716964 ], [ 12.552840740520239, 60.482684627474434 ], [ 12.551749664550599, 60.483199076469013 ], [ 12.5495054470115, 60.482827462934054 ], [ 12.548840265158292, 60.483240573721105 ], [ 12.545975597809871, 60.483191026181331 ], [ 12.545879381543422, 60.483310433904386 ], [ 12.546009958849933, 60.48350471064083 ], [ 12.546666368257268, 60.483846729286284 ], [ 12.546665400036543, 60.484502818076287 ], [ 12.546402110921832, 60.484761440342822 ], [ 12.545414574633071, 60.485057395491438 ], [ 12.545315470081908, 60.485149891006827 ], [ 12.545475827230405, 60.485451163052261 ], [ 12.54530796393866, 60.485581468262595 ], [ 12.543553376427584, 60.485358541407294 ], [ 12.542676072762264, 60.485498678708154 ], [ 12.538452054892778, 60.485511946535958 ], [ 12.534007031742064, 60.485836741920878 ], [ 12.532696114743377, 60.4861771077546 ], [ 12.532467584364205, 60.486587529117031 ], [ 12.532974545190372, 60.487237388823949 ], [ 12.534331755315103, 60.487481762915877 ], [ 12.534478291433084, 60.487990208332064 ], [ 12.534297656049501, 60.488160866823463 ], [ 12.534896865766349, 60.488347111010142 ], [ 12.535653334098477, 60.488075886360974 ], [ 12.537119797391982, 60.487991950223062 ], [ 12.537671498912108, 60.48770776990871 ], [ 12.538440665956477, 60.487912047727214 ], [ 12.538445376589731, 60.488289325128925 ], [ 12.538059718705385, 60.488928702499088 ], [ 12.536908574353584, 60.489732162671977 ], [ 12.537239223286596, 60.490091924744483 ], [ 12.53801534476038, 60.490358853435481 ], [ 12.538020999333224, 60.490745220912991 ], [ 12.537174209559918, 60.491666408461882 ], [ 12.536140868261095, 60.491379272797687 ], [ 12.534266269966684, 60.491896354488432 ], [ 12.533684036973559, 60.49190283549153 ], [ 12.531619051385613, 60.491508190328041 ], [ 12.527991195308509, 60.491316669884178 ], [ 12.526626300312808, 60.49149662216464 ], [ 12.525162390447488, 60.4909331843198 ], [ 12.524158569071952, 60.490914731654854 ], [ 12.523295717968873, 60.491189217297567 ], [ 12.523108976778088, 60.491481825926279 ], [ 12.523432636638589, 60.491778703503378 ], [ 12.524255057525211, 60.491998694040099 ], [ 12.524951374497462, 60.492511517381928 ], [ 12.524939499671035, 60.492736498447989 ], [ 12.52399712478614, 60.492950136205295 ], [ 12.523988553747296, 60.493372802579593 ], [ 12.522835000085651, 60.494158136613237 ], [ 12.522883892214892, 60.494273846322969 ], [ 12.524771823804185, 60.493540859912187 ], [ 12.525381568568493, 60.493785371256692 ], [ 12.525377478552805, 60.493920218567609 ], [ 12.524331964619535, 60.494019838627253 ], [ 12.523896632947654, 60.494876092352072 ], [ 12.522756306773511, 60.495616218308818 ], [ 12.522625049215934, 60.495916324705703 ], [ 12.522777427217024, 60.496649285859945 ], [ 12.523406500122167, 60.497073014243291 ], [ 12.524370657264939, 60.497227184242604 ], [ 12.524559991158748, 60.497626664662896 ], [ 12.525792778059115, 60.497737930602575 ], [ 12.524233322327003, 60.498812542711036 ], [ 12.523608984303895, 60.49893713340348 ], [ 12.522096851668042, 60.498266951986693 ], [ 12.521654031066266, 60.498215786317623 ], [ 12.521005036365747, 60.498448599905927 ], [ 12.520665136311766, 60.499176545502877 ], [ 12.520550030017386, 60.500463723358948 ], [ 12.521628525677716, 60.500831764496908 ], [ 12.521407649853318, 60.500981357951048 ], [ 12.520949587872247, 60.500957574563508 ], [ 12.520681863435483, 60.501512862713625 ], [ 12.521501116346334, 60.501841681050777 ], [ 12.521543597336853, 60.502065246477095 ], [ 12.521197778148565, 60.502236143167252 ], [ 12.521237949731658, 60.502416008852528 ], [ 12.522054578064052, 60.502743786503039 ], [ 12.522786274997646, 60.502769503654058 ], [ 12.523125695162758, 60.503209680634335 ], [ 12.522206456217502, 60.503638520253531 ], [ 12.521723668478169, 60.50422646567489 ], [ 12.519960709414498, 60.503599032646115 ], [ 12.519354324897698, 60.503906650948402 ], [ 12.519199947178503, 60.50431052633423 ], [ 12.519774076121706, 60.504565537426316 ], [ 12.520130752641538, 60.504996521166298 ], [ 12.521190857603147, 60.505251935605145 ], [ 12.521243960132182, 60.505515312978538 ], [ 12.520693277647597, 60.505646739858186 ], [ 12.520225152501947, 60.505865755446749 ], [ 12.520038114129129, 60.506158355139156 ], [ 12.519349177938242, 60.506356195188587 ], [ 12.519192366585957, 60.506594021156346 ], [ 12.519698883704542, 60.506895204405957 ], [ 12.518695037362404, 60.507804201972981 ], [ 12.518601271798399, 60.508703713364774 ], [ 12.517944879842915, 60.509206313608153 ], [ 12.517397414387236, 60.510541947117929 ], [ 12.516975832153511, 60.510858564392272 ], [ 12.517006119078433, 60.51113643059707 ], [ 12.517853135110853, 60.511383681248262 ], [ 12.518486417241103, 60.511843349383916 ], [ 12.518538616060951, 60.512156476256223 ], [ 12.519096754231962, 60.512429336382219 ], [ 12.518563900490093, 60.512892826182878 ], [ 12.518767329737704, 60.513255925705728 ], [ 12.519867720119505, 60.513316718212216 ], [ 12.520268089710408, 60.513144142618835 ], [ 12.521785332177823, 60.513014413652392 ], [ 12.522276761875217, 60.513342972372911 ] ], [ [ 12.527663670627431, 60.491990424074906 ], [ 12.528029311781506, 60.492169404092806 ], [ 12.528001121039592, 60.492412856996573 ], [ 12.527453561853592, 60.492571135781141 ], [ 12.5263516676105, 60.492321728195648 ], [ 12.526215714317667, 60.492244468702395 ], [ 12.526292751319279, 60.492093727303391 ], [ 12.527663670627431, 60.491990424074906 ] ], [ [ 12.525278379856463, 60.493006076078899 ], [ 12.525268638479661, 60.492916515421292 ], [ 12.52580770571978, 60.492848366036277 ], [ 12.525944613246065, 60.492934626524004 ], [ 12.525278379856463, 60.493006076078899 ] ], [ [ 12.526279375249411, 60.496349936191542 ], [ 12.526718352404762, 60.496365263545243 ], [ 12.526503132965969, 60.49673046940417 ], [ 12.526228601189567, 60.496719808453598 ], [ 12.526279375249411, 60.496349936191542 ] ], [ [ 12.526853502401119, 60.499282628719655 ], [ 12.526544052226884, 60.499443074153682 ], [ 12.525989221398001, 60.499377359797478 ], [ 12.52598780460599, 60.4991976756246 ], [ 12.526402556378892, 60.498988969971329 ], [ 12.52685226951419, 60.499102858195165 ], [ 12.526853502401119, 60.499282628719655 ] ], [ [ 12.524225714789107, 60.502767302532121 ], [ 12.523660384151617, 60.502260952740784 ], [ 12.524698733440061, 60.502593009520481 ], [ 12.524225714789107, 60.502767302532121 ] ], [ [ 12.521956946978269, 60.506206498890258 ], [ 12.522199304781831, 60.506424793661438 ], [ 12.521792365971523, 60.50653437167248 ], [ 12.52136044993809, 60.506420079605903 ], [ 12.521956946978269, 60.506206498890258 ] ], [ [ 12.520167428059835, 60.507350095898943 ], [ 12.520446035386176, 60.50739677557457 ], [ 12.520144108375362, 60.507638462844469 ], [ 12.519930459291915, 60.507609428893396 ], [ 12.520167428059835, 60.507350095898943 ] ], [ [ 12.5232311789355, 60.511223663442905 ], [ 12.523505375846643, 60.511063737706984 ], [ 12.523792371568495, 60.511020107918092 ], [ 12.524103600586528, 60.51120078081329 ], [ 12.523499336168406, 60.511512680275075 ], [ 12.5232311789355, 60.511223663442905 ] ], [ [ 12.544654120351858, 60.487099747741965 ], [ 12.544937024361545, 60.487020338112011 ], [ 12.545528372455612, 60.487265316731929 ], [ 12.545305958689182, 60.487397043320023 ], [ 12.544715492442203, 60.487330569052624 ], [ 12.544654120351858, 60.487099747741965 ] ], [ [ 12.56167608682566, 60.490007296278009 ], [ 12.562211978197226, 60.489579631980313 ], [ 12.562893734775081, 60.489318656979307 ], [ 12.563168217853159, 60.48932924218763 ], [ 12.563176104567912, 60.48973352142557 ], [ 12.563531583130674, 60.489984617467051 ], [ 12.562575496692354, 60.490567375630434 ], [ 12.562123344387244, 60.490597467397187 ], [ 12.561550044957258, 60.490352176197035 ], [ 12.56167608682566, 60.490007296278009 ] ], [ [ 12.536660633544917, 60.494475117237741 ], [ 12.537025307557782, 60.494312704951348 ], [ 12.537472301616145, 60.49439964880326 ], [ 12.537085778728111, 60.494715625060969 ], [ 12.536685402933076, 60.494707781723307 ], [ 12.536660633544917, 60.494475117237741 ] ], [ [ 12.533182819350341, 60.496499894001403 ], [ 12.532217203783183, 60.495833018386669 ], [ 12.530318515171796, 60.495461105582841 ], [ 12.528884828767341, 60.49433971551526 ], [ 12.53046952428719, 60.493165361249801 ], [ 12.531818935631968, 60.493345296028281 ], [ 12.532607714422026, 60.493728818185517 ], [ 12.53287806060043, 60.494036183115007 ], [ 12.532984913543187, 60.494348068909908 ], [ 12.53289372163381, 60.494682970411247 ], [ 12.532627550097089, 60.494914655441171 ], [ 12.532667229176951, 60.495111306027951 ], [ 12.53381214685677, 60.495251684388059 ], [ 12.534483065471788, 60.495557558994882 ], [ 12.534499093342601, 60.495871537068055 ], [ 12.534010713624294, 60.496405792171551 ], [ 12.533182819350341, 60.496499894001403 ] ], [ [ 12.551771344290382, 60.49570903404895 ], [ 12.552476366306466, 60.49549255268083 ], [ 12.552643890819423, 60.495524012451185 ], [ 12.552662552266014, 60.495694309571448 ], [ 12.551873454642697, 60.496308354938243 ], [ 12.550701501310972, 60.496088048933984 ], [ 12.550548344485632, 60.495687656980245 ], [ 12.551771344290382, 60.49570903404895 ] ], [ [ 12.530176758902909, 60.500183296710624 ], [ 12.529848298790556, 60.500012198905949 ], [ 12.529088168369032, 60.500059293391431 ], [ 12.528718968037161, 60.499851686129162 ], [ 12.528621419613547, 60.499119031223373 ], [ 12.527614290238946, 60.498562201948737 ], [ 12.527575515051497, 60.498382723684891 ], [ 12.528385386961773, 60.498289399866195 ], [ 12.529398707975636, 60.498559245006632 ], [ 12.529805528397455, 60.498782099537358 ], [ 12.530253456798624, 60.499381377961043 ], [ 12.531491270107606, 60.500040548721579 ], [ 12.531682136337015, 60.500287157427998 ], [ 12.531622617138895, 60.50057638249131 ], [ 12.531334132281089, 60.500772619367226 ], [ 12.530244062296386, 60.500622278583151 ], [ 12.530176758902909, 60.500183296710624 ] ], [ [ 12.531577959841668, 60.509870489584699 ], [ 12.531978231376515, 60.510030603488453 ], [ 12.53163812237106, 60.510255350613043 ], [ 12.531731993392874, 60.510472586200947 ], [ 12.531431043835298, 60.51002712725974 ], [ 12.531577959841668, 60.509870489584699 ] ] ] ] } },
{ "type": "Feature", "properties": { "fid": 269233, "navn": null, "hoyde_moh": null, "arealInnsjo_km2": 0.0033, "magasinKategori": null, "fid_2": 708, "id": 708, "left": 12.486919847, "top": 60.946110046000001, "right": 12.986919847, "bottom": 60.446110046000001, "row_index": 27, "col_index": 17, "tile_id": 708 }, "geometry": { "type": "MultiPolygon", "coordinates": [ [ [ [ 12.596936740430474, 60.525595277044808 ], [ 12.596599053533595, 60.525838014991983 ], [ 12.597140008710312, 60.526111036036006 ], [ 12.598105759514926, 60.526136683813675 ], [ 12.598239712725112, 60.525932673932139 ], [ 12.596936740430474, 60.525595277044808 ] ] ] ] } },
{ "type": "Feature", "properties": { "fid": 269458, "navn": "Nordre Røgden", "hoyde_moh": 370, "arealInnsjo_km2": 4.6306, "magasinKategori": 1, "fid_2": 708, "id": 708, "left": 12.486919847, "top": 60.946110046000001, "right": 12.986919847, "bottom": 60.446110046000001, "row_index": 27, "col_index": 17, "tile_id": 708 }, "geometry": { "type": "MultiPolygon", "coordinates": [ [ [ [ 12.554024931237649, 60.56031373912657 ], [ 12.554531759942124, 60.560273345777851 ], [ 12.554905550713697, 60.560020678496407 ], [ 12.556077959538184, 60.558731198643954 ], [ 12.558236952524808, 60.557613266077759 ], [ 12.559009217271164, 60.557664482193687 ], [ 12.560180202453473, 60.558019767380038 ], [ 12.56156988185009, 60.557874835830958 ], [ 12.562388023809714, 60.558509038880999 ], [ 12.562808792784292, 60.55851581985609 ], [ 12.563967384606755, 60.558098422582844 ], [ 12.565249048940267, 60.556805919642869 ], [ 12.56618734164781, 60.556376403192715 ], [ 12.56671425924711, 60.555526361424654 ], [ 12.566418027614207, 60.555156894997275 ], [ 12.566984259617371, 60.554827217485936 ], [ 12.569691372631562, 60.554053876978024 ], [ 12.57132102975859, 60.554432592034637 ], [ 12.57221097302037, 60.553896519398116 ], [ 12.573605710872457, 60.554128829431178 ], [ 12.57453375151324, 60.554103918996226 ], [ 12.57500937393713, 60.553453049514459 ], [ 12.576058671205843, 60.553038686579825 ], [ 12.576535980115175, 60.553061721948652 ], [ 12.577382182514279, 60.553452371645811 ], [ 12.577513839167869, 60.55411139219558 ], [ 12.577610916120376, 60.554039810690519 ], [ 12.577512981878987, 60.554112122204451 ], [ 12.577752414012293, 60.554180412898937 ], [ 12.579774135176873, 60.554092928484046 ], [ 12.580407839699022, 60.554398117442204 ], [ 12.582211330076731, 60.554483581857163 ], [ 12.584116914356388, 60.553491335937586 ], [ 12.584379549810665, 60.553067534607301 ], [ 12.58466164689888, 60.552945443174217 ], [ 12.585596944821873, 60.553240189561016 ], [ 12.585455815805032, 60.553595757318377 ], [ 12.587094476878372, 60.553752381235803 ], [ 12.587153140040261, 60.553881443565942 ], [ 12.586853722032128, 60.554197530371361 ], [ 12.586998599118305, 60.554318763804318 ], [ 12.587614989544361, 60.554488057055913 ], [ 12.588340502570569, 60.554381485690591 ], [ 12.588963259520465, 60.554484497073489 ], [ 12.589184102730686, 60.554946606428587 ], [ 12.589481127459424, 60.555121155682926 ], [ 12.591057041704509, 60.555325013394331 ], [ 12.591664952817322, 60.555167859285064 ], [ 12.59206294223722, 60.554585283052994 ], [ 12.592715953919342, 60.554461176145992 ], [ 12.594196477178651, 60.554560013444892 ], [ 12.593920549790088, 60.555203037976177 ], [ 12.595266096623822, 60.555227893640925 ], [ 12.595919245634981, 60.555082035668804 ], [ 12.596697923012236, 60.554456607571495 ], [ 12.597578464773521, 60.554195383369986 ], [ 12.598043865466394, 60.554450147390824 ], [ 12.597737546717987, 60.554861357615167 ], [ 12.597903266526751, 60.555129351762986 ], [ 12.597772397633664, 60.555297451280012 ], [ 12.598079693924795, 60.555777573398814 ], [ 12.598801362845432, 60.556218130891367 ], [ 12.59913965278902, 60.55591110713145 ], [ 12.599209885537435, 60.556075017292137 ], [ 12.59939099735635, 60.556045127295448 ], [ 12.59945951912764, 60.555919650745778 ], [ 12.599299452508236, 60.555799820244573 ], [ 12.601392256851888, 60.55587979570214 ], [ 12.602369057676018, 60.555639644195708 ], [ 12.602447826221683, 60.55523569296335 ], [ 12.602058235685162, 60.554589507300868 ], [ 12.602003544103871, 60.554136782720747 ], [ 12.601478760871863, 60.553982936455519 ], [ 12.601663407389285, 60.553809825993838 ], [ 12.603888670356312, 60.55375620948135 ], [ 12.604284598057617, 60.554548371086881 ], [ 12.60501029833342, 60.555249380125659 ], [ 12.606253467169031, 60.555721389722457 ], [ 12.607796785569793, 60.555453544719093 ], [ 12.60856419778399, 60.554832869590491 ], [ 12.608893851442195, 60.554800650461544 ], [ 12.609150449297925, 60.554310306204215 ], [ 12.609031354732213, 60.554248655623503 ], [ 12.609292570971588, 60.554107778996084 ], [ 12.610024895396469, 60.554175420180606 ], [ 12.610561888048466, 60.553962675577033 ], [ 12.611736624815142, 60.552693509396683 ], [ 12.612771699123666, 60.552035371429888 ], [ 12.612712374096237, 60.551767475591348 ], [ 12.612874843904246, 60.551598256633902 ], [ 12.613667252959806, 60.551488990539688 ], [ 12.61358267501099, 60.551378287371676 ], [ 12.611255217664601, 60.55168605807436 ], [ 12.609977698762446, 60.551689976242443 ], [ 12.609147077667981, 60.551512118890976 ], [ 12.6075943155733, 60.550871554808587 ], [ 12.607188195218212, 60.550984806065372 ], [ 12.606705515693243, 60.550795229295183 ], [ 12.60625357974491, 60.55013528204011 ], [ 12.605090928986575, 60.549991122134621 ], [ 12.605023224491072, 60.54983546157569 ], [ 12.605305188281203, 60.549593578796049 ], [ 12.60505810332241, 60.549422035736853 ], [ 12.605225507119858, 60.548681317528334 ], [ 12.604876127331735, 60.548443166049218 ], [ 12.604643732703611, 60.548521223733886 ], [ 12.604800997245464, 60.548685632254696 ], [ 12.604687447133673, 60.548878867425898 ], [ 12.604499371275653, 60.548883928100963 ], [ 12.603586994530044, 60.549668092703953 ], [ 12.603536895932853, 60.550176011360449 ], [ 12.602987222147974, 60.550511992379327 ], [ 12.602080516316843, 60.550754106002181 ], [ 12.602313608849485, 60.551028577220869 ], [ 12.602223440443689, 60.551244444257762 ], [ 12.602002173319265, 60.551266215014714 ], [ 12.601964298495369, 60.550992895726054 ], [ 12.601201812557617, 60.550682775540309 ], [ 12.600521471641837, 60.550794664419278 ], [ 12.600413832839708, 60.549305403254436 ], [ 12.600245630884038, 60.549101044844846 ], [ 12.59956453232032, 60.54890094967498 ], [ 12.59928139614761, 60.548056086291361 ], [ 12.598889446964696, 60.547715524101157 ], [ 12.596326064612208, 60.54668821601836 ], [ 12.595991917141379, 60.546287765228492 ], [ 12.595467558256013, 60.546599002128957 ], [ 12.595242667263726, 60.546308110478456 ], [ 12.594754325815938, 60.546291418631988 ], [ 12.594724104295118, 60.545907577445014 ], [ 12.594991773267376, 60.545515664365162 ], [ 12.595255336975168, 60.545417479909958 ], [ 12.595207758683713, 60.545302966083966 ], [ 12.594116600885958, 60.544938511243615 ], [ 12.593950214280349, 60.545102625421841 ], [ 12.592871319774996, 60.54520092283682 ], [ 12.592492874116219, 60.545000479185049 ], [ 12.592233310895336, 60.544502087095786 ], [ 12.591066031296974, 60.544119562006408 ], [ 12.590684774632972, 60.544141112602134 ], [ 12.590678426434188, 60.543556130542179 ], [ 12.591288223194846, 60.543584263218058 ], [ 12.592021250536924, 60.543875794280282 ], [ 12.592361186812241, 60.543400474491683 ], [ 12.592006620097889, 60.542483422198487 ], [ 12.59217125742145, 60.541950003423764 ], [ 12.591549642528074, 60.541946579002939 ], [ 12.592023645778346, 60.541664864704295 ], [ 12.592092306648246, 60.541439588354272 ], [ 12.59186191777243, 60.541283384059163 ], [ 12.591892836161428, 60.541103193455037 ], [ 12.590764215350212, 60.540668399761522 ], [ 12.590818000654847, 60.540456643838382 ], [ 12.590360514740834, 60.540167527532304 ], [ 12.590160832091806, 60.539461957778627 ], [ 12.590556306367537, 60.538944717104002 ], [ 12.590919407105803, 60.538047330250443 ], [ 12.591534742449813, 60.537849694916495 ], [ 12.591751601578043, 60.537591485209141 ], [ 12.5914889146025, 60.536845616513482 ], [ 12.592416238932428, 60.53689751122041 ], [ 12.593134505076067, 60.536719474869614 ], [ 12.593273338199859, 60.536477066774168 ], [ 12.592907415012965, 60.536470648714044 ], [ 12.592942316444875, 60.536303204188634 ], [ 12.589792111496916, 60.53649209295056 ], [ 12.587514229776469, 60.536184790544674 ], [ 12.587136879223401, 60.535907323407145 ], [ 12.586363342363587, 60.535676498268039 ], [ 12.584860998161519, 60.535618066167608 ], [ 12.584872486783217, 60.535392989132298 ], [ 12.585487370422305, 60.535178737743259 ], [ 12.585312615703087, 60.535084582448199 ], [ 12.583294582432551, 60.534815142283783 ], [ 12.5824565641557, 60.534496264062476 ], [ 12.580528883057472, 60.534880559273283 ], [ 12.580177661465543, 60.535662871073185 ], [ 12.580583525094751, 60.535867756553344 ], [ 12.580613231600843, 60.53613651734311 ], [ 12.581178884549987, 60.536633628376009 ], [ 12.581124022659283, 60.536797017015438 ], [ 12.579567347340765, 60.537072325391634 ], [ 12.579039062663782, 60.537410105560042 ], [ 12.577911880863931, 60.537278543294249 ], [ 12.575490981669093, 60.536336867639655 ], [ 12.574096207575124, 60.536095584133832 ], [ 12.573500655706969, 60.535823992405788 ], [ 12.573204600292256, 60.535786991459837 ], [ 12.573014440308707, 60.535881894737905 ], [ 12.572999955339473, 60.536080148861302 ], [ 12.572560580986883, 60.536262323407087 ], [ 12.572786938499586, 60.536655389925485 ], [ 12.573384876497613, 60.536510590602354 ], [ 12.574421541531427, 60.53666947123768 ], [ 12.575280010240771, 60.537070513977106 ], [ 12.576315226701348, 60.53719548854567 ], [ 12.576634171627758, 60.537438601217296 ], [ 12.575713585003218, 60.53752626502969 ], [ 12.574607236577901, 60.537915419954537 ], [ 12.574018619176847, 60.537706566375441 ], [ 12.572488068653396, 60.537558734308156 ], [ 12.571969041525369, 60.536988415714475 ], [ 12.572434168297987, 60.53677419393658 ], [ 12.57149255120761, 60.535344807658696 ], [ 12.568224168352247, 60.535120384194798 ], [ 12.566869926076905, 60.535578976581128 ], [ 12.565521642112602, 60.535426300601877 ], [ 12.564710285403489, 60.535016710448325 ], [ 12.564178826331885, 60.534994886913871 ], [ 12.563338912337347, 60.535152115899145 ], [ 12.563307049379679, 60.53569220450089 ], [ 12.563103753026519, 60.536165026954528 ], [ 12.5626713132277, 60.536545095868433 ], [ 12.562511282696008, 60.537412061073034 ], [ 12.561905731564154, 60.53787762627983 ], [ 12.561481362792431, 60.537835022086462 ], [ 12.561328519853966, 60.537605505945166 ], [ 12.559527929691102, 60.536826673993538 ], [ 12.55900282077703, 60.536364432760493 ], [ 12.557922835511604, 60.535997586559034 ], [ 12.557281319948547, 60.535969859671646 ], [ 12.556781277531032, 60.536234861850986 ], [ 12.556327520136906, 60.536255929663845 ], [ 12.55630986439647, 60.536427176947633 ], [ 12.556619564938822, 60.536592559269735 ], [ 12.556619676675792, 60.536922317950207 ], [ 12.556794363661272, 60.537016420639773 ], [ 12.556727879254614, 60.537242826587445 ], [ 12.556909304579039, 60.537399931642973 ], [ 12.55649347609617, 60.53759964256934 ], [ 12.556148159430899, 60.538273764414157 ], [ 12.556117550201298, 60.538993799977632 ], [ 12.556326914846421, 60.539239897215445 ], [ 12.55599017903681, 60.539662209831263 ], [ 12.556250932415821, 60.540041743383931 ], [ 12.556151504581836, 60.540134242116068 ], [ 12.556273574904896, 60.540580403881975 ], [ 12.556659052266063, 60.541100374009794 ], [ 12.558118290053672, 60.541097339792699 ], [ 12.558573701220396, 60.541256039847518 ], [ 12.558828967176973, 60.541752512421994 ], [ 12.558113673594754, 60.542382684891258 ], [ 12.558330017085675, 60.54269151572506 ], [ 12.558833486750121, 60.542624189658774 ], [ 12.559127769506027, 60.542975764725881 ], [ 12.55989529935662, 60.543153011079234 ], [ 12.560464551015539, 60.54302103769335 ], [ 12.561221455347042, 60.543099721335146 ], [ 12.561378836190199, 60.543535742990905 ], [ 12.560706600150207, 60.54356280694882 ], [ 12.558655356993629, 60.544489250934923 ], [ 12.556782086700384, 60.544539242182822 ], [ 12.556415234693992, 60.54469287035085 ], [ 12.555992257097836, 60.54516247105412 ], [ 12.554978300701771, 60.545333262746858 ], [ 12.554874257387, 60.545614673107885 ], [ 12.554507755186666, 60.545768212856323 ], [ 12.555637427078253, 60.545917891392953 ], [ 12.556660559991959, 60.545432237869434 ], [ 12.55848145719281, 60.545230919064458 ], [ 12.558635011141845, 60.545298761909095 ], [ 12.558346276996168, 60.545495144314344 ], [ 12.558172084270762, 60.545904266041937 ], [ 12.558889900287999, 60.546289456550745 ], [ 12.55898829374372, 60.546520584488654 ], [ 12.558953889677541, 60.547204529166223 ], [ 12.559225621667967, 60.547350076411242 ], [ 12.558804471300483, 60.547505144093201 ], [ 12.559000421465383, 60.548290762689298 ], [ 12.561630002336701, 60.548472292407688 ], [ 12.559651614084867, 60.548902532084057 ], [ 12.560063145614061, 60.550320609347146 ], [ 12.558738800491978, 60.550391889795534 ], [ 12.558305940471522, 60.550771849387488 ], [ 12.558354266015902, 60.550878459719492 ], [ 12.55915385631477, 60.550848164436374 ], [ 12.559435804651429, 60.550921496808954 ], [ 12.559437220131732, 60.551101177104684 ], [ 12.558970954037365, 60.551176552941868 ], [ 12.558660831247538, 60.551508364294477 ], [ 12.558323889620556, 60.551598228979792 ], [ 12.558237445945338, 60.552139833656305 ], [ 12.557915170378561, 60.552364077662133 ], [ 12.55705070031479, 60.552468005199962 ], [ 12.55703593241978, 60.552666163486201 ], [ 12.557575594631244, 60.552759574575617 ], [ 12.558051733456416, 60.553438932638841 ], [ 12.557485272281696, 60.553930347832882 ], [ 12.556825562014298, 60.554073770700974 ], [ 12.556744013775777, 60.554327657639064 ], [ 12.557053919948544, 60.554490165716601 ], [ 12.556872475775391, 60.554665692398764 ], [ 12.555765307510239, 60.555054775237146 ], [ 12.555178913884113, 60.555468654850223 ], [ 12.555288808809609, 60.556199794897118 ], [ 12.554146267729745, 60.55726380893195 ], [ 12.554420410360903, 60.557598046502143 ], [ 12.554371649026118, 60.558318377043051 ], [ 12.553476559792269, 60.559474588917489 ], [ 12.553426262480057, 60.560347687374197 ], [ 12.552643419436611, 60.56070109766123 ], [ 12.550578680875477, 60.56101662784144 ], [ 12.550524595294325, 60.561188823164677 ], [ 12.552863091977134, 60.561036765325895 ], [ 12.553482789435293, 60.560770641740277 ], [ 12.554024931237649, 60.56031373912657 ] ], [ [ 12.581692622522034, 60.537320857488687 ], [ 12.581303639783007, 60.536935909740421 ], [ 12.582029195312234, 60.53689830174946 ], [ 12.582167966418375, 60.537164366460715 ], [ 12.581692622522034, 60.537320857488687 ] ], [ [ 12.562849142037393, 60.537996268026973 ], [ 12.562822986326264, 60.537592556019916 ], [ 12.563340584518, 60.537488912271783 ], [ 12.563447416543431, 60.537629735127418 ], [ 12.563353500416691, 60.537937835015214 ], [ 12.562849142037393, 60.537996268026973 ] ], [ [ 12.558988285777181, 60.540049604315584 ], [ 12.559175170031411, 60.539757040207164 ], [ 12.559593919848412, 60.539584052960848 ], [ 12.56022776891113, 60.539540214981066 ], [ 12.560605257274618, 60.539655983962056 ], [ 12.560680738531175, 60.539842587071028 ], [ 12.560533116429095, 60.540161201865288 ], [ 12.559870472433071, 60.540439503385564 ], [ 12.559051265941029, 60.540290684716183 ], [ 12.558988285777181, 60.540049604315584 ] ], [ [ 12.568270513063013, 60.543486551048431 ], [ 12.568436956996083, 60.543509164798948 ], [ 12.568374286454427, 60.543600635020027 ], [ 12.568270513063013, 60.543486551048431 ] ], [ [ 12.564845590738855, 60.544530796197577 ], [ 12.565045213463135, 60.544354692966124 ], [ 12.565314821234363, 60.544378114077269 ], [ 12.564845590738855, 60.544530796197577 ] ], [ [ 12.561058639574862, 60.544937576625053 ], [ 12.560784203863182, 60.544765125180092 ], [ 12.561409551191122, 60.544811311575202 ], [ 12.561058639574862, 60.544937576625053 ] ], [ [ 12.588487503522909, 60.546503084070238 ], [ 12.588290586139944, 60.546413437897741 ], [ 12.588334134329491, 60.546283679959075 ], [ 12.588566302263411, 60.546351074991051 ], [ 12.588487503522909, 60.546503084070238 ] ], [ [ 12.5674224219892, 60.547382797747517 ], [ 12.567047204198083, 60.547563070884365 ], [ 12.567014926207703, 60.547492597333047 ], [ 12.5674224219892, 60.547382797747517 ] ], [ [ 12.560312649604029, 60.547447014718621 ], [ 12.560522112882547, 60.547692926189022 ], [ 12.560028593232722, 60.547849909264507 ], [ 12.559440074536598, 60.547640994527697 ], [ 12.560312649604029, 60.547447014718621 ] ], [ [ 12.563993500500587, 60.549883139852319 ], [ 12.563437393043516, 60.549969916840922 ], [ 12.563127497194664, 60.549807423539988 ], [ 12.563283657631926, 60.549569536747683 ], [ 12.563993500500587, 60.549883139852319 ] ], [ [ 12.583078268579197, 60.550649953987154 ], [ 12.582706652319425, 60.550619189671224 ], [ 12.582988507593079, 60.550437084520283 ], [ 12.583434391562724, 60.550463766632525 ], [ 12.583078268579197, 60.550649953987154 ] ], [ [ 12.58170649183293, 60.551019473864244 ], [ 12.581257826609137, 60.550706117399827 ], [ 12.581583521068069, 60.550494726308877 ], [ 12.582505632079311, 60.55061370006954 ], [ 12.582164434093194, 60.550878645610972 ], [ 12.582554055091602, 60.551148882232305 ], [ 12.58170649183293, 60.551019473864244 ] ], [ [ 12.57948730779909, 60.551859116423692 ], [ 12.579122426812535, 60.551859867704074 ], [ 12.578663714499783, 60.551341964849271 ], [ 12.579615540902507, 60.551532136783798 ], [ 12.57948730779909, 60.551859116423692 ] ], [ [ 12.583247641144913, 60.551912699915803 ], [ 12.582061725589638, 60.551739218404585 ], [ 12.582204111973443, 60.55140750751054 ], [ 12.583169227216812, 60.551630591241079 ], [ 12.583247641144913, 60.551912699915803 ] ], [ [ 12.570884346932919, 60.552790610386801 ], [ 12.57188268658801, 60.552907845952589 ], [ 12.572273329529922, 60.553634191211131 ], [ 12.572123491387174, 60.553764051368297 ], [ 12.571260554903725, 60.553553435488801 ], [ 12.570884346932919, 60.552790610386801 ] ], [ [ 12.558912012895172, 60.554620079459283 ], [ 12.559013027105193, 60.554545752469984 ], [ 12.559331382319707, 60.554618133215676 ], [ 12.559502560505937, 60.554847266800756 ], [ 12.55921247127972, 60.554954069383754 ], [ 12.558912012895172, 60.554620079459283 ] ], [ [ 12.588130922350375, 60.542399504119224 ], [ 12.589164185018269, 60.541612684916906 ], [ 12.590556850139668, 60.541791042745672 ], [ 12.590093318830718, 60.542265654292407 ], [ 12.590543426998046, 60.542471422928621 ], [ 12.588783842063997, 60.542734609478394 ], [ 12.588130922350375, 60.542399504119224 ] ], [ [ 12.592327612633822, 60.546719062081884 ], [ 12.592381712868304, 60.546388255811912 ], [ 12.593213345680182, 60.546663942418682 ], [ 12.592558228341815, 60.54681116913374 ], [ 12.592327612633822, 60.546719062081884 ] ], [ [ 12.593344552642964, 60.547330068369156 ], [ 12.59366588382971, 60.547365367611114 ], [ 12.593570709831884, 60.547470985550639 ], [ 12.593097258256282, 60.547573979997516 ], [ 12.593344552642964, 60.547330068369156 ] ], [ [ 12.594207027408656, 60.54848543183634 ], [ 12.593987787803774, 60.548304299637714 ], [ 12.594687870944067, 60.547754547766679 ], [ 12.595442732283656, 60.547845780356774 ], [ 12.595226077271148, 60.548155712727613 ], [ 12.594207027408656, 60.54848543183634 ] ], [ [ 12.593347896592524, 60.548577579394951 ], [ 12.593712586081935, 60.548614225743854 ], [ 12.593502619530343, 60.548824524237538 ], [ 12.593227947802575, 60.54879169166253 ], [ 12.593347896592524, 60.548577579394951 ] ], [ [ 12.589534649186215, 60.551140954671375 ], [ 12.589204508450582, 60.550987589985638 ], [ 12.588893205847139, 60.550555043406497 ], [ 12.589243846784628, 60.550404043684985 ], [ 12.589855311690085, 60.550510494940816 ], [ 12.590040392254974, 60.550768896772297 ], [ 12.589534649186215, 60.551140954671375 ] ], [ [ 12.596981121198869, 60.551238292231446 ], [ 12.596906788025576, 60.551414558365067 ], [ 12.596239324798143, 60.551230169023967 ], [ 12.596332276482221, 60.551017400740477 ], [ 12.596660863783091, 60.550898933085982 ], [ 12.596981121198869, 60.551238292231446 ] ], [ [ 12.606320941175905, 60.552149634137287 ], [ 12.606161687850271, 60.552036231033682 ], [ 12.606153370475496, 60.551720138333103 ], [ 12.606897896811061, 60.551380962555484 ], [ 12.607577465497588, 60.551328752489333 ], [ 12.607668569802883, 60.551516512226691 ], [ 12.607295535893801, 60.551542794679143 ], [ 12.60763827265993, 60.551658468706108 ], [ 12.6080882312645, 60.551510169840185 ], [ 12.608370773119066, 60.551663415652619 ], [ 12.608302975378592, 60.551751038833174 ], [ 12.608956144741994, 60.551729841682175 ], [ 12.609202654736015, 60.552055695908727 ], [ 12.608828361545566, 60.552193577337853 ], [ 12.608545185236769, 60.5520456209305 ], [ 12.606320941175905, 60.552149634137287 ] ], [ [ 12.600756188345796, 60.551509394934776 ], [ 12.601053778959047, 60.551514202492498 ], [ 12.601293078568432, 60.551701880581646 ], [ 12.601301543672349, 60.55190871275471 ], [ 12.600949956309091, 60.552069598478333 ], [ 12.600678635936109, 60.55193494350965 ], [ 12.600608836965476, 60.551695525266894 ], [ 12.600756188345796, 60.551509394934776 ] ], [ [ 12.594651980059023, 60.553096429018026 ], [ 12.59361836117087, 60.552849496389825 ], [ 12.593615818551484, 60.552710660387156 ], [ 12.59374453702749, 60.552582938730836 ], [ 12.594385026311896, 60.552558000006968 ], [ 12.595066244580313, 60.552748502755115 ], [ 12.594651980059023, 60.553096429018026 ] ], [ [ 12.609276974840098, 60.553456992663939 ], [ 12.607849182170968, 60.553634968614944 ], [ 12.607758464507002, 60.55341126788386 ], [ 12.607929869843639, 60.553115389967338 ], [ 12.609105293678921, 60.552385866970518 ], [ 12.609405926767487, 60.552500791405279 ], [ 12.609139770280173, 60.552829323934596 ], [ 12.609594227215037, 60.553088225429391 ], [ 12.609276974840098, 60.553456992663939 ] ], [ [ 12.605351638785539, 60.553562773649823 ], [ 12.605451504551906, 60.553098908419223 ], [ 12.606061172765873, 60.552331662048772 ], [ 12.607141664906585, 60.552407635754207 ], [ 12.607446948780492, 60.552268935738574 ], [ 12.6080658366492, 60.552486028587822 ], [ 12.607085794646792, 60.553160217187994 ], [ 12.606140349433128, 60.553151715975567 ], [ 12.605891351812604, 60.553611560690868 ], [ 12.605481237470601, 60.55383302935622 ], [ 12.605351638785539, 60.553562773649823 ] ], [ [ 12.594373573430051, 60.553282051689187 ], [ 12.594363965260751, 60.553360305675476 ], [ 12.594215764674447, 60.553338736469044 ], [ 12.594373573430051, 60.553282051689187 ] ], [ [ 12.609229311518241, 60.553874735085557 ], [ 12.608695178457122, 60.553653201385828 ], [ 12.609555255865951, 60.553650958105727 ], [ 12.610138583114532, 60.553286134790369 ], [ 12.610639463256369, 60.55345404375889 ], [ 12.610076489985188, 60.55382489249024 ], [ 12.609229311518241, 60.553874735085557 ] ], [ [ 12.606488262543934, 60.555424206383897 ], [ 12.606214370901327, 60.555580758685281 ], [ 12.605840314622826, 60.555495626624115 ], [ 12.606488262543934, 60.555424206383897 ] ] ] ] } }
]
}
