{
"type": "FeatureCollection",
"name": "innsjo_tile_id_705",
"crs": { "type": "name", "properties": { "name": "urn:ogc:def:crs:OGC:1.3:CRS84" } },
"xy_coordinate_resolution": 1e-15,
"features": [
{ "type": "Feature", "properties": { "fid": 269363, "navn": "Rogen", "hoyde_moh": 757, "arealInnsjo_km2": 35.5871, "magasinKategori": null, "fid_2": 705, "id": 705, "left": 12.486919847, "top": 62.446110046000001, "right": 12.986919847, "bottom": 61.946110046000001, "row_index": 24, "col_index": 17, "tile_id": 705 }, "geometry": { "type": "MultiPolygon", "coordinates": [ [ [ [ 12.487245985023746, 62.276567986184752 ], [ 12.487096739100185, 62.276353429474341 ], [ 12.487232807765645, 62.276217852322176 ], [ 12.488298344638846, 62.275942183584675 ], [ 12.488430237245758, 62.275832108013063 ], [ 12.488280694064599, 62.275682121458239 ], [ 12.48937500203578, 62.275364331969435 ], [ 12.48926767421575, 62.275236538808272 ], [ 12.488651295304454, 62.275216230227343 ], [ 12.489205667345761, 62.274708450729975 ], [ 12.490028572372584, 62.27450090394462 ], [ 12.489897400281654, 62.274059499889077 ], [ 12.489379229399717, 62.273880082126801 ], [ 12.489666347449406, 62.273606958290635 ], [ 12.490610368862988, 62.273221805598197 ], [ 12.491758246114546, 62.273431142915804 ], [ 12.491583406866805, 62.273079220818715 ], [ 12.49169313101706, 62.272998514248293 ], [ 12.492801721495388, 62.273008830461912 ], [ 12.493628469612423, 62.273266688157364 ], [ 12.494274429337146, 62.272851207455744 ], [ 12.494228454440185, 62.272399607526786 ], [ 12.494903788112765, 62.272254679920167 ], [ 12.49546291448959, 62.271906934326523 ], [ 12.495742318507787, 62.272028270782954 ], [ 12.495985796389119, 62.271942654074444 ], [ 12.495989428398547, 62.271703346622544 ], [ 12.495253830409508, 62.271733590179437 ], [ 12.49580700657582, 62.270982628746815 ], [ 12.496270354263473, 62.271075435241308 ], [ 12.496366106797398, 62.271235561566598 ], [ 12.496161296534218, 62.271581788970984 ], [ 12.496373179332231, 62.271613352837932 ], [ 12.497136905977495, 62.271379165111945 ], [ 12.497232922467688, 62.2711169510373 ], [ 12.496680906778918, 62.271114937397066 ], [ 12.496630823432897, 62.270994370272867 ], [ 12.497490164889093, 62.270463768896519 ], [ 12.49921633659673, 62.270251604651463 ], [ 12.499253854127648, 62.269915067959026 ], [ 12.499699929385418, 62.269616075797515 ], [ 12.499714503223391, 62.268937063502129 ], [ 12.500375626236769, 62.268539917495794 ], [ 12.500118683696408, 62.268114419387572 ], [ 12.500224509495244, 62.267820847709444 ], [ 12.49961425100884, 62.267903718084028 ], [ 12.498714266064848, 62.267647772261299 ], [ 12.498893386136249, 62.267047435049513 ], [ 12.499422404008488, 62.267109271665156 ], [ 12.499962286473432, 62.267641317650487 ], [ 12.500296802952311, 62.267114692174871 ], [ 12.500041784109383, 62.266894832150726 ], [ 12.500462009576813, 62.266788905790932 ], [ 12.500872405436523, 62.266898930800899 ], [ 12.500757201991203, 62.26711372268975 ], [ 12.500957328444596, 62.267418838344774 ], [ 12.501157345371642, 62.267431671627072 ], [ 12.501393051716697, 62.267215024999771 ], [ 12.5016104955738, 62.266537113739361 ], [ 12.502139280573688, 62.266120469310657 ], [ 12.501580397249276, 62.265255978713171 ], [ 12.501295988333238, 62.265112730311401 ], [ 12.50154114496412, 62.264867846602797 ], [ 12.501371712496802, 62.2644312802339 ], [ 12.500843097513998, 62.263967329951001 ], [ 12.500838214124229, 62.263554076486606 ], [ 12.501466941396753, 62.263650904391319 ], [ 12.501790510960133, 62.264068133613456 ], [ 12.501908930153833, 62.264038732360277 ], [ 12.501982356842712, 62.263485750924083 ], [ 12.503712123253266, 62.26393316152101 ], [ 12.50433513678929, 62.26365199513895 ], [ 12.504925377480221, 62.262908637266321 ], [ 12.506129530449369, 62.262027160785109 ], [ 12.506244606143385, 62.261479327102457 ], [ 12.507247952415671, 62.260850544214456 ], [ 12.507712906880254, 62.260065911897158 ], [ 12.507905749086484, 62.259954471077947 ], [ 12.508555888577083, 62.260042635084822 ], [ 12.509275822058752, 62.259541239143878 ], [ 12.509237545545172, 62.259253769307712 ], [ 12.509951394881714, 62.258877726262469 ], [ 12.509745029567171, 62.258590572661866 ], [ 12.511324204533791, 62.257480839372924 ], [ 12.511667701973005, 62.256596797628312 ], [ 12.512141869517389, 62.256375312254008 ], [ 12.513199323587054, 62.256325245903867 ], [ 12.513773715250277, 62.255829761397528 ], [ 12.514617167472544, 62.25540602041805 ], [ 12.51397616164018, 62.255137465612975 ], [ 12.513780456123676, 62.254556056701979 ], [ 12.514819431714248, 62.254277736084518 ], [ 12.514298601977874, 62.25392138950729 ], [ 12.514385065272187, 62.253814653894572 ], [ 12.51474883488957, 62.253747201419081 ], [ 12.515130291255321, 62.254026939188087 ], [ 12.51541152397478, 62.254016266954267 ], [ 12.516290080888895, 62.253795757224502 ], [ 12.516693720559251, 62.253366547992492 ], [ 12.515772716977105, 62.253591123029715 ], [ 12.514708817401344, 62.253630171335857 ], [ 12.514989510398003, 62.253398961030264 ], [ 12.516101192116173, 62.253081761276874 ], [ 12.515784522315428, 62.252976223497022 ], [ 12.515400125155445, 62.253075829533309 ], [ 12.515435809413587, 62.253231930138988 ], [ 12.513769312685724, 62.253374051128745 ], [ 12.513307878645989, 62.253635744172691 ], [ 12.512334530188848, 62.253502847247518 ], [ 12.511996394072217, 62.253690605078603 ], [ 12.511959524707748, 62.253982070519314 ], [ 12.511528217793968, 62.254140019162385 ], [ 12.511222943854593, 62.254748587784192 ], [ 12.510744294349697, 62.254869850717959 ], [ 12.510512248528469, 62.255097147780141 ], [ 12.510034939238233, 62.255164034180986 ], [ 12.509271652603072, 62.254904129996177 ], [ 12.507710776388755, 62.255074830009463 ], [ 12.507884723921835, 62.255556348048373 ], [ 12.507478377643212, 62.255938316401775 ], [ 12.507117853319416, 62.255863647409583 ], [ 12.506628134916642, 62.255226543192848 ], [ 12.505490787891445, 62.254887976048572 ], [ 12.503271934821685, 62.255211115134379 ], [ 12.502272114544203, 62.256061935137822 ], [ 12.502323279285765, 62.25638671378104 ], [ 12.503053867415678, 62.256716955757824 ], [ 12.503366428491084, 62.257196744018302 ], [ 12.504644067740655, 62.257561901575571 ], [ 12.504827178848164, 62.257707049890953 ], [ 12.504936319197794, 62.258155083829791 ], [ 12.506075999618849, 62.258529979296569 ], [ 12.506133453673311, 62.25907979061423 ], [ 12.505641803165656, 62.259191292477702 ], [ 12.505050631535198, 62.259076970882994 ], [ 12.503830482982336, 62.259400909952447 ], [ 12.502422289322704, 62.258938457507774 ], [ 12.501675836282841, 62.25890312644885 ], [ 12.501441159864813, 62.259011892728367 ], [ 12.501101513221165, 62.259549249867447 ], [ 12.499260914538603, 62.259924224784747 ], [ 12.499469507963886, 62.260148334133468 ], [ 12.499360972283009, 62.260285010702113 ], [ 12.497463032648756, 62.260685414711077 ], [ 12.497260028766451, 62.26056518855237 ], [ 12.497284967558226, 62.260368467282014 ], [ 12.496941073768685, 62.260368157208241 ], [ 12.496590575667394, 62.260595478834524 ], [ 12.496549426218186, 62.260854191553271 ], [ 12.496070811123669, 62.2609877374814 ], [ 12.495838137301824, 62.260896530726079 ], [ 12.494548841503228, 62.261897746089147 ], [ 12.493060060425369, 62.262241962812091 ], [ 12.492095837476983, 62.262655403512454 ], [ 12.492195023382102, 62.26282186436687 ], [ 12.491675116420705, 62.262942264735912 ], [ 12.492356296256274, 62.263419031417861 ], [ 12.492922776203773, 62.263215271765802 ], [ 12.492848347366031, 62.263443215101546 ], [ 12.493099553607751, 62.26361780973744 ], [ 12.491711567105696, 62.263857533208878 ], [ 12.491129413974109, 62.263322613406714 ], [ 12.491103760252996, 62.263585071890802 ], [ 12.489660085089399, 62.264151408722149 ], [ 12.489457742958924, 62.264413509442662 ], [ 12.4877964071145, 62.264816439825097 ], [ 12.486919847, 62.265481603098252 ], [ 12.486919847, 62.266294616967116 ], [ 12.487138076357445, 62.266297869524934 ], [ 12.487081103421371, 62.266393448137059 ], [ 12.48753888378182, 62.266831490697406 ], [ 12.487432803863374, 62.266901213070362 ], [ 12.486919847, 62.26689686057049 ], [ 12.486919847, 62.276678550509622 ], [ 12.487245985023746, 62.276567986184752 ] ], [ [ 12.512486224345187, 62.25565234124128 ], [ 12.512370345509938, 62.255363005436109 ], [ 12.512606556109784, 62.255168453110109 ], [ 12.512915476902709, 62.255175139484258 ], [ 12.51279763509867, 62.255354390629208 ], [ 12.513551463564676, 62.255531354113401 ], [ 12.51268820904105, 62.255810246939646 ], [ 12.512164691890076, 62.255759963127979 ], [ 12.512486224345187, 62.25565234124128 ] ], [ [ 12.505701114636491, 62.257600383781629 ], [ 12.506505603348918, 62.257502208950335 ], [ 12.507361904589791, 62.257062135108313 ], [ 12.508823311787131, 62.256651824876499 ], [ 12.507540721914818, 62.257316708657534 ], [ 12.507559661652424, 62.257595731076293 ], [ 12.50840033977151, 62.257887973097382 ], [ 12.508478552558676, 62.258081365269646 ], [ 12.508169695624266, 62.258735541531941 ], [ 12.507726860600384, 62.258827917274886 ], [ 12.507237746437216, 62.258691386420914 ], [ 12.506953576924523, 62.258446613478625 ], [ 12.506870128104975, 62.258103654479605 ], [ 12.505701114636491, 62.257600383781629 ] ], [ [ 12.508339208290597, 62.259060259399241 ], [ 12.508301516907087, 62.258936748825811 ], [ 12.508772738316962, 62.258967660772292 ], [ 12.508607496852921, 62.259139250314867 ], [ 12.508339208290597, 62.259060259399241 ] ], [ [ 12.500046304167926, 62.260504640423527 ], [ 12.49974526419788, 62.26052495741699 ], [ 12.499923348219852, 62.260378351931223 ], [ 12.500046304167926, 62.260504640423527 ] ], [ [ 12.497702460708116, 62.262707926911361 ], [ 12.497218409107612, 62.262652012714021 ], [ 12.497322008584202, 62.262489832121041 ], [ 12.497792460320936, 62.262598381481595 ], [ 12.497702460708116, 62.262707926911361 ] ], [ [ 12.499039914435965, 62.262843892060566 ], [ 12.498631948753818, 62.262761521414724 ], [ 12.498762476629761, 62.262749423116034 ], [ 12.499039914435965, 62.262843892060566 ] ], [ [ 12.493299186399726, 62.264051673136699 ], [ 12.493136621766464, 62.263934012512664 ], [ 12.493465059948983, 62.263635816754423 ], [ 12.49405383487753, 62.263883423377514 ], [ 12.493299186399726, 62.264051673136699 ] ], [ [ 12.490437586297379, 62.266220590445648 ], [ 12.490145811569308, 62.266031839804562 ], [ 12.490234142575854, 62.265810148388503 ], [ 12.490971798747273, 62.265614807738693 ], [ 12.491248713611135, 62.265703319289827 ], [ 12.49105525693693, 62.266033057950018 ], [ 12.490437586297379, 62.266220590445648 ] ], [ [ 12.489508796943005, 62.266381019913688 ], [ 12.489020291141664, 62.266295206777784 ], [ 12.489696921550541, 62.266037786913181 ], [ 12.489508796943005, 62.266381019913688 ] ], [ [ 12.499142750263676, 62.268525992657544 ], [ 12.50006420712629, 62.268196387554312 ], [ 12.500074786256082, 62.268376513945739 ], [ 12.499627749783231, 62.268553526713895 ], [ 12.499142750263676, 62.268525992657544 ] ], [ [ 12.498618146193492, 62.268640147291855 ], [ 12.498539620229213, 62.268586615070959 ], [ 12.498909997728477, 62.26831251317536 ], [ 12.498925207782515, 62.268544059036195 ], [ 12.498618146193492, 62.268640147291855 ] ], [ [ 12.497216524494064, 62.269792825440028 ], [ 12.496957644897821, 62.269816520171986 ], [ 12.497168347075357, 62.269685746519741 ], [ 12.497216524494064, 62.269792825440028 ] ], [ [ 12.488634869772312, 62.275350883334077 ], [ 12.488383421979556, 62.275446186872635 ], [ 12.488441158341768, 62.275296043234469 ], [ 12.488634869772312, 62.275350883334077 ] ] ] ] } }
]
}
