{
"type": "FeatureCollection",
"name": "innsjo_tile_id_184",
"crs": { "type": "name", "properties": { "name": "urn:ogc:def:crs:OGC:1.3:CRS84" } },
"xy_coordinate_resolution": 1e-15,
"features": [
{ "type": "Feature", "properties": { "fid": 4867, "navn": "Lomtjørna", "hoyde_moh": null, "arealInnsjo_km2": 0.0179, "magasinKategori": null, "fid_2": 184, "id": 184, "left": 5.986919847, "top": 62.946110046000001, "right": 6.486919847, "bottom": 62.446110046000001, "row_index": 23, "col_index": 4, "tile_id": 184 }, "geometry": { "type": "MultiPolygon", "coordinates": [ [ [ [ 6.464852461444972, 62.757995237168188 ], [ 6.465140199978778, 62.757838837864618 ], [ 6.462526422868143, 62.756794675817609 ], [ 6.461421424246326, 62.756657951426483 ], [ 6.460969631769717, 62.756901241674761 ], [ 6.46220211724173, 62.757830663786144 ], [ 6.464945295206252, 62.758284317984653 ], [ 6.464852461444972, 62.757995237168188 ] ] ] ] } },
{ "type": "Feature", "properties": { "fid": 11695, "navn": null, "hoyde_moh": 95, "arealInnsjo_km2": 0.0031, "magasinKategori": null, "fid_2": 184, "id": 184, "left": 5.986919847, "top": 62.946110046000001, "right": 6.486919847, "bottom": 62.446110046000001, "row_index": 23, "col_index": 4, "tile_id": 184 }, "geometry": { "type": "MultiPolygon", "coordinates": [ [ [ [ 6.369351939194669, 62.503505970482635 ], [ 6.369681189729357, 62.503306732267674 ], [ 6.367790521415913, 62.503157945979751 ], [ 6.368541385787535, 62.503350883407137 ], [ 6.36877980664527, 62.503654127915837 ], [ 6.369234214512872, 62.503818304566884 ], [ 6.369351939194669, 62.503505970482635 ] ] ] ] } },
{ "type": "Feature", "properties": { "fid": 16557, "navn": "Litlevatnet", "hoyde_moh": 404, "arealInnsjo_km2": 0.0027, "magasinKategori": null, "fid_2": 184, "id": 184, "left": 5.986919847, "top": 62.946110046000001, "right": 6.486919847, "bottom": 62.446110046000001, "row_index": 23, "col_index": 4, "tile_id": 184 }, "geometry": { "type": "MultiPolygon", "coordinates": [ [ [ [ 5.996702504930147, 62.478101161240005 ], [ 5.99616785807318, 62.477871304273272 ], [ 5.995641826549988, 62.478172133479845 ], [ 5.996286434454761, 62.478418815993422 ], [ 5.996969223904312, 62.478462580379862 ], [ 5.996702504930147, 62.478101161240005 ] ] ] ] } },
{ "type": "Feature", "properties": { "fid": 16640, "navn": null, "hoyde_moh": null, "arealInnsjo_km2": 0.0041, "magasinKategori": null, "fid_2": 184, "id": 184, "left": 5.986919847, "top": 62.946110046000001, "right": 6.486919847, "bottom": 62.446110046000001, "row_index": 23, "col_index": 4, "tile_id": 184 }, "geometry": { "type": "MultiPolygon", "coordinates": [ [ [ [ 6.474866233498824, 62.489658558003285 ], [ 6.474860588441191, 62.489496779672358 ], [ 6.474522157710686, 62.48936494233817 ], [ 6.472930333595214, 62.489362969424796 ], [ 6.473018507055148, 62.489696857405775 ], [ 6.474866233498824, 62.489658558003285 ] ] ] ] } },
{ "type": "Feature", "properties": { "fid": 38411, "navn": "Røssevollsvatnet", "hoyde_moh": 295, "arealInnsjo_km2": 0.1301, "magasinKategori": 2, "fid_2": 184, "id": 184, "left": 5.986919847, "top": 62.946110046000001, "right": 6.486919847, "bottom": 62.446110046000001, "row_index": 23, "col_index": 4, "tile_id": 184 }, "geometry": { "type": "MultiPolygon", "coordinates": [ [ [ [ 6.450472457329509, 62.451807707530193 ], [ 6.450560004919056, 62.451586180323972 ], [ 6.45135241375667, 62.45154981727417 ], [ 6.449630281037948, 62.450877073123756 ], [ 6.449498666706982, 62.450483198077272 ], [ 6.449923049999946, 62.450171532027177 ], [ 6.446568904904606, 62.449917693788841 ], [ 6.445981043746018, 62.449734851158553 ], [ 6.444750693764319, 62.449741144854343 ], [ 6.443097735993787, 62.449256333579413 ], [ 6.440372242246528, 62.449150314360686 ], [ 6.43962915304192, 62.448933726079375 ], [ 6.438273736937134, 62.448194415875108 ], [ 6.435360084333631, 62.447358536503422 ], [ 6.432774630087639, 62.446937868532061 ], [ 6.429732151326784, 62.446931537486208 ], [ 6.429522066878914, 62.447043928869626 ], [ 6.430150123901092, 62.447752957805811 ], [ 6.432950208315893, 62.448404765983142 ], [ 6.43463390702035, 62.448988636255933 ], [ 6.4353667758104, 62.448991596302058 ], [ 6.436317271712504, 62.448673930140572 ], [ 6.437468556432144, 62.448645478987537 ], [ 6.439043619121384, 62.44901036315278 ], [ 6.439096770424656, 62.449252329227704 ], [ 6.439867857262685, 62.449209295605343 ], [ 6.441939380336214, 62.449605193875392 ], [ 6.443403720653472, 62.450090741122871 ], [ 6.443463352320599, 62.450389566855129 ], [ 6.44393047357274, 62.450724139620199 ], [ 6.447070892010708, 62.451478781053318 ], [ 6.447568887134907, 62.451799797680351 ], [ 6.449830200092403, 62.452036634679587 ], [ 6.450472457329509, 62.451807707530193 ] ] ] ] } },
{ "type": "Feature", "properties": { "fid": 38412, "navn": null, "hoyde_moh": 390, "arealInnsjo_km2": 0.037, "magasinKategori": 2, "fid_2": 184, "id": 184, "left": 5.986919847, "top": 62.946110046000001, "right": 6.486919847, "bottom": 62.446110046000001, "row_index": 23, "col_index": 4, "tile_id": 184 }, "geometry": { "type": "MultiPolygon", "coordinates": [ [ [ [ 6.444293141320623, 62.460317716034432 ], [ 6.446366205788848, 62.460346645701442 ], [ 6.446908695004081, 62.459898543255235 ], [ 6.446903078723481, 62.459512264908675 ], [ 6.446627269396477, 62.459336596740414 ], [ 6.444683467299755, 62.459157195448718 ], [ 6.443661654251554, 62.458860186834116 ], [ 6.444058655521317, 62.45875055568542 ], [ 6.444054591976378, 62.458570979462287 ], [ 6.441684475335504, 62.458617338121911 ], [ 6.440947988700074, 62.458837340020786 ], [ 6.440990997092071, 62.45901778795978 ], [ 6.441677121723662, 62.459156035772629 ], [ 6.442362245415864, 62.459536782029787 ], [ 6.443904673121992, 62.459645981465592 ], [ 6.443898736816917, 62.459942201633176 ], [ 6.442535640436241, 62.460231642523141 ], [ 6.442777020875424, 62.460586325057456 ], [ 6.443413044066335, 62.460633837026236 ], [ 6.444293141320623, 62.460317716034432 ] ] ] ] } },
{ "type": "Feature", "properties": { "fid": 39226, "navn": "Ryssdalstjørna", "hoyde_moh": 329, "arealInnsjo_km2": 0.0222, "magasinKategori": null, "fid_2": 184, "id": 184, "left": 5.986919847, "top": 62.946110046000001, "right": 6.486919847, "bottom": 62.446110046000001, "row_index": 23, "col_index": 4, "tile_id": 184 }, "geometry": { "type": "MultiPolygon", "coordinates": [ [ [ [ 6.404363047605809, 62.580065554502944 ], [ 6.405028395366093, 62.579450619909423 ], [ 6.405370815807609, 62.578764476525315 ], [ 6.405169511735025, 62.578331182833004 ], [ 6.40432390166285, 62.578078377087103 ], [ 6.403017636794575, 62.578608288030033 ], [ 6.402889598781586, 62.579291343318992 ], [ 6.403163134831113, 62.580173803416635 ], [ 6.404363047605809, 62.580065554502944 ] ] ] ] } },
{ "type": "Feature", "properties": { "fid": 39276, "navn": "Urkedalsvatnet", "hoyde_moh": 273, "arealInnsjo_km2": 0.1595, "magasinKategori": null, "fid_2": 184, "id": 184, "left": 5.986919847, "top": 62.946110046000001, "right": 6.486919847, "bottom": 62.446110046000001, "row_index": 23, "col_index": 4, "tile_id": 184 }, "geometry": { "type": "MultiPolygon", "coordinates": [ [ [ [ 6.416584798394807, 62.556930515020284 ], [ 6.416614950226343, 62.556720067203692 ], [ 6.417660776649396, 62.55631763491472 ], [ 6.417788512007761, 62.556057566839151 ], [ 6.418110022777979, 62.555894672620639 ], [ 6.418139003381947, 62.5555769128203 ], [ 6.418881815069552, 62.55489970476355 ], [ 6.417681981004031, 62.554610154177766 ], [ 6.417518101714359, 62.554409304149182 ], [ 6.419007906603504, 62.554139926237006 ], [ 6.419836883038077, 62.553741696712436 ], [ 6.420907955366367, 62.552933171290789 ], [ 6.422122612259357, 62.552371028748006 ], [ 6.421877367633163, 62.552177353647068 ], [ 6.422147264926028, 62.551833826862435 ], [ 6.421887931252876, 62.55150855226551 ], [ 6.421493538714164, 62.551333847188907 ], [ 6.420398836351255, 62.551310462900055 ], [ 6.418686837447496, 62.552452218538392 ], [ 6.416998063685529, 62.552389736029355 ], [ 6.41505753633622, 62.552829163723572 ], [ 6.413633892986912, 62.552787102226262 ], [ 6.41262011710197, 62.55314341922881 ], [ 6.412479659063722, 62.553412815635582 ], [ 6.412499311991493, 62.554135896043768 ], [ 6.41310412520343, 62.555793752304872 ], [ 6.414281840188081, 62.55670770966492 ], [ 6.416584798394807, 62.556930515020284 ] ], [ [ 6.421474600369153, 62.551629278640611 ], [ 6.421899737252243, 62.551712828366654 ], [ 6.42175799490024, 62.551793962585073 ], [ 6.421474600369153, 62.551629278640611 ] ] ] ] } },
{ "type": "Feature", "properties": { "fid": 39277, "navn": "Gjersetvatnet", "hoyde_moh": 148, "arealInnsjo_km2": 0.5665, "magasinKategori": 2, "fid_2": 184, "id": 184, "left": 5.986919847, "top": 62.946110046000001, "right": 6.486919847, "bottom": 62.446110046000001, "row_index": 23, "col_index": 4, "tile_id": 184 }, "geometry": { "type": "MultiPolygon", "coordinates": [ [ [ [ 6.433239141992271, 62.561699786990864 ], [ 6.433876847239842, 62.561073841486788 ], [ 6.434348814911963, 62.559887932574419 ], [ 6.435935901600408, 62.558408262917361 ], [ 6.437684929186507, 62.554821030206192 ], [ 6.437643097207955, 62.553041954589652 ], [ 6.437889836783217, 62.551986704151723 ], [ 6.437603451343113, 62.551694128565536 ], [ 6.437400401784052, 62.551115699045404 ], [ 6.43702255598361, 62.550758486597445 ], [ 6.43687585637382, 62.548842847681613 ], [ 6.437309078437555, 62.547880863224016 ], [ 6.437177776512049, 62.54669289059953 ], [ 6.436892973979584, 62.545933247645536 ], [ 6.436540731908215, 62.545504704048611 ], [ 6.435377609467052, 62.545007335208737 ], [ 6.432578047404285, 62.544516462142084 ], [ 6.431976747002274, 62.544549632001534 ], [ 6.431072976004094, 62.544868492671434 ], [ 6.43003493468231, 62.545417113103902 ], [ 6.429644034329645, 62.545854000096632 ], [ 6.430259285862382, 62.54751780826173 ], [ 6.430889634007306, 62.548104113919671 ], [ 6.431652835872043, 62.549368963491581 ], [ 6.431569472855325, 62.550370965149433 ], [ 6.429212782529105, 62.550744503686232 ], [ 6.429140147203933, 62.551242420236491 ], [ 6.428945987728657, 62.551463338602716 ], [ 6.429234114303022, 62.552411577247334 ], [ 6.430187890039941, 62.554431997850514 ], [ 6.430928159502709, 62.555550068558723 ], [ 6.431833678902138, 62.557686382738574 ], [ 6.431977842420376, 62.558721851133718 ], [ 6.431881273085151, 62.560067248859994 ], [ 6.431687070925331, 62.560288170470905 ], [ 6.43187222271577, 62.560848432183775 ], [ 6.432166385800187, 62.561051426164312 ], [ 6.432417392612682, 62.561522967368916 ], [ 6.432304840076269, 62.561700594261943 ], [ 6.43289455953375, 62.561803201347502 ], [ 6.433239141992271, 62.561699786990864 ] ] ] ] } },
{ "type": "Feature", "properties": { "fid": 39279, "navn": "Tredjevatnet", "hoyde_moh": 220, "arealInnsjo_km2": 0.0535, "magasinKategori": null, "fid_2": 184, "id": 184, "left": 5.986919847, "top": 62.946110046000001, "right": 6.486919847, "bottom": 62.446110046000001, "row_index": 23, "col_index": 4, "tile_id": 184 }, "geometry": { "type": "MultiPolygon", "coordinates": [ [ [ [ 6.375782618999593, 62.572467445938607 ], [ 6.377075453893132, 62.571831418239618 ], [ 6.377912561541139, 62.57161866291478 ], [ 6.379198875107658, 62.570933515263754 ], [ 6.379048175870639, 62.570638380362666 ], [ 6.379263402275222, 62.570142252137494 ], [ 6.378307499788504, 62.569718433498601 ], [ 6.378103093338098, 62.569468481052354 ], [ 6.37600775515698, 62.56973881050606 ], [ 6.374938071005502, 62.569582929788332 ], [ 6.375347920533545, 62.569977108784997 ], [ 6.37538699284582, 62.570386839687565 ], [ 6.375189217369568, 62.571000782873917 ], [ 6.374297861254811, 62.571876495562314 ], [ 6.374837305956193, 62.572482376618858 ], [ 6.375782618999593, 62.572467445938607 ] ] ] ] } },
{ "type": "Feature", "properties": { "fid": 39280, "navn": "Søvikvatnet", "hoyde_moh": 291, "arealInnsjo_km2": 0.2892, "magasinKategori": null, "fid_2": 184, "id": 184, "left": 5.986919847, "top": 62.946110046000001, "right": 6.486919847, "bottom": 62.446110046000001, "row_index": 23, "col_index": 4, "tile_id": 184 }, "geometry": { "type": "MultiPolygon", "coordinates": [ [ [ [ 6.346356645285875, 62.572615625913834 ], [ 6.34694483147176, 62.572572944433276 ], [ 6.347539691157529, 62.572233858944735 ], [ 6.347680057249126, 62.571967201344442 ], [ 6.348208806263282, 62.571716699409357 ], [ 6.348996421388198, 62.570959256480556 ], [ 6.349196615526791, 62.570460046779658 ], [ 6.348382507733175, 62.56801970478358 ], [ 6.346839993373512, 62.56763110818963 ], [ 6.344930534359823, 62.566777600839693 ], [ 6.343639600182635, 62.565971660271423 ], [ 6.342712101036733, 62.565900189798697 ], [ 6.341881643179756, 62.56626160611539 ], [ 6.339790958817028, 62.56634753650993 ], [ 6.339537391603208, 62.566567280124062 ], [ 6.339336884154158, 62.567290997967042 ], [ 6.339387174703905, 62.568252906835966 ], [ 6.33961512375317, 62.569622470375663 ], [ 6.339899902273407, 62.57013981145839 ], [ 6.340881943705399, 62.570697379320862 ], [ 6.340577294557096, 62.570835331073944 ], [ 6.340479744881565, 62.571057939872041 ], [ 6.341398588810184, 62.571668214741095 ], [ 6.341946442660799, 62.57141820288286 ], [ 6.342237687057779, 62.57164824597357 ], [ 6.342722648346354, 62.571666372315235 ], [ 6.342865538224443, 62.572899604270823 ], [ 6.344263575411341, 62.573599632245489 ], [ 6.346356645285875, 62.572615625913834 ] ] ] ] } },
{ "type": "Feature", "properties": { "fid": 57556, "navn": null, "hoyde_moh": null, "arealInnsjo_km2": 0.004, "magasinKategori": null, "fid_2": 184, "id": 184, "left": 5.986919847, "top": 62.946110046000001, "right": 6.486919847, "bottom": 62.446110046000001, "row_index": 23, "col_index": 4, "tile_id": 184 }, "geometry": { "type": "MultiPolygon", "coordinates": [ [ [ [ 6.195758855067067, 62.491272003147522 ], [ 6.194985823727569, 62.491022970392756 ], [ 6.193154668995708, 62.490878304037771 ], [ 6.193880166385122, 62.491009730532483 ], [ 6.19372930301912, 62.491168331276349 ], [ 6.193988080280225, 62.491308140885302 ], [ 6.194833326884237, 62.491406141804831 ], [ 6.195758855067067, 62.491272003147522 ] ] ] ] } },
{ "type": "Feature", "properties": { "fid": 57578, "navn": null, "hoyde_moh": 428, "arealInnsjo_km2": 0.0073, "magasinKategori": null, "fid_2": 184, "id": 184, "left": 5.986919847, "top": 62.946110046000001, "right": 6.486919847, "bottom": 62.446110046000001, "row_index": 23, "col_index": 4, "tile_id": 184 }, "geometry": { "type": "MultiPolygon", "coordinates": [ [ [ [ 6.343980258919505, 62.547416055616793 ], [ 6.344423325384489, 62.547121842822733 ], [ 6.342540521688385, 62.546799749834804 ], [ 6.341113258289228, 62.547035627802536 ], [ 6.342672079130862, 62.547378732996066 ], [ 6.343980258919505, 62.547416055616793 ] ] ] ] } },
{ "type": "Feature", "properties": { "fid": 57602, "navn": null, "hoyde_moh": 3, "arealInnsjo_km2": 0.0033, "magasinKategori": null, "fid_2": 184, "id": 184, "left": 5.986919847, "top": 62.946110046000001, "right": 6.486919847, "bottom": 62.446110046000001, "row_index": 23, "col_index": 4, "tile_id": 184 }, "geometry": { "type": "MultiPolygon", "coordinates": [ [ [ [ 6.279384190585073, 62.514540157479836 ], [ 6.279469000972846, 62.514501122732938 ], [ 6.278620843081059, 62.514022433633194 ], [ 6.277444552945425, 62.514502102203288 ], [ 6.279384190585073, 62.514540157479836 ] ] ] ] } },
{ "type": "Feature", "properties": { "fid": 57776, "navn": null, "hoyde_moh": null, "arealInnsjo_km2": 0.0169, "magasinKategori": null, "fid_2": 184, "id": 184, "left": 5.986919847, "top": 62.946110046000001, "right": 6.486919847, "bottom": 62.446110046000001, "row_index": 23, "col_index": 4, "tile_id": 184 }, "geometry": { "type": "MultiPolygon", "coordinates": [ [ [ [ 6.448099963597966, 62.742155173602576 ], [ 6.448967862839708, 62.741719893142239 ], [ 6.44876196198768, 62.741520709906482 ], [ 6.447503259578676, 62.741129500344663 ], [ 6.445186914731426, 62.740970464447798 ], [ 6.444754685306403, 62.741062575658368 ], [ 6.445734710017781, 62.741654179870011 ], [ 6.448099963597966, 62.742155173602576 ] ] ] ] } },
{ "type": "Feature", "properties": { "fid": 58287, "navn": null, "hoyde_moh": null, "arealInnsjo_km2": 0.0026, "magasinKategori": null, "fid_2": 184, "id": 184, "left": 5.986919847, "top": 62.946110046000001, "right": 6.486919847, "bottom": 62.446110046000001, "row_index": 23, "col_index": 4, "tile_id": 184 }, "geometry": { "type": "MultiPolygon", "coordinates": [ [ [ [ 6.479911011994763, 62.492686556065756 ], [ 6.479959733489872, 62.492570668525346 ], [ 6.478735571621963, 62.492350981543609 ], [ 6.478403809706692, 62.492829965936401 ], [ 6.479911011994763, 62.492686556065756 ] ] ] ] } },
{ "type": "Feature", "properties": { "fid": 76603, "navn": null, "hoyde_moh": null, "arealInnsjo_km2": 0.017, "magasinKategori": 2, "fid_2": 184, "id": 184, "left": 5.986919847, "top": 62.946110046000001, "right": 6.486919847, "bottom": 62.446110046000001, "row_index": 23, "col_index": 4, "tile_id": 184 }, "geometry": { "type": "MultiPolygon", "coordinates": [ [ [ [ 6.113846169585347, 62.521624305935291 ], [ 6.114178731096696, 62.521200010336528 ], [ 6.114036816056467, 62.520658170102742 ], [ 6.115579618520789, 62.519378549954354 ], [ 6.115678859735896, 62.519156049195303 ], [ 6.115564813964403, 62.518929280058963 ], [ 6.114605740214954, 62.519196732855185 ], [ 6.114026352165117, 62.520163892906226 ], [ 6.112528274334363, 62.521381469645391 ], [ 6.112044225357456, 62.521964262890641 ], [ 6.112549393285049, 62.522141177157181 ], [ 6.113846169585347, 62.521624305935291 ] ] ] ] } },
{ "type": "Feature", "properties": { "fid": 77425, "navn": null, "hoyde_moh": 365, "arealInnsjo_km2": 0.0061, "magasinKategori": null, "fid_2": 184, "id": 184, "left": 5.986919847, "top": 62.946110046000001, "right": 6.486919847, "bottom": 62.446110046000001, "row_index": 23, "col_index": 4, "tile_id": 184 }, "geometry": { "type": "MultiPolygon", "coordinates": [ [ [ [ 6.406635461070311, 62.575426057243554 ], [ 6.406612888703947, 62.575181717159488 ], [ 6.406836724039523, 62.574951537804871 ], [ 6.406109387011841, 62.574846636946695 ], [ 6.405206465402489, 62.57512252282838 ], [ 6.405084722988273, 62.575454876315433 ], [ 6.405446035618244, 62.575841062533172 ], [ 6.406635461070311, 62.575426057243554 ] ] ] ] } },
{ "type": "Feature", "properties": { "fid": 77569, "navn": "Regnvatnet", "hoyde_moh": null, "arealInnsjo_km2": 0.0048, "magasinKategori": null, "fid_2": 184, "id": 184, "left": 5.986919847, "top": 62.946110046000001, "right": 6.486919847, "bottom": 62.446110046000001, "row_index": 23, "col_index": 4, "tile_id": 184 }, "geometry": { "type": "MultiPolygon", "coordinates": [ [ [ [ 6.484164848367232, 62.491748541034205 ], [ 6.483836288641257, 62.491499809704926 ], [ 6.482140795041651, 62.491343700257012 ], [ 6.481898349352855, 62.491456176300254 ], [ 6.481886885997293, 62.491590613802138 ], [ 6.482375091302608, 62.491788002290576 ], [ 6.484164848367232, 62.491748541034205 ] ] ] ] } },
{ "type": "Feature", "properties": { "fid": 77570, "navn": null, "hoyde_moh": null, "arealInnsjo_km2": 0.0057, "magasinKategori": null, "fid_2": 184, "id": 184, "left": 5.986919847, "top": 62.946110046000001, "right": 6.486919847, "bottom": 62.446110046000001, "row_index": 23, "col_index": 4, "tile_id": 184 }, "geometry": { "type": "MultiPolygon", "coordinates": [ [ [ [ 6.478403242922854, 62.492147442857402 ], [ 6.478790840792314, 62.491696372014587 ], [ 6.477924114065607, 62.491384280864132 ], [ 6.476942656054824, 62.491968310463761 ], [ 6.477383775431625, 62.492263547662319 ], [ 6.478403242922854, 62.492147442857402 ] ] ] ] } },
{ "type": "Feature", "properties": { "fid": 77571, "navn": "Tremannsvatna", "hoyde_moh": null, "arealInnsjo_km2": 0.005, "magasinKategori": null, "fid_2": 184, "id": 184, "left": 5.986919847, "top": 62.946110046000001, "right": 6.486919847, "bottom": 62.446110046000001, "row_index": 23, "col_index": 4, "tile_id": 184 }, "geometry": { "type": "MultiPolygon", "coordinates": [ [ [ [ 6.477328233240087, 62.492460227568792 ], [ 6.476126283041737, 62.492438544019237 ], [ 6.476117239381619, 62.492546120489187 ], [ 6.477280564639524, 62.493025059579253 ], [ 6.478828584065635, 62.493089051965995 ], [ 6.477328233240087, 62.492460227568792 ] ] ] ] } },
{ "type": "Feature", "properties": { "fid": 81063, "navn": null, "hoyde_moh": 505, "arealInnsjo_km2": 0.0063, "magasinKategori": null, "fid_2": 184, "id": 184, "left": 5.986919847, "top": 62.946110046000001, "right": 6.486919847, "bottom": 62.446110046000001, "row_index": 23, "col_index": 4, "tile_id": 184 }, "geometry": { "type": "MultiPolygon", "coordinates": [ [ [ [ 6.342448526215867, 62.550868872117967 ], [ 6.343139006116787, 62.550555486369753 ], [ 6.342478027047405, 62.550388935546387 ], [ 6.340220432205388, 62.550363572063176 ], [ 6.339976974112072, 62.550566682141529 ], [ 6.341526092403935, 62.550859943219699 ], [ 6.342448526215867, 62.550868872117967 ] ] ] ] } },
{ "type": "Feature", "properties": { "fid": 81095, "navn": null, "hoyde_moh": 302, "arealInnsjo_km2": 0.0043, "magasinKategori": null, "fid_2": 184, "id": 184, "left": 5.986919847, "top": 62.946110046000001, "right": 6.486919847, "bottom": 62.446110046000001, "row_index": 23, "col_index": 4, "tile_id": 184 }, "geometry": { "type": "MultiPolygon", "coordinates": [ [ [ [ 6.419751381823919, 62.549527239666055 ], [ 6.418924282556739, 62.549381701840758 ], [ 6.418202664292853, 62.549477035332139 ], [ 6.417942540563408, 62.549859646697861 ], [ 6.419066079842509, 62.550039144856086 ], [ 6.419751381823919, 62.549527239666055 ] ] ] ] } },
{ "type": "Feature", "properties": { "fid": 81494, "navn": null, "hoyde_moh": 228, "arealInnsjo_km2": 0.0018, "magasinKategori": null, "fid_2": 184, "id": 184, "left": 5.986919847, "top": 62.946110046000001, "right": 6.486919847, "bottom": 62.446110046000001, "row_index": 23, "col_index": 4, "tile_id": 184 }, "geometry": { "type": "MultiPolygon", "coordinates": [ [ [ [ 6.399585671848111, 62.594622581632414 ], [ 6.40018663039243, 62.594447636009384 ], [ 6.399552348310396, 62.594152243116461 ], [ 6.399188244023956, 62.594300014575673 ], [ 6.399228523967073, 62.594582949437594 ], [ 6.399585671848111, 62.594622581632414 ] ] ] ] } },
{ "type": "Feature", "properties": { "fid": 81759, "navn": "Svartevatnet", "hoyde_moh": null, "arealInnsjo_km2": 0.0089, "magasinKategori": null, "fid_2": 184, "id": 184, "left": 5.986919847, "top": 62.946110046000001, "right": 6.486919847, "bottom": 62.446110046000001, "row_index": 23, "col_index": 4, "tile_id": 184 }, "geometry": { "type": "MultiPolygon", "coordinates": [ [ [ [ 6.471569251756221, 62.490532931860407 ], [ 6.471285768800767, 62.490213404407712 ], [ 6.470444840605337, 62.490054433755986 ], [ 6.469434529826943, 62.489605079232028 ], [ 6.468268899505377, 62.489610941843651 ], [ 6.468611864015442, 62.489922484457765 ], [ 6.469392675143349, 62.49009827386989 ], [ 6.470115618595888, 62.490506548455592 ], [ 6.471478936055343, 62.490684019566253 ], [ 6.471569251756221, 62.490532931860407 ] ] ] ] } },
{ "type": "Feature", "properties": { "fid": 87908, "navn": "Litle Grytavatnet", "hoyde_moh": 248, "arealInnsjo_km2": 0.0256, "magasinKategori": null, "fid_2": 184, "id": 184, "left": 5.986919847, "top": 62.946110046000001, "right": 6.486919847, "bottom": 62.446110046000001, "row_index": 23, "col_index": 4, "tile_id": 184 }, "geometry": { "type": "MultiPolygon", "coordinates": [ [ [ [ 6.385558948509631, 62.567114157843207 ], [ 6.385848142696423, 62.56692347976329 ], [ 6.38576713338773, 62.566495887784612 ], [ 6.386159966773622, 62.566199514421967 ], [ 6.385994685334054, 62.56563035708816 ], [ 6.385631694148397, 62.565382867341199 ], [ 6.385749575507981, 62.56515843279243 ], [ 6.384648728496833, 62.564569718868945 ], [ 6.384424529777973, 62.564587159581272 ], [ 6.384377898441693, 62.564878175102095 ], [ 6.383982521466447, 62.565265910245508 ], [ 6.383878598868849, 62.566293610106783 ], [ 6.383637472863046, 62.566508137908023 ], [ 6.384073058199649, 62.566789410758737 ], [ 6.383800633119808, 62.566994407569517 ], [ 6.384023571342031, 62.56716409439246 ], [ 6.385558948509631, 62.567114157843207 ] ] ] ] } },
{ "type": "Feature", "properties": { "fid": 88581, "navn": null, "hoyde_moh": null, "arealInnsjo_km2": 0.011, "magasinKategori": null, "fid_2": 184, "id": 184, "left": 5.986919847, "top": 62.946110046000001, "right": 6.486919847, "bottom": 62.446110046000001, "row_index": 23, "col_index": 4, "tile_id": 184 }, "geometry": { "type": "MultiPolygon", "coordinates": [ [ [ [ 6.269090457866927, 62.465924629456751 ], [ 6.269041328618805, 62.465609232109408 ], [ 6.267163088943569, 62.464934791576169 ], [ 6.266531646855247, 62.46504823079357 ], [ 6.266337128023587, 62.465268834108819 ], [ 6.266511521406868, 62.465694426463585 ], [ 6.268559646480156, 62.466039000779979 ], [ 6.269090457866927, 62.465924629456751 ] ] ] ] } },
{ "type": "Feature", "properties": { "fid": 91328, "navn": null, "hoyde_moh": null, "arealInnsjo_km2": 0.0027, "magasinKategori": null, "fid_2": 184, "id": 184, "left": 5.986919847, "top": 62.946110046000001, "right": 6.486919847, "bottom": 62.446110046000001, "row_index": 23, "col_index": 4, "tile_id": 184 }, "geometry": { "type": "MultiPolygon", "coordinates": [ [ [ [ 6.110055476147108, 62.504775655659493 ], [ 6.109463986760114, 62.504664586908007 ], [ 6.108744501726833, 62.505071813745388 ], [ 6.10962515887857, 62.505206949919099 ], [ 6.109906072438919, 62.50511388400723 ], [ 6.110055476147108, 62.504775655659493 ] ] ] ] } },
{ "type": "Feature", "properties": { "fid": 118133, "navn": null, "hoyde_moh": 228, "arealInnsjo_km2": 0.0098, "magasinKategori": null, "fid_2": 184, "id": 184, "left": 5.986919847, "top": 62.946110046000001, "right": 6.486919847, "bottom": 62.446110046000001, "row_index": 23, "col_index": 4, "tile_id": 184 }, "geometry": { "type": "MultiPolygon", "coordinates": [ [ [ [ 6.403220089119369, 62.594654124534927 ], [ 6.40311900668159, 62.594462748134511 ], [ 6.403326688197803, 62.594113662363632 ], [ 6.402954865787879, 62.593740741653271 ], [ 6.402342360131472, 62.59379997032017 ], [ 6.400678577588338, 62.594496872461391 ], [ 6.400918217699525, 62.594645869055242 ], [ 6.403220089119369, 62.594654124534927 ] ] ] ] } },
{ "type": "Feature", "properties": { "fid": 118315, "navn": "Litlevatnet", "hoyde_moh": 348, "arealInnsjo_km2": 0.0039, "magasinKategori": null, "fid_2": 184, "id": 184, "left": 5.986919847, "top": 62.946110046000001, "right": 6.486919847, "bottom": 62.446110046000001, "row_index": 23, "col_index": 4, "tile_id": 184 }, "geometry": { "type": "MultiPolygon", "coordinates": [ [ [ [ 6.334239686545955, 62.565985461455107 ], [ 6.334630621053475, 62.565950585740836 ], [ 6.334680735726616, 62.565508433774795 ], [ 6.334135593894874, 62.565502873017593 ], [ 6.333634342707911, 62.565783771272287 ], [ 6.333409690691061, 62.56625740702097 ], [ 6.333763988537568, 62.56634349396758 ], [ 6.334239686545955, 62.565985461455107 ] ] ] ] } },
{ "type": "Feature", "properties": { "fid": 119417, "navn": "Flemsdemma", "hoyde_moh": 258, "arealInnsjo_km2": 0.0038, "magasinKategori": null, "fid_2": 184, "id": 184, "left": 5.986919847, "top": 62.946110046000001, "right": 6.486919847, "bottom": 62.446110046000001, "row_index": 23, "col_index": 4, "tile_id": 184 }, "geometry": { "type": "MultiPolygon", "coordinates": [ [ [ [ 6.278798464160778, 62.678495789078362 ], [ 6.279203674328053, 62.678562740746266 ], [ 6.278839868269612, 62.67828918360815 ], [ 6.278012480285107, 62.677944020022998 ], [ 6.277625066335473, 62.677958967414433 ], [ 6.277444243884902, 62.678088068642374 ], [ 6.277509876971468, 62.678303639512222 ], [ 6.277978233533056, 62.678572003001889 ], [ 6.278873203776687, 62.678750967734793 ], [ 6.278798464160778, 62.678495789078362 ] ], [ [ 6.277579837119299, 62.678085629559732 ], [ 6.27771253600889, 62.678020023244194 ], [ 6.278146593537909, 62.678091767840172 ], [ 6.277623865766717, 62.678259362361068 ], [ 6.277579837119299, 62.678085629559732 ] ] ] ] } },
{ "type": "Feature", "properties": { "fid": 124366, "navn": null, "hoyde_moh": 100, "arealInnsjo_km2": 0.0071, "magasinKategori": null, "fid_2": 184, "id": 184, "left": 5.986919847, "top": 62.946110046000001, "right": 6.486919847, "bottom": 62.446110046000001, "row_index": 23, "col_index": 4, "tile_id": 184 }, "geometry": { "type": "MultiPolygon", "coordinates": [ [ [ [ 6.448601449571432, 62.737166591239856 ], [ 6.447646562431268, 62.736588380078835 ], [ 6.447323601279345, 62.736115228292832 ], [ 6.446747229605441, 62.736112946446269 ], [ 6.446076601352489, 62.736598250847855 ], [ 6.446731838700185, 62.736699600804783 ], [ 6.448352523948243, 62.737393630526469 ], [ 6.448601449571432, 62.737166591239856 ] ] ] ] } },
{ "type": "Feature", "properties": { "fid": 129637, "navn": null, "hoyde_moh": null, "arealInnsjo_km2": 0.0069, "magasinKategori": 2, "fid_2": 184, "id": 184, "left": 5.986919847, "top": 62.946110046000001, "right": 6.486919847, "bottom": 62.446110046000001, "row_index": 23, "col_index": 4, "tile_id": 184 }, "geometry": { "type": "MultiPolygon", "coordinates": [ [ [ [ 6.070835260117017, 62.565650848872032 ], [ 6.070373208695433, 62.56460815683193 ], [ 6.069182020362025, 62.565238933934438 ], [ 6.069347232796029, 62.565538829213395 ], [ 6.069949633504451, 62.565748981704189 ], [ 6.070724723271618, 62.565783215745135 ], [ 6.070835260117017, 62.565650848872032 ] ] ] ] } },
{ "type": "Feature", "properties": { "fid": 140093, "navn": null, "hoyde_moh": null, "arealInnsjo_km2": 0.0079, "magasinKategori": null, "fid_2": 184, "id": 184, "left": 5.986919847, "top": 62.946110046000001, "right": 6.486919847, "bottom": 62.446110046000001, "row_index": 23, "col_index": 4, "tile_id": 184 }, "geometry": { "type": "MultiPolygon", "coordinates": [ [ [ [ 6.18737543720606, 62.632112972276609 ], [ 6.187475725264627, 62.631881360841518 ], [ 6.186932006547972, 62.631439287721726 ], [ 6.18649676889534, 62.631709045885302 ], [ 6.185853221888185, 62.631705124598298 ], [ 6.185897282961847, 62.631238849600599 ], [ 6.185762890012154, 62.631218218848616 ], [ 6.185325833339903, 62.631505843840706 ], [ 6.184829465686133, 62.631594668713021 ], [ 6.184890606926171, 62.631775508034593 ], [ 6.186003799031475, 62.632175062107805 ], [ 6.18737543720606, 62.632112972276609 ] ] ] ] } },
{ "type": "Feature", "properties": { "fid": 140214, "navn": "Rørvikvatnet", "hoyde_moh": null, "arealInnsjo_km2": 0.0163, "magasinKategori": null, "fid_2": 184, "id": 184, "left": 5.986919847, "top": 62.946110046000001, "right": 6.486919847, "bottom": 62.446110046000001, "row_index": 23, "col_index": 4, "tile_id": 184 }, "geometry": { "type": "MultiPolygon", "coordinates": [ [ [ [ 6.117002881559464, 62.552903519406875 ], [ 6.117714213608787, 62.552792326646461 ], [ 6.116700157364069, 62.552412133005426 ], [ 6.11615337002557, 62.552032474755833 ], [ 6.11616634046877, 62.551898085062966 ], [ 6.117184768222759, 62.552431138018498 ], [ 6.117526371037675, 62.552321312858311 ], [ 6.118445545182682, 62.552475061750464 ], [ 6.118443510958448, 62.552295421942631 ], [ 6.117099278895301, 62.55150416226018 ], [ 6.11567139738113, 62.55158248446515 ], [ 6.115675260403382, 62.551744254996507 ], [ 6.115101816220698, 62.552037811498998 ], [ 6.115223325175817, 62.55239060348358 ], [ 6.116118767934044, 62.552588765646803 ], [ 6.115331500165662, 62.552680264104673 ], [ 6.115339796261845, 62.552797305427198 ], [ 6.116450777301388, 62.553179466786275 ], [ 6.117376504443944, 62.553063834157093 ], [ 6.117002881559464, 62.552903519406875 ] ], [ [ 6.117184687214349, 62.551829241239304 ], [ 6.117322708996424, 62.552011802802802 ], [ 6.116992668882582, 62.552004953973061 ], [ 6.116849446311575, 62.551876201250387 ], [ 6.117184687214349, 62.551829241239304 ] ], [ [ 6.11541293246855, 62.552241854569075 ], [ 6.115354407611425, 62.55204304971442 ], [ 6.115596995396306, 62.551949304846126 ], [ 6.115869954974459, 62.552143491635512 ], [ 6.115831556004037, 62.552340338145456 ], [ 6.11541293246855, 62.552241854569075 ] ], [ [ 6.116254197431578, 62.552798188425136 ], [ 6.116399721343281, 62.552702294563574 ], [ 6.116950802851486, 62.552839625407621 ], [ 6.116254197431578, 62.552798188425136 ] ] ] ] } },
{ "type": "Feature", "properties": { "fid": 140248, "navn": null, "hoyde_moh": null, "arealInnsjo_km2": 0.0223, "magasinKategori": null, "fid_2": 184, "id": 184, "left": 5.986919847, "top": 62.946110046000001, "right": 6.486919847, "bottom": 62.446110046000001, "row_index": 23, "col_index": 4, "tile_id": 184 }, "geometry": { "type": "MultiPolygon", "coordinates": [ [ [ [ 6.057258873907046, 62.557254309572123 ], [ 6.057562597564665, 62.556937339501289 ], [ 6.0576085830983, 62.556668843055562 ], [ 6.056570639857763, 62.555748689375193 ], [ 6.055651884643626, 62.555594636603743 ], [ 6.055174055411118, 62.556096629359352 ], [ 6.055759770347583, 62.557258652191003 ], [ 6.055860059787595, 62.557817802221457 ], [ 6.054927801106223, 62.557798110539693 ], [ 6.055171368541409, 62.558288305454859 ], [ 6.055465381166167, 62.558267575061542 ], [ 6.057258873907046, 62.557254309572123 ] ] ] ] } },
{ "type": "Feature", "properties": { "fid": 145822, "navn": null, "hoyde_moh": null, "arealInnsjo_km2": 0.007, "magasinKategori": null, "fid_2": 184, "id": 184, "left": 5.986919847, "top": 62.946110046000001, "right": 6.486919847, "bottom": 62.446110046000001, "row_index": 23, "col_index": 4, "tile_id": 184 }, "geometry": { "type": "MultiPolygon", "coordinates": [ [ [ [ 6.245318593760033, 62.566727119127954 ], [ 6.245106642486141, 62.566393302076499 ], [ 6.245106050978066, 62.565800258930032 ], [ 6.244220140621613, 62.565572232042506 ], [ 6.244015726598806, 62.566051945161185 ], [ 6.244248930667127, 62.566664359531799 ], [ 6.24510184000147, 62.566897442826921 ], [ 6.245318593760033, 62.566727119127954 ] ] ] ] } },
{ "type": "Feature", "properties": { "fid": 163459, "navn": null, "hoyde_moh": 425, "arealInnsjo_km2": 0.0331, "magasinKategori": 2, "fid_2": 184, "id": 184, "left": 5.986919847, "top": 62.946110046000001, "right": 6.486919847, "bottom": 62.446110046000001, "row_index": 23, "col_index": 4, "tile_id": 184 }, "geometry": { "type": "MultiPolygon", "coordinates": [ [ [ [ 6.45481076043357, 62.460034026997938 ], [ 6.455859954912202, 62.460241754778913 ], [ 6.455912414321431, 62.46008111649477 ], [ 6.455588490926143, 62.459787680646556 ], [ 6.455050593285815, 62.459723964490657 ], [ 6.454371130102929, 62.459047055771109 ], [ 6.453011414839687, 62.458842648086474 ], [ 6.452829069357627, 62.45893799610932 ], [ 6.452973162938182, 62.459066406062753 ], [ 6.452616255544438, 62.459383243810734 ], [ 6.452716984166471, 62.459564717167119 ], [ 6.452189769383202, 62.459608971425197 ], [ 6.451268125325063, 62.459268698776881 ], [ 6.450841650797277, 62.459270020674325 ], [ 6.450405509622824, 62.45937879038479 ], [ 6.45058811640064, 62.459741390975132 ], [ 6.450095927248877, 62.460055655557163 ], [ 6.450538498834345, 62.460548762206109 ], [ 6.451512023353039, 62.460279198584004 ], [ 6.452427489324133, 62.460232977859192 ], [ 6.452564939771756, 62.460442102561728 ], [ 6.454319145023697, 62.460797323945016 ], [ 6.454457050159994, 62.460773038757445 ], [ 6.454504274930597, 62.460217026322958 ], [ 6.45481076043357, 62.460034026997938 ] ], [ [ 6.452084656604699, 62.459705742333703 ], [ 6.452316148203257, 62.459718943769388 ], [ 6.452463668024135, 62.460036103169038 ], [ 6.452192098773217, 62.460040122812181 ], [ 6.452084656604699, 62.459705742333703 ] ] ] ] } },
{ "type": "Feature", "properties": { "fid": 163684, "navn": "Vågevatnet", "hoyde_moh": null, "arealInnsjo_km2": 0.052, "magasinKategori": null, "fid_2": 184, "id": 184, "left": 5.986919847, "top": 62.946110046000001, "right": 6.486919847, "bottom": 62.446110046000001, "row_index": 23, "col_index": 4, "tile_id": 184 }, "geometry": { "type": "MultiPolygon", "coordinates": [ [ [ [ 6.215520133743669, 62.446362291761417 ], [ 6.217509338505178, 62.446446954678017 ], [ 6.218770448061526, 62.44622955670954 ], [ 6.21930485373, 62.446321026547686 ], [ 6.219494159604636, 62.446163047500761 ], [ 6.219879428216056, 62.446188843179016 ], [ 6.220499294727159, 62.446614228418269 ], [ 6.221669341398649, 62.44696099805406 ], [ 6.224872753129111, 62.446917049813152 ], [ 6.224769680863505, 62.446564667328524 ], [ 6.225505342109358, 62.446157193982302 ], [ 6.22551380242321, 62.446110046 ], [ 6.214535836688007, 62.446110046 ], [ 6.212557100936221, 62.446321059654245 ], [ 6.213062110649254, 62.446519767348164 ], [ 6.214840375151293, 62.446582220533784 ], [ 6.215520133743669, 62.446362291761417 ] ] ] ] } },
{ "type": "Feature", "properties": { "fid": 163967, "navn": null, "hoyde_moh": 44, "arealInnsjo_km2": 0.0451, "magasinKategori": null, "fid_2": 184, "id": 184, "left": 5.986919847, "top": 62.946110046000001, "right": 6.486919847, "bottom": 62.446110046000001, "row_index": 23, "col_index": 4, "tile_id": 184 }, "geometry": { "type": "MultiPolygon", "coordinates": [ [ [ [ 6.304860868971333, 62.468535504257211 ], [ 6.305913130701301, 62.468705019816461 ], [ 6.306461964149644, 62.467991563832058 ], [ 6.306006275926006, 62.467598722241682 ], [ 6.301471751406185, 62.467044920261472 ], [ 6.300585676395465, 62.467215710624501 ], [ 6.299606063440168, 62.46713755068258 ], [ 6.298992027603082, 62.46744966564551 ], [ 6.298867205922614, 62.467666369758554 ], [ 6.299080190460267, 62.467915319428606 ], [ 6.299924160817411, 62.467857644101336 ], [ 6.301187521914245, 62.46834506187222 ], [ 6.302922688481281, 62.468374329443101 ], [ 6.302970049836478, 62.468566426577922 ], [ 6.304860868971333, 62.468535504257211 ] ] ] ] } },
{ "type": "Feature", "properties": { "fid": 183719, "navn": "Reitevatnet", "hoyde_moh": 29, "arealInnsjo_km2": 0.0333, "magasinKategori": null, "fid_2": 184, "id": 184, "left": 5.986919847, "top": 62.946110046000001, "right": 6.486919847, "bottom": 62.446110046000001, "row_index": 23, "col_index": 4, "tile_id": 184 }, "geometry": { "type": "MultiPolygon", "coordinates": [ [ [ [ 6.475425558241253, 62.560885286201248 ], [ 6.476007649933367, 62.560561023911724 ], [ 6.476038460865205, 62.560327134734777 ], [ 6.47646815914855, 62.560208248364603 ], [ 6.476487708741138, 62.5599950779783 ], [ 6.477508133823935, 62.55908775945317 ], [ 6.47708123641248, 62.558518450721039 ], [ 6.476590430233575, 62.558400516708595 ], [ 6.475722585195345, 62.558506146371194 ], [ 6.474476038571647, 62.558838303095115 ], [ 6.474279673088106, 62.559042785680354 ], [ 6.474264077269449, 62.559287004277969 ], [ 6.474793262739497, 62.559480295291991 ], [ 6.474440367377476, 62.55974834151516 ], [ 6.474474717024271, 62.560177837432072 ], [ 6.474706760058655, 62.560275374901671 ], [ 6.474332143663991, 62.560605143447404 ], [ 6.47440610712026, 62.560811679319499 ], [ 6.474170456917234, 62.561092615273601 ], [ 6.475005279159945, 62.56135986494661 ], [ 6.475425558241253, 62.560885286201248 ] ] ] ] } },
{ "type": "Feature", "properties": { "fid": 187688, "navn": null, "hoyde_moh": null, "arealInnsjo_km2": 0.0027, "magasinKategori": null, "fid_2": 184, "id": 184, "left": 5.986919847, "top": 62.946110046000001, "right": 6.486919847, "bottom": 62.446110046000001, "row_index": 23, "col_index": 4, "tile_id": 184 }, "geometry": { "type": "MultiPolygon", "coordinates": [ [ [ [ 6.402816113267337, 62.460335540318233 ], [ 6.403994184664928, 62.460428084342631 ], [ 6.403934752103231, 62.460133934308352 ], [ 6.403132317844245, 62.459915273488974 ], [ 6.402816113267337, 62.460335540318233 ] ] ] ] } },
{ "type": "Feature", "properties": { "fid": 191126, "navn": null, "hoyde_moh": 144, "arealInnsjo_km2": 0.0161, "magasinKategori": null, "fid_2": 184, "id": 184, "left": 5.986919847, "top": 62.946110046000001, "right": 6.486919847, "bottom": 62.446110046000001, "row_index": 23, "col_index": 4, "tile_id": 184 }, "geometry": { "type": "MultiPolygon", "coordinates": [ [ [ [ 6.255584353395598, 62.639650372194986 ], [ 6.254352043416321, 62.638265329763556 ], [ 6.252354776314967, 62.638342870142161 ], [ 6.252737967045838, 62.638844395567894 ], [ 6.253762396660886, 62.63958289074295 ], [ 6.255084785210419, 62.639842355396652 ], [ 6.255584353395598, 62.639650372194986 ] ] ] ] } },
{ "type": "Feature", "properties": { "fid": 194529, "navn": "Litlevatnet", "hoyde_moh": 26, "arealInnsjo_km2": 0.1035, "magasinKategori": null, "fid_2": 184, "id": 184, "left": 5.986919847, "top": 62.946110046000001, "right": 6.486919847, "bottom": 62.446110046000001, "row_index": 23, "col_index": 4, "tile_id": 184 }, "geometry": { "type": "MultiPolygon", "coordinates": [ [ [ [ 6.372792667944518, 62.465446684723474 ], [ 6.375597531827186, 62.465095337462223 ], [ 6.378353306612691, 62.464953743843189 ], [ 6.384567827075669, 62.465012361427782 ], [ 6.384138402709405, 62.464815615351327 ], [ 6.383270307898258, 62.464763332162462 ], [ 6.382348041102023, 62.464880871678211 ], [ 6.37816875411758, 62.464642386944824 ], [ 6.378226950098481, 62.464382189316495 ], [ 6.377273572986645, 62.464151901089267 ], [ 6.37687319973512, 62.463514677361985 ], [ 6.376238749600711, 62.463095527919883 ], [ 6.375187909136149, 62.462914087045142 ], [ 6.372553081580226, 62.463313593830961 ], [ 6.368564698812495, 62.464261164681119 ], [ 6.368687455375624, 62.46458603558505 ], [ 6.369694458557205, 62.46476262524051 ], [ 6.369726874018708, 62.464968656452001 ], [ 6.368203380448695, 62.464997774853963 ], [ 6.367603811548043, 62.464716010458673 ], [ 6.366648935788219, 62.464727963858529 ], [ 6.365962471967785, 62.464415567258371 ], [ 6.365761918723052, 62.464596507141721 ], [ 6.366447744667012, 62.464872182396171 ], [ 6.368641958928011, 62.465220443759883 ], [ 6.372792667944518, 62.465446684723474 ] ] ] ] } },
{ "type": "Feature", "properties": { "fid": 194583, "navn": null, "hoyde_moh": 133, "arealInnsjo_km2": 0.0263, "magasinKategori": null, "fid_2": 184, "id": 184, "left": 5.986919847, "top": 62.946110046000001, "right": 6.486919847, "bottom": 62.446110046000001, "row_index": 23, "col_index": 4, "tile_id": 184 }, "geometry": { "type": "MultiPolygon", "coordinates": [ [ [ [ 6.264519173313007, 62.497934801302641 ], [ 6.265175768604243, 62.497794819398372 ], [ 6.266387183150568, 62.497821731007264 ], [ 6.266971056429423, 62.498003468145548 ], [ 6.267791686760057, 62.497765642696535 ], [ 6.268492810203925, 62.497853189679908 ], [ 6.269317386439584, 62.497735247922222 ], [ 6.269494364770368, 62.497663802478691 ], [ 6.269492227224233, 62.497496582808417 ], [ 6.268811316861207, 62.497187202414231 ], [ 6.267716181090153, 62.497169625218866 ], [ 6.261226530909682, 62.497733288211343 ], [ 6.261286926908809, 62.497952619758152 ], [ 6.261546915672486, 62.498072933259131 ], [ 6.264349176371983, 62.498253018232816 ], [ 6.264519173313007, 62.497934801302641 ] ], [ [ 6.264007809378318, 62.497897600164073 ], [ 6.264327485402745, 62.498046159230014 ], [ 6.263979269692109, 62.498038850416236 ], [ 6.264007809378318, 62.497897600164073 ] ] ] ] } },
{ "type": "Feature", "properties": { "fid": 196246, "navn": null, "hoyde_moh": 51, "arealInnsjo_km2": 0.0317, "magasinKategori": null, "fid_2": 184, "id": 184, "left": 5.986919847, "top": 62.946110046000001, "right": 6.486919847, "bottom": 62.446110046000001, "row_index": 23, "col_index": 4, "tile_id": 184 }, "geometry": { "type": "MultiPolygon", "coordinates": [ [ [ [ 6.289396204738833, 62.508363728270325 ], [ 6.289838611417582, 62.508106882074522 ], [ 6.290004870938403, 62.507657021572406 ], [ 6.290261192925621, 62.507491225621521 ], [ 6.29031011847385, 62.507024234581102 ], [ 6.289735938696891, 62.506747344985548 ], [ 6.288828937677927, 62.506713669279726 ], [ 6.286598927315493, 62.507089226688059 ], [ 6.285889888632894, 62.507468372331445 ], [ 6.286035991957323, 62.507756506092328 ], [ 6.28682590157379, 62.508127302808745 ], [ 6.289396204738833, 62.508363728270325 ] ] ] ] } },
{ "type": "Feature", "properties": { "fid": 196247, "navn": "Store Grytavatnet", "hoyde_moh": 249, "arealInnsjo_km2": 0.3004, "magasinKategori": null, "fid_2": 184, "id": 184, "left": 5.986919847, "top": 62.946110046000001, "right": 6.486919847, "bottom": 62.446110046000001, "row_index": 23, "col_index": 4, "tile_id": 184 }, "geometry": { "type": "MultiPolygon", "coordinates": [ [ [ [ 6.385685797063611, 62.564186557484 ], [ 6.38631740143393, 62.563621661082252 ], [ 6.38626385208437, 62.563365269292014 ], [ 6.385462783591993, 62.563017959327027 ], [ 6.38549923251272, 62.562779980265688 ], [ 6.385259233818661, 62.562611133673705 ], [ 6.385461157138983, 62.562184922534854 ], [ 6.385158290854386, 62.561871680829476 ], [ 6.385400009103933, 62.561613279474123 ], [ 6.385342617430336, 62.561305600792949 ], [ 6.385749768357378, 62.560561352469065 ], [ 6.385546319286132, 62.560138089397505 ], [ 6.385741881400373, 62.559291447953697 ], [ 6.385303802076652, 62.558888681776139 ], [ 6.385376792594681, 62.55830349723103 ], [ 6.385246940805096, 62.55796231987221 ], [ 6.385360460350959, 62.557693616128937 ], [ 6.385052409574736, 62.556970946307153 ], [ 6.384700452997209, 62.556620773734942 ], [ 6.38467260658201, 62.556198286041955 ], [ 6.383860511130011, 62.555365454994373 ], [ 6.3838234510787, 62.5546763139616 ], [ 6.383166475187235, 62.553962969713481 ], [ 6.383115633292099, 62.553679276736752 ], [ 6.382560618559924, 62.553331579755316 ], [ 6.382319866615134, 62.553078290249935 ], [ 6.382379875570029, 62.552932124648436 ], [ 6.381973420725155, 62.552640267680793 ], [ 6.381466075648692, 62.552497186290204 ], [ 6.381352449526672, 62.552203992003797 ], [ 6.380952451768812, 62.552120428286877 ], [ 6.38015734135017, 62.551592017813995 ], [ 6.379213661110247, 62.55131557809959 ], [ 6.378364419443794, 62.551971543703438 ], [ 6.378708167593786, 62.552219854737338 ], [ 6.3783726797345, 62.55269928984989 ], [ 6.378454714735867, 62.553052416038554 ], [ 6.378068894981932, 62.553429158501793 ], [ 6.378272167295393, 62.553844477179574 ], [ 6.378110187668865, 62.554046921802623 ], [ 6.378097862735767, 62.554715655802568 ], [ 6.378411925382028, 62.554992028727376 ], [ 6.37827583145451, 62.555682439842698 ], [ 6.379137192198654, 62.557484670558075 ], [ 6.380436174388478, 62.558346136481319 ], [ 6.380443117251669, 62.558640658574369 ], [ 6.380776483705986, 62.558832208228004 ], [ 6.380882226722244, 62.559226376647921 ], [ 6.381831884575962, 62.55983718956459 ], [ 6.381704860846588, 62.56035089753815 ], [ 6.382316081646161, 62.561180576827851 ], [ 6.383121024409643, 62.561778329044394 ], [ 6.38322565627448, 62.562618484079721 ], [ 6.383884580173389, 62.563341879718813 ], [ 6.383894751946115, 62.563876028552357 ], [ 6.384556266508358, 62.564272874029136 ], [ 6.385685797063611, 62.564186557484 ] ] ] ] } },
{ "type": "Feature", "properties": { "fid": 200104, "navn": "Hildrevatnet", "hoyde_moh": 148, "arealInnsjo_km2": 0.2082, "magasinKategori": null, "fid_2": 184, "id": 184, "left": 5.986919847, "top": 62.946110046000001, "right": 6.486919847, "bottom": 62.446110046000001, "row_index": 23, "col_index": 4, "tile_id": 184 }, "geometry": { "type": "MultiPolygon", "coordinates": [ [ [ [ 6.352459668047181, 62.584367118174633 ], [ 6.352889119345445, 62.584061526150549 ], [ 6.353575189208341, 62.583889367422557 ], [ 6.353657773491273, 62.583632027321229 ], [ 6.355174850631349, 62.582996562916556 ], [ 6.354654577292676, 62.582512682104451 ], [ 6.354860824185876, 62.582372367356001 ], [ 6.356100941262879, 62.581898290131342 ], [ 6.357029416004218, 62.581878449730276 ], [ 6.359005036756386, 62.580877809793733 ], [ 6.358779012125396, 62.580771045871828 ], [ 6.358772259606582, 62.580506792317699 ], [ 6.358328157926018, 62.580363239620546 ], [ 6.358266567492381, 62.579996455824116 ], [ 6.357453417956566, 62.579353772860372 ], [ 6.357317548968012, 62.578953633692244 ], [ 6.355938078965053, 62.578108001890634 ], [ 6.355304392871556, 62.578104343329258 ], [ 6.35392473307222, 62.578482708638219 ], [ 6.351848468474268, 62.579361265363083 ], [ 6.351570625235149, 62.579597592010813 ], [ 6.351340065022538, 62.58012545618427 ], [ 6.350418104017269, 62.580242974188529 ], [ 6.350835436611763, 62.580468465598621 ], [ 6.350643174716251, 62.580817281369271 ], [ 6.349242195760092, 62.581290509626811 ], [ 6.349089119633817, 62.581958369809932 ], [ 6.348564506547702, 62.582356691552356 ], [ 6.349127005652131, 62.582928886453807 ], [ 6.34928843722308, 62.58364886148 ], [ 6.350838842132522, 62.583996681588438 ], [ 6.351542889597948, 62.584427687145158 ], [ 6.352459668047181, 62.584367118174633 ] ] ] ] } },
{ "type": "Feature", "properties": { "fid": 203892, "navn": "Hornvatnet", "hoyde_moh": 227, "arealInnsjo_km2": 0.0101, "magasinKategori": null, "fid_2": 184, "id": 184, "left": 5.986919847, "top": 62.946110046000001, "right": 6.486919847, "bottom": 62.446110046000001, "row_index": 23, "col_index": 4, "tile_id": 184 }, "geometry": { "type": "MultiPolygon", "coordinates": [ [ [ [ 6.329554625819616, 62.583450746510216 ], [ 6.330241654497868, 62.58339197608219 ], [ 6.330333848511397, 62.583232104172041 ], [ 6.331605197173034, 62.582933662557068 ], [ 6.330779919525862, 62.582602952403327 ], [ 6.32965215316504, 62.582581174249682 ], [ 6.329265938146913, 62.582762721104139 ], [ 6.329123436482316, 62.583047218499217 ], [ 6.328432645579008, 62.583366431718531 ], [ 6.329365179584946, 62.583608794444871 ], [ 6.329554625819616, 62.583450746510216 ] ] ] ] } },
{ "type": "Feature", "properties": { "fid": 212397, "navn": "Igletjørna", "hoyde_moh": 212, "arealInnsjo_km2": 0.0099, "magasinKategori": null, "fid_2": 184, "id": 184, "left": 5.986919847, "top": 62.946110046000001, "right": 6.486919847, "bottom": 62.446110046000001, "row_index": 23, "col_index": 4, "tile_id": 184 }, "geometry": { "type": "MultiPolygon", "coordinates": [ [ [ [ 6.419991695470144, 62.566341664831711 ], [ 6.419656408221492, 62.564593186954333 ], [ 6.419308162025359, 62.564568596702806 ], [ 6.41875384819518, 62.564899790033479 ], [ 6.418723031729678, 62.565482871758725 ], [ 6.418921272825352, 62.566115342596561 ], [ 6.419249799116294, 62.566363764611133 ], [ 6.419991695470144, 62.566341664831711 ] ] ] ] } },
{ "type": "Feature", "properties": { "fid": 213247, "navn": "Vetevatnet", "hoyde_moh": 585, "arealInnsjo_km2": 0.0158, "magasinKategori": null, "fid_2": 184, "id": 184, "left": 5.986919847, "top": 62.946110046000001, "right": 6.486919847, "bottom": 62.446110046000001, "row_index": 23, "col_index": 4, "tile_id": 184 }, "geometry": { "type": "MultiPolygon", "coordinates": [ [ [ [ 6.312470733452554, 62.579464293115919 ], [ 6.312971180531642, 62.578906536495133 ], [ 6.313032613078092, 62.578537733033727 ], [ 6.312456514742683, 62.578340766187942 ], [ 6.310836739291052, 62.578346241766795 ], [ 6.310227186298493, 62.578407591263804 ], [ 6.309600325539077, 62.578779509565322 ], [ 6.309821656190016, 62.578956911616935 ], [ 6.311238985426549, 62.57916088765495 ], [ 6.311527145149902, 62.57942487601521 ], [ 6.312470733452554, 62.579464293115919 ] ] ] ] } },
{ "type": "Feature", "properties": { "fid": 213298, "navn": "Litle Hestevatnet", "hoyde_moh": 346, "arealInnsjo_km2": 0.0557, "magasinKategori": null, "fid_2": 184, "id": 184, "left": 5.986919847, "top": 62.946110046000001, "right": 6.486919847, "bottom": 62.446110046000001, "row_index": 23, "col_index": 4, "tile_id": 184 }, "geometry": { "type": "MultiPolygon", "coordinates": [ [ [ [ 6.378100752549464, 62.586021486202824 ], [ 6.378366711888176, 62.585789073809735 ], [ 6.379206047262321, 62.585658650343902 ], [ 6.379488811765359, 62.585361232513065 ], [ 6.379415643581634, 62.585015074689956 ], [ 6.379614807265376, 62.584755657112851 ], [ 6.379050312220029, 62.584566217932178 ], [ 6.375421274060065, 62.58446510847191 ], [ 6.375598773007968, 62.584342407548881 ], [ 6.374885926146641, 62.583594853053135 ], [ 6.374099428409734, 62.583651820688303 ], [ 6.373848124593257, 62.583879624033713 ], [ 6.372765374907895, 62.583780853324512 ], [ 6.372419354774969, 62.583897512242061 ], [ 6.373363855854562, 62.584061066330861 ], [ 6.373050748380098, 62.58429045188165 ], [ 6.373255576981562, 62.584549200069382 ], [ 6.373598009254064, 62.584644100971367 ], [ 6.373679069999648, 62.58492543064127 ], [ 6.374149372252819, 62.585153497575369 ], [ 6.373988769086519, 62.585527611320366 ], [ 6.374341468019088, 62.585813518574554 ], [ 6.375782959745583, 62.586271103664529 ], [ 6.376589775275979, 62.586209873134578 ], [ 6.37704663278908, 62.586353247637838 ], [ 6.378100752549464, 62.586021486202824 ] ], [ [ 6.378336498820109, 62.585093752752087 ], [ 6.378478370067203, 62.58475407250782 ], [ 6.379220889995151, 62.584888785709509 ], [ 6.378930152942861, 62.585149748367513 ], [ 6.378336498820109, 62.585093752752087 ] ], [ [ 6.374569476207804, 62.585181750040732 ], [ 6.374838114356291, 62.58506705748912 ], [ 6.37527605069869, 62.58515234268183 ], [ 6.374646973858278, 62.585305554990235 ], [ 6.374569476207804, 62.585181750040732 ] ] ] ] } },
{ "type": "Feature", "properties": { "fid": 213299, "navn": "Store Hestevatnet", "hoyde_moh": 228, "arealInnsjo_km2": 0.5323, "magasinKategori": null, "fid_2": 184, "id": 184, "left": 5.986919847, "top": 62.946110046000001, "right": 6.486919847, "bottom": 62.446110046000001, "row_index": 23, "col_index": 4, "tile_id": 184 }, "geometry": { "type": "MultiPolygon", "coordinates": [ [ [ [ 6.405494399942719, 62.592990832306789 ], [ 6.407457921745685, 62.593023721404961 ], [ 6.408484153300597, 62.592762376941238 ], [ 6.408464403431124, 62.593138084366622 ], [ 6.40886160334085, 62.592892503901346 ], [ 6.410005122272329, 62.592801928341451 ], [ 6.411318570393828, 62.591976847047782 ], [ 6.411256882465354, 62.591684918230442 ], [ 6.413126069303658, 62.590764706882929 ], [ 6.414239289815181, 62.590658676451568 ], [ 6.415282166198037, 62.590832339968202 ], [ 6.415588932132669, 62.590521347919804 ], [ 6.415183213631155, 62.59030510940427 ], [ 6.415263045987857, 62.58955926467651 ], [ 6.414608910182714, 62.589946818484769 ], [ 6.414001721466166, 62.589684156938844 ], [ 6.41382745150481, 62.589515824056619 ], [ 6.414372622071384, 62.589159305665369 ], [ 6.413131555928755, 62.588507557902112 ], [ 6.41304534213609, 62.588264889534891 ], [ 6.412602018703716, 62.588029874148802 ], [ 6.412380373466452, 62.58770845460171 ], [ 6.411692359265311, 62.587532576571817 ], [ 6.411356531379393, 62.586965039327147 ], [ 6.410550376717192, 62.587124717661744 ], [ 6.40986996405707, 62.586985438205218 ], [ 6.409102784160023, 62.586723429297386 ], [ 6.408156423780994, 62.585985499016864 ], [ 6.407094041506973, 62.585622282232919 ], [ 6.403983114021794, 62.585405714151378 ], [ 6.403883381221262, 62.585520157593642 ], [ 6.404009167538331, 62.585988803988641 ], [ 6.403512983307039, 62.586089920817642 ], [ 6.403549695249624, 62.586274152789507 ], [ 6.402658202968495, 62.586425976311411 ], [ 6.401247803719842, 62.586287736095947 ], [ 6.39998302753559, 62.58653705446379 ], [ 6.400228804738915, 62.587012682555027 ], [ 6.39964405506111, 62.587428589783912 ], [ 6.3996956594565, 62.587962670986606 ], [ 6.399237940818518, 62.588239715038917 ], [ 6.399208250639775, 62.588853059518044 ], [ 6.399014763143732, 62.589116373812665 ], [ 6.399130401893824, 62.589497845775192 ], [ 6.398418899343637, 62.58979360149614 ], [ 6.397918544771532, 62.590375640757031 ], [ 6.398054041045852, 62.590606828847427 ], [ 6.39749693741351, 62.590979269059638 ], [ 6.39690880781477, 62.591086148974107 ], [ 6.39688139074108, 62.591302011303696 ], [ 6.397634566837689, 62.591458777508244 ], [ 6.397911645355146, 62.591302190635432 ], [ 6.398472430642206, 62.591349736035291 ], [ 6.398950907177236, 62.592421344053527 ], [ 6.401456504027143, 62.593045230553898 ], [ 6.402107623943319, 62.592715363775838 ], [ 6.401706274085019, 62.593089416650677 ], [ 6.401801338331675, 62.593199108959034 ], [ 6.402017408804546, 62.593144988465987 ], [ 6.402248861327217, 62.592764759412667 ], [ 6.402961776805861, 62.592775259038945 ], [ 6.40326160971268, 62.593231815761122 ], [ 6.403993136917548, 62.593479359173706 ], [ 6.405494399942719, 62.592990832306789 ] ] ] ] } },
{ "type": "Feature", "properties": { "fid": 237577, "navn": "Sætrevatnet", "hoyde_moh": 145, "arealInnsjo_km2": 0.0781, "magasinKategori": null, "fid_2": 184, "id": 184, "left": 5.986919847, "top": 62.946110046000001, "right": 6.486919847, "bottom": 62.446110046000001, "row_index": 23, "col_index": 4, "tile_id": 184 }, "geometry": { "type": "MultiPolygon", "coordinates": [ [ [ [ 6.409689438893005, 62.601406405242457 ], [ 6.410034051271853, 62.601645711680192 ], [ 6.412233437930264, 62.601385362621912 ], [ 6.413057143871006, 62.601087155548036 ], [ 6.413097189404575, 62.600751371657218 ], [ 6.411934142972383, 62.600426268452544 ], [ 6.411137728444128, 62.60044878988343 ], [ 6.411034078095454, 62.600317886410316 ], [ 6.411307962736799, 62.599812516188443 ], [ 6.410943887637518, 62.599451486844593 ], [ 6.409877771007701, 62.59900640952047 ], [ 6.408342159347526, 62.598649660037815 ], [ 6.407633534787267, 62.599234126557612 ], [ 6.405865744417937, 62.600032454402196 ], [ 6.40595910333406, 62.600489513959431 ], [ 6.406612080138396, 62.601524706582111 ], [ 6.407518320399943, 62.60168065956119 ], [ 6.409689438893005, 62.601406405242457 ] ] ] ] } },
{ "type": "Feature", "properties": { "fid": 267948, "navn": "Strokevatnet", "hoyde_moh": 387, "arealInnsjo_km2": 0.0849, "magasinKategori": 2, "fid_2": 184, "id": 184, "left": 5.986919847, "top": 62.946110046000001, "right": 6.486919847, "bottom": 62.446110046000001, "row_index": 23, "col_index": 4, "tile_id": 184 }, "geometry": { "type": "MultiPolygon", "coordinates": [ [ [ [ 6.433301821530037, 62.456631157313012 ], [ 6.433374171689285, 62.456476360200661 ], [ 6.432975481671448, 62.456026370768775 ], [ 6.433505118577128, 62.455832283883808 ], [ 6.433853160785287, 62.454949492582358 ], [ 6.434136371985955, 62.454814332490194 ], [ 6.433509303659716, 62.453985419455634 ], [ 6.433028271150736, 62.453940757333136 ], [ 6.432828558267132, 62.454233486643624 ], [ 6.431955848230174, 62.454459917960108 ], [ 6.429884921192028, 62.454412726493835 ], [ 6.428382942279717, 62.454968791027419 ], [ 6.427993296738188, 62.455213081368257 ], [ 6.427973851387506, 62.455437281879377 ], [ 6.42604862873972, 62.455725100402972 ], [ 6.425602797262964, 62.455950368046992 ], [ 6.425393486438404, 62.456315222288765 ], [ 6.425426809731748, 62.456468067346243 ], [ 6.425630677128638, 62.456476171856835 ], [ 6.427213639137103, 62.456159763437455 ], [ 6.427956088079675, 62.45629036913278 ], [ 6.428492006686943, 62.456487689853297 ], [ 6.428514298231741, 62.456768046367856 ], [ 6.430530883399324, 62.457228636329376 ], [ 6.432285476239854, 62.456720243437609 ], [ 6.433301821530037, 62.456631157313012 ] ], [ [ 6.432837707636674, 62.454808444742774 ], [ 6.432489849488259, 62.45501756812024 ], [ 6.432142813933667, 62.45499320834486 ], [ 6.431972318142562, 62.454720669447262 ], [ 6.432837707636674, 62.454808444742774 ] ] ] ] } },
{ "type": "Feature", "properties": { "fid": 268325, "navn": "Liamyra", "hoyde_moh": 124, "arealInnsjo_km2": 0.0282, "magasinKategori": 1, "fid_2": 184, "id": 184, "left": 5.986919847, "top": 62.946110046000001, "right": 6.486919847, "bottom": 62.446110046000001, "row_index": 23, "col_index": 4, "tile_id": 184 }, "geometry": { "type": "MultiPolygon", "coordinates": [ [ [ [ 6.280744668598576, 62.497121376087826 ], [ 6.277919111935699, 62.498135671198469 ], [ 6.278051071177385, 62.498314762947075 ], [ 6.279054579821475, 62.498529628586958 ], [ 6.282736102469236, 62.49828699409894 ], [ 6.282953268109502, 62.497409038686044 ], [ 6.280744668598576, 62.497121376087826 ] ] ] ] } },
{ "type": "Feature", "properties": { "fid": 268628, "navn": "Synnalandsvatnet", "hoyde_moh": 81, "arealInnsjo_km2": 0.608, "magasinKategori": 1, "fid_2": 184, "id": 184, "left": 5.986919847, "top": 62.946110046000001, "right": 6.486919847, "bottom": 62.446110046000001, "row_index": 23, "col_index": 4, "tile_id": 184 }, "geometry": { "type": "MultiPolygon", "coordinates": [ [ [ [ 6.43247798884442, 62.589391290623844 ], [ 6.432597960555507, 62.589214838201492 ], [ 6.432510126749379, 62.588656337783156 ], [ 6.432314249957171, 62.588437191988803 ], [ 6.432411747576887, 62.586633888592928 ], [ 6.431971570055524, 62.586229559682323 ], [ 6.430917315941509, 62.585896853838079 ], [ 6.430823762357753, 62.585625653252777 ], [ 6.430910821008471, 62.584846023950675 ], [ 6.431706489974787, 62.583297907148349 ], [ 6.43190512368957, 62.582349622215744 ], [ 6.431902826473218, 62.581702980467568 ], [ 6.431506049739275, 62.581336376918188 ], [ 6.431136050613146, 62.578626187518239 ], [ 6.431569623896068, 62.577439795566583 ], [ 6.430319292806906, 62.575907947732127 ], [ 6.430118012833325, 62.574179989096983 ], [ 6.429298414859578, 62.573078175604579 ], [ 6.428337669619525, 62.57247673295975 ], [ 6.428328080998165, 62.571461757493587 ], [ 6.428039322759705, 62.570746931153103 ], [ 6.427120311003168, 62.570568423333768 ], [ 6.426888554963663, 62.570321571527899 ], [ 6.426100149890305, 62.570432811971671 ], [ 6.426092627399806, 62.570747017130785 ], [ 6.425863143201549, 62.570922392729031 ], [ 6.425461984226331, 62.570834204831833 ], [ 6.425269293468813, 62.571037328339614 ], [ 6.424290288552578, 62.571100021816044 ], [ 6.422338275556335, 62.573632638802358 ], [ 6.422390652193424, 62.573929946248526 ], [ 6.42218596208956, 62.574492080227486 ], [ 6.422396597025867, 62.574756337467043 ], [ 6.422377349470724, 62.575653991149387 ], [ 6.422034471894057, 62.576914090532462 ], [ 6.422178419514048, 62.577500555645436 ], [ 6.424007814961424, 62.579087938899541 ], [ 6.424420301413909, 62.579948731287999 ], [ 6.425625703071063, 62.581093540377609 ], [ 6.425774790010893, 62.58229980833125 ], [ 6.426444116563833, 62.582886887628284 ], [ 6.427163843345906, 62.583839805569681 ], [ 6.427417048830001, 62.584701053440213 ], [ 6.427843623007769, 62.585400439129266 ], [ 6.428583424165158, 62.586078581974192 ], [ 6.42910046371018, 62.587533941969639 ], [ 6.429406399219048, 62.587826827508337 ], [ 6.42978072692194, 62.588678192053521 ], [ 6.430902972422178, 62.589444139652699 ], [ 6.43247798884442, 62.589391290623844 ] ] ] ] } },
{ "type": "Feature", "properties": { "fid": 270281, "navn": "Brusdalsvatnet", "hoyde_moh": 26, "arealInnsjo_km2": 7.5246, "magasinKategori": 1, "fid_2": 184, "id": 184, "left": 5.986919847, "top": 62.946110046000001, "right": 6.486919847, "bottom": 62.446110046000001, "row_index": 23, "col_index": 4, "tile_id": 184 }, "geometry": { "type": "MultiPolygon", "coordinates": [ [ [ [ 6.486919847, 62.483682487492366 ], [ 6.486919847, 62.474290498629145 ], [ 6.485637082344968, 62.473804163512519 ], [ 6.483015915609254, 62.473128172062466 ], [ 6.481364554362218, 62.472460801477581 ], [ 6.478986024179288, 62.47236396725183 ], [ 6.475414025698536, 62.47261364477027 ], [ 6.473368176859871, 62.472540884035951 ], [ 6.472404536793869, 62.472406512181109 ], [ 6.471090031885172, 62.471888828799869 ], [ 6.467412335629112, 62.471552732712411 ], [ 6.462905945848308, 62.470698341155192 ], [ 6.460490072911777, 62.470582527627421 ], [ 6.459029812914918, 62.470870132769669 ], [ 6.457470096454847, 62.470958628798464 ], [ 6.456175381821016, 62.470441015590907 ], [ 6.45258049937596, 62.46959386992333 ], [ 6.451575339558842, 62.469548657985356 ], [ 6.4503961665341, 62.469724782575462 ], [ 6.449389241121237, 62.469472929528088 ], [ 6.447251484217416, 62.469514610884232 ], [ 6.441925848991492, 62.469174450254471 ], [ 6.43694417190834, 62.468211838010937 ], [ 6.435918208437975, 62.46818410455397 ], [ 6.433017714736593, 62.467618742398436 ], [ 6.431466067329751, 62.46761718811323 ], [ 6.429288453178421, 62.467217780627998 ], [ 6.420807666937088, 62.467474392605361 ], [ 6.417705017006584, 62.467003772988562 ], [ 6.416585433324746, 62.466489282190494 ], [ 6.415864193601324, 62.465855999037636 ], [ 6.414898323291815, 62.465362219267263 ], [ 6.413058914724235, 62.464870116626543 ], [ 6.41145682564597, 62.464777479576824 ], [ 6.403212156071308, 62.465890463757326 ], [ 6.402149182676419, 62.465843825147175 ], [ 6.399823737403948, 62.465369433644064 ], [ 6.39610721785179, 62.465273165239246 ], [ 6.394656433523734, 62.464779012280488 ], [ 6.393728925771742, 62.464959272101943 ], [ 6.393290662320469, 62.464870244013277 ], [ 6.392953829063513, 62.46450472998967 ], [ 6.391597258798054, 62.464488189738205 ], [ 6.389512239762554, 62.465042075659525 ], [ 6.389123625742283, 62.465268362277513 ], [ 6.389121666257025, 62.46573533882664 ], [ 6.38868275416562, 62.466095284809583 ], [ 6.387362881681319, 62.466546641687948 ], [ 6.387075983390628, 62.466720883502852 ], [ 6.386884982097138, 62.467130300972258 ], [ 6.386937721593521, 62.467418719047629 ], [ 6.388525635014424, 62.468337711000132 ], [ 6.39015684869775, 62.468987966875005 ], [ 6.395591974155794, 62.469628410131875 ], [ 6.397134372080325, 62.470187137427452 ], [ 6.399176604974239, 62.470350802589557 ], [ 6.399611695959719, 62.470484783915332 ], [ 6.400138797085769, 62.471114333534601 ], [ 6.402602676572203, 62.471788914339299 ], [ 6.405074225225637, 62.473047374882022 ], [ 6.407645187563565, 62.473831670934764 ], [ 6.410295635982095, 62.474150233487819 ], [ 6.411407528294361, 62.474530038451547 ], [ 6.411803580562579, 62.475112286826317 ], [ 6.415273102119762, 62.476505837416667 ], [ 6.417896716887261, 62.477138239503105 ], [ 6.423605823779612, 62.477549083789867 ], [ 6.429528201482628, 62.477290158103479 ], [ 6.430198096474566, 62.477625834653132 ], [ 6.431030550504574, 62.477650122011141 ], [ 6.433656389835496, 62.477357061361666 ], [ 6.435542818811353, 62.47753564130042 ], [ 6.43756880372344, 62.477222507438363 ], [ 6.44057569118803, 62.477008244088317 ], [ 6.447220735331125, 62.477372469324237 ], [ 6.447950991323059, 62.477682235056236 ], [ 6.45124905181927, 62.478380161344795 ], [ 6.453480777283142, 62.47860951105374 ], [ 6.454770770561897, 62.479414394185383 ], [ 6.458015426876393, 62.480290792332475 ], [ 6.459191179014335, 62.480384215561109 ], [ 6.461616375797898, 62.481308303534455 ], [ 6.468294998366982, 62.481977514721081 ], [ 6.469998910577586, 62.482026296138571 ], [ 6.471357359038072, 62.481799590406766 ], [ 6.472226069763089, 62.482318279245575 ], [ 6.478768757606195, 62.483217989715278 ], [ 6.47997935182691, 62.483823585760497 ], [ 6.482788804495682, 62.484116763096004 ], [ 6.483702701908442, 62.484097308340701 ], [ 6.484482057102103, 62.483832994359858 ], [ 6.486919847, 62.483682487492366 ] ], [ [ 6.440579141883483, 62.476514382746906 ], [ 6.440589138420714, 62.476397828072116 ], [ 6.44188868257455, 62.476179157857771 ], [ 6.442719686188671, 62.476445941570908 ], [ 6.440579141883483, 62.476514382746906 ] ] ] ] } }
]
}
