{
"type": "FeatureCollection",
"name": "innsjo_tile_id_775",
"crs": { "type": "name", "properties": { "name": "urn:ogc:def:crs:OGC:1.3:CRS84" } },
"xy_coordinate_resolution": 1e-15,
"features": [
{ "type": "Feature", "properties": { "fid": 4059, "navn": null, "hoyde_moh": null, "arealInnsjo_km2": 0.0034, "magasinKategori": null, "fid_2": 775, "id": 775, "left": 13.486919847, "top": 67.446110046000001, "right": 13.986919847, "bottom": 66.946110046000001, "row_index": 14, "col_index": 19, "tile_id": 775 }, "geometry": { "type": "MultiPolygon", "coordinates": [ [ [ [ 13.835755514731829, 67.074538040447862 ], [ 13.834673653833773, 67.074068997889768 ], [ 13.834836368545924, 67.074513386081676 ], [ 13.835344906024366, 67.074938677599249 ], [ 13.835930663898427, 67.075203220652824 ], [ 13.836052124223329, 67.075069532219473 ], [ 13.835755514731829, 67.074538040447862 ] ] ] ] } },
{ "type": "Feature", "properties": { "fid": 4114, "navn": null, "hoyde_moh": null, "arealInnsjo_km2": 0.003, "magasinKategori": null, "fid_2": 775, "id": 775, "left": 13.486919847, "top": 67.446110046000001, "right": 13.986919847, "bottom": 66.946110046000001, "row_index": 14, "col_index": 19, "tile_id": 775 }, "geometry": { "type": "MultiPolygon", "coordinates": [ [ [ [ 13.921709756316476, 67.267003716552736 ], [ 13.920888792593828, 67.266693178755858 ], [ 13.920211198024539, 67.266805249985126 ], [ 13.920250716103986, 67.266958027120438 ], [ 13.921002930431371, 67.267250163701121 ], [ 13.921645273415772, 67.267406990017207 ], [ 13.921811591450275, 67.267318484006935 ], [ 13.921709756316476, 67.267003716552736 ] ] ] ] } },
{ "type": "Feature", "properties": { "fid": 4115, "navn": null, "hoyde_moh": null, "arealInnsjo_km2": 0.0033, "magasinKategori": null, "fid_2": 775, "id": 775, "left": 13.486919847, "top": 67.446110046000001, "right": 13.986919847, "bottom": 66.946110046000001, "row_index": 14, "col_index": 19, "tile_id": 775 }, "geometry": { "type": "MultiPolygon", "coordinates": [ [ [ [ 13.958542253966446, 67.279761615498245 ], [ 13.958365939617707, 67.279536103474413 ], [ 13.957608052812217, 67.279360824987506 ], [ 13.957138270968976, 67.279492253799162 ], [ 13.957714535926948, 67.280115094054239 ], [ 13.958252756765326, 67.280010931128572 ], [ 13.958542253966446, 67.279761615498245 ] ] ] ] } },
{ "type": "Feature", "properties": { "fid": 4116, "navn": null, "hoyde_moh": null, "arealInnsjo_km2": 0.0025, "magasinKategori": null, "fid_2": 775, "id": 775, "left": 13.486919847, "top": 67.446110046000001, "right": 13.986919847, "bottom": 66.946110046000001, "row_index": 14, "col_index": 19, "tile_id": 775 }, "geometry": { "type": "MultiPolygon", "coordinates": [ [ [ [ 13.95863967016995, 67.283395568675033 ], [ 13.958525610101438, 67.283349973538193 ], [ 13.957460927019644, 67.283818450504867 ], [ 13.957706405041774, 67.284044411973923 ], [ 13.958398953882547, 67.28412964363028 ], [ 13.95863967016995, 67.283395568675033 ] ] ] ] } },
{ "type": "Feature", "properties": { "fid": 4129, "navn": null, "hoyde_moh": null, "arealInnsjo_km2": 0.0068, "magasinKategori": null, "fid_2": 775, "id": 775, "left": 13.486919847, "top": 67.446110046000001, "right": 13.986919847, "bottom": 66.946110046000001, "row_index": 14, "col_index": 19, "tile_id": 775 }, "geometry": { "type": "MultiPolygon", "coordinates": [ [ [ [ 13.949352336751332, 67.138108338740963 ], [ 13.949912824723919, 67.137950537183045 ], [ 13.949687664981363, 67.137823459305295 ], [ 13.948419295778987, 67.137815121135816 ], [ 13.947744631588421, 67.1374159427194 ], [ 13.947147001800809, 67.13736715115229 ], [ 13.946818290928041, 67.137499556123217 ], [ 13.946921877641275, 67.137769378875319 ], [ 13.947327213947151, 67.137996421741676 ], [ 13.948651521522342, 67.138310072297003 ], [ 13.949390665924613, 67.138288017429304 ], [ 13.949352336751332, 67.138108338740963 ] ] ] ] } },
{ "type": "Feature", "properties": { "fid": 4197, "navn": null, "hoyde_moh": null, "arealInnsjo_km2": 0.0039, "magasinKategori": null, "fid_2": 775, "id": 775, "left": 13.486919847, "top": 67.446110046000001, "right": 13.986919847, "bottom": 66.946110046000001, "row_index": 14, "col_index": 19, "tile_id": 775 }, "geometry": { "type": "MultiPolygon", "coordinates": [ [ [ [ 13.926057414847957, 67.020589018651378 ], [ 13.9267288990178, 67.02045897342532 ], [ 13.926740777705966, 67.020189818337656 ], [ 13.926291687189973, 67.019962502748839 ], [ 13.925600034721299, 67.020029699083935 ], [ 13.925831877671166, 67.020497782165762 ], [ 13.925365747871759, 67.020656124252753 ], [ 13.925429445632613, 67.020773183852853 ], [ 13.926501763653093, 67.020923961038648 ], [ 13.926057414847957, 67.020589018651378 ] ] ] ] } },
{ "type": "Feature", "properties": { "fid": 9652, "navn": null, "hoyde_moh": 435, "arealInnsjo_km2": 0.0019, "magasinKategori": null, "fid_2": 775, "id": 775, "left": 13.486919847, "top": 67.446110046000001, "right": 13.986919847, "bottom": 66.946110046000001, "row_index": 14, "col_index": 19, "tile_id": 775 }, "geometry": { "type": "MultiPolygon", "coordinates": [ [ [ [ 13.933673290661691, 66.985679806369347 ], [ 13.933061401976724, 66.985414092562266 ], [ 13.932392969124384, 66.985403237115833 ], [ 13.932927142962455, 66.985768285377958 ], [ 13.933598043843666, 66.985921981965106 ], [ 13.933673290661691, 66.985679806369347 ] ] ] ] } },
{ "type": "Feature", "properties": { "fid": 9737, "navn": null, "hoyde_moh": 591, "arealInnsjo_km2": 0.0029, "magasinKategori": null, "fid_2": 775, "id": 775, "left": 13.486919847, "top": 67.446110046000001, "right": 13.986919847, "bottom": 66.946110046000001, "row_index": 14, "col_index": 19, "tile_id": 775 }, "geometry": { "type": "MultiPolygon", "coordinates": [ [ [ [ 13.847743375400418, 66.946110046 ], [ 13.846439211843931, 66.946110046 ], [ 13.846369117115524, 66.946163976535146 ], [ 13.846578175476862, 66.946331382817647 ], [ 13.847416725310532, 66.946443695896079 ], [ 13.847743375400418, 66.946110046 ] ] ] ] } },
{ "type": "Feature", "properties": { "fid": 24713, "navn": null, "hoyde_moh": 481, "arealInnsjo_km2": 0.0022, "magasinKategori": null, "fid_2": 775, "id": 775, "left": 13.486919847, "top": 67.446110046000001, "right": 13.986919847, "bottom": 66.946110046000001, "row_index": 14, "col_index": 19, "tile_id": 775 }, "geometry": { "type": "MultiPolygon", "coordinates": [ [ [ [ 13.913215924723499, 66.978936270061283 ], [ 13.912190358685663, 66.979105817995361 ], [ 13.912566959217788, 66.979325237294404 ], [ 13.913370888894573, 66.979464679046131 ], [ 13.913215924723499, 66.978936270061283 ] ] ] ] } },
{ "type": "Feature", "properties": { "fid": 26117, "navn": null, "hoyde_moh": null, "arealInnsjo_km2": 0.0055, "magasinKategori": null, "fid_2": 775, "id": 775, "left": 13.486919847, "top": 67.446110046000001, "right": 13.986919847, "bottom": 66.946110046000001, "row_index": 14, "col_index": 19, "tile_id": 775 }, "geometry": { "type": "MultiPolygon", "coordinates": [ [ [ [ 13.794077229334999, 67.157548473854817 ], [ 13.792888776826706, 67.157306336911191 ], [ 13.791603751224057, 67.157610642971278 ], [ 13.790220814619028, 67.157564303662184 ], [ 13.791432780667684, 67.157797666494048 ], [ 13.793395394831109, 67.157794628412972 ], [ 13.794077229334999, 67.157548473854817 ] ] ] ] } },
{ "type": "Feature", "properties": { "fid": 26139, "navn": null, "hoyde_moh": null, "arealInnsjo_km2": 0.0027, "magasinKategori": null, "fid_2": 775, "id": 775, "left": 13.486919847, "top": 67.446110046000001, "right": 13.986919847, "bottom": 66.946110046000001, "row_index": 14, "col_index": 19, "tile_id": 775 }, "geometry": { "type": "MultiPolygon", "coordinates": [ [ [ [ 13.911761542223264, 67.13685207188739 ], [ 13.912742565961842, 67.136580633277163 ], [ 13.911755607548887, 67.136466260506211 ], [ 13.910420830602281, 67.136914621047083 ], [ 13.911761542223264, 67.13685207188739 ] ] ] ] } },
{ "type": "Feature", "properties": { "fid": 26140, "navn": null, "hoyde_moh": null, "arealInnsjo_km2": 0.0043, "magasinKategori": null, "fid_2": 775, "id": 775, "left": 13.486919847, "top": 67.446110046000001, "right": 13.986919847, "bottom": 66.946110046000001, "row_index": 14, "col_index": 19, "tile_id": 775 }, "geometry": { "type": "MultiPolygon", "coordinates": [ [ [ [ 13.92132720343848, 67.138047299675719 ], [ 13.92166432300426, 67.13824694469767 ], [ 13.922989213528613, 67.13802261962546 ], [ 13.922582103659575, 67.137840448536252 ], [ 13.921032609718528, 67.137928683508733 ], [ 13.919239263447611, 67.138311311399988 ], [ 13.919927102454368, 67.138405673949222 ], [ 13.92132720343848, 67.138047299675719 ] ] ] ] } },
{ "type": "Feature", "properties": { "fid": 26164, "navn": null, "hoyde_moh": null, "arealInnsjo_km2": 0.0028, "magasinKategori": null, "fid_2": 775, "id": 775, "left": 13.486919847, "top": 67.446110046000001, "right": 13.986919847, "bottom": 66.946110046000001, "row_index": 14, "col_index": 19, "tile_id": 775 }, "geometry": { "type": "MultiPolygon", "coordinates": [ [ [ [ 13.771705626796608, 67.108042795358216 ], [ 13.77152683485839, 67.107933758988636 ], [ 13.771716999840432, 67.107818588865214 ], [ 13.770210403144722, 67.107995400940254 ], [ 13.770040067781402, 67.108173614100977 ], [ 13.771069662329502, 67.108316116908881 ], [ 13.771705626796608, 67.108042795358216 ] ] ] ] } },
{ "type": "Feature", "properties": { "fid": 26169, "navn": null, "hoyde_moh": null, "arealInnsjo_km2": 0.0044, "magasinKategori": null, "fid_2": 775, "id": 775, "left": 13.486919847, "top": 67.446110046000001, "right": 13.986919847, "bottom": 66.946110046000001, "row_index": 14, "col_index": 19, "tile_id": 775 }, "geometry": { "type": "MultiPolygon", "coordinates": [ [ [ [ 13.974360618534647, 67.282088227005289 ], [ 13.973489374632047, 67.281840442041712 ], [ 13.972682170056867, 67.282265807279032 ], [ 13.974695212648246, 67.282404352304951 ], [ 13.975287084628199, 67.282130023353886 ], [ 13.974360618534647, 67.282088227005289 ] ] ] ] } },
{ "type": "Feature", "properties": { "fid": 26171, "navn": null, "hoyde_moh": null, "arealInnsjo_km2": 0.0029, "magasinKategori": null, "fid_2": 775, "id": 775, "left": 13.486919847, "top": 67.446110046000001, "right": 13.986919847, "bottom": 66.946110046000001, "row_index": 14, "col_index": 19, "tile_id": 775 }, "geometry": { "type": "MultiPolygon", "coordinates": [ [ [ [ 13.861602389004281, 67.10719271736555 ], [ 13.859830659738941, 67.107144191458843 ], [ 13.859010617294652, 67.107434396098171 ], [ 13.85918937762157, 67.107552303490181 ], [ 13.859767709357218, 67.107502514711797 ], [ 13.860170642259614, 67.107263248728458 ], [ 13.860514426347729, 67.107301588347667 ], [ 13.860273136275113, 67.107533127027651 ], [ 13.861602389004281, 67.10719271736555 ] ] ] ] } },
{ "type": "Feature", "properties": { "fid": 61729, "navn": null, "hoyde_moh": null, "arealInnsjo_km2": 0.0044, "magasinKategori": null, "fid_2": 775, "id": 775, "left": 13.486919847, "top": 67.446110046000001, "right": 13.986919847, "bottom": 66.946110046000001, "row_index": 14, "col_index": 19, "tile_id": 775 }, "geometry": { "type": "MultiPolygon", "coordinates": [ [ [ [ 13.780708647840509, 67.162596970246909 ], [ 13.778331096078846, 67.162121277788657 ], [ 13.778460517745071, 67.162301789376315 ], [ 13.779663996234152, 67.162705637592524 ], [ 13.780648896206447, 67.162865665237376 ], [ 13.781438729142119, 67.163230549751674 ], [ 13.781626791495031, 67.163160208533185 ], [ 13.780708647840509, 67.162596970246909 ] ] ] ] } },
{ "type": "Feature", "properties": { "fid": 66518, "navn": null, "hoyde_moh": null, "arealInnsjo_km2": 0.0104, "magasinKategori": null, "fid_2": 775, "id": 775, "left": 13.486919847, "top": 67.446110046000001, "right": 13.986919847, "bottom": 66.946110046000001, "row_index": 14, "col_index": 19, "tile_id": 775 }, "geometry": { "type": "MultiPolygon", "coordinates": [ [ [ [ 13.758615475355583, 67.051015287436812 ], [ 13.757971608125397, 67.050570740320993 ], [ 13.758600236093191, 67.050414144416635 ], [ 13.758776201154076, 67.050119443763222 ], [ 13.760267838271741, 67.050166940596213 ], [ 13.760274710886868, 67.050032326612481 ], [ 13.758147724152201, 67.049378856139128 ], [ 13.757558876955759, 67.049652394358063 ], [ 13.757622298834059, 67.04976055100677 ], [ 13.758604768822712, 67.049875868597155 ], [ 13.758017520527781, 67.050122505431418 ], [ 13.757915068400271, 67.050327969958417 ], [ 13.756801625999163, 67.050525731360096 ], [ 13.756938589850668, 67.050993336094663 ], [ 13.756793838823933, 67.051126784945339 ], [ 13.758615475355583, 67.051015287436812 ] ] ] ] } },
{ "type": "Feature", "properties": { "fid": 66520, "navn": null, "hoyde_moh": null, "arealInnsjo_km2": 0.0058, "magasinKategori": null, "fid_2": 775, "id": 775, "left": 13.486919847, "top": 67.446110046000001, "right": 13.986919847, "bottom": 66.946110046000001, "row_index": 14, "col_index": 19, "tile_id": 775 }, "geometry": { "type": "MultiPolygon", "coordinates": [ [ [ [ 13.761051618710864, 67.051473952773875 ], [ 13.760762062621779, 67.051292264860137 ], [ 13.761112674588746, 67.051178356472874 ], [ 13.762157175738334, 67.050980119322091 ], [ 13.76319023971427, 67.051006082691472 ], [ 13.761182426968157, 67.05071227296169 ], [ 13.761121821586578, 67.050999080386461 ], [ 13.760319223280689, 67.050956862862861 ], [ 13.759898992518618, 67.051088171560011 ], [ 13.760072278171185, 67.051295872188945 ], [ 13.759959752871309, 67.05169881963738 ], [ 13.760186331242126, 67.051763295431286 ], [ 13.761051618710864, 67.051473952773875 ] ] ] ] } },
{ "type": "Feature", "properties": { "fid": 66533, "navn": null, "hoyde_moh": null, "arealInnsjo_km2": 0.0038, "magasinKategori": null, "fid_2": 775, "id": 775, "left": 13.486919847, "top": 67.446110046000001, "right": 13.986919847, "bottom": 66.946110046000001, "row_index": 14, "col_index": 19, "tile_id": 775 }, "geometry": { "type": "MultiPolygon", "coordinates": [ [ [ [ 13.757501191242017, 67.04628758799592 ], [ 13.75738767803445, 67.045811104659904 ], [ 13.757037102413944, 67.045476411797608 ], [ 13.756530340593931, 67.045499373913998 ], [ 13.756414345010954, 67.0459739774425 ], [ 13.756978329702319, 67.046175758493945 ], [ 13.756913105401054, 67.046552067855544 ], [ 13.757090005236766, 67.046688025527658 ], [ 13.757501191242017, 67.04628758799592 ] ] ] ] } },
{ "type": "Feature", "properties": { "fid": 66586, "navn": null, "hoyde_moh": null, "arealInnsjo_km2": 0.0034, "magasinKategori": null, "fid_2": 775, "id": 775, "left": 13.486919847, "top": 67.446110046000001, "right": 13.986919847, "bottom": 66.946110046000001, "row_index": 14, "col_index": 19, "tile_id": 775 }, "geometry": { "type": "MultiPolygon", "coordinates": [ [ [ [ 13.79545798182801, 67.180786535543646 ], [ 13.794472252522974, 67.18062659829971 ], [ 13.793891801570634, 67.180218503087261 ], [ 13.793554493396899, 67.180494082021454 ], [ 13.794125738588408, 67.180623988633783 ], [ 13.794248663005147, 67.180938831737024 ], [ 13.793022948040338, 67.180956600257446 ], [ 13.794703736663891, 67.181076832841441 ], [ 13.79545798182801, 67.180786535543646 ] ] ] ] } },
{ "type": "Feature", "properties": { "fid": 66598, "navn": null, "hoyde_moh": null, "arealInnsjo_km2": 0.0114, "magasinKategori": null, "fid_2": 775, "id": 775, "left": 13.486919847, "top": 67.446110046000001, "right": 13.986919847, "bottom": 66.946110046000001, "row_index": 14, "col_index": 19, "tile_id": 775 }, "geometry": { "type": "MultiPolygon", "coordinates": [ [ [ [ 13.80247692859286, 67.161828331105795 ], [ 13.803439964180646, 67.161961139220551 ], [ 13.803516771379226, 67.161809106261217 ], [ 13.802530018608287, 67.16121865767208 ], [ 13.803053388662443, 67.160908567098602 ], [ 13.80318124739691, 67.160658228308122 ], [ 13.80224466965711, 67.160453933037786 ], [ 13.802023148935971, 67.160730305283565 ], [ 13.800808188117561, 67.161017356642333 ], [ 13.800799282113616, 67.161196722562849 ], [ 13.801660782335762, 67.161983709596299 ], [ 13.80247692859286, 67.161828331105795 ] ] ] ] } },
{ "type": "Feature", "properties": { "fid": 66641, "navn": null, "hoyde_moh": null, "arealInnsjo_km2": 0.0172, "magasinKategori": null, "fid_2": 775, "id": 775, "left": 13.486919847, "top": 67.446110046000001, "right": 13.986919847, "bottom": 66.946110046000001, "row_index": 14, "col_index": 19, "tile_id": 775 }, "geometry": { "type": "MultiPolygon", "coordinates": [ [ [ [ 13.71255705266648, 67.047850740425588 ], [ 13.711701878321101, 67.047511866882445 ], [ 13.711484994902703, 67.047267780610952 ], [ 13.710211345069309, 67.047015324161933 ], [ 13.710141839313053, 67.046593078911869 ], [ 13.709852722857052, 67.046411299098551 ], [ 13.70762050996332, 67.046034332788153 ], [ 13.707633937823502, 67.046213881270646 ], [ 13.707451114161181, 67.046194454550545 ], [ 13.705891833446948, 67.045697312606507 ], [ 13.705548212799, 67.04567657777865 ], [ 13.70544916040838, 67.045810263200551 ], [ 13.706016533738994, 67.045940568783934 ], [ 13.706366163830577, 67.046284342721734 ], [ 13.707330585393095, 67.046731795683073 ], [ 13.7080164289744, 67.046800161284338 ], [ 13.708141311058691, 67.046612762154723 ], [ 13.708368652926522, 67.046659464815733 ], [ 13.70962796517157, 67.047181069081745 ], [ 13.710040530367397, 67.047202353022683 ], [ 13.711812379454866, 67.048024072531419 ], [ 13.712683470630457, 67.048076060752649 ], [ 13.71255705266648, 67.047850740425588 ] ] ] ] } },
{ "type": "Feature", "properties": { "fid": 71211, "navn": null, "hoyde_moh": null, "arealInnsjo_km2": 0.0042, "magasinKategori": null, "fid_2": 775, "id": 775, "left": 13.486919847, "top": 67.446110046000001, "right": 13.986919847, "bottom": 66.946110046000001, "row_index": 14, "col_index": 19, "tile_id": 775 }, "geometry": { "type": "MultiPolygon", "coordinates": [ [ [ [ 13.894527027878391, 67.111694452192893 ], [ 13.893428270778712, 67.111534328414379 ], [ 13.892798925638168, 67.111691363983454 ], [ 13.892676362297369, 67.111852001053322 ], [ 13.893304150214592, 67.112233244175997 ], [ 13.893930642097756, 67.112138897467517 ], [ 13.894527027878391, 67.111694452192893 ] ] ] ] } },
{ "type": "Feature", "properties": { "fid": 71289, "navn": null, "hoyde_moh": null, "arealInnsjo_km2": 0.0137, "magasinKategori": null, "fid_2": 775, "id": 775, "left": 13.486919847, "top": 67.446110046000001, "right": 13.986919847, "bottom": 66.946110046000001, "row_index": 14, "col_index": 19, "tile_id": 775 }, "geometry": { "type": "MultiPolygon", "coordinates": [ [ [ [ 13.985183114598106, 67.286830900248617 ], [ 13.986802289848272, 67.285863267698772 ], [ 13.986577825744568, 67.285682430049192 ], [ 13.986794227924982, 67.285504372676499 ], [ 13.986112147718801, 67.285168049532061 ], [ 13.985648088099103, 67.285165120598307 ], [ 13.985410365032831, 67.285298365718631 ], [ 13.985480439745322, 67.285836984915349 ], [ 13.983910233025481, 67.28619487863638 ], [ 13.983787043226805, 67.286911788353024 ], [ 13.984776498592476, 67.287115407170958 ], [ 13.985177430898677, 67.286965341239068 ], [ 13.985183114598106, 67.286830900248617 ] ] ] ] } },
{ "type": "Feature", "properties": { "fid": 82074, "navn": null, "hoyde_moh": null, "arealInnsjo_km2": 0.0037, "magasinKategori": null, "fid_2": 775, "id": 775, "left": 13.486919847, "top": 67.446110046000001, "right": 13.986919847, "bottom": 66.946110046000001, "row_index": 14, "col_index": 19, "tile_id": 775 }, "geometry": { "type": "MultiPolygon", "coordinates": [ [ [ [ 13.864636059973131, 67.402839547435761 ], [ 13.863496096920478, 67.40229324685474 ], [ 13.863371834477713, 67.40245376388566 ], [ 13.863771452279503, 67.4028783165177 ], [ 13.863486103595182, 67.402992932588376 ], [ 13.864397856125127, 67.403438943285735 ], [ 13.864635296447794, 67.403350812431398 ], [ 13.864636059973131, 67.402839547435761 ] ] ] ] } },
{ "type": "Feature", "properties": { "fid": 82084, "navn": null, "hoyde_moh": null, "arealInnsjo_km2": 0.0034, "magasinKategori": null, "fid_2": 775, "id": 775, "left": 13.486919847, "top": 67.446110046000001, "right": 13.986919847, "bottom": 66.946110046000001, "row_index": 14, "col_index": 19, "tile_id": 775 }, "geometry": { "type": "MultiPolygon", "coordinates": [ [ [ [ 13.888189175577592, 67.409444798527247 ], [ 13.887617151752551, 67.409198724319936 ], [ 13.886919189929213, 67.409166997826532 ], [ 13.886790631221325, 67.409417214171285 ], [ 13.888236156613806, 67.409938626352201 ], [ 13.888356952711648, 67.409849746831966 ], [ 13.888189175577592, 67.409444798527247 ] ] ] ] } },
{ "type": "Feature", "properties": { "fid": 82301, "navn": null, "hoyde_moh": null, "arealInnsjo_km2": 0.0094, "magasinKategori": null, "fid_2": 775, "id": 775, "left": 13.486919847, "top": 67.446110046000001, "right": 13.986919847, "bottom": 66.946110046000001, "row_index": 14, "col_index": 19, "tile_id": 775 }, "geometry": { "type": "MultiPolygon", "coordinates": [ [ [ [ 13.955542195437157, 67.033748895148278 ], [ 13.956527122159558, 67.033818060127047 ], [ 13.955314507717768, 67.033173319533603 ], [ 13.955273599640174, 67.033056332775402 ], [ 13.955548371215711, 67.033076077465751 ], [ 13.955600076267862, 67.032941844826738 ], [ 13.955084295178148, 67.032651376168772 ], [ 13.954452562886576, 67.032387059081586 ], [ 13.953877061234031, 67.032428137894343 ], [ 13.953935835290544, 67.03265281002858 ], [ 13.954622569932983, 67.033240372397287 ], [ 13.955304533527764, 67.034474023548384 ], [ 13.955778278781784, 67.034674590986285 ], [ 13.955542195437157, 67.033748895148278 ] ] ] ] } },
{ "type": "Feature", "properties": { "fid": 109973, "navn": null, "hoyde_moh": null, "arealInnsjo_km2": 0.0072, "magasinKategori": null, "fid_2": 775, "id": 775, "left": 13.486919847, "top": 67.446110046000001, "right": 13.986919847, "bottom": 66.946110046000001, "row_index": 14, "col_index": 19, "tile_id": 775 }, "geometry": { "type": "MultiPolygon", "coordinates": [ [ [ [ 13.65196704093489, 67.052903392756633 ], [ 13.652813742387252, 67.052973445788638 ], [ 13.65213783995272, 67.052725484654303 ], [ 13.652059371302977, 67.052482574064442 ], [ 13.651659219714109, 67.052236942495824 ], [ 13.65045986322847, 67.051894734103257 ], [ 13.650682703801362, 67.052435037416004 ], [ 13.650348553985879, 67.052656511233835 ], [ 13.650357573307485, 67.052907806852502 ], [ 13.651314184228539, 67.053068429898133 ], [ 13.65196704093489, 67.052903392756633 ] ] ] ] } },
{ "type": "Feature", "properties": { "fid": 110044, "navn": null, "hoyde_moh": null, "arealInnsjo_km2": 0.0025, "magasinKategori": null, "fid_2": 775, "id": 775, "left": 13.486919847, "top": 67.446110046000001, "right": 13.986919847, "bottom": 66.946110046000001, "row_index": 14, "col_index": 19, "tile_id": 775 }, "geometry": { "type": "MultiPolygon", "coordinates": [ [ [ [ 13.755316887281564, 67.049894905736124 ], [ 13.75516523979117, 67.049714463602982 ], [ 13.754754890889773, 67.049648455024112 ], [ 13.753824347289612, 67.049865478503079 ], [ 13.7543380723412, 67.05015668372468 ], [ 13.755028749264204, 67.050135074944563 ], [ 13.755316887281564, 67.049894905736124 ] ] ] ] } },
{ "type": "Feature", "properties": { "fid": 110065, "navn": null, "hoyde_moh": null, "arealInnsjo_km2": 0.0026, "magasinKategori": null, "fid_2": 775, "id": 775, "left": 13.486919847, "top": 67.446110046000001, "right": 13.986919847, "bottom": 66.946110046000001, "row_index": 14, "col_index": 19, "tile_id": 775 }, "geometry": { "type": "MultiPolygon", "coordinates": [ [ [ [ 13.741620622169622, 67.180175031109854 ], [ 13.74139429969688, 67.180083534421016 ], [ 13.740466556860113, 67.180148011939892 ], [ 13.741151309037509, 67.180754505341511 ], [ 13.741740520534622, 67.180534753871527 ], [ 13.741620622169622, 67.180175031109854 ] ] ] ] } },
{ "type": "Feature", "properties": { "fid": 110207, "navn": null, "hoyde_moh": null, "arealInnsjo_km2": 0.0036, "magasinKategori": null, "fid_2": 775, "id": 775, "left": 13.486919847, "top": 67.446110046000001, "right": 13.986919847, "bottom": 66.946110046000001, "row_index": 14, "col_index": 19, "tile_id": 775 }, "geometry": { "type": "MultiPolygon", "coordinates": [ [ [ [ 13.854120476054604, 67.106582969387333 ], [ 13.853894412863458, 67.106491631357969 ], [ 13.852062040339185, 67.106756588854964 ], [ 13.851248069736227, 67.106912224070982 ], [ 13.851194349192859, 67.107073326059506 ], [ 13.852276391998604, 67.1070900779185 ], [ 13.854120476054604, 67.106582969387333 ] ] ] ] } },
{ "type": "Feature", "properties": { "fid": 110290, "navn": null, "hoyde_moh": null, "arealInnsjo_km2": 0.0028, "magasinKategori": null, "fid_2": 775, "id": 775, "left": 13.486919847, "top": 67.446110046000001, "right": 13.986919847, "bottom": 66.946110046000001, "row_index": 14, "col_index": 19, "tile_id": 775 }, "geometry": { "type": "MultiPolygon", "coordinates": [ [ [ [ 13.925073416875415, 67.266990384008921 ], [ 13.925357421675477, 67.266857716239713 ], [ 13.924950126168044, 67.266630708659932 ], [ 13.923976371881158, 67.266624186309414 ], [ 13.924077034361481, 67.266965768367498 ], [ 13.925128697623189, 67.267304747753585 ], [ 13.925073416875415, 67.266990384008921 ] ] ] ] } },
{ "type": "Feature", "properties": { "fid": 110291, "navn": null, "hoyde_moh": null, "arealInnsjo_km2": 0.0033, "magasinKategori": null, "fid_2": 775, "id": 775, "left": 13.486919847, "top": 67.446110046000001, "right": 13.986919847, "bottom": 66.946110046000001, "row_index": 14, "col_index": 19, "tile_id": 775 }, "geometry": { "type": "MultiPolygon", "coordinates": [ [ [ [ 13.975313294214649, 67.269552655279483 ], [ 13.975131617569099, 67.269461784491298 ], [ 13.973329299033535, 67.269845002676178 ], [ 13.974791680451895, 67.269818460509057 ], [ 13.974903793994743, 67.26990888764837 ], [ 13.97478096397254, 67.270069584164034 ], [ 13.975291107104503, 67.270072840085774 ], [ 13.975313294214649, 67.269552655279483 ] ] ] ] } },
{ "type": "Feature", "properties": { "fid": 132408, "navn": null, "hoyde_moh": null, "arealInnsjo_km2": 0.003, "magasinKategori": null, "fid_2": 775, "id": 775, "left": 13.486919847, "top": 67.446110046000001, "right": 13.986919847, "bottom": 66.946110046000001, "row_index": 14, "col_index": 19, "tile_id": 775 }, "geometry": { "type": "MultiPolygon", "coordinates": [ [ [ [ 13.712981729622676, 67.136523620914318 ], [ 13.71280776772155, 67.136324839055064 ], [ 13.712907159645601, 67.136191061346437 ], [ 13.712614570650612, 67.136054127106462 ], [ 13.7113483179239, 67.136007946665856 ], [ 13.712345407829462, 67.136348030813394 ], [ 13.71199094066089, 67.13650666870879 ], [ 13.712790103888029, 67.136656655976196 ], [ 13.712981729622676, 67.136523620914318 ] ] ] ] } },
{ "type": "Feature", "properties": { "fid": 132701, "navn": null, "hoyde_moh": null, "arealInnsjo_km2": 0.004, "magasinKategori": null, "fid_2": 775, "id": 775, "left": 13.486919847, "top": 67.446110046000001, "right": 13.986919847, "bottom": 66.946110046000001, "row_index": 14, "col_index": 19, "tile_id": 775 }, "geometry": { "type": "MultiPolygon", "coordinates": [ [ [ [ 13.786481597643494, 67.104683701333542 ], [ 13.787190414976957, 67.104330217514999 ], [ 13.78500229863999, 67.104322554695003 ], [ 13.785801184034005, 67.104929737351895 ], [ 13.786720083548314, 67.104981580576293 ], [ 13.786481597643494, 67.104683701333542 ] ] ] ] } },
{ "type": "Feature", "properties": { "fid": 138080, "navn": null, "hoyde_moh": 423, "arealInnsjo_km2": 0.0029, "magasinKategori": null, "fid_2": 775, "id": 775, "left": 13.486919847, "top": 67.446110046000001, "right": 13.986919847, "bottom": 66.946110046000001, "row_index": 14, "col_index": 19, "tile_id": 775 }, "geometry": { "type": "MultiPolygon", "coordinates": [ [ [ [ 13.929049056004208, 66.977702900253149 ], [ 13.927318048168342, 66.977804990860932 ], [ 13.927538392633609, 66.978109536532614 ], [ 13.928417685519284, 66.978224648781151 ], [ 13.929049056004208, 66.977702900253149 ] ] ] ] } },
{ "type": "Feature", "properties": { "fid": 138081, "navn": null, "hoyde_moh": 420, "arealInnsjo_km2": 0.0027, "magasinKategori": null, "fid_2": 775, "id": 775, "left": 13.486919847, "top": 67.446110046000001, "right": 13.986919847, "bottom": 66.946110046000001, "row_index": 14, "col_index": 19, "tile_id": 775 }, "geometry": { "type": "MultiPolygon", "coordinates": [ [ [ [ 13.926173370109835, 66.978132710940031 ], [ 13.926198778404233, 66.977717319768729 ], [ 13.925357033458424, 66.977619225693147 ], [ 13.925238771538867, 66.978087190574072 ], [ 13.925838817368488, 66.978261974270225 ], [ 13.926173370109835, 66.978132710940031 ] ] ] ] } },
{ "type": "Feature", "properties": { "fid": 141698, "navn": null, "hoyde_moh": null, "arealInnsjo_km2": 0.0059, "magasinKategori": null, "fid_2": 775, "id": 775, "left": 13.486919847, "top": 67.446110046000001, "right": 13.986919847, "bottom": 66.946110046000001, "row_index": 14, "col_index": 19, "tile_id": 775 }, "geometry": { "type": "MultiPolygon", "coordinates": [ [ [ [ 13.930603239114243, 67.140074260894266 ], [ 13.930663249383066, 67.139760664133846 ], [ 13.930877157668464, 67.139618642432382 ], [ 13.928531904042003, 67.139441457094918 ], [ 13.927877002811123, 67.139643408415154 ], [ 13.928453971399122, 67.139638305148225 ], [ 13.928695744623498, 67.139908977107666 ], [ 13.929905386724011, 67.14020416219401 ], [ 13.930603239114243, 67.140074260894266 ] ] ] ] } },
{ "type": "Feature", "properties": { "fid": 141699, "navn": null, "hoyde_moh": null, "arealInnsjo_km2": 0.0042, "magasinKategori": null, "fid_2": 775, "id": 775, "left": 13.486919847, "top": 67.446110046000001, "right": 13.986919847, "bottom": 66.946110046000001, "row_index": 14, "col_index": 19, "tile_id": 775 }, "geometry": { "type": "MultiPolygon", "coordinates": [ [ [ [ 13.953974952811603, 67.14589875925725 ], [ 13.953176079677334, 67.145696252154892 ], [ 13.952251380035273, 67.14573514239089 ], [ 13.952543505379756, 67.145916392960629 ], [ 13.953349367368368, 67.145957554846461 ], [ 13.955137317126566, 67.146767694808858 ], [ 13.95530151967515, 67.146705968372771 ], [ 13.953974952811603, 67.14589875925725 ] ] ] ] } },
{ "type": "Feature", "properties": { "fid": 141734, "navn": null, "hoyde_moh": null, "arealInnsjo_km2": 0.0029, "magasinKategori": null, "fid_2": 775, "id": 775, "left": 13.486919847, "top": 67.446110046000001, "right": 13.986919847, "bottom": 66.946110046000001, "row_index": 14, "col_index": 19, "tile_id": 775 }, "geometry": { "type": "MultiPolygon", "coordinates": [ [ [ [ 13.970593506467646, 67.27306598543889 ], [ 13.97023871798241, 67.273225191787446 ], [ 13.973833577021864, 67.273786558470775 ], [ 13.973770515418854, 67.273633646120999 ], [ 13.970593506467646, 67.27306598543889 ] ] ] ] } },
{ "type": "Feature", "properties": { "fid": 141782, "navn": null, "hoyde_moh": null, "arealInnsjo_km2": 0.0029, "magasinKategori": null, "fid_2": 775, "id": 775, "left": 13.486919847, "top": 67.446110046000001, "right": 13.986919847, "bottom": 66.946110046000001, "row_index": 14, "col_index": 19, "tile_id": 775 }, "geometry": { "type": "MultiPolygon", "coordinates": [ [ [ [ 13.892622849613675, 67.396350554611857 ], [ 13.89286242370215, 67.396217631620274 ], [ 13.892449913677574, 67.396062289546762 ], [ 13.891706904104417, 67.395994477225571 ], [ 13.891301061076234, 67.39619793542569 ], [ 13.892056977269748, 67.396490207393128 ], [ 13.893218756278557, 67.39657892415353 ], [ 13.892622849613675, 67.396350554611857 ] ] ] ] } },
{ "type": "Feature", "properties": { "fid": 142225, "navn": null, "hoyde_moh": null, "arealInnsjo_km2": 0.0043, "magasinKategori": null, "fid_2": 775, "id": 775, "left": 13.486919847, "top": 67.446110046000001, "right": 13.986919847, "bottom": 66.946110046000001, "row_index": 14, "col_index": 19, "tile_id": 775 }, "geometry": { "type": "MultiPolygon", "coordinates": [ [ [ [ 13.856130011224456, 67.108912040805279 ], [ 13.854515155574379, 67.108954295831779 ], [ 13.853185706814138, 67.10929464617854 ], [ 13.854212026671528, 67.109517240587408 ], [ 13.856130011224456, 67.108912040805279 ] ] ] ] } },
{ "type": "Feature", "properties": { "fid": 153882, "navn": "Kjellingvatnet", "hoyde_moh": 30, "arealInnsjo_km2": 0.0308, "magasinKategori": null, "fid_2": 775, "id": 775, "left": 13.486919847, "top": 67.446110046000001, "right": 13.986919847, "bottom": 66.946110046000001, "row_index": 14, "col_index": 19, "tile_id": 775 }, "geometry": { "type": "MultiPolygon", "coordinates": [ [ [ [ 13.945221301092214, 66.949818817021153 ], [ 13.945539249015125, 66.949336643394275 ], [ 13.944105436774707, 66.949125258950559 ], [ 13.944013041004172, 66.948853703687519 ], [ 13.944312140504474, 66.948553529722901 ], [ 13.94398883179978, 66.948355262378101 ], [ 13.940230216872218, 66.94813016402621 ], [ 13.939804894880989, 66.948199905734981 ], [ 13.939607726488218, 66.948402333905037 ], [ 13.940100793538305, 66.94874914601246 ], [ 13.94099644812885, 66.948870314689984 ], [ 13.940939870669334, 66.949140250716241 ], [ 13.942306258341057, 66.949871565474496 ], [ 13.94460530463396, 66.950004653396576 ], [ 13.945221301092214, 66.949818817021153 ] ] ] ] } },
{ "type": "Feature", "properties": { "fid": 154118, "navn": null, "hoyde_moh": 16, "arealInnsjo_km2": 0.0069, "magasinKategori": null, "fid_2": 775, "id": 775, "left": 13.486919847, "top": 67.446110046000001, "right": 13.986919847, "bottom": 66.946110046000001, "row_index": 14, "col_index": 19, "tile_id": 775 }, "geometry": { "type": "MultiPolygon", "coordinates": [ [ [ [ 13.982211863424759, 66.963560762390614 ], [ 13.981999403927304, 66.963366873920492 ], [ 13.980257981670734, 66.963041618340156 ], [ 13.979525691698736, 66.962748574688277 ], [ 13.978867411501888, 66.962854336593324 ], [ 13.978980585264562, 66.96303942753039 ], [ 13.979841831079099, 66.963228155863092 ], [ 13.98092195106417, 66.963736859985943 ], [ 13.981943825316867, 66.963765568773724 ], [ 13.982211863424759, 66.963560762390614 ] ] ] ] } },
{ "type": "Feature", "properties": { "fid": 176152, "navn": null, "hoyde_moh": 173, "arealInnsjo_km2": 0.0066, "magasinKategori": null, "fid_2": 775, "id": 775, "left": 13.486919847, "top": 67.446110046000001, "right": 13.986919847, "bottom": 66.946110046000001, "row_index": 14, "col_index": 19, "tile_id": 775 }, "geometry": { "type": "MultiPolygon", "coordinates": [ [ [ [ 13.914280460082558, 66.996644013143182 ], [ 13.913044365252743, 66.996118720981684 ], [ 13.911424142893589, 66.995871511543683 ], [ 13.911742151081567, 66.99604773562082 ], [ 13.911505039713022, 66.996293459801578 ], [ 13.911612324221837, 66.996453528887372 ], [ 13.91371743215422, 66.996885452620717 ], [ 13.914280460082558, 66.996644013143182 ] ] ] ] } },
{ "type": "Feature", "properties": { "fid": 176635, "navn": null, "hoyde_moh": 14, "arealInnsjo_km2": 0.0037, "magasinKategori": null, "fid_2": 775, "id": 775, "left": 13.486919847, "top": 67.446110046000001, "right": 13.986919847, "bottom": 66.946110046000001, "row_index": 14, "col_index": 19, "tile_id": 775 }, "geometry": { "type": "MultiPolygon", "coordinates": [ [ [ [ 13.979565943389391, 66.967642949652799 ], [ 13.979846789635266, 66.967440113263308 ], [ 13.978698869171231, 66.967053786591364 ], [ 13.978404349358225, 66.967079884852055 ], [ 13.978113052000358, 66.967406188704018 ], [ 13.978139249087842, 66.967529894277519 ], [ 13.978820453460186, 66.967722134827554 ], [ 13.979565943389391, 66.967642949652799 ] ] ] ] } },
{ "type": "Feature", "properties": { "fid": 189598, "navn": "Bjørnvatnet", "hoyde_moh": 467, "arealInnsjo_km2": 0.0132, "magasinKategori": null, "fid_2": 775, "id": 775, "left": 13.486919847, "top": 67.446110046000001, "right": 13.986919847, "bottom": 66.946110046000001, "row_index": 14, "col_index": 19, "tile_id": 775 }, "geometry": { "type": "MultiPolygon", "coordinates": [ [ [ [ 13.907338831961944, 66.979194387443485 ], [ 13.90677156447763, 66.978643848616244 ], [ 13.906502004994657, 66.977945350102715 ], [ 13.906825066892187, 66.978018267814193 ], [ 13.90705230787507, 66.978413773020677 ], [ 13.907600660117904, 66.978762589064971 ], [ 13.907910022470221, 66.978635253991897 ], [ 13.907951562519113, 66.978071405132567 ], [ 13.907204374194933, 66.97802257982444 ], [ 13.906524093562773, 66.977621627147386 ], [ 13.905530914718476, 66.977595773847852 ], [ 13.905824977175072, 66.978421570461279 ], [ 13.90557085447201, 66.978977137541705 ], [ 13.90579714785336, 66.979322038198475 ], [ 13.906380902961923, 66.979413168477237 ], [ 13.907338831961944, 66.979194387443485 ] ] ] ] } },
{ "type": "Feature", "properties": { "fid": 195585, "navn": "Vigdelvatnet", "hoyde_moh": 172, "arealInnsjo_km2": 0.0244, "magasinKategori": null, "fid_2": 775, "id": 775, "left": 13.486919847, "top": 67.446110046000001, "right": 13.986919847, "bottom": 66.946110046000001, "row_index": 14, "col_index": 19, "tile_id": 775 }, "geometry": { "type": "MultiPolygon", "coordinates": [ [ [ [ 13.906351672131031, 66.996347206553537 ], [ 13.906467287087883, 66.996121917367304 ], [ 13.906743635438621, 66.996024949732927 ], [ 13.90984492113652, 66.996046140731977 ], [ 13.910536588581195, 66.995841392367879 ], [ 13.910124386098463, 66.995484730182511 ], [ 13.909217335159452, 66.995168366368347 ], [ 13.908588389003269, 66.995201912947678 ], [ 13.907704262970823, 66.995571395555729 ], [ 13.90721612294463, 66.995175536654429 ], [ 13.90616058506853, 66.995153748822318 ], [ 13.905070698413823, 66.995441955047795 ], [ 13.904688807613269, 66.99581021171285 ], [ 13.904896303190142, 66.996392640027864 ], [ 13.905565450890425, 66.99663391487988 ], [ 13.906351672131031, 66.996347206553537 ] ] ] ] } },
{ "type": "Feature", "properties": { "fid": 207547, "navn": null, "hoyde_moh": 5, "arealInnsjo_km2": 0.012, "magasinKategori": null, "fid_2": 775, "id": 775, "left": 13.486919847, "top": 67.446110046000001, "right": 13.986919847, "bottom": 66.946110046000001, "row_index": 14, "col_index": 19, "tile_id": 775 }, "geometry": { "type": "MultiPolygon", "coordinates": [ [ [ [ 13.921140869202627, 66.948241106478662 ], [ 13.921037734341702, 66.94791285262329 ], [ 13.919572821018967, 66.947397165397177 ], [ 13.918912219761596, 66.947403615884298 ], [ 13.918478673752757, 66.947611317886199 ], [ 13.918709532897909, 66.948388036781253 ], [ 13.920133885543638, 66.948667771831381 ], [ 13.921140869202627, 66.948241106478662 ] ] ] ] } },
{ "type": "Feature", "properties": { "fid": 213123, "navn": null, "hoyde_moh": 6, "arealInnsjo_km2": 0.0415, "magasinKategori": null, "fid_2": 775, "id": 775, "left": 13.486919847, "top": 67.446110046000001, "right": 13.986919847, "bottom": 66.946110046000001, "row_index": 14, "col_index": 19, "tile_id": 775 }, "geometry": { "type": "MultiPolygon", "coordinates": [ [ [ [ 13.911590549719175, 66.946239875858154 ], [ 13.911664820366413, 66.946110046 ], [ 13.906567551193405, 66.946110046 ], [ 13.906620216831111, 66.946168236526034 ], [ 13.910035402631618, 66.946224187209182 ], [ 13.910870255463628, 66.946384495327734 ], [ 13.911590549719175, 66.946239875858154 ] ] ] ] } },
{ "type": "Feature", "properties": { "fid": 219744, "navn": null, "hoyde_moh": 429, "arealInnsjo_km2": 0.0188, "magasinKategori": null, "fid_2": 775, "id": 775, "left": 13.486919847, "top": 67.446110046000001, "right": 13.986919847, "bottom": 66.946110046000001, "row_index": 14, "col_index": 19, "tile_id": 775 }, "geometry": { "type": "MultiPolygon", "coordinates": [ [ [ [ 13.926480303530077, 66.975483058677213 ], [ 13.926662643836414, 66.975161762045914 ], [ 13.926444562355584, 66.974999160283758 ], [ 13.923155122758539, 66.974043511640375 ], [ 13.922336920152084, 66.974100140451014 ], [ 13.92251363004581, 66.974570641228226 ], [ 13.9224891296236, 66.975057452175363 ], [ 13.922740992605243, 66.975222441584236 ], [ 13.923576199625659, 66.975373079193389 ], [ 13.923702288244618, 66.975060376447374 ], [ 13.924342037057235, 66.97506569301855 ], [ 13.924897489409039, 66.975522334870675 ], [ 13.925855865236763, 66.975644815051027 ], [ 13.92656760491921, 66.975920114722584 ], [ 13.926480303530077, 66.975483058677213 ] ] ] ] } },
{ "type": "Feature", "properties": { "fid": 221057, "navn": null, "hoyde_moh": 7, "arealInnsjo_km2": 0.0071, "magasinKategori": null, "fid_2": 775, "id": 775, "left": 13.486919847, "top": 67.446110046000001, "right": 13.986919847, "bottom": 66.946110046000001, "row_index": 14, "col_index": 19, "tile_id": 775 }, "geometry": { "type": "MultiPolygon", "coordinates": [ [ [ [ 13.958690221949823, 67.038012992007438 ], [ 13.958631700788143, 67.037770380870768 ], [ 13.958126549246531, 67.037228792335867 ], [ 13.957655424213936, 67.036965539132993 ], [ 13.956801847492008, 67.037049666673482 ], [ 13.956855343255716, 67.037408874367728 ], [ 13.957249486613579, 67.037860026221367 ], [ 13.957586287481444, 67.038041658844165 ], [ 13.958690221949823, 67.038012992007438 ] ] ] ] } },
{ "type": "Feature", "properties": { "fid": 221058, "navn": null, "hoyde_moh": 287, "arealInnsjo_km2": 0.0274, "magasinKategori": null, "fid_2": 775, "id": 775, "left": 13.486919847, "top": 67.446110046000001, "right": 13.986919847, "bottom": 66.946110046000001, "row_index": 14, "col_index": 19, "tile_id": 775 }, "geometry": { "type": "MultiPolygon", "coordinates": [ [ [ [ 13.803973685266156, 67.06255892129181 ], [ 13.805508835894335, 67.062669117895467 ], [ 13.805927928005076, 67.062564596106498 ], [ 13.806726298248607, 67.062229647153345 ], [ 13.807360575481715, 67.061489739327783 ], [ 13.806962229123499, 67.061172748761919 ], [ 13.806227288066298, 67.061149304428085 ], [ 13.803354109006099, 67.061594207325726 ], [ 13.802598587441118, 67.061992353240299 ], [ 13.802487606239579, 67.062377304471767 ], [ 13.801386775886638, 67.062781733174219 ], [ 13.802464593495866, 67.062843661951646 ], [ 13.803973685266156, 67.06255892129181 ] ] ] ] } },
{ "type": "Feature", "properties": { "fid": 225714, "navn": "Langvatnet", "hoyde_moh": 420, "arealInnsjo_km2": 0.0853, "magasinKategori": null, "fid_2": 775, "id": 775, "left": 13.486919847, "top": 67.446110046000001, "right": 13.986919847, "bottom": 66.946110046000001, "row_index": 14, "col_index": 19, "tile_id": 775 }, "geometry": { "type": "MultiPolygon", "coordinates": [ [ [ [ 13.928310363296479, 66.983708057392889 ], [ 13.927885327260448, 66.98317300005094 ], [ 13.928233386979299, 66.982732779478283 ], [ 13.927268692329838, 66.982002808706994 ], [ 13.926954619652552, 66.981478634846326 ], [ 13.926671267954241, 66.981526873570814 ], [ 13.926496660833985, 66.981947268421891 ], [ 13.925895632517946, 66.981938185866738 ], [ 13.9264644776243, 66.981782961374734 ], [ 13.926479265323838, 66.981145632019278 ], [ 13.925861511334542, 66.980507799113326 ], [ 13.925745688331357, 66.980192563489155 ], [ 13.924591098859475, 66.979874612180524 ], [ 13.924827379162702, 66.979542378135307 ], [ 13.925366491604297, 66.979686068634592 ], [ 13.925928070362538, 66.979419011530368 ], [ 13.927193733859982, 66.979327433233053 ], [ 13.926919760617821, 66.979168492525858 ], [ 13.926863964007298, 66.978931535934763 ], [ 13.925744039262483, 66.978394920524082 ], [ 13.924806835213628, 66.978460178891766 ], [ 13.922647998190065, 66.977974109997319 ], [ 13.922333652407533, 66.977651246106447 ], [ 13.921684582112862, 66.977435564966257 ], [ 13.921732046504422, 66.977212225569275 ], [ 13.921135810129568, 66.976978508655748 ], [ 13.920439255072536, 66.976981855051051 ], [ 13.919440384453372, 66.97747747797392 ], [ 13.919630288302473, 66.978171732980499 ], [ 13.920365818087399, 66.97856708217661 ], [ 13.921686305117573, 66.978546346912594 ], [ 13.922823274344237, 66.978819970726022 ], [ 13.922633442564303, 66.979272645957039 ], [ 13.923646611808772, 66.979771328776323 ], [ 13.923482352235542, 66.980122619900328 ], [ 13.922700038842244, 66.980187120465175 ], [ 13.92277382804723, 66.980394684126068 ], [ 13.92388003588789, 66.981123129097284 ], [ 13.925336580046014, 66.981663377966257 ], [ 13.925390861558984, 66.981783784263243 ], [ 13.925043517244063, 66.982082253062316 ], [ 13.925087998684143, 66.982341652389835 ], [ 13.927607078215052, 66.983969323038664 ], [ 13.92806066839572, 66.984043166597957 ], [ 13.928310363296479, 66.983708057392889 ] ] ] ] } },
{ "type": "Feature", "properties": { "fid": 229302, "navn": "Storvikvatnet", "hoyde_moh": 183, "arealInnsjo_km2": 0.676, "magasinKategori": null, "fid_2": 775, "id": 775, "left": 13.486919847, "top": 67.446110046000001, "right": 13.986919847, "bottom": 66.946110046000001, "row_index": 14, "col_index": 19, "tile_id": 775 }, "geometry": { "type": "MultiPolygon", "coordinates": [ [ [ [ 13.874593109290622, 66.963119676289296 ], [ 13.874310702336777, 66.962926489485213 ], [ 13.874871153667936, 66.962980610158866 ], [ 13.875065313367436, 66.963170479783059 ], [ 13.87548489091545, 66.963006665664636 ], [ 13.876271090018029, 66.963022723778352 ], [ 13.876229321919693, 66.962825769137169 ], [ 13.87664310697614, 66.962981302955825 ], [ 13.877538591668038, 66.962847223616976 ], [ 13.879008061805225, 66.963005808040492 ], [ 13.879266552844237, 66.962813214967156 ], [ 13.878116021179766, 66.962243649211828 ], [ 13.875256037080071, 66.961394000504256 ], [ 13.87504068874332, 66.960948826208423 ], [ 13.875728486440085, 66.960519733407324 ], [ 13.876243880837304, 66.960457168008119 ], [ 13.87637567995065, 66.960146333952522 ], [ 13.875314107721815, 66.959856664296836 ], [ 13.87510906085266, 66.959441618009436 ], [ 13.874585380451579, 66.959202761864745 ], [ 13.873580839622901, 66.95894389819982 ], [ 13.872621372314043, 66.958899322789094 ], [ 13.870740754767535, 66.95914507121671 ], [ 13.86916292680772, 66.959042966659013 ], [ 13.862518088752008, 66.957333706427349 ], [ 13.859920548971466, 66.956217667928726 ], [ 13.858029593860312, 66.956142900615575 ], [ 13.855470185407439, 66.955758347504542 ], [ 13.853427991607298, 66.955268300038739 ], [ 13.851325309921341, 66.955077534495203 ], [ 13.851078546146411, 66.954940366544477 ], [ 13.851092948931909, 66.954736632632915 ], [ 13.850462494372749, 66.954535770350162 ], [ 13.849100414240491, 66.954750561645696 ], [ 13.848819636920386, 66.954500009901366 ], [ 13.848806229002816, 66.954167957944463 ], [ 13.848445985856545, 66.953690113425978 ], [ 13.845328832725974, 66.953000706861957 ], [ 13.844323414803636, 66.952506318970734 ], [ 13.842699548229779, 66.952526885490315 ], [ 13.84152816628503, 66.952848688205606 ], [ 13.839388227518945, 66.953846789388948 ], [ 13.838961105260326, 66.954321235958574 ], [ 13.838882992152168, 66.954663655963941 ], [ 13.837851376402542, 66.954706085842574 ], [ 13.838812008946656, 66.955370920307132 ], [ 13.83881832467328, 66.955930894750196 ], [ 13.839498979092586, 66.956326678209749 ], [ 13.839601665946342, 66.956695001607272 ], [ 13.840096193570364, 66.956874190100848 ], [ 13.84105975766272, 66.956940614583729 ], [ 13.842194683743893, 66.957323639472548 ], [ 13.845279447920477, 66.957444598035252 ], [ 13.85235519423898, 66.958892135482316 ], [ 13.860043536719774, 66.959916156294213 ], [ 13.861888512949095, 66.960683274768741 ], [ 13.865028650422426, 66.960870275157163 ], [ 13.866967034974786, 66.961357006573209 ], [ 13.868170365109135, 66.961478266414218 ], [ 13.87048551005431, 66.962362391822282 ], [ 13.87447530616954, 66.963230629217833 ], [ 13.874593109290622, 66.963119676289296 ] ] ] ] } },
{ "type": "Feature", "properties": { "fid": 229311, "navn": "Forsvatnet", "hoyde_moh": 183, "arealInnsjo_km2": 0.2202, "magasinKategori": null, "fid_2": 775, "id": 775, "left": 13.486919847, "top": 67.446110046000001, "right": 13.986919847, "bottom": 66.946110046000001, "row_index": 14, "col_index": 19, "tile_id": 775 }, "geometry": { "type": "MultiPolygon", "coordinates": [ [ [ [ 13.92078959766687, 66.995765395414224 ], [ 13.92180496267938, 66.99550923390504 ], [ 13.918985913782485, 66.994473536723632 ], [ 13.921604972877939, 66.99430308857454 ], [ 13.922322436878773, 66.994035394605788 ], [ 13.926547402608737, 66.994482033019736 ], [ 13.928107242962279, 66.993763164136041 ], [ 13.929532257327423, 66.993699282392697 ], [ 13.930284342267816, 66.993397963342673 ], [ 13.930453157409756, 66.993219488242246 ], [ 13.930437840794573, 66.992832084007802 ], [ 13.92757283068115, 66.992042229673061 ], [ 13.924489781524736, 66.992149169953649 ], [ 13.923051299601628, 66.991793405105781 ], [ 13.920390862660788, 66.991894962320231 ], [ 13.918165580419666, 66.99178555307283 ], [ 13.916076375285192, 66.99186481478263 ], [ 13.91242362669813, 66.992636020784886 ], [ 13.912172662668842, 66.992797497761103 ], [ 13.912126306655059, 66.99314734131822 ], [ 13.911701297491309, 66.993226524249152 ], [ 13.911488439913281, 66.993438142840162 ], [ 13.911937874969377, 66.993951700002683 ], [ 13.913441767360922, 66.994516242353413 ], [ 13.91391706838405, 66.994893422894421 ], [ 13.913526550673986, 66.995545591266151 ], [ 13.91389075531384, 66.995802063137049 ], [ 13.914283413055921, 66.995806358118287 ], [ 13.914867416833919, 66.995546398990356 ], [ 13.914828909461177, 66.995417304646523 ], [ 13.91511773860171, 66.995296633170881 ], [ 13.915128812122949, 66.995145896658443 ], [ 13.914668616527237, 66.995015810181272 ], [ 13.914568748774697, 66.994817664645879 ], [ 13.915384472192377, 66.994559912553996 ], [ 13.917376482232706, 66.994763588331281 ], [ 13.9200021751903, 66.995850844199211 ], [ 13.920680126894524, 66.995953414285779 ], [ 13.92078959766687, 66.995765395414224 ] ] ] ] } }
]
}
