{
"type": "FeatureCollection",
"name": "innsjo_tile_id_153",
"crs": { "type": "name", "properties": { "name": "urn:ogc:def:crs:OGC:1.3:CRS84" } },
"xy_coordinate_resolution": 1e-15,
"features": [
{ "type": "Feature", "properties": { "fid": 5353, "navn": "Vallatjørna", "hoyde_moh": null, "arealInnsjo_km2": 0.0106, "magasinKategori": null, "fid_2": 153, "id": 153, "left": 5.486919847, "top": 58.446110046000001, "right": 5.986919847, "bottom": 57.946110046000001, "row_index": 32, "col_index": 3, "tile_id": 153 }, "geometry": { "type": "MultiPolygon", "coordinates": [ [ [ [ 5.890195626921154, 58.430199420924581 ], [ 5.889833153221809, 58.429840105359418 ], [ 5.889835576279832, 58.429426809752627 ], [ 5.889504832410629, 58.429095151114105 ], [ 5.888970423809351, 58.428938420722552 ], [ 5.888045965808335, 58.429122665223893 ], [ 5.88796299410685, 58.429480141874095 ], [ 5.890013459195465, 58.430320877797833 ], [ 5.890195626921154, 58.430199420924581 ] ] ] ] } },
{ "type": "Feature", "properties": { "fid": 111032, "navn": null, "hoyde_moh": null, "arealInnsjo_km2": 0.015, "magasinKategori": null, "fid_2": 153, "id": 153, "left": 5.486919847, "top": 58.446110046000001, "right": 5.986919847, "bottom": 57.946110046000001, "row_index": 32, "col_index": 3, "tile_id": 153 }, "geometry": { "type": "MultiPolygon", "coordinates": [ [ [ [ 5.955853512129548, 58.432810132874728 ], [ 5.955875922567492, 58.432154676053941 ], [ 5.955656623341776, 58.431915784573064 ], [ 5.954333836448363, 58.431956094378982 ], [ 5.953060634654186, 58.432609007106585 ], [ 5.953101995768917, 58.432726758192231 ], [ 5.953845660297926, 58.432645620590492 ], [ 5.955548241471701, 58.433171412648441 ], [ 5.955853512129548, 58.432810132874728 ] ] ] ] } },
{ "type": "Feature", "properties": { "fid": 111048, "navn": null, "hoyde_moh": null, "arealInnsjo_km2": 0.0045, "magasinKategori": null, "fid_2": 153, "id": 153, "left": 5.486919847, "top": 58.446110046000001, "right": 5.986919847, "bottom": 57.946110046000001, "row_index": 32, "col_index": 3, "tile_id": 153 }, "geometry": { "type": "MultiPolygon", "coordinates": [ [ [ [ 5.954129538798036, 58.426388415203498 ], [ 5.954059566357239, 58.426206843823216 ], [ 5.953602596778572, 58.426142081303517 ], [ 5.952315760970145, 58.426363137442564 ], [ 5.952740050818311, 58.426606869183772 ], [ 5.953592608512982, 58.426654167307092 ], [ 5.954129538798036, 58.426388415203498 ] ] ] ] } },
{ "type": "Feature", "properties": { "fid": 128314, "navn": null, "hoyde_moh": null, "arealInnsjo_km2": 0.0121, "magasinKategori": null, "fid_2": 153, "id": 153, "left": 5.486919847, "top": 58.446110046000001, "right": 5.986919847, "bottom": 57.946110046000001, "row_index": 32, "col_index": 3, "tile_id": 153 }, "geometry": { "type": "MultiPolygon", "coordinates": [ [ [ [ 5.94833957388338, 58.43627126360407 ], [ 5.94838539521951, 58.436137495336588 ], [ 5.948107052927947, 58.435987064599594 ], [ 5.948281950188801, 58.435748579193785 ], [ 5.949347715571561, 58.435513347459384 ], [ 5.94865132491675, 58.435442821425923 ], [ 5.948477058150806, 58.435276946384135 ], [ 5.947358580859702, 58.435528832480195 ], [ 5.946981477417951, 58.435924276227681 ], [ 5.946834003741728, 58.436442025291583 ], [ 5.947731756433589, 58.436957768401776 ], [ 5.94833957388338, 58.43627126360407 ] ] ] ] } },
{ "type": "Feature", "properties": { "fid": 128458, "navn": null, "hoyde_moh": null, "arealInnsjo_km2": 0.0032, "magasinKategori": null, "fid_2": 153, "id": 153, "left": 5.486919847, "top": 58.446110046000001, "right": 5.986919847, "bottom": 57.946110046000001, "row_index": 32, "col_index": 3, "tile_id": 153 }, "geometry": { "type": "MultiPolygon", "coordinates": [ [ [ [ 5.975264743233675, 58.420076910625973 ], [ 5.975223372863687, 58.41976135479608 ], [ 5.97488743206303, 58.419483869591673 ], [ 5.974213576319663, 58.419351121403189 ], [ 5.974804764455443, 58.420048049524574 ], [ 5.974689109790614, 58.420198090298605 ], [ 5.975264743233675, 58.420076910625973 ] ] ] ] } },
{ "type": "Feature", "properties": { "fid": 141871, "navn": null, "hoyde_moh": null, "arealInnsjo_km2": 0.0065, "magasinKategori": null, "fid_2": 153, "id": 153, "left": 5.486919847, "top": 58.446110046000001, "right": 5.986919847, "bottom": 57.946110046000001, "row_index": 32, "col_index": 3, "tile_id": 153 }, "geometry": { "type": "MultiPolygon", "coordinates": [ [ [ [ 5.951944833719708, 58.44590132523485 ], [ 5.951982147968924, 58.446110046 ], [ 5.952244561533751, 58.446110046 ], [ 5.951944833719708, 58.44590132523485 ] ] ] ] } },
{ "type": "Feature", "properties": { "fid": 156242, "navn": null, "hoyde_moh": 60, "arealInnsjo_km2": 0.0128, "magasinKategori": null, "fid_2": 153, "id": 153, "left": 5.486919847, "top": 58.446110046000001, "right": 5.986919847, "bottom": 57.946110046000001, "row_index": 32, "col_index": 3, "tile_id": 153 }, "geometry": { "type": "MultiPolygon", "coordinates": [ [ [ [ 5.962816090414973, 58.444874392737681 ], [ 5.963190701407114, 58.444703554187846 ], [ 5.963494635720179, 58.444360224695934 ], [ 5.963370881440246, 58.44420446769292 ], [ 5.961458959619799, 58.444312036517374 ], [ 5.960862134439854, 58.444675283428431 ], [ 5.960949919240838, 58.44484817844512 ], [ 5.961746213329461, 58.444956890529696 ], [ 5.961659166383217, 58.445368201661751 ], [ 5.961847345385033, 58.445372722658327 ], [ 5.961819477847726, 58.445497834107741 ], [ 5.961599337898106, 58.445465659475595 ], [ 5.961239590550475, 58.445861474374183 ], [ 5.961532687108812, 58.446039294913028 ], [ 5.962816090414973, 58.444874392737681 ] ] ] ] } },
{ "type": "Feature", "properties": { "fid": 183679, "navn": null, "hoyde_moh": 22, "arealInnsjo_km2": 0.0172, "magasinKategori": null, "fid_2": 153, "id": 153, "left": 5.486919847, "top": 58.446110046000001, "right": 5.986919847, "bottom": 57.946110046000001, "row_index": 32, "col_index": 3, "tile_id": 153 }, "geometry": { "type": "MultiPolygon", "coordinates": [ [ [ [ 5.96948143132613, 58.441320596871051 ], [ 5.969759141678658, 58.441479962594329 ], [ 5.970212907430279, 58.441185107529627 ], [ 5.970844984145379, 58.441209029907021 ], [ 5.971089017942861, 58.440963142586106 ], [ 5.971697742920988, 58.440860661319164 ], [ 5.970210909519329, 58.440609852377378 ], [ 5.968072974289584, 58.440757014489407 ], [ 5.966699388162516, 58.441182810860411 ], [ 5.966958423190676, 58.441359735267035 ], [ 5.968745191631869, 58.441509850056356 ], [ 5.96948143132613, 58.441320596871051 ] ] ] ] } },
{ "type": "Feature", "properties": { "fid": 199095, "navn": "Sæstadvatnet", "hoyde_moh": 18, "arealInnsjo_km2": 0.0988, "magasinKategori": null, "fid_2": 153, "id": 153, "left": 5.486919847, "top": 58.446110046000001, "right": 5.986919847, "bottom": 57.946110046000001, "row_index": 32, "col_index": 3, "tile_id": 153 }, "geometry": { "type": "MultiPolygon", "coordinates": [ [ [ [ 5.969870974151592, 58.431012574166822 ], [ 5.969849792438867, 58.430661684881414 ], [ 5.970207679481966, 58.430085885118515 ], [ 5.97048854902139, 58.430209346253164 ], [ 5.971186868262296, 58.429659617060565 ], [ 5.971116786892131, 58.428480662428562 ], [ 5.971599879884899, 58.428042738812898 ], [ 5.971763347764742, 58.427336610114075 ], [ 5.972161121249294, 58.427094416837171 ], [ 5.972462810499439, 58.426571258868904 ], [ 5.972815793871794, 58.426453876661256 ], [ 5.973032058958087, 58.425928717451797 ], [ 5.973475042174893, 58.425759463217091 ], [ 5.974757895268235, 58.425780713339826 ], [ 5.97547496119508, 58.425411325436045 ], [ 5.975834978530507, 58.425410775276077 ], [ 5.975687823263624, 58.425128809588259 ], [ 5.976143783380454, 58.424807003984554 ], [ 5.976091556102569, 58.424616954108565 ], [ 5.975256996937525, 58.42415693845178 ], [ 5.97387247342157, 58.424124227242018 ], [ 5.971532275046986, 58.424841726202409 ], [ 5.971779592134693, 58.425153121645032 ], [ 5.971427814178416, 58.425459368979986 ], [ 5.97162941827694, 58.425904543996694 ], [ 5.97094727890805, 58.42626582454934 ], [ 5.970507108968008, 58.426803713891253 ], [ 5.970050222595871, 58.426936653730799 ], [ 5.969743674157661, 58.427711294238712 ], [ 5.969261261221439, 58.428337953074397 ], [ 5.969159217260257, 58.42892867027853 ], [ 5.968886550958233, 58.42911100352979 ], [ 5.969512878730268, 58.429997518568619 ], [ 5.96897081627104, 58.43072165008001 ], [ 5.969204101090976, 58.430996735573089 ], [ 5.969870974151592, 58.431012574166822 ] ] ] ] } },
{ "type": "Feature", "properties": { "fid": 199096, "navn": null, "hoyde_moh": 12, "arealInnsjo_km2": 0.0196, "magasinKategori": null, "fid_2": 153, "id": 153, "left": 5.486919847, "top": 58.446110046000001, "right": 5.986919847, "bottom": 57.946110046000001, "row_index": 32, "col_index": 3, "tile_id": 153 }, "geometry": { "type": "MultiPolygon", "coordinates": [ [ [ [ 5.898733269683869, 58.435016927517999 ], [ 5.898652497579929, 58.43437690085306 ], [ 5.89926088237009, 58.43388846588612 ], [ 5.89924565952194, 58.433672287896805 ], [ 5.898320616290754, 58.433667948715339 ], [ 5.897713230417618, 58.432781364645564 ], [ 5.896509061908654, 58.433417289880921 ], [ 5.896598244469324, 58.433572277653816 ], [ 5.89724173299509, 58.433659724872605 ], [ 5.897458633623782, 58.434312029083202 ], [ 5.897385156190758, 58.434561876001496 ], [ 5.897926754401328, 58.435222158400009 ], [ 5.898580645096289, 58.435192996319415 ], [ 5.898733269683869, 58.435016927517999 ] ], [ [ 5.897856813149425, 58.434070071501061 ], [ 5.898146070037033, 58.434095025275319 ], [ 5.898057693602953, 58.434317427776563 ], [ 5.897757283872587, 58.434229434282258 ], [ 5.897856813149425, 58.434070071501061 ] ] ] ] } },
{ "type": "Feature", "properties": { "fid": 199102, "navn": "Smådalsvatnet", "hoyde_moh": 28, "arealInnsjo_km2": 0.0624, "magasinKategori": null, "fid_2": 153, "id": 153, "left": 5.486919847, "top": 58.446110046000001, "right": 5.986919847, "bottom": 57.946110046000001, "row_index": 32, "col_index": 3, "tile_id": 153 }, "geometry": { "type": "MultiPolygon", "coordinates": [ [ [ [ 5.953665220153241, 58.438896377144019 ], [ 5.953865690740562, 58.438559619589654 ], [ 5.954380306741565, 58.438356223106993 ], [ 5.955096375597217, 58.438400202575124 ], [ 5.955537913006543, 58.438248872314595 ], [ 5.955591383305003, 58.438025498350278 ], [ 5.955003659565549, 58.437885598053171 ], [ 5.954942234912912, 58.43760563544059 ], [ 5.955422388421701, 58.437005950601595 ], [ 5.956123606341404, 58.436824853815743 ], [ 5.956414203443617, 58.436040873221664 ], [ 5.955984959841932, 58.435653274851617 ], [ 5.955468647086473, 58.435479161123851 ], [ 5.954510984349756, 58.435456475287701 ], [ 5.954274769416114, 58.43561256110074 ], [ 5.954470637218605, 58.435922773504956 ], [ 5.954361956342388, 58.435992002542697 ], [ 5.952704638133539, 58.436527806418148 ], [ 5.951823131533152, 58.436614759852873 ], [ 5.950263684021386, 58.43720672849863 ], [ 5.950266740597055, 58.437368635719487 ], [ 5.950515669981239, 58.437464395929553 ], [ 5.953342180923122, 58.437279990768069 ], [ 5.954108823762461, 58.437531899048587 ], [ 5.953524196002211, 58.437949361174411 ], [ 5.953072632464542, 58.438019578387859 ], [ 5.952994901533624, 58.438125604685233 ], [ 5.95327081831975, 58.438302858880157 ], [ 5.953140371196256, 58.438425549266356 ], [ 5.952648231706039, 58.43836894690881 ], [ 5.952041091260226, 58.438650933987155 ], [ 5.952006982160316, 58.439243415600494 ], [ 5.951715523183606, 58.439443080917194 ], [ 5.951649319598664, 58.439810075419835 ], [ 5.953665220153241, 58.438896377144019 ] ], [ [ 5.954648298143944, 58.437832318839426 ], [ 5.95485605326289, 58.438008062947326 ], [ 5.954800853161397, 58.438051649529562 ], [ 5.954583060426999, 58.437992618956272 ], [ 5.954648298143944, 58.437832318839426 ] ] ] ] } },
{ "type": "Feature", "properties": { "fid": 211552, "navn": "Skreddalsvatnet", "hoyde_moh": 8, "arealInnsjo_km2": 0.0889, "magasinKategori": null, "fid_2": 153, "id": 153, "left": 5.486919847, "top": 58.446110046000001, "right": 5.986919847, "bottom": 57.946110046000001, "row_index": 32, "col_index": 3, "tile_id": 153 }, "geometry": { "type": "MultiPolygon", "coordinates": [ [ [ [ 5.94985067260125, 58.442966735434432 ], [ 5.949561939889848, 58.442537446022577 ], [ 5.950015448212927, 58.4422516697175 ], [ 5.94935396340193, 58.441975247081629 ], [ 5.949354565830467, 58.441768615747002 ], [ 5.950790667129459, 58.442207201554169 ], [ 5.951651168405358, 58.441967000863144 ], [ 5.952190078237715, 58.441485588991348 ], [ 5.951842415753799, 58.441342521722866 ], [ 5.952091985871923, 58.441231559257972 ], [ 5.952448876482785, 58.441267067920542 ], [ 5.952422525912047, 58.441374220614087 ], [ 5.953822661750916, 58.441434533403928 ], [ 5.956082315058215, 58.44206342674692 ], [ 5.956158485350683, 58.441777623418865 ], [ 5.955864246200203, 58.441015730369266 ], [ 5.955536951775407, 58.440837177769069 ], [ 5.953393407788789, 58.440849105863848 ], [ 5.951030673263523, 58.440622287146006 ], [ 5.949818540707835, 58.440764200801233 ], [ 5.94861819981173, 58.440573716324174 ], [ 5.94556597893086, 58.4405907459535 ], [ 5.942927850836034, 58.440375147226028 ], [ 5.94281353747264, 58.440507198153412 ], [ 5.944895519353162, 58.441203951867358 ], [ 5.945743016073825, 58.4413140678978 ], [ 5.94635565879953, 58.441166909245794 ], [ 5.946887431494331, 58.441359321945917 ], [ 5.947277003644572, 58.441611253767668 ], [ 5.947158830799256, 58.44178819830482 ], [ 5.947433937929458, 58.442172172832478 ], [ 5.947259167906367, 58.442410668179697 ], [ 5.948157902017322, 58.442521974866402 ], [ 5.949161029107357, 58.443013314569654 ], [ 5.94985067260125, 58.442966735434432 ] ] ] ] } },
{ "type": "Feature", "properties": { "fid": 217283, "navn": "Hagavatnet", "hoyde_moh": 2, "arealInnsjo_km2": 0.0499, "magasinKategori": null, "fid_2": 153, "id": 153, "left": 5.486919847, "top": 58.446110046000001, "right": 5.986919847, "bottom": 57.946110046000001, "row_index": 32, "col_index": 3, "tile_id": 153 }, "geometry": { "type": "MultiPolygon", "coordinates": [ [ [ [ 5.897432804598483, 58.429934600835907 ], [ 5.896976385264876, 58.429474091496147 ], [ 5.896627319497505, 58.428378169076417 ], [ 5.897113033415338, 58.427922699104407 ], [ 5.896377811640764, 58.427320630650627 ], [ 5.89565501626313, 58.427357035252108 ], [ 5.89544340379015, 58.425868867877178 ], [ 5.893120568057014, 58.426369882725211 ], [ 5.893285719193789, 58.426634473572648 ], [ 5.893195265612799, 58.426884005453402 ], [ 5.893862955981978, 58.427277550663106 ], [ 5.89378114036895, 58.427428422605722 ], [ 5.894203002648333, 58.4275014601251 ], [ 5.895039897823542, 58.428115070604029 ], [ 5.895427843793859, 58.429544412648617 ], [ 5.896103429172444, 58.430046188267191 ], [ 5.896998698659089, 58.430193675541126 ], [ 5.897432804598483, 58.429934600835907 ] ] ] ] } },
{ "type": "Feature", "properties": { "fid": 222287, "navn": "Holevigtjørna", "hoyde_moh": 24, "arealInnsjo_km2": 0.0292, "magasinKategori": null, "fid_2": 153, "id": 153, "left": 5.486919847, "top": 58.446110046000001, "right": 5.986919847, "bottom": 57.946110046000001, "row_index": 32, "col_index": 3, "tile_id": 153 }, "geometry": { "type": "MultiPolygon", "coordinates": [ [ [ [ 5.975108271406514, 58.44445521042352 ], [ 5.975032622921176, 58.444138937787706 ], [ 5.974399578685032, 58.442928708659494 ], [ 5.974676255578437, 58.4419016376104 ], [ 5.974055197141507, 58.441752240207677 ], [ 5.973566125103826, 58.44205517031817 ], [ 5.972734182408281, 58.443158898353801 ], [ 5.972733694233001, 58.443365622111585 ], [ 5.97240175249471, 58.443636345498163 ], [ 5.972750514143991, 58.444165848357805 ], [ 5.973518568230906, 58.444004300392777 ], [ 5.973656675030153, 58.44459174264761 ], [ 5.974900191386306, 58.444683965645851 ], [ 5.975108271406514, 58.44445521042352 ] ] ] ] } },
{ "type": "Feature", "properties": { "fid": 228693, "navn": "Svartavatnet", "hoyde_moh": 5, "arealInnsjo_km2": 0.054, "magasinKategori": null, "fid_2": 153, "id": 153, "left": 5.486919847, "top": 58.446110046000001, "right": 5.986919847, "bottom": 57.946110046000001, "row_index": 32, "col_index": 3, "tile_id": 153 }, "geometry": { "type": "MultiPolygon", "coordinates": [ [ [ [ 5.970415476432892, 58.420294849496152 ], [ 5.971178732611574, 58.420384739211805 ], [ 5.971733689199315, 58.420703442179956 ], [ 5.972359265264599, 58.420799172961374 ], [ 5.971874868970463, 58.419457567607331 ], [ 5.971994895292041, 58.418858193934149 ], [ 5.972546135094309, 58.418224227704272 ], [ 5.972904352849567, 58.418241717007447 ], [ 5.974104319560779, 58.417829676230895 ], [ 5.973306015500388, 58.417550157146216 ], [ 5.971635007918134, 58.417663357584473 ], [ 5.971485730023244, 58.417606056613089 ], [ 5.971538245256037, 58.416996107774786 ], [ 5.971404593344679, 58.416956988120397 ], [ 5.971220607245804, 58.417303149239437 ], [ 5.970597112892304, 58.4177827580776 ], [ 5.969921904139427, 58.417865589065123 ], [ 5.970016095308478, 58.418164396667024 ], [ 5.968776002510555, 58.418045228610659 ], [ 5.968878773533914, 58.418245377788409 ], [ 5.969635672729661, 58.418407088770479 ], [ 5.969711132280686, 58.41852562865914 ], [ 5.969517723121363, 58.418583970199897 ], [ 5.96948677955871, 58.418942718024844 ], [ 5.970038629227572, 58.419297340040245 ], [ 5.969825057433511, 58.419391103351053 ], [ 5.969691885268858, 58.419945192498659 ], [ 5.969284057005868, 58.420303995088354 ], [ 5.969294387687873, 58.420582845428569 ], [ 5.969651114890587, 58.420618212106589 ], [ 5.970415476432892, 58.420294849496152 ] ] ] ] } }
]
}
