{
"type": "FeatureCollection",
"name": "innsjo_tile_id_891",
"crs": { "type": "name", "properties": { "name": "urn:ogc:def:crs:OGC:1.3:CRS84" } },
"xy_coordinate_resolution": 1e-15,
"features": [
{ "type": "Feature", "properties": { "fid": 15630, "navn": null, "hoyde_moh": null, "arealInnsjo_km2": 0.0074, "magasinKategori": null, "fid_2": 891, "id": 891, "left": 14.986919847, "top": 69.446110046000001, "right": 15.486919847, "bottom": 68.946110046000001, "row_index": 10, "col_index": 22, "tile_id": 891 }, "geometry": { "type": "MultiPolygon", "coordinates": [ [ [ [ 15.056076473080658, 68.977766195975192 ], [ 15.055825848831315, 68.977434451843138 ], [ 15.056249879584923, 68.977201137704213 ], [ 15.055051172586623, 68.97729121066412 ], [ 15.053476916318782, 68.977022662117633 ], [ 15.053502655630123, 68.977336453994994 ], [ 15.053253375212353, 68.977542802139141 ], [ 15.055177678165126, 68.977936795954108 ], [ 15.056076473080658, 68.977766195975192 ] ] ] ] } },
{ "type": "Feature", "properties": { "fid": 15644, "navn": null, "hoyde_moh": null, "arealInnsjo_km2": 0.0036, "magasinKategori": null, "fid_2": 891, "id": 891, "left": 14.986919847, "top": 69.446110046000001, "right": 15.486919847, "bottom": 68.946110046000001, "row_index": 10, "col_index": 22, "tile_id": 891 }, "geometry": { "type": "MultiPolygon", "coordinates": [ [ [ [ 15.153665743017566, 68.959653044604607 ], [ 15.15418960627389, 68.959616789021879 ], [ 15.154213560248964, 68.95947318468447 ], [ 15.153512875772989, 68.959204766314201 ], [ 15.15353589867626, 68.958926817546896 ], [ 15.152238012340987, 68.958909952774206 ], [ 15.152609956791116, 68.959246739855445 ], [ 15.153541578855213, 68.959707055811137 ], [ 15.153765699791885, 68.959670980977933 ], [ 15.153665743017566, 68.959653044604607 ] ] ] ] } },
{ "type": "Feature", "properties": { "fid": 31263, "navn": "Trollvatnet", "hoyde_moh": 136, "arealInnsjo_km2": 0.0104, "magasinKategori": null, "fid_2": 891, "id": 891, "left": 14.986919847, "top": 69.446110046000001, "right": 15.486919847, "bottom": 68.946110046000001, "row_index": 10, "col_index": 22, "tile_id": 891 }, "geometry": { "type": "MultiPolygon", "coordinates": [ [ [ [ 15.117059986942207, 69.00809290640278 ], [ 15.118258092630073, 69.007625733616365 ], [ 15.117630485850977, 69.007195689916955 ], [ 15.116704195099004, 69.007034805777423 ], [ 15.115255295332165, 69.007421512188955 ], [ 15.115384884886893, 69.008237535884803 ], [ 15.117059986942207, 69.00809290640278 ] ] ] ] } },
{ "type": "Feature", "properties": { "fid": 31682, "navn": "Storvatnet", "hoyde_moh": 141, "arealInnsjo_km2": 0.156, "magasinKategori": null, "fid_2": 891, "id": 891, "left": 14.986919847, "top": 69.446110046000001, "right": 15.486919847, "bottom": 68.946110046000001, "row_index": 10, "col_index": 22, "tile_id": 891 }, "geometry": { "type": "MultiPolygon", "coordinates": [ [ [ [ 15.474465067321258, 68.970650689899159 ], [ 15.47572225445434, 68.969893840415196 ], [ 15.474720284133532, 68.969735193403892 ], [ 15.474643198496699, 68.969645722428965 ], [ 15.474955615518343, 68.969079838413691 ], [ 15.473956520590249, 68.969064585465091 ], [ 15.473398568814062, 68.968662638779634 ], [ 15.473365187117782, 68.968259148378195 ], [ 15.474614948749428, 68.966013554303132 ], [ 15.47505522425873, 68.965590810765576 ], [ 15.474926349637302, 68.965402830237977 ], [ 15.474045629385238, 68.965091377925361 ], [ 15.472670982214911, 68.965005500957602 ], [ 15.46875349254668, 68.965097009393872 ], [ 15.466075472520339, 68.965956342982963 ], [ 15.46531426175118, 68.966559307223477 ], [ 15.465325238047427, 68.967079450466926 ], [ 15.468390071776996, 68.967967927743345 ], [ 15.469703801143405, 68.968690770802141 ], [ 15.471464357212964, 68.969286812738815 ], [ 15.470858930231284, 68.970167485004097 ], [ 15.470722901134144, 68.970813502294092 ], [ 15.47110568653842, 68.971198093229404 ], [ 15.473349143328493, 68.971012524455276 ], [ 15.474465067321258, 68.970650689899159 ] ] ] ] } },
{ "type": "Feature", "properties": { "fid": 31683, "navn": "Nyksundvatnan", "hoyde_moh": 167, "arealInnsjo_km2": 0.0356, "magasinKategori": null, "fid_2": 891, "id": 891, "left": 14.986919847, "top": 69.446110046000001, "right": 15.486919847, "bottom": 68.946110046000001, "row_index": 10, "col_index": 22, "tile_id": 891 }, "geometry": { "type": "MultiPolygon", "coordinates": [ [ [ [ 15.057640965287883, 68.98381925878482 ], [ 15.057940104085047, 68.983559077907913 ], [ 15.058014114283136, 68.98320032206955 ], [ 15.057263506166121, 68.982788034712769 ], [ 15.051539365240078, 68.981597076061448 ], [ 15.051840026277727, 68.982072303456775 ], [ 15.0516408727235, 68.982269755325305 ], [ 15.051641650250383, 68.982601491357613 ], [ 15.053216304665078, 68.982879114553128 ], [ 15.054766994726776, 68.983551155365248 ], [ 15.055817179585626, 68.983775022488487 ], [ 15.055817474736475, 68.983891520192017 ], [ 15.055193198867977, 68.984133955736922 ], [ 15.055994219314545, 68.984716632692425 ], [ 15.057640965287883, 68.98381925878482 ] ] ] ] } },
{ "type": "Feature", "properties": { "fid": 43064, "navn": null, "hoyde_moh": null, "arealInnsjo_km2": 0.0081, "magasinKategori": null, "fid_2": 891, "id": 891, "left": 14.986919847, "top": 69.446110046000001, "right": 15.486919847, "bottom": 68.946110046000001, "row_index": 10, "col_index": 22, "tile_id": 891 }, "geometry": { "type": "MultiPolygon", "coordinates": [ [ [ [ 15.180420675106735, 68.947447892114866 ], [ 15.179670459453822, 68.947215596082202 ], [ 15.179669364483299, 68.947081072189832 ], [ 15.1806658578806, 68.946927559040361 ], [ 15.180664389122745, 68.946748104171149 ], [ 15.179189977162705, 68.946408950689502 ], [ 15.178442781383046, 68.946544258229338 ], [ 15.177747734064035, 68.946930621619344 ], [ 15.179271870354061, 68.947278793367374 ], [ 15.179998237669393, 68.947645731011022 ], [ 15.180372253639527, 68.947627399675909 ], [ 15.180420675106735, 68.947447892114866 ] ] ] ] } },
{ "type": "Feature", "properties": { "fid": 43129, "navn": null, "hoyde_moh": null, "arealInnsjo_km2": 0.0056, "magasinKategori": null, "fid_2": 891, "id": 891, "left": 14.986919847, "top": 69.446110046000001, "right": 15.486919847, "bottom": 68.946110046000001, "row_index": 10, "col_index": 22, "tile_id": 891 }, "geometry": { "type": "MultiPolygon", "coordinates": [ [ [ [ 15.211229433484716, 68.971187708764958 ], [ 15.211079093735488, 68.971134084560632 ], [ 15.211325705051888, 68.970810830483231 ], [ 15.211149108972979, 68.970622713945701 ], [ 15.209875462947984, 68.970606435744827 ], [ 15.209555539204445, 68.971099996388773 ], [ 15.209532188897537, 68.971270512830159 ], [ 15.210108313447222, 68.971458140338939 ], [ 15.211229433484716, 68.971187708764958 ] ] ] ] } },
{ "type": "Feature", "properties": { "fid": 43338, "navn": null, "hoyde_moh": null, "arealInnsjo_km2": 0.0049, "magasinKategori": null, "fid_2": 891, "id": 891, "left": 14.986919847, "top": 69.446110046000001, "right": 15.486919847, "bottom": 68.946110046000001, "row_index": 10, "col_index": 22, "tile_id": 891 }, "geometry": { "type": "MultiPolygon", "coordinates": [ [ [ [ 15.045284130835869, 68.989105195435556 ], [ 15.043708508726768, 68.988513789780882 ], [ 15.042983839811997, 68.988415322563682 ], [ 15.042359087347544, 68.988550002362572 ], [ 15.042384336813704, 68.988684520029508 ], [ 15.043034587094422, 68.98893546896818 ], [ 15.044384645435651, 68.989204171779051 ], [ 15.045284130835869, 68.989105195435556 ] ] ] ] } },
{ "type": "Feature", "properties": { "fid": 61624, "navn": null, "hoyde_moh": null, "arealInnsjo_km2": 0.0042, "magasinKategori": null, "fid_2": 891, "id": 891, "left": 14.986919847, "top": 69.446110046000001, "right": 15.486919847, "bottom": 68.946110046000001, "row_index": 10, "col_index": 22, "tile_id": 891 }, "geometry": { "type": "MultiPolygon", "coordinates": [ [ [ [ 15.064438614108326, 68.975844037437113 ], [ 15.064687270495773, 68.975467275863906 ], [ 15.06511167322892, 68.975404426474725 ], [ 15.065161094076037, 68.975224952399429 ], [ 15.06441138396694, 68.975072775808286 ], [ 15.064162283754358, 68.975297166123383 ], [ 15.063163664727181, 68.975351258016858 ], [ 15.063139338512757, 68.975665156719259 ], [ 15.063764438402339, 68.975906978498614 ], [ 15.064438614108326, 68.975844037437113 ] ] ] ] } },
{ "type": "Feature", "properties": { "fid": 61845, "navn": null, "hoyde_moh": null, "arealInnsjo_km2": 0.0187, "magasinKategori": null, "fid_2": 891, "id": 891, "left": 14.986919847, "top": 69.446110046000001, "right": 15.486919847, "bottom": 68.946110046000001, "row_index": 10, "col_index": 22, "tile_id": 891 }, "geometry": { "type": "MultiPolygon", "coordinates": [ [ [ [ 15.139254884984071, 68.989673400821772 ], [ 15.139453740571897, 68.989502841513271 ], [ 15.137501482849594, 68.989038071673136 ], [ 15.135302156371084, 68.989021889117325 ], [ 15.134353589560712, 68.989202002435619 ], [ 15.134031104195625, 68.989596859646369 ], [ 15.134107389954577, 68.989812038491195 ], [ 15.135532042760921, 68.989828852072876 ], [ 15.135933575158791, 68.990097581734148 ], [ 15.136783313194034, 68.990096904297118 ], [ 15.139254884984071, 68.989673400821772 ] ] ] ] } },
{ "type": "Feature", "properties": { "fid": 61846, "navn": null, "hoyde_moh": null, "arealInnsjo_km2": 0.0146, "magasinKategori": null, "fid_2": 891, "id": 891, "left": 14.986919847, "top": 69.446110046000001, "right": 15.486919847, "bottom": 68.946110046000001, "row_index": 10, "col_index": 22, "tile_id": 891 }, "geometry": { "type": "MultiPolygon", "coordinates": [ [ [ [ 15.036041086795665, 68.991376452207916 ], [ 15.035989969868451, 68.990838367470246 ], [ 15.036789807501314, 68.990721609941119 ], [ 15.034240360989815, 68.990623488453423 ], [ 15.033340880458745, 68.990964459973057 ], [ 15.031592007830284, 68.991251776185507 ], [ 15.031442429792058, 68.991520761796238 ], [ 15.033067334702439, 68.991717846737743 ], [ 15.036041086795665, 68.991376452207916 ] ] ] ] } },
{ "type": "Feature", "properties": { "fid": 62003, "navn": null, "hoyde_moh": null, "arealInnsjo_km2": 0.0076, "magasinKategori": null, "fid_2": 891, "id": 891, "left": 14.986919847, "top": 69.446110046000001, "right": 15.486919847, "bottom": 68.946110046000001, "row_index": 10, "col_index": 22, "tile_id": 891 }, "geometry": { "type": "MultiPolygon", "coordinates": [ [ [ [ 15.471566501125915, 69.009079697527895 ], [ 15.474479299098283, 69.008434886610246 ], [ 15.47377161576026, 69.008096045224278 ], [ 15.472469644066523, 69.008036775269673 ], [ 15.473025112980125, 69.008277479287003 ], [ 15.473850764358613, 69.00827519545588 ], [ 15.473854818251166, 69.008463432349245 ], [ 15.472234924854328, 69.008754989939078 ], [ 15.471906680194705, 69.008612310139384 ], [ 15.470657589243565, 69.008687586858002 ], [ 15.470777279673664, 69.008436140710387 ], [ 15.470526772600911, 69.008418892628143 ], [ 15.469903379506603, 69.008510289873385 ], [ 15.469711895176564, 69.008914396279096 ], [ 15.470092258194798, 69.00915532115863 ], [ 15.470714713294939, 69.009019262907145 ], [ 15.471566501125915, 69.009079697527895 ] ] ] ] } },
{ "type": "Feature", "properties": { "fid": 75650, "navn": null, "hoyde_moh": null, "arealInnsjo_km2": 0.0059, "magasinKategori": null, "fid_2": 891, "id": 891, "left": 14.986919847, "top": 69.446110046000001, "right": 15.486919847, "bottom": 68.946110046000001, "row_index": 10, "col_index": 22, "tile_id": 891 }, "geometry": { "type": "MultiPolygon", "coordinates": [ [ [ [ 15.08387605983587, 68.983969831711292 ], [ 15.083475851876887, 68.983853440014286 ], [ 15.082626689491491, 68.983943535153827 ], [ 15.082800643248136, 68.983692339403561 ], [ 15.081824626563622, 68.983262332174078 ], [ 15.081000003290743, 68.983226851696813 ], [ 15.08020128127357, 68.983442466707672 ], [ 15.081176631915874, 68.983630340169768 ], [ 15.082077595218058, 68.984033392624895 ], [ 15.083601663318179, 68.984086643297431 ], [ 15.08387605983587, 68.983969831711292 ] ] ] ] } },
{ "type": "Feature", "properties": { "fid": 75662, "navn": null, "hoyde_moh": null, "arealInnsjo_km2": 0.0027, "magasinKategori": null, "fid_2": 891, "id": 891, "left": 14.986919847, "top": 69.446110046000001, "right": 15.486919847, "bottom": 68.946110046000001, "row_index": 10, "col_index": 22, "tile_id": 891 }, "geometry": { "type": "MultiPolygon", "coordinates": [ [ [ [ 15.065432949069613, 68.974256274455726 ], [ 15.065931578414467, 68.973969097914619 ], [ 15.065006862142912, 68.973655562303321 ], [ 15.064507348213622, 68.973727497780956 ], [ 15.064608399959875, 68.974122063911494 ], [ 15.065133494919552, 68.974337103334719 ], [ 15.065432949069613, 68.974256274455726 ] ] ] ] } },
{ "type": "Feature", "properties": { "fid": 75681, "navn": null, "hoyde_moh": null, "arealInnsjo_km2": 0.0032, "magasinKategori": null, "fid_2": 891, "id": 891, "left": 14.986919847, "top": 69.446110046000001, "right": 15.486919847, "bottom": 68.946110046000001, "row_index": 10, "col_index": 22, "tile_id": 891 }, "geometry": { "type": "MultiPolygon", "coordinates": [ [ [ [ 15.171278640172693, 68.955484050679274 ], [ 15.169928965526056, 68.955198412346206 ], [ 15.169604374019004, 68.955171919668047 ], [ 15.169281707797612, 68.955396268488485 ], [ 15.169283084636678, 68.955575723283161 ], [ 15.169858249803694, 68.955736582123961 ], [ 15.170656756339239, 68.955735786210909 ], [ 15.171278640172693, 68.955484050679274 ] ] ] ] } },
{ "type": "Feature", "properties": { "fid": 84204, "navn": null, "hoyde_moh": null, "arealInnsjo_km2": 0.0196, "magasinKategori": null, "fid_2": 891, "id": 891, "left": 14.986919847, "top": 69.446110046000001, "right": 15.486919847, "bottom": 68.946110046000001, "row_index": 10, "col_index": 22, "tile_id": 891 }, "geometry": { "type": "MultiPolygon", "coordinates": [ [ [ [ 15.232816239414907, 68.948658089190218 ], [ 15.232614126577497, 68.948416308671554 ], [ 15.23278769989826, 68.948317330528695 ], [ 15.232808197923267, 68.947895700098243 ], [ 15.23205647346134, 68.947573952130696 ], [ 15.232104381101218, 68.947385551504098 ], [ 15.231676664622782, 68.947036276708502 ], [ 15.23082615158148, 68.946804340932658 ], [ 15.230328225488821, 68.946894786570624 ], [ 15.230133634095276, 68.94737028219464 ], [ 15.230337863587499, 68.947818424670302 ], [ 15.230140179428728, 68.947998058341497 ], [ 15.230647035819704, 68.948759774441044 ], [ 15.231497997679305, 68.949027494271917 ], [ 15.232694917021382, 68.94898111539537 ], [ 15.232816239414907, 68.948658089190218 ] ] ] ] } },
{ "type": "Feature", "properties": { "fid": 84331, "navn": null, "hoyde_moh": null, "arealInnsjo_km2": 0.0031, "magasinKategori": null, "fid_2": 891, "id": 891, "left": 14.986919847, "top": 69.446110046000001, "right": 15.486919847, "bottom": 68.946110046000001, "row_index": 10, "col_index": 22, "tile_id": 891 }, "geometry": { "type": "MultiPolygon", "coordinates": [ [ [ [ 15.260031521228916, 68.95286085410963 ], [ 15.260354706406737, 68.952761709725706 ], [ 15.258906104638298, 68.952656291438714 ], [ 15.258333349821926, 68.952728815968641 ], [ 15.258260599645814, 68.95290829329592 ], [ 15.259960579452379, 68.953192701956368 ], [ 15.260308615264988, 68.953084641161752 ], [ 15.260031521228916, 68.95286085410963 ] ] ] ] } },
{ "type": "Feature", "properties": { "fid": 84533, "navn": "Steinvatnet", "hoyde_moh": null, "arealInnsjo_km2": 0.0168, "magasinKategori": null, "fid_2": 891, "id": 891, "left": 14.986919847, "top": 69.446110046000001, "right": 15.486919847, "bottom": 68.946110046000001, "row_index": 10, "col_index": 22, "tile_id": 891 }, "geometry": { "type": "MultiPolygon", "coordinates": [ [ [ [ 15.181940769166925, 68.995677947052386 ], [ 15.18208542062823, 68.995032076548981 ], [ 15.183906592460419, 68.994590682362087 ], [ 15.183329040276025, 68.994277412211417 ], [ 15.182528319790409, 68.994179706969888 ], [ 15.180608267466459, 68.994755625545736 ], [ 15.180291450602097, 68.995751439436972 ], [ 15.18037136826203, 68.99635214059613 ], [ 15.180923270602086, 68.99658482291666 ], [ 15.181247084210895, 68.996440987617348 ], [ 15.181940769166925, 68.995677947052386 ] ] ] ] } },
{ "type": "Feature", "properties": { "fid": 105337, "navn": "Latjønna", "hoyde_moh": null, "arealInnsjo_km2": 0.0055, "magasinKategori": null, "fid_2": 891, "id": 891, "left": 14.986919847, "top": 69.446110046000001, "right": 15.486919847, "bottom": 68.946110046000001, "row_index": 10, "col_index": 22, "tile_id": 891 }, "geometry": { "type": "MultiPolygon", "coordinates": [ [ [ [ 15.47502073143378, 68.999913336166486 ], [ 15.474844167182665, 68.999842168133171 ], [ 15.474460516613581, 68.999954082784456 ], [ 15.473889047799446, 68.999611546078697 ], [ 15.472361597177246, 68.999508148090953 ], [ 15.473293619906471, 68.999828437584583 ], [ 15.474158581230419, 69.000516615399832 ], [ 15.475081962660546, 69.000433337800899 ], [ 15.47502073143378, 68.999913336166486 ] ] ] ] } },
{ "type": "Feature", "properties": { "fid": 105340, "navn": "Saltvatnet", "hoyde_moh": null, "arealInnsjo_km2": 0.0055, "magasinKategori": null, "fid_2": 891, "id": 891, "left": 14.986919847, "top": 69.446110046000001, "right": 15.486919847, "bottom": 68.946110046000001, "row_index": 10, "col_index": 22, "tile_id": 891 }, "geometry": { "type": "MultiPolygon", "coordinates": [ [ [ [ 15.159769209156037, 68.978776932208646 ], [ 15.160219295305748, 68.978839289076816 ], [ 15.160891842967258, 68.978578576883521 ], [ 15.159590781068299, 68.978283842569482 ], [ 15.158218680865819, 68.978527172208629 ], [ 15.15852101172548, 68.978885713656737 ], [ 15.159271240969048, 68.979001604234199 ], [ 15.159769209156037, 68.978776932208646 ] ] ] ] } },
{ "type": "Feature", "properties": { "fid": 105366, "navn": null, "hoyde_moh": null, "arealInnsjo_km2": 0.0043, "magasinKategori": null, "fid_2": 891, "id": 891, "left": 14.986919847, "top": 69.446110046000001, "right": 15.486919847, "bottom": 68.946110046000001, "row_index": 10, "col_index": 22, "tile_id": 891 }, "geometry": { "type": "MultiPolygon", "coordinates": [ [ [ [ 15.470524755079259, 69.015342549177944 ], [ 15.46945897611773, 69.014645935428035 ], [ 15.469455148025057, 69.014466576804907 ], [ 15.468829285365443, 69.014450354968673 ], [ 15.468581959097836, 69.014585558924139 ], [ 15.468891750033054, 69.015033133490689 ], [ 15.469397888740797, 69.015300800182359 ], [ 15.470226429869081, 69.01543305336989 ], [ 15.470524755079259, 69.015342549177944 ] ] ] ] } },
{ "type": "Feature", "properties": { "fid": 105367, "navn": null, "hoyde_moh": null, "arealInnsjo_km2": 0.0032, "magasinKategori": null, "fid_2": 891, "id": 891, "left": 14.986919847, "top": 69.446110046000001, "right": 15.486919847, "bottom": 68.946110046000001, "row_index": 10, "col_index": 22, "tile_id": 891 }, "geometry": { "type": "MultiPolygon", "coordinates": [ [ [ [ 15.465646191632134, 69.01537382441839 ], [ 15.465642774196784, 69.015212401583938 ], [ 15.464462096152841, 69.014991397472684 ], [ 15.463965230885659, 69.015172024039728 ], [ 15.463970908001665, 69.01544115183998 ], [ 15.464147625325813, 69.015503451990227 ], [ 15.465646191632134, 69.01537382441839 ] ] ] ] } },
{ "type": "Feature", "properties": { "fid": 105448, "navn": null, "hoyde_moh": null, "arealInnsjo_km2": 0.0026, "magasinKategori": null, "fid_2": 891, "id": 891, "left": 14.986919847, "top": 69.446110046000001, "right": 15.486919847, "bottom": 68.946110046000001, "row_index": 10, "col_index": 22, "tile_id": 891 }, "geometry": { "type": "MultiPolygon", "coordinates": [ [ [ [ 15.152555072896376, 68.957842530096528 ], [ 15.151331626707393, 68.957753935148986 ], [ 15.150933256894907, 68.957888812324057 ], [ 15.150934974296566, 68.958139833948124 ], [ 15.152108404904153, 68.958210629341835 ], [ 15.152555072896376, 68.957842530096528 ] ] ] ] } },
{ "type": "Feature", "properties": { "fid": 122492, "navn": null, "hoyde_moh": null, "arealInnsjo_km2": 0.0037, "magasinKategori": null, "fid_2": 891, "id": 891, "left": 14.986919847, "top": 69.446110046000001, "right": 15.486919847, "bottom": 68.946110046000001, "row_index": 10, "col_index": 22, "tile_id": 891 }, "geometry": { "type": "MultiPolygon", "coordinates": [ [ [ [ 15.209357478080145, 68.971279695249152 ], [ 15.209330463480853, 68.971064488596127 ], [ 15.20850465173611, 68.970877163262898 ], [ 15.207356434519998, 68.970923401785072 ], [ 15.206934125268702, 68.971157089986079 ], [ 15.208533095375474, 68.971217924810489 ], [ 15.209284359062154, 68.971495024534349 ], [ 15.209583494743805, 68.971413943084301 ], [ 15.209357478080145, 68.971279695249152 ] ] ] ] } },
{ "type": "Feature", "properties": { "fid": 122493, "navn": null, "hoyde_moh": null, "arealInnsjo_km2": 0.0053, "magasinKategori": null, "fid_2": 891, "id": 891, "left": 14.986919847, "top": 69.446110046000001, "right": 15.486919847, "bottom": 68.946110046000001, "row_index": 10, "col_index": 22, "tile_id": 891 }, "geometry": { "type": "MultiPolygon", "coordinates": [ [ [ [ 15.130586132639335, 68.973393744788382 ], [ 15.129810465310671, 68.973098381950464 ], [ 15.127811489729577, 68.972947517085274 ], [ 15.127462543830166, 68.973064365460573 ], [ 15.128763863424849, 68.973529741317236 ], [ 15.130113068554332, 68.973636339132952 ], [ 15.130586132639335, 68.973393744788382 ] ] ] ] } },
{ "type": "Feature", "properties": { "fid": 127517, "navn": null, "hoyde_moh": null, "arealInnsjo_km2": 0.0025, "magasinKategori": null, "fid_2": 891, "id": 891, "left": 14.986919847, "top": 69.446110046000001, "right": 15.486919847, "bottom": 68.946110046000001, "row_index": 10, "col_index": 22, "tile_id": 891 }, "geometry": { "type": "MultiPolygon", "coordinates": [ [ [ [ 15.038666862625437, 68.949476072548308 ], [ 15.038117376628664, 68.949090469378092 ], [ 15.037344417276461, 68.949305879429247 ], [ 15.037394887314527, 68.949646843247464 ], [ 15.038243085522337, 68.949655623709347 ], [ 15.038666862625437, 68.949476072548308 ] ] ] ] } },
{ "type": "Feature", "properties": { "fid": 136774, "navn": "Grunnvatnet", "hoyde_moh": 28, "arealInnsjo_km2": 0.0115, "magasinKategori": null, "fid_2": 891, "id": 891, "left": 14.986919847, "top": 69.446110046000001, "right": 15.486919847, "bottom": 68.946110046000001, "row_index": 10, "col_index": 22, "tile_id": 891 }, "geometry": { "type": "MultiPolygon", "coordinates": [ [ [ [ 15.150881368352495, 69.00867627543029 ], [ 15.151958184205803, 69.008818725332134 ], [ 15.152080646252696, 69.008477822613443 ], [ 15.150299444387496, 69.007708215125163 ], [ 15.149002327991804, 69.008229508436401 ], [ 15.149378738199061, 69.008408455888926 ], [ 15.149456214710451, 69.00876720838626 ], [ 15.149883404677016, 69.00901794615045 ], [ 15.151060525737462, 69.009268022654339 ], [ 15.151284419546013, 69.009088549374482 ], [ 15.150881368352495, 69.00867627543029 ] ] ] ] } },
{ "type": "Feature", "properties": { "fid": 144010, "navn": null, "hoyde_moh": null, "arealInnsjo_km2": 0.0062, "magasinKategori": null, "fid_2": 891, "id": 891, "left": 14.986919847, "top": 69.446110046000001, "right": 15.486919847, "bottom": 68.946110046000001, "row_index": 10, "col_index": 22, "tile_id": 891 }, "geometry": { "type": "MultiPolygon", "coordinates": [ [ [ [ 15.462083288318551, 69.013715256588085 ], [ 15.461374310846113, 69.013313678237409 ], [ 15.460118161772328, 69.013065942492048 ], [ 15.460079380490283, 69.013604153629899 ], [ 15.460259762418531, 69.013854785310386 ], [ 15.460818624883618, 69.014256862065224 ], [ 15.462083288318551, 69.013715256588085 ] ] ] ] } },
{ "type": "Feature", "properties": { "fid": 151245, "navn": "Store Hollavatnet", "hoyde_moh": 247, "arealInnsjo_km2": 0.0717, "magasinKategori": null, "fid_2": 891, "id": 891, "left": 14.986919847, "top": 69.446110046000001, "right": 15.486919847, "bottom": 68.946110046000001, "row_index": 10, "col_index": 22, "tile_id": 891 }, "geometry": { "type": "MultiPolygon", "coordinates": [ [ [ [ 15.072061325274365, 68.962083643749409 ], [ 15.076228288467227, 68.961660325624592 ], [ 15.077375478646475, 68.961381792808751 ], [ 15.077423981344223, 68.960978107886902 ], [ 15.08014252971936, 68.960420819940239 ], [ 15.079743125767171, 68.960403159924212 ], [ 15.079842603467512, 68.960304462206309 ], [ 15.07964225482306, 68.960116221501096 ], [ 15.079267879269077, 68.960116395615728 ], [ 15.0719065620574, 68.960550130711155 ], [ 15.068788102051078, 68.960999829472343 ], [ 15.068464297957799, 68.96121510890049 ], [ 15.067616193493864, 68.961385933910577 ], [ 15.066943585019594, 68.961816676835525 ], [ 15.067143731267731, 68.961968969587147 ], [ 15.067069941229343, 68.962327909625941 ], [ 15.069317208931277, 68.962577945494985 ], [ 15.072061325274365, 68.962083643749409 ] ] ] ] } },
{ "type": "Feature", "properties": { "fid": 151246, "navn": "Trollbotnvatnet", "hoyde_moh": 255, "arealInnsjo_km2": 0.0203, "magasinKategori": null, "fid_2": 891, "id": 891, "left": 14.986919847, "top": 69.446110046000001, "right": 15.486919847, "bottom": 68.946110046000001, "row_index": 10, "col_index": 22, "tile_id": 891 }, "geometry": { "type": "MultiPolygon", "coordinates": [ [ [ [ 15.484755437347431, 68.961671227803734 ], [ 15.485118583249735, 68.96115899100424 ], [ 15.485181623346691, 68.960620700328576 ], [ 15.484792469638139, 68.959949165472594 ], [ 15.484417519115146, 68.959923323495261 ], [ 15.48397478115514, 68.960220539735147 ], [ 15.482756566018917, 68.960439141456206 ], [ 15.482125304705757, 68.961248181007278 ], [ 15.482737662256479, 68.961856311507063 ], [ 15.4827419804471, 68.962053606837102 ], [ 15.483866347233624, 68.962104237364684 ], [ 15.484755437347431, 68.961671227803734 ] ] ] ] } },
{ "type": "Feature", "properties": { "fid": 151248, "navn": "Nyksundvatnan", "hoyde_moh": 84, "arealInnsjo_km2": 0.0554, "magasinKategori": null, "fid_2": 891, "id": 891, "left": 14.986919847, "top": 69.446110046000001, "right": 15.486919847, "bottom": 68.946110046000001, "row_index": 10, "col_index": 22, "tile_id": 891 }, "geometry": { "type": "MultiPolygon", "coordinates": [ [ [ [ 15.051310945429657, 68.990789616286307 ], [ 15.051734901878911, 68.990394885127486 ], [ 15.052257386418685, 68.98939924931436 ], [ 15.052405351308245, 68.988565155669747 ], [ 15.052853783593187, 68.987982080591678 ], [ 15.053777032508401, 68.987416792175026 ], [ 15.053500777764476, 68.986851878177717 ], [ 15.051300918144275, 68.986484853382748 ], [ 15.050051932970408, 68.986673467357008 ], [ 15.049153328744646, 68.98711326260738 ], [ 15.049829491451801, 68.987758692218392 ], [ 15.049930304292001, 68.988135419540683 ], [ 15.04965775821765, 68.989175817298275 ], [ 15.049711809439673, 68.990978421982959 ], [ 15.049262490716943, 68.991229663245832 ], [ 15.051310945429657, 68.990789616286307 ] ] ] ] } },
{ "type": "Feature", "properties": { "fid": 151545, "navn": "Kjølvatnet", "hoyde_moh": 143, "arealInnsjo_km2": 0.0293, "magasinKategori": 2, "fid_2": 891, "id": 891, "left": 14.986919847, "top": 69.446110046000001, "right": 15.486919847, "bottom": 68.946110046000001, "row_index": 10, "col_index": 22, "tile_id": 891 }, "geometry": { "type": "MultiPolygon", "coordinates": [ [ [ [ 15.119510433211028, 69.003338037227422 ], [ 15.118307525509385, 69.002863555368407 ], [ 15.116224572433341, 69.001465934332757 ], [ 15.115124764763557, 69.001547392140495 ], [ 15.115326592873284, 69.001888050087814 ], [ 15.115226883395129, 69.001995736367192 ], [ 15.114827040244329, 69.001996005143027 ], [ 15.113581469373738, 69.002911598759511 ], [ 15.113607494662022, 69.003108883149565 ], [ 15.114283477765893, 69.003260893420929 ], [ 15.114409539712359, 69.003458110848925 ], [ 15.116334594676363, 69.00335816217688 ], [ 15.118836259690319, 69.003481998853999 ], [ 15.119510433211028, 69.003338037227422 ] ] ] ] } },
{ "type": "Feature", "properties": { "fid": 152113, "navn": "Åstjønna", "hoyde_moh": null, "arealInnsjo_km2": 0.0164, "magasinKategori": null, "fid_2": 891, "id": 891, "left": 14.986919847, "top": 69.446110046000001, "right": 15.486919847, "bottom": 68.946110046000001, "row_index": 10, "col_index": 22, "tile_id": 891 }, "geometry": { "type": "MultiPolygon", "coordinates": [ [ [ [ 15.111964875572598, 68.975155862438598 ], [ 15.110289820068379, 68.974816156492963 ], [ 15.110236730405953, 68.974188410652886 ], [ 15.110659491800266, 68.973829316304148 ], [ 15.108760990980503, 68.973731973348606 ], [ 15.107640280879073, 68.97436943112902 ], [ 15.107667489489865, 68.974826796592723 ], [ 15.108341770565367, 68.974817402274581 ], [ 15.108666726315329, 68.974924815441824 ], [ 15.108592933956654, 68.97510413837351 ], [ 15.110042532698801, 68.975309571610211 ], [ 15.111964875572598, 68.975155862438598 ] ] ] ] } },
{ "type": "Feature", "properties": { "fid": 153281, "navn": null, "hoyde_moh": null, "arealInnsjo_km2": 0.0032, "magasinKategori": null, "fid_2": 891, "id": 891, "left": 14.986919847, "top": 69.446110046000001, "right": 15.486919847, "bottom": 68.946110046000001, "row_index": 10, "col_index": 22, "tile_id": 891 }, "geometry": { "type": "MultiPolygon", "coordinates": [ [ [ [ 15.15324767103297, 68.996468359413441 ], [ 15.153773036521823, 68.996521697660796 ], [ 15.15392083952265, 68.99620767510541 ], [ 15.153170800755776, 68.996199379993698 ], [ 15.152947178521774, 68.996396882115661 ], [ 15.151923563379006, 68.996595096209376 ], [ 15.150822964195344, 68.996506387268141 ], [ 15.150299075538614, 68.996668277250251 ], [ 15.150375422338648, 68.996865512189459 ], [ 15.15324767103297, 68.996468359413441 ] ] ] ] } },
{ "type": "Feature", "properties": { "fid": 177443, "navn": null, "hoyde_moh": null, "arealInnsjo_km2": 0.003, "magasinKategori": null, "fid_2": 891, "id": 891, "left": 14.986919847, "top": 69.446110046000001, "right": 15.486919847, "bottom": 68.946110046000001, "row_index": 10, "col_index": 22, "tile_id": 891 }, "geometry": { "type": "MultiPolygon", "coordinates": [ [ [ [ 15.174868095526284, 68.999075333034284 ], [ 15.17413926402269, 68.998600667862931 ], [ 15.173439955300754, 68.998664156136257 ], [ 15.173443488892753, 68.999112656203508 ], [ 15.174868095526284, 68.999075333034284 ] ] ] ] } },
{ "type": "Feature", "properties": { "fid": 179564, "navn": "Semsheivatn", "hoyde_moh": 180, "arealInnsjo_km2": 0.0213, "magasinKategori": null, "fid_2": 891, "id": 891, "left": 14.986919847, "top": 69.446110046000001, "right": 15.486919847, "bottom": 68.946110046000001, "row_index": 10, "col_index": 22, "tile_id": 891 }, "geometry": { "type": "MultiPolygon", "coordinates": [ [ [ [ 15.094901767588123, 68.962422157534661 ], [ 15.094626619777772, 68.962287785694585 ], [ 15.096697031087942, 68.961981794055205 ], [ 15.097396280639183, 68.962062111551873 ], [ 15.097494972865414, 68.961801884951271 ], [ 15.097043833951684, 68.961380721477326 ], [ 15.09576879793633, 68.960843343062507 ], [ 15.094770527822295, 68.960924614414452 ], [ 15.093998357229809, 68.961292741208069 ], [ 15.095046625612097, 68.961283192955449 ], [ 15.094972209947313, 68.961390853910416 ], [ 15.092527503529451, 68.961715054076294 ], [ 15.09292750858855, 68.961867298025524 ], [ 15.092528594191212, 68.961975044406799 ], [ 15.092603965076769, 68.962091591426514 ], [ 15.093028522552057, 68.962145260249059 ], [ 15.093579749388411, 68.962638125837756 ], [ 15.094553621590395, 68.962727362313629 ], [ 15.094902501158064, 68.962592644442623 ], [ 15.094901767588123, 68.962422157534661 ] ], [ [ 15.095820297765227, 68.96126482419983 ], [ 15.095994843450818, 68.961282573130134 ], [ 15.095646241259907, 68.961417382793243 ], [ 15.095471056624291, 68.961309861202992 ], [ 15.095820297765227, 68.96126482419983 ] ] ] ] } },
{ "type": "Feature", "properties": { "fid": 179565, "navn": "Jennskarvatnet", "hoyde_moh": 362, "arealInnsjo_km2": 0.0214, "magasinKategori": null, "fid_2": 891, "id": 891, "left": 14.986919847, "top": 69.446110046000001, "right": 15.486919847, "bottom": 68.946110046000001, "row_index": 10, "col_index": 22, "tile_id": 891 }, "geometry": { "type": "MultiPolygon", "coordinates": [ [ [ [ 15.05315540509668, 68.96799170484482 ], [ 15.053304536783209, 68.967713641572814 ], [ 15.052904096774602, 68.967310193190414 ], [ 15.052154400987815, 68.967014470227895 ], [ 15.049632795367687, 68.96700625292614 ], [ 15.047935714957216, 68.967177134813014 ], [ 15.050209631445664, 68.968154024830895 ], [ 15.051758036364733, 68.968332928567563 ], [ 15.05315540509668, 68.96799170484482 ] ] ] ] } },
{ "type": "Feature", "properties": { "fid": 179566, "navn": "Mellomvatnet", "hoyde_moh": 4, "arealInnsjo_km2": 0.047, "magasinKategori": null, "fid_2": 891, "id": 891, "left": 14.986919847, "top": 69.446110046000001, "right": 15.486919847, "bottom": 68.946110046000001, "row_index": 10, "col_index": 22, "tile_id": 891 }, "geometry": { "type": "MultiPolygon", "coordinates": [ [ [ [ 15.121327281670224, 68.974539630095933 ], [ 15.122047524811986, 68.973812685871238 ], [ 15.124719522980937, 68.973774883985698 ], [ 15.125093768967536, 68.9736669910139 ], [ 15.125091733221067, 68.973308260841634 ], [ 15.124965600307192, 68.973128987267472 ], [ 15.123716393219532, 68.973031244792651 ], [ 15.118296297788362, 68.972855716093662 ], [ 15.117098033821822, 68.97293725581325 ], [ 15.116849874023973, 68.973233379210569 ], [ 15.116276531306774, 68.973431072567152 ], [ 15.116352398310857, 68.973610386728623 ], [ 15.117602753931381, 68.973923421169815 ], [ 15.117580411072099, 68.974416692434318 ], [ 15.117780926154284, 68.974551078720609 ], [ 15.119530904828387, 68.974872722373448 ], [ 15.121327281670224, 68.974539630095933 ] ] ] ] } },
{ "type": "Feature", "properties": { "fid": 183741, "navn": null, "hoyde_moh": null, "arealInnsjo_km2": 0.0054, "magasinKategori": null, "fid_2": 891, "id": 891, "left": 14.986919847, "top": 69.446110046000001, "right": 15.486919847, "bottom": 68.946110046000001, "row_index": 10, "col_index": 22, "tile_id": 891 }, "geometry": { "type": "MultiPolygon", "coordinates": [ [ [ [ 15.260828725967569, 68.948536884758965 ], [ 15.260274541568545, 68.948080343412002 ], [ 15.259648607428607, 68.947883992153479 ], [ 15.259125935106024, 68.947983438181538 ], [ 15.259205612950863, 68.948395862299293 ], [ 15.259834512746657, 68.948843235356748 ], [ 15.26033490250944, 68.948968120108987 ], [ 15.260857381762525, 68.94885082365245 ], [ 15.260828725967569, 68.948536884758965 ] ] ] ] } },
{ "type": "Feature", "properties": { "fid": 183916, "navn": null, "hoyde_moh": null, "arealInnsjo_km2": 0.0033, "magasinKategori": null, "fid_2": 891, "id": 891, "left": 14.986919847, "top": 69.446110046000001, "right": 15.486919847, "bottom": 68.946110046000001, "row_index": 10, "col_index": 22, "tile_id": 891 }, "geometry": { "type": "MultiPolygon", "coordinates": [ [ [ [ 15.07844149838634, 68.952323324160815 ], [ 15.076945212878183, 68.952521307517245 ], [ 15.077370082361668, 68.952727386564561 ], [ 15.079490445811057, 68.952618793216445 ], [ 15.07844149838634, 68.952323324160815 ] ] ] ] } },
{ "type": "Feature", "properties": { "fid": 197392, "navn": "Tretinddalsvatnet", "hoyde_moh": 14, "arealInnsjo_km2": 0.0429, "magasinKategori": null, "fid_2": 891, "id": 891, "left": 14.986919847, "top": 69.446110046000001, "right": 15.486919847, "bottom": 68.946110046000001, "row_index": 10, "col_index": 22, "tile_id": 891 }, "geometry": { "type": "MultiPolygon", "coordinates": [ [ [ [ 15.123376880130257, 68.948063729571629 ], [ 15.125422957014772, 68.948169769143988 ], [ 15.1277413209242, 68.94790805902322 ], [ 15.127790431148842, 68.94777349748712 ], [ 15.126666132946179, 68.947460443992227 ], [ 15.125115485405372, 68.946735063640617 ], [ 15.11982849925722, 68.946918311765032 ], [ 15.119181624566451, 68.947178935398284 ], [ 15.119381797402244, 68.947340135606638 ], [ 15.119434208514765, 68.947806451471152 ], [ 15.119759459638351, 68.947985679701816 ], [ 15.120609344881069, 68.948263009692596 ], [ 15.121806551259336, 68.948280096548373 ], [ 15.123376880130257, 68.948063729571629 ] ] ] ] } },
{ "type": "Feature", "properties": { "fid": 197393, "navn": "Nyksundvatnan", "hoyde_moh": 168, "arealInnsjo_km2": 0.0833, "magasinKategori": null, "fid_2": 891, "id": 891, "left": 14.986919847, "top": 69.446110046000001, "right": 15.486919847, "bottom": 68.946110046000001, "row_index": 10, "col_index": 22, "tile_id": 891 }, "geometry": { "type": "MultiPolygon", "coordinates": [ [ [ [ 15.050289001192567, 68.981059262504743 ], [ 15.050363435049153, 68.980835033837025 ], [ 15.05016327419888, 68.980700658303874 ], [ 15.050187397789474, 68.980323894168222 ], [ 15.048987878261094, 68.980135998054109 ], [ 15.048987180459024, 68.979822108760501 ], [ 15.049361449236919, 68.979624788823514 ], [ 15.051234985107287, 68.979624237645069 ], [ 15.052733019453161, 68.979291866411771 ], [ 15.052857954638769, 68.979202145107365 ], [ 15.052682523247009, 68.979067675167414 ], [ 15.051682593020937, 68.978754001140203 ], [ 15.05080700842332, 68.978189352068597 ], [ 15.050307431189411, 68.978189410122283 ], [ 15.051181003868082, 68.977893287487959 ], [ 15.051005801193289, 68.977740789513206 ], [ 15.051454428930983, 68.977426855167238 ], [ 15.052129465971888, 68.977587989914497 ], [ 15.052578902058521, 68.977516195768033 ], [ 15.051704206307871, 68.977319250198192 ], [ 15.049780991494638, 68.977355604455283 ], [ 15.049457083729159, 68.977714429422903 ], [ 15.049007633627506, 68.977786305043821 ], [ 15.048883736287481, 68.978234754181656 ], [ 15.048634343085398, 68.978414190768888 ], [ 15.047585414034714, 68.978504078987498 ], [ 15.04706150180154, 68.978809145272209 ], [ 15.046863286632165, 68.979571592511661 ], [ 15.046314565601751, 68.979975314240448 ], [ 15.044291655259972, 68.980244898374536 ], [ 15.041368839653273, 68.980236572603701 ], [ 15.040170233692722, 68.980505906515987 ], [ 15.040170642425737, 68.980730113164213 ], [ 15.040870680106659, 68.981025989838159 ], [ 15.044843303647385, 68.981258169091902 ], [ 15.050289001192567, 68.981059262504743 ] ] ] ] } },
{ "type": "Feature", "properties": { "fid": 197394, "navn": "Langvaddalsvatnan", "hoyde_moh": 135, "arealInnsjo_km2": 0.0582, "magasinKategori": null, "fid_2": 891, "id": 891, "left": 14.986919847, "top": 69.446110046000001, "right": 15.486919847, "bottom": 68.946110046000001, "row_index": 10, "col_index": 22, "tile_id": 891 }, "geometry": { "type": "MultiPolygon", "coordinates": [ [ [ [ 15.086820098153185, 68.989169868921522 ], [ 15.086967211283262, 68.988515200365228 ], [ 15.0872164064711, 68.988335708118356 ], [ 15.08726507214468, 68.988003767700533 ], [ 15.086839359219775, 68.987779867368332 ], [ 15.086763329971605, 68.98751076822326 ], [ 15.087037505015751, 68.987331353219602 ], [ 15.085710634694296, 68.986704244533954 ], [ 15.080587961472808, 68.986697856604295 ], [ 15.079464352833195, 68.98694043593882 ], [ 15.079540290942235, 68.987209538351451 ], [ 15.08069330291373, 68.988168513123767 ], [ 15.083667846267501, 68.988355417434093 ], [ 15.085070181454794, 68.989099091810147 ], [ 15.086321499121292, 68.989546878165982 ], [ 15.086945760889112, 68.989412037968165 ], [ 15.086820098153185, 68.989169868921522 ] ] ] ] } },
{ "type": "Feature", "properties": { "fid": 197395, "navn": "Skrådalsvatnet", "hoyde_moh": 21, "arealInnsjo_km2": 0.0674, "magasinKategori": null, "fid_2": 891, "id": 891, "left": 14.986919847, "top": 69.446110046000001, "right": 15.486919847, "bottom": 68.946110046000001, "row_index": 10, "col_index": 22, "tile_id": 891 }, "geometry": { "type": "MultiPolygon", "coordinates": [ [ [ [ 15.152240753992949, 68.991850595579862 ], [ 15.153337192156949, 68.991374297346923 ], [ 15.152435307425694, 68.991070181930908 ], [ 15.151710622896122, 68.991088762789502 ], [ 15.152106924151376, 68.990568160859922 ], [ 15.153556570325568, 68.990575923526222 ], [ 15.153930082984512, 68.990378195910935 ], [ 15.152529751651658, 68.990271741353496 ], [ 15.147457119873236, 68.990401925045802 ], [ 15.143603400894202, 68.989660836795991 ], [ 15.142779136829262, 68.989733273098096 ], [ 15.141053913383182, 68.989573275563984 ], [ 15.139829981314939, 68.98971777301584 ], [ 15.139508268860544, 68.99022034897564 ], [ 15.139860041722592, 68.990515925173071 ], [ 15.142112226111575, 68.990953514375533 ], [ 15.147186216611717, 68.991003033102118 ], [ 15.150267246994977, 68.992004801414751 ], [ 15.1519178701079, 68.992146835874337 ], [ 15.152240753992949, 68.991850595579862 ] ] ] ] } },
{ "type": "Feature", "properties": { "fid": 197396, "navn": null, "hoyde_moh": 65, "arealInnsjo_km2": 0.0247, "magasinKategori": null, "fid_2": 891, "id": 891, "left": 14.986919847, "top": 69.446110046000001, "right": 15.486919847, "bottom": 68.946110046000001, "row_index": 10, "col_index": 22, "tile_id": 891 }, "geometry": { "type": "MultiPolygon", "coordinates": [ [ [ [ 15.043366271600384, 68.992262609455409 ], [ 15.040389976941324, 68.991357454385337 ], [ 15.03856558729291, 68.991447558033599 ], [ 15.038515442975413, 68.991358066114984 ], [ 15.03951474372699, 68.991106547578468 ], [ 15.038589669885102, 68.990927483294243 ], [ 15.037839793606611, 68.9908827198539 ], [ 15.03639117800577, 68.991483997179643 ], [ 15.036516668152387, 68.991797859458998 ], [ 15.037867069197102, 68.992210105687391 ], [ 15.041941556229903, 68.992388520325093 ], [ 15.043366271600384, 68.992262609455409 ] ] ] ] } },
{ "type": "Feature", "properties": { "fid": 197397, "navn": null, "hoyde_moh": 18, "arealInnsjo_km2": 0.0587, "magasinKategori": null, "fid_2": 891, "id": 891, "left": 14.986919847, "top": 69.446110046000001, "right": 15.486919847, "bottom": 68.946110046000001, "row_index": 10, "col_index": 22, "tile_id": 891 }, "geometry": { "type": "MultiPolygon", "coordinates": [ [ [ [ 15.067184088844844, 68.999797126847909 ], [ 15.06718326799389, 68.999528169275962 ], [ 15.066507426821444, 68.999277322232032 ], [ 15.065558656920052, 68.999726101015611 ], [ 15.064234006366972, 68.999905968468013 ], [ 15.064058590232584, 68.999771420768411 ], [ 15.064557079109436, 68.999233227956651 ], [ 15.064431593017346, 68.999071846707821 ], [ 15.063881146792573, 68.998937529313125 ], [ 15.060380861674471, 68.998956736871634 ], [ 15.060254990475407, 68.998642892405059 ], [ 15.059504274356811, 68.998401012311405 ], [ 15.059503474427965, 68.998105060238501 ], [ 15.059127417052489, 68.99771955571633 ], [ 15.057227340582001, 68.997720201813507 ], [ 15.056929485255448, 68.998554348700267 ], [ 15.056422682720399, 68.998842128428578 ], [ 15.056631253092766, 68.999056400744294 ], [ 15.057853189932507, 68.999270422843182 ], [ 15.059205855542022, 68.999740703661857 ], [ 15.061484148782764, 69.000095311963975 ], [ 15.063484393188549, 69.0000766450177 ], [ 15.063435419343641, 69.000435303555946 ], [ 15.064737135530326, 69.000946096016051 ], [ 15.065862372375351, 69.000954634855532 ], [ 15.066111126229297, 69.000524062866461 ], [ 15.067184088844844, 68.999797126847909 ] ] ] ] } },
{ "type": "Feature", "properties": { "fid": 207232, "navn": null, "hoyde_moh": 5, "arealInnsjo_km2": 0.0347, "magasinKategori": null, "fid_2": 891, "id": 891, "left": 14.986919847, "top": 69.446110046000001, "right": 15.486919847, "bottom": 68.946110046000001, "row_index": 10, "col_index": 22, "tile_id": 891 }, "geometry": { "type": "MultiPolygon", "coordinates": [ [ [ [ 15.157742553404827, 68.950394111912416 ], [ 15.156567167017748, 68.949991618908939 ], [ 15.15741510406238, 68.949954966106247 ], [ 15.157288707612677, 68.949721816414097 ], [ 15.157910254396816, 68.949425377728161 ], [ 15.158182284508479, 68.949093297879202 ], [ 15.158056913104467, 68.949003730695409 ], [ 15.155959253378484, 68.948691767909182 ], [ 15.155733289540315, 68.948485702618228 ], [ 15.156005594389216, 68.948189499274548 ], [ 15.155455166201692, 68.947956824744452 ], [ 15.153884096941583, 68.948021026054036 ], [ 15.153062354600159, 68.948228036106684 ], [ 15.152889045101571, 68.948416526210522 ], [ 15.15296580643667, 68.948694385883826 ], [ 15.153616572007286, 68.94904365609645 ], [ 15.154245228669796, 68.949724592465216 ], [ 15.155221550758434, 68.950208087075112 ], [ 15.156345635974851, 68.950449206446805 ], [ 15.156697186219365, 68.950735870637232 ], [ 15.157742553404827, 68.950394111912416 ] ] ] ] } },
{ "type": "Feature", "properties": { "fid": 208012, "navn": "Valborgvatnet", "hoyde_moh": 141, "arealInnsjo_km2": 0.0237, "magasinKategori": null, "fid_2": 891, "id": 891, "left": 14.986919847, "top": 69.446110046000001, "right": 15.486919847, "bottom": 68.946110046000001, "row_index": 10, "col_index": 22, "tile_id": 891 }, "geometry": { "type": "MultiPolygon", "coordinates": [ [ [ [ 15.081298295710166, 68.976043121157403 ], [ 15.081422813285824, 68.975944410817235 ], [ 15.081420891741493, 68.975424251487794 ], [ 15.081719669144094, 68.9751729970627 ], [ 15.081569252424149, 68.975020608131871 ], [ 15.080194439258765, 68.974698400528936 ], [ 15.078621117698091, 68.974726036242856 ], [ 15.078172555580391, 68.975004348341088 ], [ 15.07657579192748, 68.975480300243078 ], [ 15.079126089012599, 68.976250410826864 ], [ 15.081298295710166, 68.976043121157403 ] ], [ [ 15.079745313206534, 68.974815198293413 ], [ 15.079820400630664, 68.974860004651234 ], [ 15.079370688006781, 68.974815372650525 ], [ 15.079745313206534, 68.974815198293413 ] ] ] ] } },
{ "type": "Feature", "properties": { "fid": 208013, "navn": "Langvaddalsvatnan", "hoyde_moh": 96, "arealInnsjo_km2": 0.1039, "magasinKategori": null, "fid_2": 891, "id": 891, "left": 14.986919847, "top": 69.446110046000001, "right": 15.486919847, "bottom": 68.946110046000001, "row_index": 10, "col_index": 22, "tile_id": 891 }, "geometry": { "type": "MultiPolygon", "coordinates": [ [ [ [ 15.08073532107908, 68.992814054199414 ], [ 15.082433599867459, 68.992436577206377 ], [ 15.083380964767429, 68.991790403100623 ], [ 15.083755605812563, 68.991718473959807 ], [ 15.084304036168367, 68.991341627143626 ], [ 15.084303005914332, 68.991072490044644 ], [ 15.082826031584318, 68.99044543311156 ], [ 15.078450672978812, 68.98999002472344 ], [ 15.076453163118451, 68.990529025087454 ], [ 15.075503650947267, 68.990592314392615 ], [ 15.074181201823418, 68.991238607970487 ], [ 15.073932560027174, 68.991624350898434 ], [ 15.073934065445988, 68.992072763337376 ], [ 15.074986128396848, 68.992744924973309 ], [ 15.076685812095368, 68.992744171444286 ], [ 15.080037654895905, 68.993352477744153 ], [ 15.080412267939739, 68.993262619444835 ], [ 15.08073532107908, 68.992814054199414 ] ] ] ] } },
{ "type": "Feature", "properties": { "fid": 214089, "navn": "Storvatnet", "hoyde_moh": 1, "arealInnsjo_km2": 0.2303, "magasinKategori": null, "fid_2": 891, "id": 891, "left": 14.986919847, "top": 69.446110046000001, "right": 15.486919847, "bottom": 68.946110046000001, "row_index": 10, "col_index": 22, "tile_id": 891 }, "geometry": { "type": "MultiPolygon", "coordinates": [ [ [ [ 15.160479571332766, 68.976848082985882 ], [ 15.160476959294767, 68.976489353500554 ], [ 15.160025097174398, 68.976175886630784 ], [ 15.157472497808975, 68.975478729803697 ], [ 15.15736651212376, 68.974626838986325 ], [ 15.157116573045645, 68.974600164001131 ], [ 15.156919967758387, 68.975048759559314 ], [ 15.156670406911278, 68.975075893366082 ], [ 15.155420190414748, 68.974870763775229 ], [ 15.154793484862973, 68.974539505384129 ], [ 15.154668925714564, 68.974584369945475 ], [ 15.154746429732471, 68.974916216532392 ], [ 15.155923687404854, 68.975435308057527 ], [ 15.155849394595691, 68.975525058788847 ], [ 15.154924156537211, 68.975364380779837 ], [ 15.154725611736442, 68.975544016245223 ], [ 15.153403018646031, 68.975706547911528 ], [ 15.153554249584973, 68.975903804352498 ], [ 15.153055100269048, 68.975922188584391 ], [ 15.152603416029461, 68.975653543493337 ], [ 15.152054131855474, 68.975680937851962 ], [ 15.148427608681798, 68.974939756579886 ], [ 15.148376269959339, 68.974733530328436 ], [ 15.148797997119503, 68.974311653783374 ], [ 15.148671612976425, 68.974087556319489 ], [ 15.14631922260466, 68.973363154080843 ], [ 15.145695660402909, 68.973480274591481 ], [ 15.145748097776346, 68.973856898362769 ], [ 15.147050807320456, 68.974465626812858 ], [ 15.147002423781741, 68.974662970950817 ], [ 15.144306658642561, 68.97493431685065 ], [ 15.144180727225992, 68.974772993799448 ], [ 15.139080298253949, 68.973898237208033 ], [ 15.136258522183661, 68.973945441022835 ], [ 15.135008394906867, 68.973713257345892 ], [ 15.131336562985782, 68.973599530255328 ], [ 15.130463829797026, 68.973869247382069 ], [ 15.130465300388849, 68.974075516985579 ], [ 15.131440200719403, 68.974227231085408 ], [ 15.130518009993869, 68.974541827935511 ], [ 15.129893749110408, 68.974560240029859 ], [ 15.129896127401949, 68.974963811337631 ], [ 15.131248309522993, 68.97555468569891 ], [ 15.13062604029219, 68.975913893960666 ], [ 15.131180410648946, 68.976693710690938 ], [ 15.131456245735883, 68.976917616364318 ], [ 15.132006177777365, 68.976989028603143 ], [ 15.134376573200866, 68.976583608731531 ], [ 15.13369893070171, 68.976046042603812 ], [ 15.13369528585398, 68.975445169929287 ], [ 15.134993472038731, 68.975354466761189 ], [ 15.135817776092427, 68.975371660721393 ], [ 15.137568445731082, 68.975711235297752 ], [ 15.139370038548373, 68.976274688724374 ], [ 15.143045017954588, 68.976836655573891 ], [ 15.146917219148172, 68.976905117989091 ], [ 15.147290260142769, 68.976662563363206 ], [ 15.147363692776965, 68.976438382399706 ], [ 15.146986947497963, 68.976124816438215 ], [ 15.1463617622888, 68.976008765021632 ], [ 15.146485153707852, 68.975784451959001 ], [ 15.149608803673791, 68.976023890710721 ], [ 15.150285060029077, 68.976301314697011 ], [ 15.151734016915931, 68.976309092722076 ], [ 15.15243137578908, 68.976057270341869 ], [ 15.153480570062186, 68.97608323645855 ], [ 15.153482131993478, 68.976307532156852 ], [ 15.154606897890028, 68.976423016788814 ], [ 15.157477303508323, 68.976151347754339 ], [ 15.158605116243603, 68.976688402975626 ], [ 15.160531616165191, 68.977135019660935 ], [ 15.160855735440338, 68.97705400031181 ], [ 15.160479571332766, 68.976848082985882 ] ] ] ] } },
{ "type": "Feature", "properties": { "fid": 221369, "navn": "Klotindvatnet", "hoyde_moh": 12, "arealInnsjo_km2": 0.1556, "magasinKategori": null, "fid_2": 891, "id": 891, "left": 14.986919847, "top": 69.446110046000001, "right": 15.486919847, "bottom": 68.946110046000001, "row_index": 10, "col_index": 22, "tile_id": 891 }, "geometry": { "type": "MultiPolygon", "coordinates": [ [ [ [ 15.099219443209991, 68.973334205312469 ], [ 15.099418373334116, 68.973199565434399 ], [ 15.100914953550236, 68.972857893527745 ], [ 15.102610180407783, 68.972229104141448 ], [ 15.10225969794535, 68.971987170419453 ], [ 15.102558441573921, 68.971789689086378 ], [ 15.103408399991245, 68.971986389620582 ], [ 15.104459977882273, 68.972568778575578 ], [ 15.105334227470154, 68.972612993799927 ], [ 15.107159661673206, 68.973114172916297 ], [ 15.109006071955058, 68.972790146994839 ], [ 15.109055307474636, 68.972646622971325 ], [ 15.108654436290228, 68.972431639342005 ], [ 15.108903832968336, 68.972314892865043 ], [ 15.113047877182524, 68.972052121823793 ], [ 15.1119476124861, 68.971756892431657 ], [ 15.111946883827212, 68.971613400264104 ], [ 15.110844987371401, 68.970986338095116 ], [ 15.10982181601514, 68.971112554671279 ], [ 15.107421866317162, 68.970549077637571 ], [ 15.104799402416699, 68.970425149745807 ], [ 15.103374975703721, 68.970183873420396 ], [ 15.10167686716674, 68.970149018937676 ], [ 15.096933830467464, 68.970483601534809 ], [ 15.095912296060003, 68.970941560543039 ], [ 15.095791066948697, 68.971775679244359 ], [ 15.096041642094635, 68.971972840934811 ], [ 15.096018974974815, 68.97250198256522 ], [ 15.096345301354225, 68.97288743523012 ], [ 15.097871191500376, 68.973460538613267 ], [ 15.097847611350913, 68.973774442097096 ], [ 15.099221300123002, 68.973746745372679 ], [ 15.099219443209991, 68.973334205312469 ] ], [ [ 15.09885790333446, 68.970733611525034 ], [ 15.098857299721375, 68.970598997862552 ], [ 15.099756674538561, 68.970697216144842 ], [ 15.099333269855467, 68.970939606540554 ], [ 15.09885790333446, 68.970733611525034 ] ], [ [ 15.100060755250858, 68.971674581812181 ], [ 15.099685737545263, 68.971576149782649 ], [ 15.100509627863483, 68.971539794120076 ], [ 15.100560265885402, 68.97169222522902 ], [ 15.100060755250858, 68.971674581812181 ] ], [ [ 15.105480844456673, 68.971940371446806 ], [ 15.104957804299225, 68.972227678660403 ], [ 15.103958414204037, 68.972120669976917 ], [ 15.104182483560344, 68.971977040934121 ], [ 15.105480844456673, 68.971940371446806 ] ] ] ] } },
{ "type": "Feature", "properties": { "fid": 221370, "navn": "Litlevatnet", "hoyde_moh": 117, "arealInnsjo_km2": 0.0323, "magasinKategori": null, "fid_2": 891, "id": 891, "left": 14.986919847, "top": 69.446110046000001, "right": 15.486919847, "bottom": 68.946110046000001, "row_index": 10, "col_index": 22, "tile_id": 891 }, "geometry": { "type": "MultiPolygon", "coordinates": [ [ [ [ 15.470481460520197, 68.975881369783679 ], [ 15.470897035008395, 68.975458616397049 ], [ 15.470888798240438, 68.97507308332878 ], [ 15.47022243388386, 68.974276721316159 ], [ 15.467071451573743, 68.974070206201418 ], [ 15.465705243715437, 68.974432584044962 ], [ 15.465708085909471, 68.974567103719906 ], [ 15.466286660040776, 68.97476283330694 ], [ 15.466394147128042, 68.975121279853511 ], [ 15.467607385373041, 68.975799570934427 ], [ 15.470108742296651, 68.975972080175168 ], [ 15.470481460520197, 68.975881369783679 ] ] ] ] } },
{ "type": "Feature", "properties": { "fid": 223274, "navn": "Hammarvatnet", "hoyde_moh": 17, "arealInnsjo_km2": 0.0308, "magasinKategori": null, "fid_2": 891, "id": 891, "left": 14.986919847, "top": 69.446110046000001, "right": 15.486919847, "bottom": 68.946110046000001, "row_index": 10, "col_index": 22, "tile_id": 891 }, "geometry": { "type": "MultiPolygon", "coordinates": [ [ [ [ 15.139073056260544, 68.972750390963157 ], [ 15.139022149515656, 68.972597971341358 ], [ 15.137321788027908, 68.972240614045489 ], [ 15.136943752622482, 68.97168479329379 ], [ 15.13634299699077, 68.971452187550426 ], [ 15.133597636866062, 68.971696499508496 ], [ 15.132645214776208, 68.971114302090157 ], [ 15.131347802909447, 68.971294669988609 ], [ 15.131280473504141, 68.972568219580452 ], [ 15.131779653957018, 68.972522993977677 ], [ 15.13245159153794, 68.972136927613604 ], [ 15.133325825694095, 68.972172031406458 ], [ 15.135775398948415, 68.972546771496795 ], [ 15.135827001488575, 68.972815779355273 ], [ 15.136277508074121, 68.972976850076421 ], [ 15.137701130440075, 68.973002613999071 ], [ 15.139073056260544, 68.972750390963157 ] ] ] ] } },
{ "type": "Feature", "properties": { "fid": 225272, "navn": "Skogvatnet", "hoyde_moh": 20, "arealInnsjo_km2": 0.0773, "magasinKategori": null, "fid_2": 891, "id": 891, "left": 14.986919847, "top": 69.446110046000001, "right": 15.486919847, "bottom": 68.946110046000001, "row_index": 10, "col_index": 22, "tile_id": 891 }, "geometry": { "type": "MultiPolygon", "coordinates": [ [ [ [ 15.151491334532501, 69.002810491448045 ], [ 15.151964603844979, 69.002540934093162 ], [ 15.152236263257034, 69.002047527535112 ], [ 15.15223297578885, 69.001572212190595 ], [ 15.152481040777218, 69.00128500669004 ], [ 15.154556073616771, 69.001193372646611 ], [ 15.154551351535339, 69.000520846272508 ], [ 15.154123080991637, 69.000099813490806 ], [ 15.152372639789167, 69.0000743867393 ], [ 15.150748019529527, 69.000165508479213 ], [ 15.148051177290965, 69.000696991082975 ], [ 15.1470545993967, 69.00123594656975 ], [ 15.147106107066694, 69.001460019317875 ], [ 15.147609218457566, 69.001908089139761 ], [ 15.147236832682054, 69.002311981992293 ], [ 15.147413377371354, 69.002536036675821 ], [ 15.147366486978706, 69.003002426933307 ], [ 15.147167810723719, 69.003208868035074 ], [ 15.147295967617632, 69.003675107605559 ], [ 15.146798086086848, 69.004016239823358 ], [ 15.146774274791804, 69.004195715232711 ], [ 15.147648963360528, 69.004105280160161 ], [ 15.151491334532501, 69.002810491448045 ] ] ] ] } },
{ "type": "Feature", "properties": { "fid": 225273, "navn": "Skjelltjønna", "hoyde_moh": 4, "arealInnsjo_km2": 0.0143, "magasinKategori": null, "fid_2": 891, "id": 891, "left": 14.986919847, "top": 69.446110046000001, "right": 15.486919847, "bottom": 68.946110046000001, "row_index": 10, "col_index": 22, "tile_id": 891 }, "geometry": { "type": "MultiPolygon", "coordinates": [ [ [ [ 15.469679564008425, 69.017945721617863 ], [ 15.469549086834514, 69.017694962805734 ], [ 15.468737207193838, 69.017185895889043 ], [ 15.467537341564071, 69.017234108476558 ], [ 15.466419703349702, 69.017631768533064 ], [ 15.466429213397548, 69.018080165110305 ], [ 15.466686359723749, 69.018393449840886 ], [ 15.466937294645064, 69.018437428593757 ], [ 15.468188674217485, 69.018443069598206 ], [ 15.469483590533358, 69.018143565033924 ], [ 15.469679564008425, 69.017945721617863 ] ] ] ] } }
]
}
