{
"type": "FeatureCollection",
"name": "innsjo_tile_id_1767",
"crs": { "type": "name", "properties": { "name": "urn:ogc:def:crs:OGC:1.3:CRS84" } },
"xy_coordinate_resolution": 1e-15,
"features": [
{ "type": "Feature", "properties": { "fid": 234399, "navn": null, "hoyde_moh": 158, "arealInnsjo_km2": 0.0114, "magasinKategori": null, "fid_2": 1767, "id": 1767, "left": 25.986919847, "top": 71.446110046000001, "right": 26.486919847, "bottom": 70.946110046000001, "row_index": 6, "col_index": 44, "tile_id": 1767 }, "geometry": { "type": "MultiPolygon", "coordinates": [ [ [ [ 26.028788923906049, 70.993341187759242 ], [ 26.028843252930177, 70.993173588538284 ], [ 26.028270876245539, 70.993253551894242 ], [ 26.027677638292541, 70.993129209716116 ], [ 26.027549723275772, 70.99292714930742 ], [ 26.026550409472172, 70.992475588436079 ], [ 26.027468345163179, 70.992534300121235 ], [ 26.02756230763833, 70.992599269006035 ], [ 26.027419286808922, 70.992712228195984 ], [ 26.028266611946318, 70.992954163085798 ], [ 26.028311946598595, 70.992565714760133 ], [ 26.028462773010734, 70.992466571906263 ], [ 26.029708955018187, 70.992525122422521 ], [ 26.029815474377873, 70.992476502684283 ], [ 26.029735103240689, 70.992253388128361 ], [ 26.027690194115046, 70.992193852739319 ], [ 26.026584145630672, 70.991999392575607 ], [ 26.025589267965298, 70.992404634664041 ], [ 26.026228146101925, 70.992617690140946 ], [ 26.02529066222035, 70.992607371713703 ], [ 26.025694007345713, 70.992975701878208 ], [ 26.026734026419764, 70.992970307899469 ], [ 26.02719897047211, 70.993120100436229 ], [ 26.026678910638292, 70.993440781230731 ], [ 26.028788923906049, 70.993341187759242 ] ] ] ] } },
{ "type": "Feature", "properties": { "fid": 234402, "navn": null, "hoyde_moh": 169, "arealInnsjo_km2": 0.0068, "magasinKategori": null, "fid_2": 1767, "id": 1767, "left": 25.986919847, "top": 71.446110046000001, "right": 26.486919847, "bottom": 70.946110046000001, "row_index": 6, "col_index": 44, "tile_id": 1767 }, "geometry": { "type": "MultiPolygon", "coordinates": [ [ [ [ 26.034395950040519, 70.996079472975282 ], [ 26.034877268383045, 70.995846358439053 ], [ 26.034366494010555, 70.995648374401142 ], [ 26.034957084036847, 70.995467750243705 ], [ 26.03483556268349, 70.995356119973863 ], [ 26.032479501816102, 70.995520692244384 ], [ 26.032134689512347, 70.995965535755488 ], [ 26.032338294229678, 70.996058405138555 ], [ 26.033067516731375, 70.995926333187043 ], [ 26.033646642077663, 70.996107929746771 ], [ 26.03341204968379, 70.996254968218864 ], [ 26.035156690498258, 70.996265168328748 ], [ 26.034395950040519, 70.996079472975282 ] ] ] ] } },
{ "type": "Feature", "properties": { "fid": 241233, "navn": null, "hoyde_moh": 207, "arealInnsjo_km2": 0.0069, "magasinKategori": null, "fid_2": 1767, "id": 1767, "left": 25.986919847, "top": 71.446110046000001, "right": 26.486919847, "bottom": 70.946110046000001, "row_index": 6, "col_index": 44, "tile_id": 1767 }, "geometry": { "type": "MultiPolygon", "coordinates": [ [ [ [ 26.156571422657077, 71.012210036425401 ], [ 26.156599029946271, 71.012040051587661 ], [ 26.156392725277772, 71.011833112981634 ], [ 26.15512129001285, 71.011776501137788 ], [ 26.154195690223101, 71.011780445694114 ], [ 26.152991970215716, 71.012033475045612 ], [ 26.154537373617423, 71.01240935693626 ], [ 26.155856976343191, 71.012417719176668 ], [ 26.156571422657077, 71.012210036425401 ] ] ] ] } },
{ "type": "Feature", "properties": { "fid": 241251, "navn": null, "hoyde_moh": 276, "arealInnsjo_km2": 0.0027, "magasinKategori": null, "fid_2": 1767, "id": 1767, "left": 25.986919847, "top": 71.446110046000001, "right": 26.486919847, "bottom": 70.946110046000001, "row_index": 6, "col_index": 44, "tile_id": 1767 }, "geometry": { "type": "MultiPolygon", "coordinates": [ [ [ [ 26.13625052522633, 71.019110664455354 ], [ 26.135692096048309, 71.018719516991823 ], [ 26.134933522677397, 71.019165695967288 ], [ 26.135216279784164, 71.019454763044806 ], [ 26.135770825579105, 71.019485064436992 ], [ 26.13625052522633, 71.019110664455354 ] ] ] ] } },
{ "type": "Feature", "properties": { "fid": 241254, "navn": null, "hoyde_moh": 183, "arealInnsjo_km2": 0.0326, "magasinKategori": null, "fid_2": 1767, "id": 1767, "left": 25.986919847, "top": 71.446110046000001, "right": 26.486919847, "bottom": 70.946110046000001, "row_index": 6, "col_index": 44, "tile_id": 1767 }, "geometry": { "type": "MultiPolygon", "coordinates": [ [ [ [ 26.189559076241213, 71.022774118755365 ], [ 26.189188883865938, 71.022463465128993 ], [ 26.190144544325033, 71.022165773254201 ], [ 26.190220164453923, 71.021965443257386 ], [ 26.189940114076261, 71.021886541577544 ], [ 26.189888362843678, 71.021633973876774 ], [ 26.190085537281558, 71.021478680006581 ], [ 26.188881480800905, 71.021053108751744 ], [ 26.188112793448138, 71.021278421318357 ], [ 26.187347567216264, 71.020929090112077 ], [ 26.187445781075727, 71.020761707443214 ], [ 26.187088815426105, 71.020595630819429 ], [ 26.184117894693738, 71.019971698658807 ], [ 26.18535165367599, 71.020736042934629 ], [ 26.185130488639654, 71.020953327771849 ], [ 26.185616721420505, 71.02125482871466 ], [ 26.18615236761028, 71.022158791863944 ], [ 26.187232820166315, 71.022563501623765 ], [ 26.187163726863918, 71.022831707453719 ], [ 26.187560410793193, 71.023206023417671 ], [ 26.189559076241213, 71.022774118755365 ] ], [ [ 26.187779991781433, 71.021568142156923 ], [ 26.187476208579039, 71.021453266895833 ], [ 26.188436684666918, 71.021687206965368 ], [ 26.188314862211381, 71.021854388862948 ], [ 26.187779991781433, 71.021568142156923 ] ] ] ] } },
{ "type": "Feature", "properties": { "fid": 241256, "navn": null, "hoyde_moh": 291, "arealInnsjo_km2": 0.0032, "magasinKategori": null, "fid_2": 1767, "id": 1767, "left": 25.986919847, "top": 71.446110046000001, "right": 26.486919847, "bottom": 70.946110046000001, "row_index": 6, "col_index": 44, "tile_id": 1767 }, "geometry": { "type": "MultiPolygon", "coordinates": [ [ [ [ 26.205231646941165, 71.033535466514593 ], [ 26.205163705030515, 71.033209042045769 ], [ 26.205657443144304, 71.033070527753026 ], [ 26.204697019139619, 71.033032002588868 ], [ 26.203946281278768, 71.033247714959984 ], [ 26.203713391501193, 71.033376977549835 ], [ 26.203997129255576, 71.033517279334433 ], [ 26.203630768880132, 71.033588305970014 ], [ 26.205231646941165, 71.033535466514593 ] ] ] ] } },
{ "type": "Feature", "properties": { "fid": 241257, "navn": null, "hoyde_moh": 189, "arealInnsjo_km2": 0.0597, "magasinKategori": null, "fid_2": 1767, "id": 1767, "left": 25.986919847, "top": 71.446110046000001, "right": 26.486919847, "bottom": 70.946110046000001, "row_index": 6, "col_index": 44, "tile_id": 1767 }, "geometry": { "type": "MultiPolygon", "coordinates": [ [ [ [ 26.189592419743008, 71.035011079808712 ], [ 26.191504141583678, 71.034395878142774 ], [ 26.193257794665261, 71.034359886987616 ], [ 26.19511189576923, 71.03403491216956 ], [ 26.194984416431883, 71.03390775573547 ], [ 26.195242585657574, 71.033832046028195 ], [ 26.195203529646992, 71.033550661287208 ], [ 26.195646390726679, 71.033022086017681 ], [ 26.195721298271394, 71.032676591542497 ], [ 26.195101894978876, 71.032315195428055 ], [ 26.194864529658126, 71.031966408984673 ], [ 26.194153391440743, 71.031862859364054 ], [ 26.193924351428848, 71.03225669820543 ], [ 26.193122165985951, 71.032657475402559 ], [ 26.192966288402356, 71.03310166225755 ], [ 26.192706496501746, 71.033224169232597 ], [ 26.191212137522243, 71.032893801549577 ], [ 26.190322384391077, 71.032443244733841 ], [ 26.188673103962994, 71.032411235619023 ], [ 26.188575954142504, 71.032741141282941 ], [ 26.188679705769445, 71.032817397784115 ], [ 26.187733598524144, 71.033619808670409 ], [ 26.187630037229617, 71.034613657859694 ], [ 26.187938676528244, 71.034995528337646 ], [ 26.188685987239108, 71.035044560344019 ], [ 26.188982286134717, 71.035198591219597 ], [ 26.188938107908157, 71.035340290119223 ], [ 26.189234824237609, 71.035356831861264 ], [ 26.189592419743008, 71.035011079808712 ] ] ] ] } },
{ "type": "Feature", "properties": { "fid": 241259, "navn": null, "hoyde_moh": 178, "arealInnsjo_km2": 0.0123, "magasinKategori": null, "fid_2": 1767, "id": 1767, "left": 25.986919847, "top": 71.446110046000001, "right": 26.486919847, "bottom": 70.946110046000001, "row_index": 6, "col_index": 44, "tile_id": 1767 }, "geometry": { "type": "MultiPolygon", "coordinates": [ [ [ [ 26.173470088887843, 71.035892754731208 ], [ 26.173526573120501, 71.03560903688961 ], [ 26.172220820680764, 71.03514417251877 ], [ 26.172104444096053, 71.035683319581992 ], [ 26.171897591478519, 71.035792013249107 ], [ 26.170161872618543, 71.035717011446593 ], [ 26.1694849029011, 71.035842054011482 ], [ 26.169576713930354, 71.035948810343015 ], [ 26.169077814747705, 71.036107095702405 ], [ 26.169531250100373, 71.036400989608893 ], [ 26.169371223243559, 71.036461593522432 ], [ 26.169449404987244, 71.036556797531702 ], [ 26.170912181316062, 71.036541971616643 ], [ 26.173470088887843, 71.035892754731208 ] ] ] ] } },
{ "type": "Feature", "properties": { "fid": 241260, "navn": null, "hoyde_moh": 194, "arealInnsjo_km2": 0.0302, "magasinKategori": null, "fid_2": 1767, "id": 1767, "left": 25.986919847, "top": 71.446110046000001, "right": 26.486919847, "bottom": 70.946110046000001, "row_index": 6, "col_index": 44, "tile_id": 1767 }, "geometry": { "type": "MultiPolygon", "coordinates": [ [ [ [ 26.180721597309081, 71.037873110715708 ], [ 26.181263666344634, 71.037533832112942 ], [ 26.18387475021137, 71.037004123156905 ], [ 26.18426850194955, 71.036706440392862 ], [ 26.180979791460629, 71.036128871415798 ], [ 26.180105639278114, 71.03627167767776 ], [ 26.179078405737151, 71.036998566134216 ], [ 26.177003718177396, 71.037292695441167 ], [ 26.176366884320085, 71.037587010924042 ], [ 26.177021845471451, 71.037900055583037 ], [ 26.178634807794339, 71.037847736335962 ], [ 26.179692845661407, 71.038003277926364 ], [ 26.180721597309081, 71.037873110715708 ] ] ] ] } },
{ "type": "Feature", "properties": { "fid": 241261, "navn": null, "hoyde_moh": 203, "arealInnsjo_km2": 0.0191, "magasinKategori": null, "fid_2": 1767, "id": 1767, "left": 25.986919847, "top": 71.446110046000001, "right": 26.486919847, "bottom": 70.946110046000001, "row_index": 6, "col_index": 44, "tile_id": 1767 }, "geometry": { "type": "MultiPolygon", "coordinates": [ [ [ [ 26.19616450144742, 71.03732810446823 ], [ 26.198366204651187, 71.037423118700119 ], [ 26.197477479880803, 71.037294513405271 ], [ 26.196924310065622, 71.037027583534609 ], [ 26.197161231011084, 71.03695089049539 ], [ 26.196924737599247, 71.036536683199373 ], [ 26.197105479664927, 71.036307462705835 ], [ 26.197031101474423, 71.035670085284309 ], [ 26.194861098597034, 71.036412861684809 ], [ 26.194427165769156, 71.036863232455261 ], [ 26.192769514783532, 71.037173955077321 ], [ 26.193870731224244, 71.037672822756065 ], [ 26.195020923549276, 71.037753759125223 ], [ 26.19616450144742, 71.03732810446823 ] ] ] ] } },
{ "type": "Feature", "properties": { "fid": 241283, "navn": "Langvatnet", "hoyde_moh": 168, "arealInnsjo_km2": 0.031, "magasinKategori": null, "fid_2": 1767, "id": 1767, "left": 25.986919847, "top": 71.446110046000001, "right": 26.486919847, "bottom": 70.946110046000001, "row_index": 6, "col_index": 44, "tile_id": 1767 }, "geometry": { "type": "MultiPolygon", "coordinates": [ [ [ [ 26.203606182633365, 71.051151566629414 ], [ 26.202364642906435, 71.050871360989959 ], [ 26.202259348021553, 71.050556492807573 ], [ 26.201950521065285, 71.050413423326475 ], [ 26.200372008131875, 71.049969820996793 ], [ 26.198992146783109, 71.049450302375092 ], [ 26.198939824315676, 71.049295808008708 ], [ 26.197137736615936, 71.04888782369467 ], [ 26.196823725338259, 71.048649565934781 ], [ 26.194696081760704, 71.048053533884399 ], [ 26.194248302928706, 71.048228345176156 ], [ 26.194549656224758, 71.048540022972546 ], [ 26.196824903739408, 71.049648452348151 ], [ 26.199781382823147, 71.050554000752101 ], [ 26.201806620797115, 71.051357973504935 ], [ 26.204506296921892, 71.051646649227024 ], [ 26.203606182633365, 71.051151566629414 ] ] ] ] } },
{ "type": "Feature", "properties": { "fid": 241284, "navn": null, "hoyde_moh": 51, "arealInnsjo_km2": 0.003, "magasinKategori": null, "fid_2": 1767, "id": 1767, "left": 25.986919847, "top": 71.446110046000001, "right": 26.486919847, "bottom": 70.946110046000001, "row_index": 6, "col_index": 44, "tile_id": 1767 }, "geometry": { "type": "MultiPolygon", "coordinates": [ [ [ [ 26.217257096016045, 71.058811787576175 ], [ 26.217323986564605, 71.058726683356397 ], [ 26.215259022312992, 71.058606040816201 ], [ 26.214963573819269, 71.058857928054721 ], [ 26.21497699379146, 71.058999137058294 ], [ 26.215434856157316, 71.059149415026411 ], [ 26.217257096016045, 71.058811787576175 ] ] ] ] } },
{ "type": "Feature", "properties": { "fid": 241539, "navn": null, "hoyde_moh": 221, "arealInnsjo_km2": 0.0029, "magasinKategori": null, "fid_2": 1767, "id": 1767, "left": 25.986919847, "top": 71.446110046000001, "right": 26.486919847, "bottom": 70.946110046000001, "row_index": 6, "col_index": 44, "tile_id": 1767 }, "geometry": { "type": "MultiPolygon", "coordinates": [ [ [ [ 26.182941816045943, 71.033246888027946 ], [ 26.18345715916988, 71.032959743624261 ], [ 26.182482468017653, 71.032802719006014 ], [ 26.181401543710805, 71.03331059496638 ], [ 26.182040376037502, 71.033399927526617 ], [ 26.182941816045943, 71.033246888027946 ] ] ] ] } },
{ "type": "Feature", "properties": { "fid": 241557, "navn": null, "hoyde_moh": 5, "arealInnsjo_km2": 0.0084, "magasinKategori": null, "fid_2": 1767, "id": 1767, "left": 25.986919847, "top": 71.446110046000001, "right": 26.486919847, "bottom": 70.946110046000001, "row_index": 6, "col_index": 44, "tile_id": 1767 }, "geometry": { "type": "MultiPolygon", "coordinates": [ [ [ [ 26.012400174632411, 71.00719178711023 ], [ 26.012538511075814, 71.007006428197357 ], [ 26.00967074997525, 71.00689383474446 ], [ 26.008071706025287, 71.007351136402107 ], [ 26.010177979327988, 71.007669618724634 ], [ 26.012400174632411, 71.00719178711023 ] ] ] ] } },
{ "type": "Feature", "properties": { "fid": 241606, "navn": null, "hoyde_moh": 206, "arealInnsjo_km2": 0.01, "magasinKategori": null, "fid_2": 1767, "id": 1767, "left": 25.986919847, "top": 71.446110046000001, "right": 26.486919847, "bottom": 70.946110046000001, "row_index": 6, "col_index": 44, "tile_id": 1767 }, "geometry": { "type": "MultiPolygon", "coordinates": [ [ [ [ 26.152924406499846, 71.011800726894947 ], [ 26.152745394899245, 71.011328883091608 ], [ 26.153024702028404, 71.011107757607647 ], [ 26.151439027654909, 71.010867848878462 ], [ 26.150722607243285, 71.01114435529702 ], [ 26.150171517963919, 71.011772740651892 ], [ 26.150931798868239, 71.011986933510983 ], [ 26.15237017498524, 71.012000672293794 ], [ 26.152924406499846, 71.011800726894947 ] ] ] ] } },
{ "type": "Feature", "properties": { "fid": 241610, "navn": null, "hoyde_moh": 268, "arealInnsjo_km2": 0.0104, "magasinKategori": null, "fid_2": 1767, "id": 1767, "left": 25.986919847, "top": 71.446110046000001, "right": 26.486919847, "bottom": 70.946110046000001, "row_index": 6, "col_index": 44, "tile_id": 1767 }, "geometry": { "type": "MultiPolygon", "coordinates": [ [ [ [ 26.158287713700851, 71.024414990565774 ], [ 26.158579079543202, 71.023751100551365 ], [ 26.158495491260535, 71.023581856538812 ], [ 26.158779278076945, 71.023359090105998 ], [ 26.158284033975221, 71.022919176743088 ], [ 26.157874376822104, 71.022854016547797 ], [ 26.15713915474052, 71.023114922408553 ], [ 26.156247239432457, 71.023873147466588 ], [ 26.157107035019983, 71.02403060306527 ], [ 26.157168563505799, 71.024258988317996 ], [ 26.157037574039176, 71.024334025156321 ], [ 26.157255007323361, 71.024534743170364 ], [ 26.158287713700851, 71.024414990565774 ] ] ] ] } },
{ "type": "Feature", "properties": { "fid": 241620, "navn": null, "hoyde_moh": 14, "arealInnsjo_km2": 0.0189, "magasinKategori": null, "fid_2": 1767, "id": 1767, "left": 25.986919847, "top": 71.446110046000001, "right": 26.486919847, "bottom": 70.946110046000001, "row_index": 6, "col_index": 44, "tile_id": 1767 }, "geometry": { "type": "MultiPolygon", "coordinates": [ [ [ [ 26.008372325174026, 71.131311167746162 ], [ 26.005644622891545, 71.130787833607272 ], [ 26.004672172019543, 71.13075630407296 ], [ 26.002682122978676, 71.13091202390612 ], [ 26.002606568601561, 71.131023437911523 ], [ 26.002641160822105, 71.131431478150887 ], [ 26.00335113452622, 71.131673372067866 ], [ 26.004492355349363, 71.131919065464089 ], [ 26.006319070405958, 71.131877427792205 ], [ 26.008372325174026, 71.131311167746162 ] ] ] ] } },
{ "type": "Feature", "properties": { "fid": 241621, "navn": null, "hoyde_moh": 6, "arealInnsjo_km2": 0.0186, "magasinKategori": null, "fid_2": 1767, "id": 1767, "left": 25.986919847, "top": 71.446110046000001, "right": 26.486919847, "bottom": 70.946110046000001, "row_index": 6, "col_index": 44, "tile_id": 1767 }, "geometry": { "type": "MultiPolygon", "coordinates": [ [ [ [ 25.993097197894087, 71.134829611949371 ], [ 25.993022226349453, 71.134653093048925 ], [ 25.994010135658034, 71.133703359054195 ], [ 25.995011782274634, 71.133083819082529 ], [ 25.991944756211343, 71.133230503805791 ], [ 25.991404094935088, 71.13351624630333 ], [ 25.991191021904356, 71.134201054196694 ], [ 25.99216997288136, 71.135025975208919 ], [ 25.993135703095518, 71.135331494704275 ], [ 25.994077557412883, 71.13527519980903 ], [ 25.993097197894087, 71.134829611949371 ] ] ] ] } },
{ "type": "Feature", "properties": { "fid": 242760, "navn": null, "hoyde_moh": 15, "arealInnsjo_km2": 0.0028, "magasinKategori": null, "fid_2": 1767, "id": 1767, "left": 25.986919847, "top": 71.446110046000001, "right": 26.486919847, "bottom": 70.946110046000001, "row_index": 6, "col_index": 44, "tile_id": 1767 }, "geometry": { "type": "MultiPolygon", "coordinates": [ [ [ [ 26.011978475033004, 71.13023076563266 ], [ 26.011633982847425, 71.130018624089985 ], [ 26.011684376090333, 71.12988877532014 ], [ 26.010602427294945, 71.129756158678788 ], [ 26.009737580910212, 71.129986403647578 ], [ 26.010053064656038, 71.130147590790145 ], [ 26.010252146735972, 71.130092779273284 ], [ 26.010157461269898, 71.130014798136415 ], [ 26.010916593950924, 71.129984212443787 ], [ 26.011117581406889, 71.130044939401472 ], [ 26.011013141177688, 71.130314044262661 ], [ 26.011978475033004, 71.13023076563266 ] ] ] ] } },
{ "type": "Feature", "properties": { "fid": 243660, "navn": null, "hoyde_moh": 5, "arealInnsjo_km2": 0.0078, "magasinKategori": null, "fid_2": 1767, "id": 1767, "left": 25.986919847, "top": 71.446110046000001, "right": 26.486919847, "bottom": 70.946110046000001, "row_index": 6, "col_index": 44, "tile_id": 1767 }, "geometry": { "type": "MultiPolygon", "coordinates": [ [ [ [ 26.015472001671693, 71.006957895917211 ], [ 26.01423488904382, 71.006270181428505 ], [ 26.013318607467578, 71.006260407815148 ], [ 26.012655496311861, 71.006566208943241 ], [ 26.012714673298891, 71.006825717408205 ], [ 26.013295921914079, 71.007054391641276 ], [ 26.015400208346051, 71.007214974636483 ], [ 26.015472001671693, 71.006957895917211 ] ] ] ] } },
{ "type": "Feature", "properties": { "fid": 243715, "navn": null, "hoyde_moh": 207, "arealInnsjo_km2": 0.0139, "magasinKategori": null, "fid_2": 1767, "id": 1767, "left": 25.986919847, "top": 71.446110046000001, "right": 26.486919847, "bottom": 70.946110046000001, "row_index": 6, "col_index": 44, "tile_id": 1767 }, "geometry": { "type": "MultiPolygon", "coordinates": [ [ [ [ 26.160528291474122, 71.013534042616769 ], [ 26.160478482318116, 71.013191435453848 ], [ 26.161064592097329, 71.012959851532955 ], [ 26.160837563880026, 71.012547540383395 ], [ 26.161557346650305, 71.01187353917399 ], [ 26.160398943975625, 71.011743463821148 ], [ 26.158956859726921, 71.011985345266311 ], [ 26.159455748758042, 71.012334993809475 ], [ 26.157596771582675, 71.012347487501785 ], [ 26.157672228015752, 71.012556818952163 ], [ 26.158990006399712, 71.01299091429027 ], [ 26.160223989017279, 71.013008816677839 ], [ 26.16032987080532, 71.013192633544492 ], [ 26.159469809713389, 71.013488732854455 ], [ 26.159603425224848, 71.01365557295756 ], [ 26.160309169507954, 71.013667872358425 ], [ 26.160528291474122, 71.013534042616769 ] ] ] ] } },
{ "type": "Feature", "properties": { "fid": 243882, "navn": null, "hoyde_moh": 177, "arealInnsjo_km2": 0.0042, "magasinKategori": null, "fid_2": 1767, "id": 1767, "left": 25.986919847, "top": 71.446110046000001, "right": 26.486919847, "bottom": 70.946110046000001, "row_index": 6, "col_index": 44, "tile_id": 1767 }, "geometry": { "type": "MultiPolygon", "coordinates": [ [ [ [ 26.18241693733183, 71.01916167768475 ], [ 26.182051307597487, 71.018838179632922 ], [ 26.182122792395614, 71.018589132594471 ], [ 26.180687783752916, 71.018294010714513 ], [ 26.180447896680523, 71.018416387774096 ], [ 26.180626154660644, 71.018517877764339 ], [ 26.180571345081106, 71.018771643829339 ], [ 26.18105427295302, 71.018997975576511 ], [ 26.182359534024101, 71.019272589814747 ], [ 26.18241693733183, 71.01916167768475 ] ] ] ] } },
{ "type": "Feature", "properties": { "fid": 243886, "navn": null, "hoyde_moh": 272, "arealInnsjo_km2": 0.0027, "magasinKategori": null, "fid_2": 1767, "id": 1767, "left": 25.986919847, "top": 71.446110046000001, "right": 26.486919847, "bottom": 70.946110046000001, "row_index": 6, "col_index": 44, "tile_id": 1767 }, "geometry": { "type": "MultiPolygon", "coordinates": [ [ [ [ 26.2091258452303, 71.043552496337924 ], [ 26.20840358885841, 71.043398031859041 ], [ 26.207728518821344, 71.043417217898366 ], [ 26.207644173700327, 71.043536156696675 ], [ 26.207794976089591, 71.04363257671146 ], [ 26.20758828988701, 71.043698153441454 ], [ 26.208233198839075, 71.043882642815362 ], [ 26.209467998067474, 71.043826803822469 ], [ 26.2091258452303, 71.043552496337924 ] ] ] ] } },
{ "type": "Feature", "properties": { "fid": 244065, "navn": "Opnanvatnet", "hoyde_moh": 1, "arealInnsjo_km2": 1.1064, "magasinKategori": null, "fid_2": 1767, "id": 1767, "left": 25.986919847, "top": 71.446110046000001, "right": 26.486919847, "bottom": 70.946110046000001, "row_index": 6, "col_index": 44, "tile_id": 1767 }, "geometry": { "type": "MultiPolygon", "coordinates": [ [ [ [ 26.034164992071986, 71.116005339878669 ], [ 26.034890436411395, 71.115590073407091 ], [ 26.035141303536513, 71.115159486585398 ], [ 26.035000546743699, 71.114549922418632 ], [ 26.035581236837878, 71.11400297995732 ], [ 26.0369763821849, 71.113322535940355 ], [ 26.037006864336988, 71.113042709365686 ], [ 26.036823743891485, 71.112939724768822 ], [ 26.03879651135944, 71.113036086156598 ], [ 26.038786436476702, 71.112821200032045 ], [ 26.038583506183407, 71.112758895330131 ], [ 26.036390980337728, 71.112498130003758 ], [ 26.037761296590347, 71.11242221411689 ], [ 26.038812124218978, 71.111834404869199 ], [ 26.039113757613581, 71.111424612451685 ], [ 26.038918032430924, 71.111251676756453 ], [ 26.039040971760169, 71.11093401455949 ], [ 26.038648264040258, 71.110640634895887 ], [ 26.038720431776262, 71.11031372399485 ], [ 26.038308919494821, 71.109966596057532 ], [ 26.037782789751866, 71.109845722302538 ], [ 26.036643227186236, 71.110079386073835 ], [ 26.037092270962667, 71.109651229667918 ], [ 26.03656017409628, 71.109925193281526 ], [ 26.036352340867989, 71.109728956982053 ], [ 26.035640968693762, 71.109559457514649 ], [ 26.031813410103904, 71.109310588100868 ], [ 26.031448320918098, 71.109435962425479 ], [ 26.029570861512195, 71.108941284860535 ], [ 26.023614815517675, 71.107816279435369 ], [ 26.020214512867398, 71.107518112488194 ], [ 26.019202138834231, 71.107297375896735 ], [ 26.016835632458285, 71.107196134458306 ], [ 26.008935789801235, 71.106214213635724 ], [ 26.003857015505076, 71.105868652114296 ], [ 26.000221627843491, 71.10584449138949 ], [ 25.999120009866676, 71.105621701223143 ], [ 25.99642758233453, 71.105724710054119 ], [ 25.99632317110748, 71.105952944925832 ], [ 25.994554335042892, 71.106559572528141 ], [ 25.994245134835037, 71.106819383153493 ], [ 25.994614399003922, 71.107005026486348 ], [ 25.994438279080285, 71.107146995767437 ], [ 25.993081577439224, 71.107578467517186 ], [ 25.992180998848902, 71.108003238981681 ], [ 25.991990094108203, 71.108236527567627 ], [ 25.991993008622877, 71.108511503450544 ], [ 25.992543670970736, 71.108942665664955 ], [ 25.99412332438914, 71.109494074221331 ], [ 26.002249861370178, 71.11092620181067 ], [ 26.004828088752866, 71.111686548697421 ], [ 26.009523639698187, 71.11246421302819 ], [ 26.017500649189873, 71.114172967856064 ], [ 26.020096996661639, 71.114368085072769 ], [ 26.023018621565079, 71.115031035683813 ], [ 26.026096058540016, 71.116424362846018 ], [ 26.028507223248191, 71.116570290786527 ], [ 26.032433248360025, 71.116448514198282 ], [ 26.034164992071986, 71.116005339878669 ] ] ] ] } },
{ "type": "Feature", "properties": { "fid": 244502, "navn": null, "hoyde_moh": 2, "arealInnsjo_km2": 0.0056, "magasinKategori": null, "fid_2": 1767, "id": 1767, "left": 25.986919847, "top": 71.446110046000001, "right": 26.486919847, "bottom": 70.946110046000001, "row_index": 6, "col_index": 44, "tile_id": 1767 }, "geometry": { "type": "MultiPolygon", "coordinates": [ [ [ [ 26.007892917367762, 71.009032602877511 ], [ 26.007340475542204, 71.008893994991027 ], [ 26.007363770064501, 71.008418270063117 ], [ 26.006247709720871, 71.008232984015194 ], [ 26.005679177736347, 71.008547735709016 ], [ 26.006469015613423, 71.008680773463226 ], [ 26.006090394288346, 71.008991431074051 ], [ 26.006195377918122, 71.009222353289175 ], [ 26.007917905231103, 71.00931626853702 ], [ 26.007892917367762, 71.009032602877511 ] ] ] ] } },
{ "type": "Feature", "properties": { "fid": 244663, "navn": null, "hoyde_moh": 264, "arealInnsjo_km2": 0.0029, "magasinKategori": null, "fid_2": 1767, "id": 1767, "left": 25.986919847, "top": 71.446110046000001, "right": 26.486919847, "bottom": 70.946110046000001, "row_index": 6, "col_index": 44, "tile_id": 1767 }, "geometry": { "type": "MultiPolygon", "coordinates": [ [ [ [ 26.212623118151352, 71.044005895981172 ], [ 26.212225964953845, 71.043697980885113 ], [ 26.212251184555317, 71.043332823960981 ], [ 26.211518737014995, 71.043626460146996 ], [ 26.211461205281342, 71.043842365645858 ], [ 26.212145529031275, 71.044142704626509 ], [ 26.211907651470153, 71.044442161264243 ], [ 26.212528212231632, 71.044514867199425 ], [ 26.212623118151352, 71.044005895981172 ] ] ] ] } },
{ "type": "Feature", "properties": { "fid": 244665, "navn": null, "hoyde_moh": 53, "arealInnsjo_km2": 0.0059, "magasinKategori": null, "fid_2": 1767, "id": 1767, "left": 25.986919847, "top": 71.446110046000001, "right": 26.486919847, "bottom": 70.946110046000001, "row_index": 6, "col_index": 44, "tile_id": 1767 }, "geometry": { "type": "MultiPolygon", "coordinates": [ [ [ [ 26.213673952865182, 71.058659261133471 ], [ 26.211395253434763, 71.058277469266741 ], [ 26.210318786794019, 71.058353310602712 ], [ 26.209932002658967, 71.058454794393128 ], [ 26.210294765332389, 71.058574911610236 ], [ 26.209281071372661, 71.058680881757937 ], [ 26.209551820482986, 71.058734316078315 ], [ 26.209454482660174, 71.058842482148819 ], [ 26.212518261231825, 71.058812500802276 ], [ 26.213673952865182, 71.058659261133471 ] ] ] ] } },
{ "type": "Feature", "properties": { "fid": 244672, "navn": null, "hoyde_moh": 17, "arealInnsjo_km2": 0.0307, "magasinKategori": null, "fid_2": 1767, "id": 1767, "left": 25.986919847, "top": 71.446110046000001, "right": 26.486919847, "bottom": 70.946110046000001, "row_index": 6, "col_index": 44, "tile_id": 1767 }, "geometry": { "type": "MultiPolygon", "coordinates": [ [ [ [ 25.995481319865984, 71.131712415715782 ], [ 25.995489131077548, 71.131423785542665 ], [ 25.994949334709208, 71.131155090757758 ], [ 25.994737998281973, 71.130841466431207 ], [ 25.993309980938545, 71.130370116248969 ], [ 25.991178265624935, 71.130139700903911 ], [ 25.99027515609647, 71.130276670979541 ], [ 25.98976516543728, 71.130523736990241 ], [ 25.989928282859051, 71.131138309023328 ], [ 25.989632350461612, 71.131418774234774 ], [ 25.989902067887094, 71.131534303822036 ], [ 25.99380920230524, 71.131791517907814 ], [ 25.995989756891738, 71.132106995747577 ], [ 25.995481319865984, 71.131712415715782 ] ] ] ] } },
{ "type": "Feature", "properties": { "fid": 245392, "navn": null, "hoyde_moh": 209, "arealInnsjo_km2": 0.0107, "magasinKategori": null, "fid_2": 1767, "id": 1767, "left": 25.986919847, "top": 71.446110046000001, "right": 26.486919847, "bottom": 70.946110046000001, "row_index": 6, "col_index": 44, "tile_id": 1767 }, "geometry": { "type": "MultiPolygon", "coordinates": [ [ [ [ 26.158296978523396, 71.014237929121833 ], [ 26.158557527400983, 71.01402020871447 ], [ 26.153186963040117, 71.013851988649478 ], [ 26.152834561258274, 71.014078823349791 ], [ 26.154000116342704, 71.014445366968076 ], [ 26.157146900965703, 71.014425187599585 ], [ 26.158296978523396, 71.014237929121833 ] ] ] ] } },
{ "type": "Feature", "properties": { "fid": 245396, "navn": "Skarvbergvatnet", "hoyde_moh": 184, "arealInnsjo_km2": 0.1753, "magasinKategori": null, "fid_2": 1767, "id": 1767, "left": 25.986919847, "top": 71.446110046000001, "right": 26.486919847, "bottom": 70.946110046000001, "row_index": 6, "col_index": 44, "tile_id": 1767 }, "geometry": { "type": "MultiPolygon", "coordinates": [ [ [ [ 26.192674412500821, 71.030642055922286 ], [ 26.194787299912786, 71.030290297681461 ], [ 26.195366678619088, 71.030030706754559 ], [ 26.195834650655748, 71.029685494323317 ], [ 26.195679482044319, 71.029367664652668 ], [ 26.195852156440242, 71.028849709677985 ], [ 26.196234711322735, 71.028472825791866 ], [ 26.195753939432084, 71.028316660364226 ], [ 26.195584996024735, 71.028157255181114 ], [ 26.195584308919379, 71.027784955914797 ], [ 26.195221918730944, 71.027537827452136 ], [ 26.192313899425923, 71.027420746341974 ], [ 26.191736379976426, 71.027158033979674 ], [ 26.190254719015055, 71.026910209489543 ], [ 26.190811133255437, 71.026485706530977 ], [ 26.191744516518824, 71.026209308208507 ], [ 26.191731863174056, 71.025876887019336 ], [ 26.193266003338113, 71.025894001350821 ], [ 26.193473316694295, 71.025764578774968 ], [ 26.191828323956365, 71.025519160628704 ], [ 26.191286951596378, 71.025272001677408 ], [ 26.191098104087128, 71.024860364132607 ], [ 26.191266685308644, 71.024575992391689 ], [ 26.190604419640263, 71.024362775702187 ], [ 26.1899202116951, 71.02435954633593 ], [ 26.188113141359846, 71.024872914904904 ], [ 26.187684964751611, 71.024688228130756 ], [ 26.186814023523389, 71.024768996747 ], [ 26.186501474707025, 71.025043459568082 ], [ 26.186811318926402, 71.025197024284125 ], [ 26.186513122578269, 71.025389865707211 ], [ 26.184346613857894, 71.025781953391984 ], [ 26.18462727541764, 71.026201204940065 ], [ 26.185672829131885, 71.026472325435776 ], [ 26.185502381384193, 71.026697628194313 ], [ 26.185733033577499, 71.026787373962335 ], [ 26.18569393282397, 71.026928671526221 ], [ 26.187942089884736, 71.028201823963158 ], [ 26.187197115150422, 71.02876286772873 ], [ 26.187335527028395, 71.029181763747332 ], [ 26.187664481010238, 71.029377683088967 ], [ 26.186731810844474, 71.029684867241201 ], [ 26.186904090312286, 71.029942665170381 ], [ 26.186881785265356, 71.030412032283579 ], [ 26.188858237632569, 71.030696972745432 ], [ 26.189457323710577, 71.030984421688714 ], [ 26.188971210031148, 71.031174224460074 ], [ 26.190792301892881, 71.031160629255851 ], [ 26.192674412500821, 71.030642055922286 ] ], [ [ 26.188442059211742, 71.025385724464286 ], [ 26.188155765530372, 71.025058034907047 ], [ 26.188404797412833, 71.024915975434311 ], [ 26.189555720068167, 71.024919752582605 ], [ 26.189919617072569, 71.025308900135926 ], [ 26.188442059211742, 71.025385724464286 ] ] ] ] } },
{ "type": "Feature", "properties": { "fid": 245397, "navn": null, "hoyde_moh": 204, "arealInnsjo_km2": 0.0136, "magasinKategori": null, "fid_2": 1767, "id": 1767, "left": 25.986919847, "top": 71.446110046000001, "right": 26.486919847, "bottom": 70.946110046000001, "row_index": 6, "col_index": 44, "tile_id": 1767 }, "geometry": { "type": "MultiPolygon", "coordinates": [ [ [ [ 26.192706893925887, 71.039654140904204 ], [ 26.19213515253038, 71.039299474941629 ], [ 26.192094037094094, 71.03901056915339 ], [ 26.193790884061318, 71.038603253003686 ], [ 26.193805511215018, 71.038417558180285 ], [ 26.193317054292962, 71.037907435847728 ], [ 26.191931473721247, 71.038180286085606 ], [ 26.190934527636113, 71.038588519675585 ], [ 26.191067257690086, 71.038668840399808 ], [ 26.190834466944978, 71.038760566042697 ], [ 26.190638996872465, 71.039227091929618 ], [ 26.190813632530261, 71.039630317558661 ], [ 26.191110967261967, 71.039871135334977 ], [ 26.191734255983228, 71.03996995150078 ], [ 26.192706893925887, 71.039654140904204 ] ] ] ] } },
{ "type": "Feature", "properties": { "fid": 268999, "navn": null, "hoyde_moh": 101, "arealInnsjo_km2": 0.0484, "magasinKategori": 2, "fid_2": 1767, "id": 1767, "left": 25.986919847, "top": 71.446110046000001, "right": 26.486919847, "bottom": 70.946110046000001, "row_index": 6, "col_index": 44, "tile_id": 1767 }, "geometry": { "type": "MultiPolygon", "coordinates": [ [ [ [ 26.016540374595525, 70.991193398276536 ], [ 26.01629306627596, 70.991027344262378 ], [ 26.016932463396252, 70.990994442510228 ], [ 26.016933786286181, 70.990803007678466 ], [ 26.017353940399126, 70.990755596643339 ], [ 26.017542875643059, 70.990554815342833 ], [ 26.017301578512907, 70.989996045650685 ], [ 26.017646174958461, 70.989724413243664 ], [ 26.017217177244465, 70.989331502016569 ], [ 26.016030140167135, 70.9893994490686 ], [ 26.012483876678832, 70.989085161118425 ], [ 26.01039358050145, 70.989425620912414 ], [ 26.010498223324582, 70.989868745763005 ], [ 26.012883838474828, 70.990992448106752 ], [ 26.01648133281607, 70.991509041535721 ], [ 26.016540374595525, 70.991193398276536 ] ] ] ] } }
]
}
