{
"type": "FeatureCollection",
"name": "innsjo_tile_id_820",
"crs": { "type": "name", "properties": { "name": "urn:ogc:def:crs:OGC:1.3:CRS84" } },
"xy_coordinate_resolution": 1e-15,
"features": [
{ "type": "Feature", "properties": { "fid": 17073, "navn": null, "hoyde_moh": 816, "arealInnsjo_km2": 0.0084, "magasinKategori": null, "fid_2": 820, "id": 820, "left": 13.986919847, "top": 64.946110046000001, "right": 14.486919847, "bottom": 64.446110046000001, "row_index": 19, "col_index": 20, "tile_id": 820 }, "geometry": { "type": "MultiPolygon", "coordinates": [ [ [ [ 14.077085029795276, 64.943471127629422 ], [ 14.076854951360481, 64.943195560002323 ], [ 14.077019624337346, 64.943053360356842 ], [ 14.076920164510449, 64.942868785838613 ], [ 14.075615282236766, 64.942322466841333 ], [ 14.074934651644853, 64.941772022918428 ], [ 14.074117678094936, 64.941457184102177 ], [ 14.073812352808085, 64.941535871352187 ], [ 14.073885979707276, 64.941775295954145 ], [ 14.074516482502668, 64.942213981431777 ], [ 14.076428686607912, 64.943098608394678 ], [ 14.076827082014297, 64.943488734775116 ], [ 14.077085029795276, 64.943471127629422 ] ] ] ] } },
{ "type": "Feature", "properties": { "fid": 23609, "navn": null, "hoyde_moh": null, "arealInnsjo_km2": 0.0027, "magasinKategori": null, "fid_2": 820, "id": 820, "left": 13.986919847, "top": 64.946110046000001, "right": 14.486919847, "bottom": 64.446110046000001, "row_index": 19, "col_index": 20, "tile_id": 820 }, "geometry": { "type": "MultiPolygon", "coordinates": [ [ [ [ 14.017242377598324, 64.896115615686043 ], [ 14.017862101938205, 64.896037683343224 ], [ 14.017335582837791, 64.895767869134175 ], [ 14.01703485389792, 64.895897978508671 ], [ 14.015548382967474, 64.895530645846662 ], [ 14.015374373005031, 64.895609631319189 ], [ 14.015592824591181, 64.895701530909847 ], [ 14.015490123171652, 64.895811947312652 ], [ 14.017242377598324, 64.896115615686043 ] ] ] ] } },
{ "type": "Feature", "properties": { "fid": 29982, "navn": null, "hoyde_moh": null, "arealInnsjo_km2": 0.0031, "magasinKategori": null, "fid_2": 820, "id": 820, "left": 13.986919847, "top": 64.946110046000001, "right": 14.486919847, "bottom": 64.446110046000001, "row_index": 19, "col_index": 20, "tile_id": 820 }, "geometry": { "type": "MultiPolygon", "coordinates": [ [ [ [ 14.050224549319045, 64.924682325937269 ], [ 14.050166790676416, 64.92454555806043 ], [ 14.047789986853035, 64.924341857278506 ], [ 14.047933846278722, 64.924489406080383 ], [ 14.048623189774803, 64.924533560662127 ], [ 14.048883444232441, 64.924792407030992 ], [ 14.050224549319045, 64.924682325937269 ] ] ] ] } },
{ "type": "Feature", "properties": { "fid": 32793, "navn": null, "hoyde_moh": 313, "arealInnsjo_km2": 0.0036, "magasinKategori": null, "fid_2": 820, "id": 820, "left": 13.986919847, "top": 64.946110046000001, "right": 14.486919847, "bottom": 64.446110046000001, "row_index": 19, "col_index": 20, "tile_id": 820 }, "geometry": { "type": "MultiPolygon", "coordinates": [ [ [ [ 14.100455662817826, 64.460840102192435 ], [ 14.100724978513663, 64.460165636769077 ], [ 14.100126748636304, 64.460752207764827 ], [ 14.098607429666869, 64.461461106226253 ], [ 14.099019588068161, 64.461546552463233 ], [ 14.100455662817826, 64.460840102192435 ] ] ] ] } },
{ "type": "Feature", "properties": { "fid": 33331, "navn": null, "hoyde_moh": 842, "arealInnsjo_km2": 0.0027, "magasinKategori": null, "fid_2": 820, "id": 820, "left": 13.986919847, "top": 64.946110046000001, "right": 14.486919847, "bottom": 64.446110046000001, "row_index": 19, "col_index": 20, "tile_id": 820 }, "geometry": { "type": "MultiPolygon", "coordinates": [ [ [ [ 13.994791419777336, 64.913634105484832 ], [ 13.992960373794348, 64.913801038887669 ], [ 13.993368979335299, 64.913937150081679 ], [ 13.996330600564361, 64.913826558281301 ], [ 13.994791419777336, 64.913634105484832 ] ] ] ] } },
{ "type": "Feature", "properties": { "fid": 58821, "navn": null, "hoyde_moh": 817, "arealInnsjo_km2": 0.0038, "magasinKategori": null, "fid_2": 820, "id": 820, "left": 13.986919847, "top": 64.946110046000001, "right": 14.486919847, "bottom": 64.446110046000001, "row_index": 19, "col_index": 20, "tile_id": 820 }, "geometry": { "type": "MultiPolygon", "coordinates": [ [ [ [ 13.989404516242828, 64.944480553545574 ], [ 13.990498546867624, 64.94429350109391 ], [ 13.990801797818197, 64.944069324978855 ], [ 13.989734586594267, 64.94384816564957 ], [ 13.989349292862617, 64.944160085485308 ], [ 13.98884223634399, 64.944215426855806 ], [ 13.988708966401713, 64.944365282410672 ], [ 13.989404516242828, 64.944480553545574 ] ] ] ] } },
{ "type": "Feature", "properties": { "fid": 74568, "navn": null, "hoyde_moh": 800, "arealInnsjo_km2": 0.0099, "magasinKategori": null, "fid_2": 820, "id": 820, "left": 13.986919847, "top": 64.946110046000001, "right": 14.486919847, "bottom": 64.446110046000001, "row_index": 19, "col_index": 20, "tile_id": 820 }, "geometry": { "type": "MultiPolygon", "coordinates": [ [ [ [ 14.06830051593262, 64.94022369560949 ], [ 14.06787292418206, 64.940033205644255 ], [ 14.068227559056258, 64.940374624878402 ], [ 14.068139574385471, 64.940616991200812 ], [ 14.068338405467992, 64.940972601921189 ], [ 14.069990015974522, 64.942059027151927 ], [ 14.069615855886591, 64.941516660926482 ], [ 14.070017612119106, 64.941385280234869 ], [ 14.069673761972171, 64.941055239520225 ], [ 14.069896699060804, 64.940844583333686 ], [ 14.06955905392776, 64.940573806906301 ], [ 14.069479645563947, 64.940288757841671 ], [ 14.06830051593262, 64.94022369560949 ] ] ] ] } },
{ "type": "Feature", "properties": { "fid": 85203, "navn": null, "hoyde_moh": 788, "arealInnsjo_km2": 0.0085, "magasinKategori": null, "fid_2": 820, "id": 820, "left": 13.986919847, "top": 64.946110046000001, "right": 14.486919847, "bottom": 64.446110046000001, "row_index": 19, "col_index": 20, "tile_id": 820 }, "geometry": { "type": "MultiPolygon", "coordinates": [ [ [ [ 14.017392341748915, 64.920011277573664 ], [ 14.015385269358239, 64.920732353029834 ], [ 14.01410689095661, 64.920753605601291 ], [ 14.013859115470307, 64.920999821171591 ], [ 14.014183127112785, 64.921170850340076 ], [ 14.016554430289611, 64.921325787708582 ], [ 14.015870465377475, 64.920902020292303 ], [ 14.016385985959971, 64.920630916659931 ], [ 14.016661613573927, 64.920795429201561 ], [ 14.017002673677158, 64.920726517222676 ], [ 14.017392341748915, 64.920011277573664 ] ] ] ] } },
{ "type": "Feature", "properties": { "fid": 88551, "navn": null, "hoyde_moh": 714, "arealInnsjo_km2": 0.0046, "magasinKategori": null, "fid_2": 820, "id": 820, "left": 13.986919847, "top": 64.946110046000001, "right": 14.486919847, "bottom": 64.446110046000001, "row_index": 19, "col_index": 20, "tile_id": 820 }, "geometry": { "type": "MultiPolygon", "coordinates": [ [ [ [ 14.030998762594479, 64.933980436240489 ], [ 14.031952127108031, 64.934101043471841 ], [ 14.032625016801134, 64.934390594534307 ], [ 14.033081159084922, 64.934061347101633 ], [ 14.031952147232289, 64.933543507968082 ], [ 14.030998762594479, 64.933980436240489 ] ] ] ] } },
{ "type": "Feature", "properties": { "fid": 107799, "navn": null, "hoyde_moh": 728, "arealInnsjo_km2": 0.0027, "magasinKategori": null, "fid_2": 820, "id": 820, "left": 13.986919847, "top": 64.946110046000001, "right": 14.486919847, "bottom": 64.446110046000001, "row_index": 19, "col_index": 20, "tile_id": 820 }, "geometry": { "type": "MultiPolygon", "coordinates": [ [ [ [ 14.026039768027951, 64.917420968043132 ], [ 14.025147359224729, 64.917286450096356 ], [ 14.025732341396029, 64.91752619464306 ], [ 14.02562866902166, 64.917743757851923 ], [ 14.026677327008171, 64.918018655239138 ], [ 14.027066241225493, 64.91794025167998 ], [ 14.026039768027951, 64.917420968043132 ] ] ] ] } },
{ "type": "Feature", "properties": { "fid": 122450, "navn": null, "hoyde_moh": 794, "arealInnsjo_km2": 0.0318, "magasinKategori": null, "fid_2": 820, "id": 820, "left": 13.986919847, "top": 64.946110046000001, "right": 14.486919847, "bottom": 64.446110046000001, "row_index": 19, "col_index": 20, "tile_id": 820 }, "geometry": { "type": "MultiPolygon", "coordinates": [ [ [ [ 14.074059085501609, 64.945446488756644 ], [ 14.073811516156425, 64.945463257850164 ], [ 14.073685325521909, 64.945648497180144 ], [ 14.073807913871322, 64.945929055625228 ], [ 14.072014080509206, 64.945418434814329 ], [ 14.071860351020041, 64.945206598358126 ], [ 14.068911005744361, 64.94476430275158 ], [ 14.068020914361989, 64.945334760463467 ], [ 14.070780832675265, 64.946110046 ], [ 14.073787314924289, 64.946110046 ], [ 14.073982124086669, 64.94606321590922 ], [ 14.07405680746289, 64.946110046 ], [ 14.075266141367281, 64.946110046 ], [ 14.074059085501609, 64.945446488756644 ] ] ] ] } },
{ "type": "Feature", "properties": { "fid": 125707, "navn": null, "hoyde_moh": 747, "arealInnsjo_km2": 0.0329, "magasinKategori": null, "fid_2": 820, "id": 820, "left": 13.986919847, "top": 64.946110046000001, "right": 14.486919847, "bottom": 64.446110046000001, "row_index": 19, "col_index": 20, "tile_id": 820 }, "geometry": { "type": "MultiPolygon", "coordinates": [ [ [ [ 14.021727964055193, 64.927469682303993 ], [ 14.021569284765466, 64.92753486698642 ], [ 14.022219972944475, 64.927926980289627 ], [ 14.022163349603986, 64.928116851718102 ], [ 14.02122696980063, 64.927966678727685 ], [ 14.020952311598226, 64.928340963818059 ], [ 14.020665380050028, 64.928425406384733 ], [ 14.020002766168178, 64.928261678821784 ], [ 14.019705563038659, 64.927967181488469 ], [ 14.019056349091777, 64.928050674076289 ], [ 14.01928532652652, 64.928591321821969 ], [ 14.019859723210164, 64.929091435808758 ], [ 14.019104784218353, 64.929040166211166 ], [ 14.018889881937772, 64.929167435287098 ], [ 14.019100992645264, 64.929334838289265 ], [ 14.018729303292988, 64.929451832554975 ], [ 14.019050704428723, 64.929547453825563 ], [ 14.019750967933003, 64.929318204586551 ], [ 14.022401730199642, 64.929968705670873 ], [ 14.022998405228879, 64.929836126793404 ], [ 14.023223090133474, 64.929939450685012 ], [ 14.02327515557081, 64.929770098862804 ], [ 14.023039633440114, 64.929406735511819 ], [ 14.02354381509924, 64.929252101203332 ], [ 14.023563159856211, 64.929069253871049 ], [ 14.022591922854348, 64.928469637134299 ], [ 14.022722448467764, 64.927986988971128 ], [ 14.023283956928109, 64.927848884120777 ], [ 14.021727964055193, 64.927469682303993 ] ], [ [ 14.019421039482566, 64.92927071761757 ], [ 14.019328241014037, 64.929107054704957 ], [ 14.01974143250199, 64.929220238597793 ], [ 14.019421039482566, 64.92927071761757 ] ], [ [ 14.020549425521807, 64.929388601585558 ], [ 14.020450033721037, 64.929324235168238 ], [ 14.020663967245719, 64.929292886570664 ], [ 14.02073817066219, 64.929404109683105 ], [ 14.020549425521807, 64.929388601585558 ] ], [ [ 14.021618744497237, 64.929630016375171 ], [ 14.021455502990817, 64.929524131993759 ], [ 14.021612773701307, 64.929486307981264 ], [ 14.021766726274679, 64.929562697448645 ], [ 14.021618744497237, 64.929630016375171 ] ] ] ] } },
{ "type": "Feature", "properties": { "fid": 190030, "navn": null, "hoyde_moh": 798, "arealInnsjo_km2": 0.0394, "magasinKategori": null, "fid_2": 820, "id": 820, "left": 13.986919847, "top": 64.946110046000001, "right": 14.486919847, "bottom": 64.446110046000001, "row_index": 19, "col_index": 20, "tile_id": 820 }, "geometry": { "type": "MultiPolygon", "coordinates": [ [ [ [ 13.999772225163264, 64.924715584604598 ], [ 14.000091989013413, 64.925169738169842 ], [ 13.999795870712948, 64.925397659301794 ], [ 14.00062535786776, 64.925334573388341 ], [ 14.000890319063201, 64.925505953526454 ], [ 14.000534425542007, 64.925606945463599 ], [ 14.000669225369348, 64.925621848263987 ], [ 14.000438795654549, 64.925897502713582 ], [ 14.00079253544985, 64.926269144346776 ], [ 14.001725979596923, 64.92648798645493 ], [ 14.001423598872803, 64.926321472288393 ], [ 14.001472991702107, 64.926216092301459 ], [ 14.001698493920628, 64.926339914905753 ], [ 14.002446959797133, 64.926238137673977 ], [ 14.003739732885633, 64.926702470142033 ], [ 14.003379112841314, 64.92629274105856 ], [ 14.001826932635716, 64.926190464578227 ], [ 14.00160711866042, 64.925947867731196 ], [ 14.0020440025136, 64.925449070443491 ], [ 14.003609302405593, 64.925475963324857 ], [ 14.004305737144001, 64.925287950312352 ], [ 14.005277518584762, 64.924335323667691 ], [ 14.002200717687122, 64.924021228289575 ], [ 14.00038327316679, 64.924140247829797 ], [ 13.999965363003755, 64.924305523258653 ], [ 13.999772225163264, 64.924715584604598 ] ], [ [ 14.000810974963414, 64.926063589430797 ], [ 14.000654764672051, 64.926055632508849 ], [ 14.000706603630459, 64.926009585694601 ], [ 14.000810974963414, 64.926063589430797 ] ], [ [ 14.001120716722593, 64.926145800893551 ], [ 14.001114251189867, 64.926120631051276 ], [ 14.001254091865391, 64.92611950406004 ], [ 14.001120716722593, 64.926145800893551 ] ] ] ] } },
{ "type": "Feature", "properties": { "fid": 190588, "navn": "Henrikvatnet", "hoyde_moh": 747, "arealInnsjo_km2": 1.6438, "magasinKategori": null, "fid_2": 820, "id": 820, "left": 13.986919847, "top": 64.946110046000001, "right": 14.486919847, "bottom": 64.446110046000001, "row_index": 19, "col_index": 20, "tile_id": 820 }, "geometry": { "type": "MultiPolygon", "coordinates": [ [ [ [ 14.0013374907073, 64.93697273638422 ], [ 14.002709745185001, 64.936479300986562 ], [ 14.003872798951649, 64.93649604872229 ], [ 14.004753545143171, 64.936708415409356 ], [ 14.005054462581434, 64.936575817450191 ], [ 14.004974390076237, 64.936458624573163 ], [ 14.006927166116334, 64.935717848624975 ], [ 14.006925488886472, 64.93519736079628 ], [ 14.006612870839929, 64.935069556385542 ], [ 14.006653075276944, 64.934549437234011 ], [ 14.007219289052729, 64.934678930288385 ], [ 14.007721575630407, 64.934260418435613 ], [ 14.008463842099616, 64.934211513846876 ], [ 14.009009027302852, 64.933908057100211 ], [ 14.008628524777002, 64.933808342147145 ], [ 14.008687889078706, 64.933684630092003 ], [ 14.008349390449506, 64.933301444144675 ], [ 14.009023363155128, 64.932552041626579 ], [ 14.009470538488875, 64.932318016748383 ], [ 14.009328017401433, 64.93211587870168 ], [ 14.009441608791382, 64.931875419412179 ], [ 14.009206088053997, 64.931505123670547 ], [ 14.009841841310564, 64.93114178296311 ], [ 14.012937797427959, 64.931638188636526 ], [ 14.014430320351467, 64.931715634363044 ], [ 14.016938496630683, 64.932686817676739 ], [ 14.01882959014138, 64.93277151268984 ], [ 14.019382116886273, 64.932222635848802 ], [ 14.018398272274014, 64.931059269840304 ], [ 14.018810501059972, 64.930366519977099 ], [ 14.018696350086678, 64.930075289323753 ], [ 14.018879649091842, 64.929701842822624 ], [ 14.018489797649865, 64.929638614388239 ], [ 14.018894728768792, 64.929549747739827 ], [ 14.016565207524069, 64.928863703129835 ], [ 14.015787470402534, 64.929036429996984 ], [ 14.015080476517703, 64.928975764859118 ], [ 14.014642322748323, 64.92916858659639 ], [ 14.011758899842851, 64.929133886706708 ], [ 14.010160194445548, 64.929605260126934 ], [ 14.007639263619938, 64.929622422113496 ], [ 14.006665267698709, 64.929860559951564 ], [ 14.007033144241783, 64.930053971804341 ], [ 14.006902900976685, 64.930281037331852 ], [ 14.006999993910336, 64.930549639961896 ], [ 14.006243899643991, 64.930866041599188 ], [ 14.004720351145677, 64.930685916002105 ], [ 14.004053236113306, 64.930809785637337 ], [ 14.000455269869663, 64.930787232891234 ], [ 13.997497854611042, 64.931709441259187 ], [ 13.995483140723103, 64.932014718544835 ], [ 13.9946133631581, 64.932441480996971 ], [ 13.991085656236198, 64.932575589758443 ], [ 13.989954577257143, 64.932787430096241 ], [ 13.989299345971164, 64.933075534796515 ], [ 13.988047959882293, 64.934226906705888 ], [ 13.986919847, 64.934390467836408 ], [ 13.986919847, 64.940944887594753 ], [ 13.986948986283544, 64.940913875139344 ], [ 13.988548873432123, 64.940574757665502 ], [ 13.989415381677153, 64.940042206346803 ], [ 13.990347561935916, 64.940012625307972 ], [ 13.990713277190082, 64.939853573185744 ], [ 13.990812075627408, 64.939477343933632 ], [ 13.991818490489381, 64.939161095916475 ], [ 13.991868555414671, 64.938955037948404 ], [ 13.992822256175785, 64.938351266719152 ], [ 13.993026113721331, 64.937993693162852 ], [ 13.993668675412515, 64.937791634407176 ], [ 13.994887508097431, 64.938015224695718 ], [ 13.995357717186257, 64.937883786961208 ], [ 13.995450062590505, 64.937677923016537 ], [ 13.996506377823676, 64.937155673529446 ], [ 13.997511326823815, 64.937440619191491 ], [ 13.997635807507281, 64.938078592167102 ], [ 13.998686740983603, 64.937699781447492 ], [ 13.998998078360668, 64.937289079322071 ], [ 13.999838102638805, 64.936890897271596 ], [ 14.0013374907073, 64.93697273638422 ] ], [ [ 14.006244671752976, 64.9310165363989 ], [ 14.006477296318419, 64.931046802721156 ], [ 14.006394015044473, 64.931113640526249 ], [ 14.006200575731361, 64.931121953155483 ], [ 14.006244671752976, 64.9310165363989 ] ], [ [ 14.006825529249808, 64.931674143898704 ], [ 14.006988831783804, 64.931462823200505 ], [ 14.006507989461015, 64.931274760805039 ], [ 14.006962655271753, 64.931084136486604 ], [ 14.007383366917011, 64.931370867187084 ], [ 14.006825529249808, 64.931674143898704 ] ], [ [ 14.007966042385908, 64.931551169006752 ], [ 14.007740682138472, 64.931959230772804 ], [ 14.007161623330038, 64.932132607265984 ], [ 14.006926439852478, 64.932034034867399 ], [ 14.007086230153625, 64.931866213307899 ], [ 14.006999720173853, 64.931723044440176 ], [ 14.007534725044058, 64.931659572877649 ], [ 14.007677243944725, 64.931466688743441 ], [ 14.007966042385908, 64.931551169006752 ] ], [ [ 14.009088200714425, 64.931907709653288 ], [ 14.009214145473331, 64.932226396357066 ], [ 14.008963996637299, 64.932292216344734 ], [ 14.00868180410265, 64.931965670593613 ], [ 14.009088200714425, 64.931907709653288 ] ], [ [ 14.005918048734884, 64.933409181253325 ], [ 14.006690633724139, 64.933106530925684 ], [ 14.006962091228672, 64.933168373431528 ], [ 14.007102406606606, 64.933441212139513 ], [ 14.006983789099177, 64.933690968954409 ], [ 14.006223797773126, 64.933915992209478 ], [ 14.005889565471243, 64.933635488536552 ], [ 14.005918048734884, 64.933409181253325 ] ], [ [ 14.001585751376521, 64.935987287015934 ], [ 14.001582200703625, 64.93607700068317 ], [ 14.001265586402099, 64.936056932913445 ], [ 14.001585751376521, 64.935987287015934 ] ], [ [ 13.990183174907603, 64.939320532762807 ], [ 13.99049576713456, 64.939448281784706 ], [ 13.990280842221789, 64.9395365643243 ], [ 13.990072546015941, 64.939454390006432 ], [ 13.990183174907603, 64.939320532762807 ] ], [ [ 13.988700714062052, 64.939920702785599 ], [ 13.988953349202816, 64.939949337054031 ], [ 13.988972136982172, 64.940012280758523 ], [ 13.988700714062052, 64.939920702785599 ] ], [ [ 13.98795127545794, 64.940148846838213 ], [ 13.988222225998394, 64.940258549969599 ], [ 13.988114551948952, 64.940302508760325 ], [ 13.98795127545794, 64.940148846838213 ] ] ] ] } },
{ "type": "Feature", "properties": { "fid": 202197, "navn": "Murusjøen", "hoyde_moh": 312, "arealInnsjo_km2": 7.1861, "magasinKategori": null, "fid_2": 820, "id": 820, "left": 13.986919847, "top": 64.946110046000001, "right": 14.486919847, "bottom": 64.446110046000001, "row_index": 19, "col_index": 20, "tile_id": 820 }, "geometry": { "type": "MultiPolygon", "coordinates": [ [ [ [ 13.989301524161464, 64.490825815723198 ], [ 13.989908660489379, 64.491264876926863 ], [ 13.991147056715043, 64.491501405384767 ], [ 13.990310210474728, 64.491861101336738 ], [ 13.99041258669866, 64.4919520847955 ], [ 13.992852043190991, 64.491841538332807 ], [ 14.000141477986759, 64.490885569004192 ], [ 14.005367425806705, 64.489290615075205 ], [ 14.013065169236921, 64.487731635574121 ], [ 14.014336631292091, 64.487316659723348 ], [ 14.015865264680313, 64.486525307432785 ], [ 14.018032185510036, 64.486082989866347 ], [ 14.020360943186247, 64.484913278348529 ], [ 14.020886722833589, 64.484466359368497 ], [ 14.022355722186163, 64.483919272106945 ], [ 14.02261289035712, 64.483686393304126 ], [ 14.028500165935316, 64.483583397659501 ], [ 14.030082964107287, 64.48317195778786 ], [ 14.03145122034039, 64.48260114298796 ], [ 14.033291371846257, 64.482228515725936 ], [ 14.036447198180285, 64.481288968114001 ], [ 14.039989588418223, 64.480621640923545 ], [ 14.042946277571568, 64.480457105779323 ], [ 14.044954074868141, 64.4801543461558 ], [ 14.047861660404926, 64.479191766436827 ], [ 14.049363256083797, 64.478922286202447 ], [ 14.049832159669936, 64.478622614446408 ], [ 14.049887769674882, 64.478320901724871 ], [ 14.051103397965791, 64.478569792087299 ], [ 14.052374972623124, 64.478609305468041 ], [ 14.054936694968806, 64.478120262054091 ], [ 14.058392379736185, 64.477837829350051 ], [ 14.063202437735033, 64.477178053774253 ], [ 14.068159781320968, 64.476914546809425 ], [ 14.070950079501541, 64.476977418960317 ], [ 14.073865063438715, 64.476496829295044 ], [ 14.079205967517007, 64.476808364905935 ], [ 14.082706870619727, 64.47764732571315 ], [ 14.08393986722454, 64.47751536828136 ], [ 14.085259409645143, 64.477027754535584 ], [ 14.0876490177624, 64.476581227988191 ], [ 14.088380580866552, 64.47571948735073 ], [ 14.088690866142199, 64.474739817010914 ], [ 14.088641870299101, 64.473855559944084 ], [ 14.087654435162911, 64.473595921145304 ], [ 14.085757583970535, 64.472579042559602 ], [ 14.085518152722868, 64.472106770479172 ], [ 14.08580550791738, 64.471791140247973 ], [ 14.08640828893234, 64.471521172474269 ], [ 14.088055068874919, 64.471339251731507 ], [ 14.089563976193041, 64.470342683562023 ], [ 14.089316238009694, 64.469605898052734 ], [ 14.088432130666675, 64.468732711986149 ], [ 14.088941803909627, 64.468089281101228 ], [ 14.090312171206563, 64.467645283921044 ], [ 14.091061891026754, 64.466840718349843 ], [ 14.092097707236078, 64.466468494829016 ], [ 14.094898342018384, 64.466105696674902 ], [ 14.09678206808624, 64.465341010359069 ], [ 14.098900904144974, 64.465497859622701 ], [ 14.100679465975929, 64.46418218549492 ], [ 14.101441256473974, 64.463897693833403 ], [ 14.101799725570482, 64.463472085733116 ], [ 14.102896283595449, 64.46286817666234 ], [ 14.104100626466874, 64.462387233608212 ], [ 14.106030142752896, 64.462089544363167 ], [ 14.106513748218731, 64.461878449490314 ], [ 14.106561567887185, 64.461687052406646 ], [ 14.106162873170623, 64.461372868752747 ], [ 14.104604766508276, 64.461000927011398 ], [ 14.103413773717305, 64.460281484401563 ], [ 14.103253805265979, 64.46009393680265 ], [ 14.103505087030666, 64.459765130362797 ], [ 14.10139025866409, 64.459777801695608 ], [ 14.100801019038084, 64.460262125012008 ], [ 14.100531319185588, 64.460929319154161 ], [ 14.099610335498701, 64.461499106794051 ], [ 14.09872125616126, 64.461830910411834 ], [ 14.094298421981252, 64.46279736298861 ], [ 14.093272007946034, 64.462745989489903 ], [ 14.091635551394111, 64.462125022306495 ], [ 14.089986588674435, 64.461964333624437 ], [ 14.089504003230886, 64.462015641002395 ], [ 14.089344511065654, 64.462492079106084 ], [ 14.088965450315154, 64.462724854986476 ], [ 14.086988645520655, 64.463043206986015 ], [ 14.086364257574836, 64.463412027367525 ], [ 14.084358274464691, 64.463860737289266 ], [ 14.083416692146494, 64.463789990223404 ], [ 14.081683947435829, 64.463143453189616 ], [ 14.080010404213452, 64.463132637214756 ], [ 14.077903758963076, 64.463351070475213 ], [ 14.076154280725133, 64.463951863554016 ], [ 14.075664381749984, 64.464649669610267 ], [ 14.073801848892922, 64.465780009288679 ], [ 14.070240487317239, 64.466548708701154 ], [ 14.067552202186706, 64.466525681644754 ], [ 14.066617852501059, 64.466766098155404 ], [ 14.062573858687326, 64.466248240264662 ], [ 14.06103440965642, 64.466614980178463 ], [ 14.05939253084445, 64.466614542817339 ], [ 14.057421513706695, 64.466939626992101 ], [ 14.053499212818544, 64.466797689941998 ], [ 14.049313397080674, 64.466118992161569 ], [ 14.048224691975001, 64.466201335868718 ], [ 14.046334209032594, 64.466718751710047 ], [ 14.041727614110822, 64.4662807592494 ], [ 14.037873330145695, 64.466818018179808 ], [ 14.036139790007041, 64.467578455496763 ], [ 14.035530707541394, 64.468139751271991 ], [ 14.035015270875267, 64.468285164299516 ], [ 14.033763944337647, 64.467933327590998 ], [ 14.03324147323174, 64.467977369005879 ], [ 14.033348066931721, 64.468905198634872 ], [ 14.03313574524212, 64.469034737687721 ], [ 14.03205828108238, 64.469011948005047 ], [ 14.030421674047179, 64.468499780260501 ], [ 14.028158674856961, 64.468354004432697 ], [ 14.027453204059787, 64.468708043564632 ], [ 14.026286773729595, 64.469895878648146 ], [ 14.025695178065435, 64.471636647050019 ], [ 14.026158374281735, 64.472039606221827 ], [ 14.026065063561164, 64.472259844957023 ], [ 14.023540392559035, 64.473437136731576 ], [ 14.021595737425715, 64.473627037116088 ], [ 14.021247494555126, 64.474513531655944 ], [ 14.021377594163475, 64.475273439613503 ], [ 14.020454000071188, 64.476036567722289 ], [ 14.020422428135054, 64.476523839192595 ], [ 14.019654352036877, 64.477281536183526 ], [ 14.018641789701991, 64.477708602839101 ], [ 14.018551962672007, 64.478061589560241 ], [ 14.017620787429513, 64.478503461210479 ], [ 14.01485400353052, 64.479109574482663 ], [ 14.014214232705356, 64.47935971077861 ], [ 14.014204973255284, 64.479530249506723 ], [ 14.012507103155523, 64.47964145511007 ], [ 14.012067609659395, 64.479904054028708 ], [ 14.010726388731831, 64.480271784246099 ], [ 14.006985335799465, 64.480563740423264 ], [ 14.005302766362135, 64.480852477821202 ], [ 14.003989822983346, 64.480679189389122 ], [ 14.003764637843529, 64.481018687874894 ], [ 14.004409445473351, 64.481240318512562 ], [ 14.004372613121486, 64.481406452465635 ], [ 14.002887644760097, 64.4819858300324 ], [ 14.002322923433248, 64.481952926357593 ], [ 14.002114816886209, 64.481571723920069 ], [ 14.001835541634531, 64.481413677596962 ], [ 13.999867301989413, 64.481306624004191 ], [ 13.998890915659247, 64.481488445729113 ], [ 13.998585018128534, 64.481774439288969 ], [ 13.998922531883709, 64.482160206672759 ], [ 14.000148531446182, 64.482271206375742 ], [ 14.000316208626426, 64.482391434132893 ], [ 14.000324051259572, 64.482666728681721 ], [ 14.001128489703714, 64.483241070089122 ], [ 13.999816113613743, 64.483750422533831 ], [ 13.996865940345158, 64.484520441587122 ], [ 13.991985894247803, 64.485458120329881 ], [ 13.990533865589507, 64.485892845649346 ], [ 13.989470821025915, 64.485963896990214 ], [ 13.988562056354274, 64.48574523357027 ], [ 13.986919847, 64.48604016854064 ], [ 13.986919847, 64.490975227566935 ], [ 13.989301524161464, 64.490825815723198 ] ], [ [ 14.034778364289094, 64.468428185261601 ], [ 14.034858401127405, 64.468600118359589 ], [ 14.034169836439283, 64.468789533085385 ], [ 14.033643950245782, 64.468658735315046 ], [ 14.033562701020713, 64.468085106371561 ], [ 14.034778364289094, 64.468428185261601 ] ] ] ] } },
{ "type": "Feature", "properties": { "fid": 210833, "navn": "Giedtiejaevrie", "hoyde_moh": 660, "arealInnsjo_km2": 0.0639, "magasinKategori": null, "fid_2": 820, "id": 820, "left": 13.986919847, "top": 64.946110046000001, "right": 14.486919847, "bottom": 64.446110046000001, "row_index": 19, "col_index": 20, "tile_id": 820 }, "geometry": { "type": "MultiPolygon", "coordinates": [ [ [ [ 14.049396187741765, 64.933578298836139 ], [ 14.051062853599579, 64.933929645173009 ], [ 14.051593030843744, 64.93376153170064 ], [ 14.05240558188679, 64.933109466938973 ], [ 14.051743186564584, 64.932697492518841 ], [ 14.051344261742148, 64.932103769933036 ], [ 14.051438200016589, 64.931804198539695 ], [ 14.051817804314032, 64.931705479930599 ], [ 14.051743098180976, 64.931562772245542 ], [ 14.050918549702722, 64.931322954181113 ], [ 14.050069531982643, 64.931350480590211 ], [ 14.049944821501168, 64.931682339800375 ], [ 14.049107019742987, 64.931536291778102 ], [ 14.048190742010012, 64.931849548872592 ], [ 14.045892952700829, 64.93218411782486 ], [ 14.045644837577271, 64.932349978626988 ], [ 14.046252413153473, 64.932533788489366 ], [ 14.045458635032402, 64.932803123734317 ], [ 14.045559322379647, 64.933124487354249 ], [ 14.046601882675459, 64.933486335261648 ], [ 14.046449260500818, 64.933959169072949 ], [ 14.046557821433897, 64.934029678442926 ], [ 14.047057269957369, 64.933971132425768 ], [ 14.047545549551971, 64.933565681122658 ], [ 14.048205173596246, 64.933762378395997 ], [ 14.048339111563818, 64.934113565260972 ], [ 14.048549893029692, 64.933825240456358 ], [ 14.048163679806692, 64.933548540236814 ], [ 14.04850105114151, 64.93349640284481 ], [ 14.048750947643958, 64.933709686125823 ], [ 14.049396187741765, 64.933578298836139 ] ] ] ] } },
{ "type": "Feature", "properties": { "fid": 269305, "navn": null, "hoyde_moh": 631, "arealInnsjo_km2": 0.0031, "magasinKategori": null, "fid_2": 820, "id": 820, "left": 13.986919847, "top": 64.946110046000001, "right": 14.486919847, "bottom": 64.446110046000001, "row_index": 19, "col_index": 20, "tile_id": 820 }, "geometry": { "type": "MultiPolygon", "coordinates": [ [ [ [ 14.023825140852024, 64.896245353100809 ], [ 14.022745731047261, 64.895962929335582 ], [ 14.022357582875127, 64.895523449872073 ], [ 14.021803132548582, 64.89563700664489 ], [ 14.022379454970212, 64.896066236441101 ], [ 14.023524769499581, 64.896384895734727 ], [ 14.023825140852024, 64.896245353100809 ] ] ] ] } },
{ "type": "Feature", "properties": { "fid": 269515, "navn": "Kvernbergsvattnet", "hoyde_moh": 311, "arealInnsjo_km2": 65.6942, "magasinKategori": null, "fid_2": 820, "id": 820, "left": 13.986919847, "top": 64.946110046000001, "right": 14.486919847, "bottom": 64.446110046000001, "row_index": 19, "col_index": 20, "tile_id": 820 }, "geometry": { "type": "MultiPolygon", "coordinates": [ [ [ [ 13.98888181876467, 64.587101806709939 ], [ 13.989746325251021, 64.586663817969963 ], [ 13.990482551398728, 64.586583160299739 ], [ 13.991457302710877, 64.586056793106636 ], [ 13.992193528334154, 64.58597612700629 ], [ 13.993063889461951, 64.585448471322849 ], [ 13.994542254281434, 64.585197454121015 ], [ 13.994464750001844, 64.584792738450844 ], [ 13.994578011461046, 64.584659543527451 ], [ 13.995835767223666, 64.584585255765916 ], [ 13.99605631961229, 64.584408511048352 ], [ 13.995898305743188, 64.583643904840073 ], [ 13.9974868029578, 64.583304485433729 ], [ 13.998455354940498, 64.582867736801489 ], [ 13.999468436596219, 64.581758580287172 ], [ 13.999593545235816, 64.581446077342278 ], [ 13.999510054558829, 64.581131020687806 ], [ 14.000389038423814, 64.580468840773364 ], [ 14.000305520573566, 64.580153784376577 ], [ 13.9992833238166, 64.57982723296216 ], [ 13.999307115338452, 64.579468624920153 ], [ 13.999745087234107, 64.579159947916239 ], [ 14.001032280507316, 64.578637350651917 ], [ 14.003147810344954, 64.578214595474307 ], [ 14.004327614351455, 64.577735523076527 ], [ 14.005218216089933, 64.576894018105506 ], [ 14.006403866058442, 64.576325272176661 ], [ 14.010005709263929, 64.575516785133445 ], [ 14.014804478994941, 64.57396009908156 ], [ 14.015027756719286, 64.573738492248026 ], [ 14.014970603218309, 64.573020008201098 ], [ 14.015947328733494, 64.572448652671298 ], [ 14.016724300370567, 64.571740288668835 ], [ 14.017057709390182, 64.571430299432492 ], [ 14.017304473533583, 64.570850077200802 ], [ 14.018063728319591, 64.570410660316497 ], [ 14.018635003407642, 64.569654934022978 ], [ 14.018482336127413, 64.568800701260869 ], [ 14.016238695598954, 64.568010831244692 ], [ 14.016152099913965, 64.567740607380571 ], [ 14.015943583318235, 64.567738077027826 ], [ 14.01595535329677, 64.567558771137016 ], [ 14.016288719543711, 64.56724878339962 ], [ 14.017902450835736, 64.566505696515563 ], [ 14.020216487569272, 64.566219703665524 ], [ 14.021499713058578, 64.565741749629652 ], [ 14.022339542610959, 64.56566218873246 ], [ 14.02278877624609, 64.56517413567741 ], [ 14.02177273398137, 64.564758091016515 ], [ 14.020631936738228, 64.564654552480604 ], [ 14.020646619154386, 64.564430421807984 ], [ 14.022019357267336, 64.564177860276999 ], [ 14.022031085591614, 64.563998553753947 ], [ 14.021724228250775, 64.563905117457907 ], [ 14.021741823226398, 64.563636162186683 ], [ 14.022900166279998, 64.563470718720424 ], [ 14.022721010916003, 64.563019936063057 ], [ 14.023482878754693, 64.562535665890067 ], [ 14.027088242455628, 64.561637099077274 ], [ 14.027311318579429, 64.56141548196608 ], [ 14.025316312646019, 64.56161570962071 ], [ 14.024042123612494, 64.561959215131438 ], [ 14.022690041694469, 64.561898006975511 ], [ 14.022281922029169, 64.56175848259636 ], [ 14.022441848809384, 64.560908039066845 ], [ 14.022349351527616, 64.560727467359897 ], [ 14.022893921356745, 64.560375160768558 ], [ 14.022949603928568, 64.559523451742038 ], [ 14.024032830780763, 64.558908471966177 ], [ 14.024192685589012, 64.558058026105385 ], [ 14.026897511174486, 64.556565376006262 ], [ 14.027688342229458, 64.555632810900732 ], [ 14.029086836897452, 64.554976743380337 ], [ 14.031391022447412, 64.55482504694244 ], [ 14.033322041525635, 64.553995905997866 ], [ 14.03511383897138, 64.553703407385299 ], [ 14.035875247224284, 64.553219063064347 ], [ 14.037021438066214, 64.553232824718421 ], [ 14.037449854965065, 64.553058516938705 ], [ 14.038179247111241, 64.553067269236251 ], [ 14.039374472525557, 64.5539339737783 ], [ 14.040714597971206, 64.554174336985071 ], [ 14.043363107588814, 64.553533099747 ], [ 14.044926117626828, 64.553551773493609 ], [ 14.045533956302469, 64.553828207855517 ], [ 14.046260491379194, 64.553881745261137 ], [ 14.047898620679108, 64.552734883794486 ], [ 14.050216926055446, 64.552358758539299 ], [ 14.052179372121829, 64.552651286932758 ], [ 14.053655418429136, 64.552399673312422 ], [ 14.054697393708185, 64.552412054580884 ], [ 14.055522328798586, 64.55255643874932 ], [ 14.056014560555106, 64.55301089817263 ], [ 14.056946619792315, 64.553111681657271 ], [ 14.057129160501486, 64.553517598863834 ], [ 14.057647276992009, 64.553568607770927 ], [ 14.058759048828083, 64.554120130328073 ], [ 14.059795354509356, 64.554222135172225 ], [ 14.060741795623015, 64.554098750297811 ], [ 14.061931007118584, 64.553439902833276 ], [ 14.063736785670701, 64.552922920373973 ], [ 14.063970940476338, 64.552521927601504 ], [ 14.063360070066494, 64.552290403236867 ], [ 14.063382972010332, 64.551931782300514 ], [ 14.064340762053543, 64.551629063666994 ], [ 14.065205781254821, 64.551145811318449 ], [ 14.067843472201332, 64.549023578190699 ], [ 14.069897123534032, 64.547881383138318 ], [ 14.074062586704835, 64.546315371833344 ], [ 14.083191411283829, 64.543730682040945 ], [ 14.085328409292009, 64.542903281921866 ], [ 14.087101989305721, 64.542879113968368 ], [ 14.088912233165141, 64.54227216002522 ], [ 14.091932880642256, 64.542307317021113 ], [ 14.093835885779633, 64.541880831400277 ], [ 14.096566472389151, 64.541553640680632 ], [ 14.097441824580498, 64.540890874818402 ], [ 14.097894916086732, 64.540312927937492 ], [ 14.100475803854989, 64.539041845975134 ], [ 14.102375641013166, 64.538660075639783 ], [ 14.1061389061569, 64.538479231282636 ], [ 14.108258075173898, 64.537920464041761 ], [ 14.110127109151813, 64.538031711215055 ], [ 14.113813861380804, 64.537401175944552 ], [ 14.115899493042086, 64.537380252968333 ], [ 14.117242247306049, 64.537575094368947 ], [ 14.119080839483344, 64.538179347833889 ], [ 14.119261426229603, 64.538630016510979 ], [ 14.116269106031059, 64.541511697584539 ], [ 14.115909457546023, 64.542270206632509 ], [ 14.114955332718655, 64.542528426137963 ], [ 14.114722012850164, 64.54292950143531 ], [ 14.113427581245176, 64.543632412466508 ], [ 14.113380316317462, 64.54439450770623 ], [ 14.112834440985013, 64.544791986243339 ], [ 14.112592716805718, 64.545327537345202 ], [ 14.111948207105522, 64.545634158269394 ], [ 14.111906482796538, 64.546306591019956 ], [ 14.110688126143147, 64.547458961348241 ], [ 14.110207331566679, 64.548485238134163 ], [ 14.109230659858138, 64.549102049245619 ], [ 14.108941446636948, 64.550399687116609 ], [ 14.107857667996702, 64.551060120064449 ], [ 14.107717201179653, 64.551641693515961 ], [ 14.10819912986261, 64.552275303127686 ], [ 14.109432813074166, 64.55255866454732 ], [ 14.109545358115943, 64.552425379927257 ], [ 14.111018093165283, 64.552218017956633 ], [ 14.11146272567051, 64.551774518244827 ], [ 14.114698418368807, 64.551721952640065 ], [ 14.116637794407627, 64.550712393425925 ], [ 14.116775301994331, 64.550175637736785 ], [ 14.117414317584439, 64.549958658035408 ], [ 14.117785140228303, 64.549020831109672 ], [ 14.120022928396081, 64.548238943198086 ], [ 14.120368709596313, 64.547704575792991 ], [ 14.120903442226908, 64.547486384833832 ], [ 14.121416052100326, 64.547626823138657 ], [ 14.124544286955555, 64.547617681262466 ], [ 14.126956420715857, 64.549080718324973 ], [ 14.128244711109962, 64.550172048877243 ], [ 14.128655967255485, 64.550266444975648 ], [ 14.127891356532754, 64.549136226816984 ], [ 14.125997323401677, 64.547723973939924 ], [ 14.125931779920302, 64.547095171865109 ], [ 14.126463707929686, 64.54692179642673 ], [ 14.12750827757378, 64.546888836343584 ], [ 14.129153110951476, 64.547266439920861 ], [ 14.129276574514568, 64.54695382391165 ], [ 14.128668017547533, 64.546677733557857 ], [ 14.128698331456125, 64.54618461187826 ], [ 14.130310523551708, 64.545395452807512 ], [ 14.131996556661523, 64.545100586151079 ], [ 14.133383778990828, 64.544578015070726 ], [ 14.134754480650848, 64.544324401461012 ], [ 14.134894333316753, 64.543742791934719 ], [ 14.135324710889806, 64.543523371737209 ], [ 14.135089058986846, 64.542264607169514 ], [ 14.135749686412785, 64.54168890471081 ], [ 14.135790815823626, 64.541016464040553 ], [ 14.136229399936163, 64.540662551305701 ], [ 14.139014106314429, 64.539437979629966 ], [ 14.139789689988017, 64.538684124063465 ], [ 14.139622433978742, 64.538009317721318 ], [ 14.138616544337761, 64.537414758337221 ], [ 14.138232828727407, 64.53687208358906 ], [ 14.138446597334372, 64.536784786695691 ], [ 14.138498602734877, 64.53593301850141 ], [ 14.138405420848224, 64.535752527259618 ], [ 14.13819713616919, 64.535750169983771 ], [ 14.138221788777981, 64.535346699516126 ], [ 14.138432797499812, 64.535304229618362 ], [ 14.138553352150099, 64.535036432141482 ], [ 14.144315790399398, 64.532813638212247 ], [ 14.145693966057481, 64.532425430910422 ], [ 14.147573668993731, 64.532356885140445 ], [ 14.148107904574864, 64.532138594533521 ], [ 14.148989875155683, 64.531341029089603 ], [ 14.149455302008425, 64.530538775870056 ], [ 14.149781242568142, 64.530318137466494 ], [ 14.150838723501643, 64.530060856452579 ], [ 14.149728772270818, 64.529465198108085 ], [ 14.149761392903322, 64.528927234069201 ], [ 14.151957666724545, 64.527067770703539 ], [ 14.152009230121051, 64.526216005035863 ], [ 14.153261170861768, 64.526185198906191 ], [ 14.153584327363417, 64.526009379353241 ], [ 14.153597896152382, 64.525785233214052 ], [ 14.153112653897796, 64.525196596428557 ], [ 14.153767064400311, 64.524710474753533 ], [ 14.156733182724233, 64.52389137189634 ], [ 14.161948679166064, 64.523770228363318 ], [ 14.162517679693442, 64.522969098690524 ], [ 14.163158401985561, 64.52270708216443 ], [ 14.162237772059603, 64.522427650902088 ], [ 14.161581995446284, 64.521209104162963 ], [ 14.160072069422451, 64.520339890600766 ], [ 14.159928716553665, 64.519261638580247 ], [ 14.160377416185709, 64.518728323585989 ], [ 14.160524676808446, 64.518012203937644 ], [ 14.160338123168851, 64.517651239070418 ], [ 14.158716254655133, 64.516915335873421 ], [ 14.158354026033704, 64.516014081899726 ], [ 14.156244466230868, 64.514734366230584 ], [ 14.155724181692698, 64.514728540668955 ], [ 14.154763278936477, 64.515121512139785 ], [ 14.153287451147058, 64.515418978982339 ], [ 14.152663099275536, 64.515411970178064 ], [ 14.152690219430562, 64.514963668331603 ], [ 14.153749777968796, 64.514661537524731 ], [ 14.153905308672885, 64.513810932696316 ], [ 14.154647247920463, 64.513594952170948 ], [ 14.154764848461259, 64.513371976901112 ], [ 14.154271661612142, 64.512917834757161 ], [ 14.152129980721185, 64.512176026581301 ], [ 14.150889538389364, 64.512027514100126 ], [ 14.150697722716746, 64.511756191911871 ], [ 14.15061269721954, 64.511441207491515 ], [ 14.150932970759403, 64.511310229583188 ], [ 14.151959854186602, 64.511546068055935 ], [ 14.15218965499559, 64.511189767658237 ], [ 14.153243651197389, 64.510977304147886 ], [ 14.153062662927228, 64.510526665876768 ], [ 14.153593727651444, 64.510353181718969 ], [ 14.153601847156596, 64.51021869006 ], [ 14.152679033878565, 64.509984026885562 ], [ 14.152380479636081, 64.509756370546683 ], [ 14.152402174420539, 64.509397732427118 ], [ 14.151791492991606, 64.509166573337623 ], [ 14.151607837875543, 64.508760760789912 ], [ 14.151662096828556, 64.507864165645174 ], [ 14.150966438733381, 64.507318019112049 ], [ 14.150982722301839, 64.50704903612197 ], [ 14.152290722654744, 64.506076805297113 ], [ 14.154209215362448, 64.505335714114025 ], [ 14.154361979142651, 64.504529935291956 ], [ 14.15491457604328, 64.503997807346067 ], [ 14.155056484203334, 64.503371347044848 ], [ 14.154248729704221, 64.502958545364137 ], [ 14.15427420665397, 64.502536651815646 ], [ 14.152145714792077, 64.50275883228295 ], [ 14.152261611773001, 64.503115679146291 ], [ 14.152853179173112, 64.503660647174101 ], [ 14.152727483425149, 64.504018121941243 ], [ 14.151438577478162, 64.504676546340505 ], [ 14.150888644235941, 64.505163833749862 ], [ 14.149509191597581, 64.505596929358219 ], [ 14.148964618889767, 64.505994545393833 ], [ 14.149299241247011, 64.507344124741962 ], [ 14.148250770668556, 64.507466905259136 ], [ 14.147642917971297, 64.507190901743712 ], [ 14.146493153618888, 64.507267666012979 ], [ 14.145474636323312, 64.506897298351959 ], [ 14.144749151758845, 64.506844250793634 ], [ 14.143065616590595, 64.507139268101156 ], [ 14.14231013136844, 64.507579345236451 ], [ 14.140295316415717, 64.508184608187534 ], [ 14.138458400408034, 64.509285335747393 ], [ 14.135791741662571, 64.510331773094677 ], [ 14.133927076888581, 64.511880732950942 ], [ 14.133395879025748, 64.512054146079976 ], [ 14.131331096240167, 64.513466218041899 ], [ 14.129622272708499, 64.514164551155019 ], [ 14.128313078966359, 64.515136577950486 ], [ 14.127034077177798, 64.515615469353065 ], [ 14.126680582464056, 64.516284354275768 ], [ 14.12572472145489, 64.516587481710729 ], [ 14.125590330554834, 64.517079412812691 ], [ 14.125056210938368, 64.51729762239394 ], [ 14.125129950707837, 64.517791937643139 ], [ 14.124908025529205, 64.5180137053257 ], [ 14.123850768803701, 64.518270800995012 ], [ 14.123617789288875, 64.518671883165439 ], [ 14.122366160937759, 64.518702446892874 ], [ 14.121519783016735, 64.518917069465047 ], [ 14.121486620019938, 64.519455027203989 ], [ 14.121163335696657, 64.519630767364077 ], [ 14.118657225769132, 64.519736660194397 ], [ 14.11695598959184, 64.520300355527425 ], [ 14.112266950508351, 64.520336226391933 ], [ 14.110782048206168, 64.520767755037255 ], [ 14.109004353668473, 64.52088186301286 ], [ 14.107837189961446, 64.521227301643009 ], [ 14.101066358796508, 64.521238799946971 ], [ 14.099373057815098, 64.521667803361993 ], [ 14.096959560501402, 64.521953851619315 ], [ 14.09279062355137, 64.52199514447797 ], [ 14.091204049418982, 64.522380433728671 ], [ 14.08457897060009, 64.523379826558156 ], [ 14.082393143540438, 64.523354259585318 ], [ 14.080814847272705, 64.523604958770832 ], [ 14.079253522866253, 64.523586658721669 ], [ 14.07724748331516, 64.524011741544982 ], [ 14.075159996075042, 64.52407695384322 ], [ 14.073815354500608, 64.523926564874813 ], [ 14.072124338099428, 64.524310419580246 ], [ 14.071887691869186, 64.524756253002124 ], [ 14.070236452500154, 64.524512498695998 ], [ 14.06927968049278, 64.524815249212011 ], [ 14.067929331471337, 64.524754457882835 ], [ 14.067920785607983, 64.524888943847657 ], [ 14.068432698645603, 64.525029565727522 ], [ 14.068207392643931, 64.525296081530485 ], [ 14.066336559825192, 64.525229138860709 ], [ 14.064749447832881, 64.525614142404677 ], [ 14.064425726596948, 64.525789757245747 ], [ 14.064399994261626, 64.526193214124078 ], [ 14.063856643215102, 64.526545677261709 ], [ 14.061858724457775, 64.526836073084027 ], [ 14.060901799358419, 64.527138768990113 ], [ 14.060957200006426, 64.527902075527763 ], [ 14.060214156219786, 64.528117582099839 ], [ 14.058649732414263, 64.528143888922514 ], [ 14.057264803819265, 64.528620940561083 ], [ 14.057129120275077, 64.52911280631622 ], [ 14.056805308265844, 64.529288413174456 ], [ 14.056281889077203, 64.529327061374573 ], [ 14.056082288060628, 64.529190103168133 ], [ 14.056093776003591, 64.529010792764936 ], [ 14.054740386354675, 64.528994705780207 ], [ 14.053164379279078, 64.529200273399937 ], [ 14.05198177404402, 64.529769403034052 ], [ 14.049361711606206, 64.530007355938736 ], [ 14.047750997336022, 64.530750794920209 ], [ 14.046186411509108, 64.530776978168532 ], [ 14.04607072797417, 64.530955039378043 ], [ 14.04458710929396, 64.531341072706383 ], [ 14.04228788267427, 64.531448144875469 ], [ 14.041000820079057, 64.532015943682566 ], [ 14.04107598415764, 64.532465463581431 ], [ 14.040856144727377, 64.532642277813508 ], [ 14.040014474774054, 64.532766779933056 ], [ 14.039580594548696, 64.533030746075951 ], [ 14.038007175002859, 64.533191326224326 ], [ 14.036098100229029, 64.533706749978151 ], [ 14.035938764589861, 64.534557212282593 ], [ 14.034764281567458, 64.534991718796803 ], [ 14.032357663747888, 64.535142221985964 ], [ 14.030549568206508, 64.535703656095777 ], [ 14.027949195959746, 64.535627435921668 ], [ 14.026647043923797, 64.536419231831189 ], [ 14.025703997284067, 64.536497565340454 ], [ 14.024098107947401, 64.537151094340288 ], [ 14.020739348307504, 64.537514198199688 ], [ 14.019573285502004, 64.537814100340981 ], [ 14.017800002923742, 64.537837456535399 ], [ 14.015470710017405, 64.538392380545687 ], [ 14.015131829437529, 64.538792026052107 ], [ 14.014486384807366, 64.539098210567587 ], [ 14.01272183767046, 64.538987023388785 ], [ 14.01133260246209, 64.539508464814119 ], [ 14.009758646309185, 64.539668733478081 ], [ 14.005060917017573, 64.541361039173339 ], [ 14.003867896417814, 64.542064251696743 ], [ 14.002811547930326, 64.542275641438096 ], [ 14.000142417942554, 64.543229937605489 ], [ 13.998675293697108, 64.543346543989188 ], [ 13.9976040177049, 64.543782025218405 ], [ 13.99453873685014, 64.544417321010144 ], [ 13.993788769286921, 64.544722147350853 ], [ 13.992693517096884, 64.545516201336525 ], [ 13.99122623874881, 64.545632733322066 ], [ 13.990645780017836, 64.546522835903446 ], [ 13.988324163191676, 64.546942848056503 ], [ 13.988106861615005, 64.547074758848012 ], [ 13.988190140608696, 64.547389823170249 ], [ 13.987442997211151, 64.547649784106142 ], [ 13.98721671345155, 64.547916173579566 ], [ 13.986919847, 64.547996137497321 ], [ 13.986919847, 64.549625946753324 ], [ 13.987109164857902, 64.549529907381455 ], [ 13.987844417381126, 64.549449252090483 ], [ 13.988031878278477, 64.549765596813558 ], [ 13.988549792236078, 64.549816848152133 ], [ 13.988746229083091, 64.549998720880126 ], [ 13.988731293516265, 64.550222848396984 ], [ 13.986919847, 64.550828059001773 ], [ 13.986919847, 64.587513018725346 ], [ 13.98888181876467, 64.587101806709939 ] ], [ [ 14.147880300461601, 64.511859077901192 ], [ 14.148178861112253, 64.512086734424727 ], [ 14.148162546617312, 64.512355716880919 ], [ 14.147839517317465, 64.512531525035882 ], [ 14.147220653542407, 64.512434829342283 ], [ 14.147143817623338, 64.511985360738976 ], [ 14.147880300461601, 64.511859077901192 ] ], [ [ 14.136344578872912, 64.537075008816785 ], [ 14.136478856597128, 64.536583060019979 ], [ 14.137632632241194, 64.536461548913167 ], [ 14.137832695640673, 64.536598397067323 ], [ 14.137594284521928, 64.537089163474178 ], [ 14.136344578872912, 64.537075008816785 ] ] ] ] } },
{ "type": "Feature", "properties": { "fid": 269522, "navn": "Auster-Vallervatnet", "hoyde_moh": 513, "arealInnsjo_km2": 0.2145, "magasinKategori": null, "fid_2": 820, "id": 820, "left": 13.986919847, "top": 64.946110046000001, "right": 14.486919847, "bottom": 64.446110046000001, "row_index": 19, "col_index": 20, "tile_id": 820 }, "geometry": { "type": "MultiPolygon", "coordinates": [ [ [ [ 13.990275034099993, 64.870536972831516 ], [ 13.990382269350361, 64.870654629474544 ], [ 13.990047492939418, 64.871172840848985 ], [ 13.989471392922734, 64.87136671385997 ], [ 13.988985196025764, 64.871330388188369 ], [ 13.988882179058129, 64.87140946582079 ], [ 13.988980890813759, 64.871540436593065 ], [ 13.987770366369913, 64.871850421123071 ], [ 13.986919847, 64.871851244182992 ], [ 13.986919847, 64.87415394224827 ], [ 13.987044494271569, 64.874182540838831 ], [ 13.988392096723089, 64.874092275645538 ], [ 13.990643817135187, 64.874394635274754 ], [ 13.991438290843854, 64.873917856521061 ], [ 13.990861898724097, 64.873684937475588 ], [ 13.990586194579043, 64.873781331484309 ], [ 13.990520097504524, 64.873607688162224 ], [ 13.991785439446527, 64.873441454306075 ], [ 13.991940406547839, 64.87318145507551 ], [ 13.993012113747914, 64.872441279028763 ], [ 13.994091697523498, 64.872352559252647 ], [ 13.994360850911164, 64.87215399240668 ], [ 13.994444128642801, 64.871778192546643 ], [ 13.994758924689737, 64.87141418669674 ], [ 13.994670821689214, 64.870919492381432 ], [ 13.994315160003122, 64.870874912494187 ], [ 13.993917612198308, 64.870511208266407 ], [ 13.992974801942665, 64.870409978429834 ], [ 13.992263997396039, 64.869997575451293 ], [ 13.990275034099993, 64.870536972831516 ] ] ] ] } },
{ "type": "Feature", "properties": { "fid": 269523, "navn": null, "hoyde_moh": 549, "arealInnsjo_km2": 0.0026, "magasinKategori": null, "fid_2": 820, "id": 820, "left": 13.986919847, "top": 64.946110046000001, "right": 14.486919847, "bottom": 64.446110046000001, "row_index": 19, "col_index": 20, "tile_id": 820 }, "geometry": { "type": "MultiPolygon", "coordinates": [ [ [ [ 14.04311841253757, 64.911633350735784 ], [ 14.042802423793347, 64.911344978462438 ], [ 14.040972136590497, 64.911117581497635 ], [ 14.042278702483941, 64.911519212711411 ], [ 14.042435116746441, 64.911732804974065 ], [ 14.042587200393561, 64.911599535627076 ], [ 14.04311841253757, 64.911633350735784 ] ] ] ] } },
{ "type": "Feature", "properties": { "fid": 269525, "navn": null, "hoyde_moh": 801, "arealInnsjo_km2": 0.0596, "magasinKategori": null, "fid_2": 820, "id": 820, "left": 13.986919847, "top": 64.946110046000001, "right": 14.486919847, "bottom": 64.446110046000001, "row_index": 19, "col_index": 20, "tile_id": 820 }, "geometry": { "type": "MultiPolygon", "coordinates": [ [ [ [ 14.086749650340815, 64.945455722633952 ], [ 14.086172626853784, 64.945296586484375 ], [ 14.086028054175848, 64.944868737166487 ], [ 14.085395006216753, 64.945051471553839 ], [ 14.085474401957633, 64.945365082921484 ], [ 14.084856558065399, 64.945428685143995 ], [ 14.084918859026519, 64.945624871177714 ], [ 14.083632248240903, 64.94556950198276 ], [ 14.083972260270304, 64.945999989894602 ], [ 14.08158983957647, 64.945706171168922 ], [ 14.082056006342334, 64.945937598288111 ], [ 14.082015071032842, 64.946110046 ], [ 14.087253362633755, 64.946110046 ], [ 14.086749650340815, 64.945455722633952 ] ] ] ] } }
]
}
