{
"type": "FeatureCollection",
"name": "innsjo_tile_id_696",
"crs": { "type": "name", "properties": { "name": "urn:ogc:def:crs:OGC:1.3:CRS84" } },
"xy_coordinate_resolution": 1e-15,
"features": [
{ "type": "Feature", "properties": { "fid": 4530, "navn": null, "hoyde_moh": null, "arealInnsjo_km2": 0.0079, "magasinKategori": null, "fid_2": 696, "id": 696, "left": 12.486919847, "top": 66.946110046000001, "right": 12.986919847, "bottom": 66.446110046000001, "row_index": 15, "col_index": 17, "tile_id": 696 }, "geometry": { "type": "MultiPolygon", "coordinates": [ [ [ [ 12.941886506182996, 66.671414479992578 ], [ 12.942799825905889, 66.671318727295031 ], [ 12.942124819646502, 66.671274000584688 ], [ 12.941667596161166, 66.67105262441703 ], [ 12.939468020688027, 66.671095540905171 ], [ 12.938846764096601, 66.670943896022621 ], [ 12.938038065430456, 66.671139719886128 ], [ 12.941888972130737, 66.671656831675946 ], [ 12.941886506182996, 66.671414479992578 ] ] ] ] } },
{ "type": "Feature", "properties": { "fid": 4606, "navn": null, "hoyde_moh": null, "arealInnsjo_km2": 0.0026, "magasinKategori": null, "fid_2": 696, "id": 696, "left": 12.486919847, "top": 66.946110046000001, "right": 12.986919847, "bottom": 66.446110046000001, "row_index": 15, "col_index": 17, "tile_id": 696 }, "geometry": { "type": "MultiPolygon", "coordinates": [ [ [ [ 12.651790973371238, 66.623458928977584 ], [ 12.652355990539435, 66.623458399345282 ], [ 12.652751870586851, 66.623096298643048 ], [ 12.652647529706144, 66.623004978888829 ], [ 12.651175257716471, 66.623279087789697 ], [ 12.651355045507426, 66.623766482631197 ], [ 12.651632636868447, 66.62369891474701 ], [ 12.651790973371238, 66.623458928977584 ] ] ] ] } },
{ "type": "Feature", "properties": { "fid": 20122, "navn": null, "hoyde_moh": null, "arealInnsjo_km2": 0.0032, "magasinKategori": null, "fid_2": 696, "id": 696, "left": 12.486919847, "top": 66.946110046000001, "right": 12.986919847, "bottom": 66.446110046000001, "row_index": 15, "col_index": 17, "tile_id": 696 }, "geometry": { "type": "MultiPolygon", "coordinates": [ [ [ [ 12.631336764381421, 66.601258979933448 ], [ 12.630612717571562, 66.600565863045048 ], [ 12.630151880487711, 66.60042426269932 ], [ 12.630091937003533, 66.601051688580384 ], [ 12.630958048259561, 66.60144176306224 ], [ 12.631336764381421, 66.601258979933448 ] ] ] ] } },
{ "type": "Feature", "properties": { "fid": 20571, "navn": null, "hoyde_moh": null, "arealInnsjo_km2": 0.0025, "magasinKategori": null, "fid_2": 696, "id": 696, "left": 12.486919847, "top": 66.946110046000001, "right": 12.986919847, "bottom": 66.446110046000001, "row_index": 15, "col_index": 17, "tile_id": 696 }, "geometry": { "type": "MultiPolygon", "coordinates": [ [ [ [ 12.925998258037911, 66.606837941870708 ], [ 12.926717044920462, 66.606883335418644 ], [ 12.926958339331366, 66.606698048496995 ], [ 12.924976444980292, 66.60663596648152 ], [ 12.925210370698837, 66.607078739605541 ], [ 12.925998258037911, 66.606837941870708 ] ] ] ] } },
{ "type": "Feature", "properties": { "fid": 20721, "navn": null, "hoyde_moh": null, "arealInnsjo_km2": 0.0026, "magasinKategori": null, "fid_2": 696, "id": 696, "left": 12.486919847, "top": 66.946110046000001, "right": 12.986919847, "bottom": 66.446110046000001, "row_index": 15, "col_index": 17, "tile_id": 696 }, "geometry": { "type": "MultiPolygon", "coordinates": [ [ [ [ 12.978489363010109, 66.649317748169167 ], [ 12.978728719162351, 66.649159281446913 ], [ 12.97808800216518, 66.649249764271062 ], [ 12.978214785170051, 66.649359090828085 ], [ 12.97811015586637, 66.64980647914966 ], [ 12.978551311396552, 66.649946771945991 ], [ 12.979229279782832, 66.649677272413484 ], [ 12.978489363010109, 66.649317748169167 ] ] ] ] } },
{ "type": "Feature", "properties": { "fid": 31589, "navn": null, "hoyde_moh": null, "arealInnsjo_km2": 0.0036, "magasinKategori": null, "fid_2": 696, "id": 696, "left": 12.486919847, "top": 66.946110046000001, "right": 12.986919847, "bottom": 66.446110046000001, "row_index": 15, "col_index": 17, "tile_id": 696 }, "geometry": { "type": "MultiPolygon", "coordinates": [ [ [ [ 12.693533795639354, 66.474269186296482 ], [ 12.693344330737974, 66.474131750272591 ], [ 12.692728770740702, 66.4744727289319 ], [ 12.692171995606039, 66.473934924515149 ], [ 12.691661086251028, 66.474115786323495 ], [ 12.692056671684595, 66.474696182412032 ], [ 12.692336632598071, 66.474583717687338 ], [ 12.69290663360518, 66.474735658523471 ], [ 12.693296277801554, 66.474651649305784 ], [ 12.693533795639354, 66.474269186296482 ] ] ] ] } },
{ "type": "Feature", "properties": { "fid": 55743, "navn": null, "hoyde_moh": null, "arealInnsjo_km2": 0.0025, "magasinKategori": null, "fid_2": 696, "id": 696, "left": 12.486919847, "top": 66.946110046000001, "right": 12.986919847, "bottom": 66.446110046000001, "row_index": 15, "col_index": 17, "tile_id": 696 }, "geometry": { "type": "MultiPolygon", "coordinates": [ [ [ [ 12.691582359251742, 66.470838378981512 ], [ 12.690700912224099, 66.470412370257819 ], [ 12.68986132408733, 66.470750206116861 ], [ 12.690140245911643, 66.470888879385257 ], [ 12.69075909951122, 66.470754498264014 ], [ 12.690806485112633, 66.470970622851553 ], [ 12.691319046555021, 66.471014099500536 ], [ 12.691582359251742, 66.470838378981512 ] ] ] ] } },
{ "type": "Feature", "properties": { "fid": 66770, "navn": null, "hoyde_moh": null, "arealInnsjo_km2": 0.0028, "magasinKategori": null, "fid_2": 696, "id": 696, "left": 12.486919847, "top": 66.946110046000001, "right": 12.986919847, "bottom": 66.446110046000001, "row_index": 15, "col_index": 17, "tile_id": 696 }, "geometry": { "type": "MultiPolygon", "coordinates": [ [ [ [ 12.923400786241313, 66.631655153563841 ], [ 12.924308383666487, 66.631344049507064 ], [ 12.922940896309449, 66.631209304412849 ], [ 12.9228370804649, 66.631638727565971 ], [ 12.9229522546854, 66.63188257259533 ], [ 12.923291683947586, 66.631878084241393 ], [ 12.923400786241313, 66.631655153563841 ] ] ] ] } },
{ "type": "Feature", "properties": { "fid": 66839, "navn": null, "hoyde_moh": null, "arealInnsjo_km2": 0.0034, "magasinKategori": null, "fid_2": 696, "id": 696, "left": 12.486919847, "top": 66.946110046000001, "right": 12.986919847, "bottom": 66.446110046000001, "row_index": 15, "col_index": 17, "tile_id": 696 }, "geometry": { "type": "MultiPolygon", "coordinates": [ [ [ [ 12.850028656528776, 66.53735268202847 ], [ 12.848690557156978, 66.537199680017082 ], [ 12.848450139370728, 66.537375883686508 ], [ 12.848465892800435, 66.53771716131368 ], [ 12.849366897725735, 66.53771158424945 ], [ 12.850028656528776, 66.53735268202847 ] ] ] ] } },
{ "type": "Feature", "properties": { "fid": 66853, "navn": null, "hoyde_moh": null, "arealInnsjo_km2": 0.005, "magasinKategori": null, "fid_2": 696, "id": 696, "left": 12.486919847, "top": 66.946110046000001, "right": 12.986919847, "bottom": 66.446110046000001, "row_index": 15, "col_index": 17, "tile_id": 696 }, "geometry": { "type": "MultiPolygon", "coordinates": [ [ [ [ 12.971577203663394, 66.69198409860482 ], [ 12.972361435634568, 66.691536492987055 ], [ 12.971919066877632, 66.691405149924051 ], [ 12.970376302035593, 66.691430142127714 ], [ 12.970376836476646, 66.691699388938659 ], [ 12.970657081842644, 66.691873520050351 ], [ 12.970485384914646, 66.692032850790895 ], [ 12.970542230955685, 66.69216829325093 ], [ 12.971577203663394, 66.69198409860482 ] ] ] ] } },
{ "type": "Feature", "properties": { "fid": 66861, "navn": null, "hoyde_moh": null, "arealInnsjo_km2": 0.0027, "magasinKategori": null, "fid_2": 696, "id": 696, "left": 12.486919847, "top": 66.946110046000001, "right": 12.986919847, "bottom": 66.446110046000001, "row_index": 15, "col_index": 17, "tile_id": 696 }, "geometry": { "type": "MultiPolygon", "coordinates": [ [ [ [ 12.968273741809842, 66.680355194408747 ], [ 12.967521278823899, 66.680417186307167 ], [ 12.969169624531206, 66.680752668625132 ], [ 12.970483277380952, 66.680751664890849 ], [ 12.968273741809842, 66.680355194408747 ] ] ] ] } },
{ "type": "Feature", "properties": { "fid": 66888, "navn": null, "hoyde_moh": null, "arealInnsjo_km2": 0.0027, "magasinKategori": null, "fid_2": 696, "id": 696, "left": 12.486919847, "top": 66.946110046000001, "right": 12.986919847, "bottom": 66.446110046000001, "row_index": 15, "col_index": 17, "tile_id": 696 }, "geometry": { "type": "MultiPolygon", "coordinates": [ [ [ [ 12.917125153553577, 66.670801330273605 ], [ 12.917677667178388, 66.670961217198567 ], [ 12.918202312974657, 66.670914400723206 ], [ 12.918088519621746, 66.670652623225948 ], [ 12.917796049914093, 66.670630802908533 ], [ 12.917288729663071, 66.670740761311947 ], [ 12.91628168235267, 66.670601778165704 ], [ 12.915883646985089, 66.670758053971213 ], [ 12.916161005304197, 66.670959175576755 ], [ 12.917125153553577, 66.670801330273605 ] ] ] ] } },
{ "type": "Feature", "properties": { "fid": 84079, "navn": null, "hoyde_moh": null, "arealInnsjo_km2": 0.0037, "magasinKategori": null, "fid_2": 696, "id": 696, "left": 12.486919847, "top": 66.946110046000001, "right": 12.986919847, "bottom": 66.446110046000001, "row_index": 15, "col_index": 17, "tile_id": 696 }, "geometry": { "type": "MultiPolygon", "coordinates": [ [ [ [ 12.650042557017667, 66.552279377369615 ], [ 12.649584794049922, 66.551877562467155 ], [ 12.648745833922444, 66.551694429475049 ], [ 12.648349743548309, 66.551832103438173 ], [ 12.648575683743312, 66.552302252556885 ], [ 12.650042557017667, 66.552279377369615 ] ] ] ] } },
{ "type": "Feature", "properties": { "fid": 110263, "navn": null, "hoyde_moh": null, "arealInnsjo_km2": 0.0031, "magasinKategori": null, "fid_2": 696, "id": 696, "left": 12.486919847, "top": 66.946110046000001, "right": 12.986919847, "bottom": 66.446110046000001, "row_index": 15, "col_index": 17, "tile_id": 696 }, "geometry": { "type": "MultiPolygon", "coordinates": [ [ [ [ 12.82900454475033, 66.565128643139758 ], [ 12.828269538094542, 66.564768424512081 ], [ 12.827707976299617, 66.564742693660676 ], [ 12.827606382005598, 66.564875916203022 ], [ 12.827601469819015, 66.565189985482164 ], [ 12.827884781880464, 66.565301615229316 ], [ 12.828898806704499, 66.565306775561453 ], [ 12.82900454475033, 66.565128643139758 ] ] ] ] } },
{ "type": "Feature", "properties": { "fid": 110269, "navn": null, "hoyde_moh": null, "arealInnsjo_km2": 0.0048, "magasinKategori": null, "fid_2": 696, "id": 696, "left": 12.486919847, "top": 66.946110046000001, "right": 12.986919847, "bottom": 66.446110046000001, "row_index": 15, "col_index": 17, "tile_id": 696 }, "geometry": { "type": "MultiPolygon", "coordinates": [ [ [ [ 12.678175136994373, 66.524415350970472 ], [ 12.678163627821636, 66.524056049702381 ], [ 12.678897176969574, 66.523672072177149 ], [ 12.67821377330449, 66.523518321917606 ], [ 12.677321300050135, 66.523675627686984 ], [ 12.677437539836909, 66.523874824764277 ], [ 12.677213628228735, 66.524347232037584 ], [ 12.677772119939956, 66.524633773981549 ], [ 12.677833787872801, 66.524455258027331 ], [ 12.678175136994373, 66.524415350970472 ] ] ] ] } },
{ "type": "Feature", "properties": { "fid": 110300, "navn": null, "hoyde_moh": null, "arealInnsjo_km2": 0.0027, "magasinKategori": null, "fid_2": 696, "id": 696, "left": 12.486919847, "top": 66.946110046000001, "right": 12.986919847, "bottom": 66.446110046000001, "row_index": 15, "col_index": 17, "tile_id": 696 }, "geometry": { "type": "MultiPolygon", "coordinates": [ [ [ [ 12.552511455254168, 66.660757339884114 ], [ 12.551498281892927, 66.660472363212392 ], [ 12.550941525335338, 66.660382904814682 ], [ 12.550768246498565, 66.660532805777621 ], [ 12.552054564781855, 66.661028587787783 ], [ 12.552737865574457, 66.66098536468985 ], [ 12.552511455254168, 66.660757339884114 ] ] ] ] } },
{ "type": "Feature", "properties": { "fid": 127705, "navn": null, "hoyde_moh": null, "arealInnsjo_km2": 0.0051, "magasinKategori": null, "fid_2": 696, "id": 696, "left": 12.486919847, "top": 66.946110046000001, "right": 12.986919847, "bottom": 66.446110046000001, "row_index": 15, "col_index": 17, "tile_id": 696 }, "geometry": { "type": "MultiPolygon", "coordinates": [ [ [ [ 12.728524043586336, 66.610262120920837 ], [ 12.72829032903147, 66.609854831897778 ], [ 12.726717561543301, 66.610011581206663 ], [ 12.727214303773204, 66.610503462252098 ], [ 12.728130296302659, 66.610615452592796 ], [ 12.728524043586336, 66.610262120920837 ] ] ] ] } },
{ "type": "Feature", "properties": { "fid": 132440, "navn": null, "hoyde_moh": null, "arealInnsjo_km2": 0.0035, "magasinKategori": null, "fid_2": 696, "id": 696, "left": 12.486919847, "top": 66.946110046000001, "right": 12.986919847, "bottom": 66.446110046000001, "row_index": 15, "col_index": 17, "tile_id": 696 }, "geometry": { "type": "MultiPolygon", "coordinates": [ [ [ [ 12.641120366728654, 66.585276249198884 ], [ 12.640205934523278, 66.585163758238878 ], [ 12.63947847247141, 66.585458001420108 ], [ 12.639482253133048, 66.585655533187847 ], [ 12.64009270292091, 66.585880145043646 ], [ 12.641120366728654, 66.585276249198884 ] ] ] ] } },
{ "type": "Feature", "properties": { "fid": 132831, "navn": null, "hoyde_moh": null, "arealInnsjo_km2": 0.0073, "magasinKategori": null, "fid_2": 696, "id": 696, "left": 12.486919847, "top": 66.946110046000001, "right": 12.986919847, "bottom": 66.446110046000001, "row_index": 15, "col_index": 17, "tile_id": 696 }, "geometry": { "type": "MultiPolygon", "coordinates": [ [ [ [ 12.641781935984145, 66.602538284572006 ], [ 12.641989191709722, 66.602020784416112 ], [ 12.64188497783357, 66.601929457648623 ], [ 12.640931568245657, 66.602220317917144 ], [ 12.641146727857803, 66.602806998678332 ], [ 12.641824794436605, 66.603274969015672 ], [ 12.643360586541556, 66.603746840405549 ], [ 12.641781935984145, 66.602538284572006 ] ] ] ] } },
{ "type": "Feature", "properties": { "fid": 132865, "navn": null, "hoyde_moh": null, "arealInnsjo_km2": 0.004, "magasinKategori": null, "fid_2": 696, "id": 696, "left": 12.486919847, "top": 66.946110046000001, "right": 12.986919847, "bottom": 66.446110046000001, "row_index": 15, "col_index": 17, "tile_id": 696 }, "geometry": { "type": "MultiPolygon", "coordinates": [ [ [ [ 12.648657442464916, 66.604086585022159 ], [ 12.648083067421586, 66.603952314633261 ], [ 12.647574683742029, 66.604312715359583 ], [ 12.648206738419319, 66.604555564645835 ], [ 12.648817897789145, 66.604537792178434 ], [ 12.648417568021213, 66.604711226822616 ], [ 12.649601420973742, 66.604845736854344 ], [ 12.649770545482209, 66.604731490579724 ], [ 12.648657442464916, 66.604086585022159 ] ] ] ] } },
{ "type": "Feature", "properties": { "fid": 134956, "navn": null, "hoyde_moh": null, "arealInnsjo_km2": 0.0104, "magasinKategori": null, "fid_2": 696, "id": 696, "left": 12.486919847, "top": 66.946110046000001, "right": 12.986919847, "bottom": 66.446110046000001, "row_index": 15, "col_index": 17, "tile_id": 696 }, "geometry": { "type": "MultiPolygon", "coordinates": [ [ [ [ 12.956501083845659, 66.686879967854921 ], [ 12.954176600487033, 66.686499760343224 ], [ 12.953045902343451, 66.686476086228041 ], [ 12.951749705231119, 66.686809240176814 ], [ 12.951806444331806, 66.686944599552362 ], [ 12.952365487567256, 66.687032645215282 ], [ 12.954415848571408, 66.687166999602397 ], [ 12.956501083845659, 66.686879967854921 ] ] ] ] } },
{ "type": "Feature", "properties": { "fid": 135130, "navn": null, "hoyde_moh": null, "arealInnsjo_km2": 0.0025, "magasinKategori": null, "fid_2": 696, "id": 696, "left": 12.486919847, "top": 66.946110046000001, "right": 12.986919847, "bottom": 66.446110046000001, "row_index": 15, "col_index": 17, "tile_id": 696 }, "geometry": { "type": "MultiPolygon", "coordinates": [ [ [ [ 12.820265261382852, 66.610009836092971 ], [ 12.819987781420632, 66.609826476763004 ], [ 12.819583333350757, 66.60980290979586 ], [ 12.819183309834838, 66.609985836118682 ], [ 12.819231271357184, 66.610210885857697 ], [ 12.82009209112951, 66.610438248105169 ], [ 12.820265261382852, 66.610009836092971 ] ] ] ] } },
{ "type": "Feature", "properties": { "fid": 135280, "navn": null, "hoyde_moh": null, "arealInnsjo_km2": 0.003, "magasinKategori": null, "fid_2": 696, "id": 696, "left": 12.486919847, "top": 66.946110046000001, "right": 12.986919847, "bottom": 66.446110046000001, "row_index": 15, "col_index": 17, "tile_id": 696 }, "geometry": { "type": "MultiPolygon", "coordinates": [ [ [ [ 12.786637823336244, 66.5970903778191 ], [ 12.786990545582658, 66.597185106928663 ], [ 12.787203843163349, 66.597071433213458 ], [ 12.786928193566261, 66.596618771914876 ], [ 12.785744829768214, 66.596979050487661 ], [ 12.786187075998395, 66.59733533379061 ], [ 12.786637823336244, 66.5970903778191 ] ] ] ] } },
{ "type": "Feature", "properties": { "fid": 135367, "navn": null, "hoyde_moh": null, "arealInnsjo_km2": 0.0035, "magasinKategori": null, "fid_2": 696, "id": 696, "left": 12.486919847, "top": 66.946110046000001, "right": 12.986919847, "bottom": 66.446110046000001, "row_index": 15, "col_index": 17, "tile_id": 696 }, "geometry": { "type": "MultiPolygon", "coordinates": [ [ [ [ 12.914715724046253, 66.592238784037136 ], [ 12.913924017473922, 66.591994911684125 ], [ 12.91342069214501, 66.591539470487376 ], [ 12.912957804531677, 66.591676824648445 ], [ 12.913011853321285, 66.591839182994704 ], [ 12.913589654196663, 66.591945591402407 ], [ 12.914155282954322, 66.592733934359075 ], [ 12.914712128255365, 66.592552860499296 ], [ 12.914715724046253, 66.592238784037136 ] ] ] ] } },
{ "type": "Feature", "properties": { "fid": 135527, "navn": null, "hoyde_moh": null, "arealInnsjo_km2": 0.0026, "magasinKategori": null, "fid_2": 696, "id": 696, "left": 12.486919847, "top": 66.946110046000001, "right": 12.986919847, "bottom": 66.446110046000001, "row_index": 15, "col_index": 17, "tile_id": 696 }, "geometry": { "type": "MultiPolygon", "coordinates": [ [ [ [ 12.944581774452699, 66.653697575727676 ], [ 12.944475969552441, 66.653337200562859 ], [ 12.943580229784041, 66.653226765447585 ], [ 12.943962178701932, 66.654075391794052 ], [ 12.944581774452699, 66.653697575727676 ] ] ] ] } },
{ "type": "Feature", "properties": { "fid": 141816, "navn": null, "hoyde_moh": null, "arealInnsjo_km2": 0.0028, "magasinKategori": null, "fid_2": 696, "id": 696, "left": 12.486919847, "top": 66.946110046000001, "right": 12.986919847, "bottom": 66.446110046000001, "row_index": 15, "col_index": 17, "tile_id": 696 }, "geometry": { "type": "MultiPolygon", "coordinates": [ [ [ [ 12.969794888015256, 66.680033607281345 ], [ 12.968274926394541, 66.679789804632833 ], [ 12.966461408870675, 66.679811255299342 ], [ 12.96951161830987, 66.680173637420239 ], [ 12.969794888015256, 66.680033607281345 ] ] ] ] } },
{ "type": "Feature", "properties": { "fid": 141913, "navn": null, "hoyde_moh": null, "arealInnsjo_km2": 0.0056, "magasinKategori": null, "fid_2": 696, "id": 696, "left": 12.486919847, "top": 66.946110046000001, "right": 12.986919847, "bottom": 66.446110046000001, "row_index": 15, "col_index": 17, "tile_id": 696 }, "geometry": { "type": "MultiPolygon", "coordinates": [ [ [ [ 12.652712531974386, 66.604425536484598 ], [ 12.652883950120952, 66.604284482958789 ], [ 12.652264808764871, 66.603907205270275 ], [ 12.652263479994886, 66.603682694213219 ], [ 12.651872020638052, 66.60352433525 ], [ 12.651196042259834, 66.603747598739673 ], [ 12.650846875920127, 66.604334793493834 ], [ 12.652712531974386, 66.604425536484598 ] ] ] ] } },
{ "type": "Feature", "properties": { "fid": 142425, "navn": null, "hoyde_moh": null, "arealInnsjo_km2": 0.0026, "magasinKategori": null, "fid_2": 696, "id": 696, "left": 12.486919847, "top": 66.946110046000001, "right": 12.986919847, "bottom": 66.446110046000001, "row_index": 15, "col_index": 17, "tile_id": 696 }, "geometry": { "type": "MultiPolygon", "coordinates": [ [ [ [ 12.728680185268479, 66.611269750222235 ], [ 12.727949790391627, 66.611106415491221 ], [ 12.727888240108898, 66.611285128976363 ], [ 12.72710569505265, 66.611444341193817 ], [ 12.727497753689645, 66.611602603615168 ], [ 12.728741681165301, 66.61158470022886 ], [ 12.728680185268479, 66.611269750222235 ] ] ] ] } },
{ "type": "Feature", "properties": { "fid": 210012, "navn": null, "hoyde_moh": 6, "arealInnsjo_km2": 0.02, "magasinKategori": null, "fid_2": 696, "id": 696, "left": 12.486919847, "top": 66.946110046000001, "right": 12.986919847, "bottom": 66.446110046000001, "row_index": 15, "col_index": 17, "tile_id": 696 }, "geometry": { "type": "MultiPolygon", "coordinates": [ [ [ [ 12.967544527937134, 66.461191384719257 ], [ 12.968631537696885, 66.460859537639365 ], [ 12.967260444695945, 66.459990167119486 ], [ 12.966151439663252, 66.459919731787551 ], [ 12.965230642913944, 66.460142975713651 ], [ 12.96536392472615, 66.461011688276415 ], [ 12.965654771884015, 66.461420602922274 ], [ 12.96709342917077, 66.461611914344317 ], [ 12.967544527937134, 66.461191384719257 ] ] ] ] } },
{ "type": "Feature", "properties": { "fid": 210015, "navn": "Lomvatnet", "hoyde_moh": 107, "arealInnsjo_km2": 0.007, "magasinKategori": null, "fid_2": 696, "id": 696, "left": 12.486919847, "top": 66.946110046000001, "right": 12.986919847, "bottom": 66.446110046000001, "row_index": 15, "col_index": 17, "tile_id": 696 }, "geometry": { "type": "MultiPolygon", "coordinates": [ [ [ [ 12.960337519436523, 66.447030328570236 ], [ 12.960557838217893, 66.446986356468443 ], [ 12.960743598243509, 66.446662004205734 ], [ 12.959845711460069, 66.446230698744316 ], [ 12.959819855714453, 66.446110046 ], [ 12.959154335941562, 66.446110046 ], [ 12.959236736566647, 66.446539468563458 ], [ 12.959729719033966, 66.447264085171312 ], [ 12.960609971068502, 66.447439015605113 ], [ 12.960337519436523, 66.447030328570236 ] ] ] ] } },
{ "type": "Feature", "properties": { "fid": 210587, "navn": "Fjellvatnet", "hoyde_moh": 343, "arealInnsjo_km2": 0.0261, "magasinKategori": null, "fid_2": 696, "id": 696, "left": 12.486919847, "top": 66.946110046000001, "right": 12.986919847, "bottom": 66.446110046000001, "row_index": 15, "col_index": 17, "tile_id": 696 }, "geometry": { "type": "MultiPolygon", "coordinates": [ [ [ [ 12.810995554824773, 66.535654204692278 ], [ 12.809863976345069, 66.535719164407269 ], [ 12.809816232036125, 66.535494110407399 ], [ 12.810215117508271, 66.535311203363378 ], [ 12.810430525021784, 66.534910319565441 ], [ 12.811287055500804, 66.534644052801937 ], [ 12.81134622385107, 66.534483321577113 ], [ 12.81106333497833, 66.534371662659282 ], [ 12.80874742543681, 66.534079078719031 ], [ 12.80706546814935, 66.535024797408155 ], [ 12.807126421588242, 66.535357743083807 ], [ 12.80751757668439, 66.535515802107184 ], [ 12.808756073049413, 66.535515183483099 ], [ 12.809542801280578, 66.535786566323793 ], [ 12.810425619189653, 66.536498995705969 ], [ 12.811281490339013, 66.536501982611171 ], [ 12.810995554824773, 66.535654204692278 ] ] ] ] } }
]
}
