{
"type": "FeatureCollection",
"name": "innsjo_tile_id_302",
"crs": { "type": "name", "properties": { "name": "urn:ogc:def:crs:OGC:1.3:CRS84" } },
"xy_coordinate_resolution": 1e-15,
"features": [
{ "type": "Feature", "properties": { "fid": 20033, "navn": null, "hoyde_moh": null, "arealInnsjo_km2": 0.0035, "magasinKategori": null, "fid_2": 302, "id": 302, "left": 7.486919847, "top": 63.946110046000001, "right": 7.986919847, "bottom": 63.446110046000001, "row_index": 21, "col_index": 7, "tile_id": 302 }, "geometry": { "type": "MultiPolygon", "coordinates": [ [ [ [ 7.967953784614252, 63.510583475390426 ], [ 7.967256784760135, 63.510407829310431 ], [ 7.966150739845268, 63.510426849030239 ], [ 7.966165504227797, 63.510579401587435 ], [ 7.966760742510627, 63.51079024449097 ], [ 7.968004830235483, 63.510835095530247 ], [ 7.967953784614252, 63.510583475390426 ] ] ] ] } },
{ "type": "Feature", "properties": { "fid": 25684, "navn": null, "hoyde_moh": null, "arealInnsjo_km2": 0.0028, "magasinKategori": null, "fid_2": 302, "id": 302, "left": 7.486919847, "top": 63.946110046000001, "right": 7.986919847, "bottom": 63.446110046000001, "row_index": 21, "col_index": 7, "tile_id": 302 }, "geometry": { "type": "MultiPolygon", "coordinates": [ [ [ [ 7.962227336297011, 63.512220533238875 ], [ 7.961333656227677, 63.511926783049852 ], [ 7.960830300188102, 63.51194999330248 ], [ 7.961078526658582, 63.512310884413267 ], [ 7.962175735466245, 63.512534349360728 ], [ 7.962320449955348, 63.512418606018194 ], [ 7.962227336297011, 63.512220533238875 ] ] ] ] } },
{ "type": "Feature", "properties": { "fid": 62511, "navn": null, "hoyde_moh": null, "arealInnsjo_km2": 0.0049, "magasinKategori": null, "fid_2": 302, "id": 302, "left": 7.486919847, "top": 63.946110046000001, "right": 7.986919847, "bottom": 63.446110046000001, "row_index": 21, "col_index": 7, "tile_id": 302 }, "geometry": { "type": "MultiPolygon", "coordinates": [ [ [ [ 7.966542696989489, 63.447304552194353 ], [ 7.966228414186098, 63.447131702545292 ], [ 7.967393068773497, 63.447086367870078 ], [ 7.967138268633328, 63.446923039957326 ], [ 7.967244992764916, 63.446744212390797 ], [ 7.967647478669636, 63.446702246258731 ], [ 7.966897870193258, 63.446364726091026 ], [ 7.966040904645345, 63.446771459070931 ], [ 7.965933154164485, 63.447533548557836 ], [ 7.966542696989489, 63.447304552194353 ] ] ] ] } },
{ "type": "Feature", "properties": { "fid": 76365, "navn": null, "hoyde_moh": null, "arealInnsjo_km2": 0.0031, "magasinKategori": null, "fid_2": 302, "id": 302, "left": 7.486919847, "top": 63.946110046000001, "right": 7.986919847, "bottom": 63.446110046000001, "row_index": 21, "col_index": 7, "tile_id": 302 }, "geometry": { "type": "MultiPolygon", "coordinates": [ [ [ [ 7.965734403543927, 63.451930135083479 ], [ 7.965529178506195, 63.451497882954712 ], [ 7.964332215715605, 63.451884118554986 ], [ 7.964791111890811, 63.451950248040973 ], [ 7.964537809016135, 63.452307465665264 ], [ 7.965139059216137, 63.452311837701771 ], [ 7.965734403543927, 63.451930135083479 ] ] ] ] } },
{ "type": "Feature", "properties": { "fid": 80454, "navn": null, "hoyde_moh": null, "arealInnsjo_km2": 0.0044, "magasinKategori": null, "fid_2": 302, "id": 302, "left": 7.486919847, "top": 63.946110046000001, "right": 7.986919847, "bottom": 63.446110046000001, "row_index": 21, "col_index": 7, "tile_id": 302 }, "geometry": { "type": "MultiPolygon", "coordinates": [ [ [ [ 7.967378867058335, 63.452489463851656 ], [ 7.967488757643865, 63.452221086030619 ], [ 7.967228778085373, 63.452201123422682 ], [ 7.967543339810925, 63.451817536798387 ], [ 7.966135357367014, 63.451933082876025 ], [ 7.966480534968731, 63.452375402258205 ], [ 7.966389540102714, 63.452670858457857 ], [ 7.967378867058335, 63.452489463851656 ] ] ] ] } },
{ "type": "Feature", "properties": { "fid": 80554, "navn": null, "hoyde_moh": null, "arealInnsjo_km2": 0.005, "magasinKategori": null, "fid_2": 302, "id": 302, "left": 7.486919847, "top": 63.946110046000001, "right": 7.986919847, "bottom": 63.446110046000001, "row_index": 21, "col_index": 7, "tile_id": 302 }, "geometry": { "type": "MultiPolygon", "coordinates": [ [ [ [ 7.976058249712923, 63.464965157759238 ], [ 7.975865795318771, 63.464739384308295 ], [ 7.976372078996842, 63.464608380678207 ], [ 7.974611323751089, 63.464470068869595 ], [ 7.97470210172795, 63.464174508083637 ], [ 7.974564055680213, 63.464110720931089 ], [ 7.974247624142842, 63.464539310572903 ], [ 7.974256466561225, 63.4648533985348 ], [ 7.976058249712923, 63.464965157759238 ] ] ] ] } },
{ "type": "Feature", "properties": { "fid": 174886, "navn": null, "hoyde_moh": null, "arealInnsjo_km2": 0.0067, "magasinKategori": null, "fid_2": 302, "id": 302, "left": 7.486919847, "top": 63.946110046000001, "right": 7.986919847, "bottom": 63.446110046000001, "row_index": 21, "col_index": 7, "tile_id": 302 }, "geometry": { "type": "MultiPolygon", "coordinates": [ [ [ [ 7.972944801038585, 63.461146217727567 ], [ 7.973104351203578, 63.461174194312278 ], [ 7.972997426962912, 63.461352927064823 ], [ 7.973897819654272, 63.461422230347225 ], [ 7.974116406481612, 63.460921199209146 ], [ 7.973796765297871, 63.46088298209321 ], [ 7.973703922285019, 63.460675912003374 ], [ 7.973263395026162, 63.46065480967237 ], [ 7.97255407281332, 63.460856020821588 ], [ 7.972949573757958, 63.461011580024433 ], [ 7.972645287298255, 63.461108089552781 ], [ 7.971850039702534, 63.460904945857671 ], [ 7.971399751635762, 63.461153103080619 ], [ 7.971793915004414, 63.461353316950991 ], [ 7.972395961403214, 63.461348674891205 ], [ 7.972944801038585, 63.461146217727567 ] ] ] ] } },
{ "type": "Feature", "properties": { "fid": 267881, "navn": "Fløvatnet", "hoyde_moh": 5, "arealInnsjo_km2": 0.0666, "magasinKategori": 1, "fid_2": 302, "id": 302, "left": 7.486919847, "top": 63.946110046000001, "right": 7.986919847, "bottom": 63.446110046000001, "row_index": 21, "col_index": 7, "tile_id": 302 }, "geometry": { "type": "MultiPolygon", "coordinates": [ [ [ [ 7.976319961145292, 63.450902272044253 ], [ 7.976575071532182, 63.450500231197665 ], [ 7.977762188131147, 63.449826541373248 ], [ 7.978353555088399, 63.449552513776055 ], [ 7.979033805214661, 63.449593270994434 ], [ 7.979222044284382, 63.449379238852543 ], [ 7.979764126016386, 63.449356111576307 ], [ 7.97989557046678, 63.449042992995096 ], [ 7.982268427710158, 63.448862365004423 ], [ 7.98332162972992, 63.449130191495591 ], [ 7.985374420319928, 63.448354857895225 ], [ 7.985116972026897, 63.448263288975667 ], [ 7.984328342137589, 63.448446302182333 ], [ 7.984235878950488, 63.448230153591119 ], [ 7.984075253380989, 63.448237925572677 ], [ 7.983160889991598, 63.448572597543262 ], [ 7.981984917163422, 63.448375709779903 ], [ 7.983482599148956, 63.447416983400444 ], [ 7.983429160704916, 63.44722809056384 ], [ 7.982910737532701, 63.447143759910155 ], [ 7.982876464231622, 63.446981775810862 ], [ 7.981966650971369, 63.447190807363363 ], [ 7.982783275698301, 63.447349160879384 ], [ 7.982617533624146, 63.447500565694391 ], [ 7.980995217318218, 63.448009578253071 ], [ 7.980356581261422, 63.447924270723028 ], [ 7.98032404258095, 63.447708638685803 ], [ 7.97996293699094, 63.447715086202315 ], [ 7.979631420495006, 63.447452346480588 ], [ 7.977775687204765, 63.447196838278586 ], [ 7.976976606362584, 63.447675816727617 ], [ 7.97657313343257, 63.447744717024499 ], [ 7.976485013350461, 63.447968463136306 ], [ 7.977389896601498, 63.448459637334466 ], [ 7.977332486410614, 63.448944004795216 ], [ 7.977197636008502, 63.44934692902644 ], [ 7.976643321601416, 63.449710951709164 ], [ 7.976634651431112, 63.449953132130041 ], [ 7.975326994489932, 63.451191371106482 ], [ 7.975706668814878, 63.451238951292012 ], [ 7.976319961145292, 63.450902272044253 ] ] ] ] } }
]
}
