{
"type": "FeatureCollection",
"name": "innsjo_tile_id_144",
"crs": { "type": "name", "properties": { "name": "urn:ogc:def:crs:OGC:1.3:CRS84" } },
"xy_coordinate_resolution": 1e-15,
"features": [
{ "type": "Feature", "properties": { "fid": 87494, "navn": "Rantevatna", "hoyde_moh": 327, "arealInnsjo_km2": 0.0052, "magasinKategori": null, "fid_2": 144, "id": 144, "left": 5.486919847, "top": 62.946110046000001, "right": 5.986919847, "bottom": 62.446110046000001, "row_index": 23, "col_index": 3, "tile_id": 144 }, "geometry": { "type": "MultiPolygon", "coordinates": [ [ [ [ 5.951440878618577, 62.468724930109694 ], [ 5.951611743840178, 62.468522731702215 ], [ 5.951531875350684, 62.468418330791032 ], [ 5.950633059057287, 62.468253791728884 ], [ 5.949985404930153, 62.468353663728259 ], [ 5.950042744402817, 62.468581811149065 ], [ 5.95103101221371, 62.469050464812078 ], [ 5.951645377748417, 62.469087914114908 ], [ 5.951440878618577, 62.468724930109694 ] ] ] ] } },
{ "type": "Feature", "properties": { "fid": 212395, "navn": "Alnesvatnet", "hoyde_moh": 254, "arealInnsjo_km2": 0.5736, "magasinKategori": null, "fid_2": 144, "id": 144, "left": 5.486919847, "top": 62.946110046000001, "right": 5.986919847, "bottom": 62.446110046000001, "row_index": 23, "col_index": 3, "tile_id": 144 }, "geometry": { "type": "MultiPolygon", "coordinates": [ [ [ [ 5.984113205924955, 62.479599158737464 ], [ 5.985066023010572, 62.478565392104585 ], [ 5.984691108237572, 62.478186320936082 ], [ 5.98387865871518, 62.47794193975686 ], [ 5.983141667855365, 62.477416062096836 ], [ 5.98125138079954, 62.476930417951884 ], [ 5.979949342941788, 62.476375486799945 ], [ 5.979651952414381, 62.475886994136978 ], [ 5.978066864858219, 62.474573985309995 ], [ 5.977209905836024, 62.472685146835666 ], [ 5.975730129268102, 62.471789499217671 ], [ 5.974335380162973, 62.471445884798563 ], [ 5.974179518418887, 62.471127525770363 ], [ 5.973612721733104, 62.470823236185183 ], [ 5.972350846348559, 62.470475153405786 ], [ 5.972257096805493, 62.470261464774453 ], [ 5.972483409729741, 62.47008519344233 ], [ 5.972153764123359, 62.469814895090323 ], [ 5.972138398930165, 62.46961255631237 ], [ 5.969997071301845, 62.468937404519842 ], [ 5.970500242498443, 62.468711391167375 ], [ 5.970467916782963, 62.468565444415162 ], [ 5.969758918081082, 62.468599565979986 ], [ 5.969663632706064, 62.468432695786376 ], [ 5.969045575939557, 62.468284879428253 ], [ 5.968246462647626, 62.468379563340378 ], [ 5.968098388889883, 62.468556051247852 ], [ 5.968329630777071, 62.468717690097492 ], [ 5.968201728820216, 62.468986354060888 ], [ 5.968758594434171, 62.469129910228069 ], [ 5.968711768139102, 62.469284978091032 ], [ 5.968887134600188, 62.469424888607634 ], [ 5.968782507800357, 62.469638928406049 ], [ 5.96771833695811, 62.469655292736867 ], [ 5.967574120188553, 62.469793428115132 ], [ 5.96778450887782, 62.469902988153294 ], [ 5.967250259711987, 62.4700622336889 ], [ 5.966984562361498, 62.469903407675183 ], [ 5.96520610456922, 62.470032620670878 ], [ 5.964703775802826, 62.470539028735764 ], [ 5.963630596604719, 62.470843810907056 ], [ 5.96448537222724, 62.471900877818335 ], [ 5.965185647144279, 62.471887998259028 ], [ 5.96501130560046, 62.472148658157856 ], [ 5.965614975175023, 62.472177839481262 ], [ 5.966166615995157, 62.472448357509819 ], [ 5.966754994720701, 62.472413611725869 ], [ 5.965940836399723, 62.47285031466663 ], [ 5.964872477101438, 62.472692172618792 ], [ 5.96460968501846, 62.472530186974389 ], [ 5.964624645649958, 62.472389403222401 ], [ 5.964044258017734, 62.472347904915004 ], [ 5.96410507024073, 62.472638107143645 ], [ 5.964629329942792, 62.473092723859075 ], [ 5.965254851201774, 62.473276573967269 ], [ 5.964808839238549, 62.473494732279811 ], [ 5.965028792476925, 62.47385697827746 ], [ 5.966446405998245, 62.474325043072788 ], [ 5.966235931547215, 62.474047679151134 ], [ 5.9676159035533, 62.473789649680306 ], [ 5.967700092774851, 62.473568399548093 ], [ 5.96839142103497, 62.473735733733868 ], [ 5.968553456385202, 62.473541711805069 ], [ 5.968873704842896, 62.47353629491807 ], [ 5.968583543334918, 62.473764902322614 ], [ 5.970227168383588, 62.473824472161255 ], [ 5.970819822534419, 62.47361920723781 ], [ 5.971659143678414, 62.473914519356221 ], [ 5.972311412695542, 62.474384771229538 ], [ 5.971358266534194, 62.47455243026414 ], [ 5.970656075128045, 62.474453384991911 ], [ 5.970189260720218, 62.474630242814925 ], [ 5.969140482915367, 62.474533264922947 ], [ 5.969310427559177, 62.474765487647588 ], [ 5.968825841657229, 62.475008988060381 ], [ 5.968302676883519, 62.47498724534433 ], [ 5.968115713830227, 62.474418407369548 ], [ 5.967618342052721, 62.474379358595712 ], [ 5.967273279604328, 62.474613061424428 ], [ 5.967621521105068, 62.474860174374648 ], [ 5.967549066763858, 62.475075590554383 ], [ 5.968149703158821, 62.475260513464463 ], [ 5.968149642987733, 62.475456965757814 ], [ 5.96753474863323, 62.475415675079162 ], [ 5.967328387812387, 62.475687810309346 ], [ 5.966779620005648, 62.475821249870251 ], [ 5.966722496298641, 62.475958740101632 ], [ 5.967339566414224, 62.476289842987455 ], [ 5.967691263012489, 62.476780920058374 ], [ 5.968273796272205, 62.476768203545539 ], [ 5.968956029741724, 62.47727993397541 ], [ 5.969427451122757, 62.477329940015942 ], [ 5.969496487400634, 62.477515077409713 ], [ 5.971574492435166, 62.478502144264716 ], [ 5.976755740687504, 62.478410919236744 ], [ 5.977591489007073, 62.478575406458596 ], [ 5.977803984015811, 62.478915258875134 ], [ 5.978895726779339, 62.478990371090802 ], [ 5.981740560705435, 62.479700676552675 ], [ 5.984113205924955, 62.479599158737464 ] ], [ [ 5.970147854990683, 62.470013234656115 ], [ 5.969926224152101, 62.46984562697606 ], [ 5.970295092452365, 62.469747096433764 ], [ 5.971270354424459, 62.470235804761572 ], [ 5.970147854990683, 62.470013234656115 ] ], [ [ 5.967955952993989, 62.471021036845883 ], [ 5.967725591795559, 62.470987292158313 ], [ 5.96786866182042, 62.470861919428032 ], [ 5.968060767895309, 62.470980230633927 ], [ 5.967955952993989, 62.471021036845883 ] ], [ [ 5.967079389221986, 62.473164099658554 ], [ 5.967186313241863, 62.473341495220936 ], [ 5.96592652062738, 62.473236507988148 ], [ 5.967079389221986, 62.473164099658554 ] ], [ [ 5.968192213385265, 62.473161576500843 ], [ 5.968396654580712, 62.473248415700986 ], [ 5.967678386081705, 62.473448549022351 ], [ 5.967877719812145, 62.473148110217366 ], [ 5.968192213385265, 62.473161576500843 ] ], [ [ 5.970050888096206, 62.473186450137831 ], [ 5.970331335408607, 62.47332905281236 ], [ 5.969948049826923, 62.473478629582154 ], [ 5.969739221530671, 62.47339078354112 ], [ 5.970033050054937, 62.473339973880378 ], [ 5.969796366060806, 62.473196066419632 ], [ 5.970050888096206, 62.473186450137831 ] ], [ [ 5.969899534588412, 62.476021703734666 ], [ 5.970006657271197, 62.476113854534795 ], [ 5.96984557318067, 62.476173233208449 ], [ 5.969635040065868, 62.476141600611086 ], [ 5.969899534588412, 62.476021703734666 ] ], [ [ 5.96788925209693, 62.47626115310733 ], [ 5.967400153742434, 62.476040291889397 ], [ 5.968717619289791, 62.476115390241169 ], [ 5.969110045372714, 62.47632207502518 ], [ 5.968868418389451, 62.476524015640912 ], [ 5.96788925209693, 62.47626115310733 ] ], [ [ 5.972460106530666, 62.473967564510474 ], [ 5.970542191138737, 62.473383941003817 ], [ 5.970355729677536, 62.473066744511989 ], [ 5.971219761505368, 62.473090280157962 ], [ 5.970943943069363, 62.472863179168229 ], [ 5.971197346055645, 62.472695546322782 ], [ 5.970352021841696, 62.472615098205559 ], [ 5.971381461168125, 62.472323051759631 ], [ 5.971544805126448, 62.47237294145814 ], [ 5.971616352065721, 62.472661486364309 ], [ 5.971826977462585, 62.472707497768496 ], [ 5.97151789083843, 62.47285016399907 ], [ 5.972387521047142, 62.472951536646427 ], [ 5.972650185175794, 62.473196219483867 ], [ 5.975365798027853, 62.473378966588626 ], [ 5.97485191372493, 62.473856988577182 ], [ 5.975678017848103, 62.474037319164964 ], [ 5.975241462365849, 62.474161739814342 ], [ 5.972460106530666, 62.473967564510474 ] ], [ [ 5.972455750866474, 62.474347623500591 ], [ 5.972270501610939, 62.474229767328723 ], [ 5.972890689697189, 62.474081618408235 ], [ 5.972455750866474, 62.474347623500591 ] ], [ [ 5.977511854103208, 62.476272264587223 ], [ 5.977376318257754, 62.475972955946148 ], [ 5.977644463590607, 62.475970631315548 ], [ 5.97792290726394, 62.476223380927202 ], [ 5.977511854103208, 62.476272264587223 ] ], [ [ 5.971080870927767, 62.476521404031573 ], [ 5.970752800375784, 62.476207902316027 ], [ 5.97172754751035, 62.476295426659689 ], [ 5.972221296372227, 62.476474173061099 ], [ 5.972144528525341, 62.476605682323601 ], [ 5.971080870927767, 62.476521404031573 ] ], [ [ 5.970973546043375, 62.477721977272296 ], [ 5.970345293155531, 62.477416473162727 ], [ 5.971360957096186, 62.477392210993948 ], [ 5.971429631196845, 62.477499663269924 ], [ 5.970973546043375, 62.477721977272296 ] ], [ [ 5.978381529280248, 62.47874631227198 ], [ 5.978303054571813, 62.478706935057915 ], [ 5.978718835212011, 62.478598958511093 ], [ 5.978381529280248, 62.47874631227198 ] ] ] ] } }
]
}
