{
"type": "FeatureCollection",
"name": "innsjo_tile_id_812",
"crs": { "type": "name", "properties": { "name": "urn:ogc:def:crs:OGC:1.3:CRS84" } },
"xy_coordinate_resolution": 1e-15,
"features": [
{ "type": "Feature", "properties": { "fid": 84218, "navn": "Merstjønna", "hoyde_moh": null, "arealInnsjo_km2": 0.0114, "magasinKategori": null, "fid_2": 812, "id": 812, "left": 13.986919847, "top": 68.946110046000001, "right": 14.486919847, "bottom": 68.446110046000001, "row_index": 11, "col_index": 20, "tile_id": 812 }, "geometry": { "type": "MultiPolygon", "coordinates": [ [ [ [ 14.486504631790545, 68.768985354588011 ], [ 14.486189175988947, 68.768715336333585 ], [ 14.486688578700074, 68.768519536010032 ], [ 14.486696430446846, 68.768178746924605 ], [ 14.486505106826746, 68.767891167384207 ], [ 14.485398348822208, 68.767600812070967 ], [ 14.484476684487229, 68.767867075521053 ], [ 14.484522018400146, 68.768046588570257 ], [ 14.484840140356363, 68.768200024226388 ], [ 14.484416408818523, 68.768333267888224 ], [ 14.484407484392332, 68.768718897496825 ], [ 14.485092614806984, 68.769052823278329 ], [ 14.485392393255303, 68.768919201821333 ], [ 14.486504631790545, 68.768985354588011 ] ] ] ] } },
{ "type": "Feature", "properties": { "fid": 124410, "navn": null, "hoyde_moh": 1, "arealInnsjo_km2": 0.006, "magasinKategori": null, "fid_2": 812, "id": 812, "left": 13.986919847, "top": 68.946110046000001, "right": 14.486919847, "bottom": 68.446110046000001, "row_index": 11, "col_index": 20, "tile_id": 812 }, "geometry": { "type": "MultiPolygon", "coordinates": [ [ [ [ 14.441733460301498, 68.681376211012676 ], [ 14.442316400542037, 68.681098754227776 ], [ 14.442394213158888, 68.680854429065135 ], [ 14.443458685178031, 68.68046016688595 ], [ 14.441398720229573, 68.680912847908942 ], [ 14.439803483416016, 68.680944161221973 ], [ 14.440286275615323, 68.681084330257363 ], [ 14.440211912352749, 68.681317903251838 ], [ 14.441733460301498, 68.681376211012676 ] ] ] ] } },
{ "type": "Feature", "properties": { "fid": 124546, "navn": null, "hoyde_moh": 47, "arealInnsjo_km2": 0.0032, "magasinKategori": null, "fid_2": 812, "id": 812, "left": 13.986919847, "top": 68.946110046000001, "right": 14.486919847, "bottom": 68.446110046000001, "row_index": 11, "col_index": 20, "tile_id": 812 }, "geometry": { "type": "MultiPolygon", "coordinates": [ [ [ [ 14.48682961494953, 68.653389014471813 ], [ 14.486450156940963, 68.653640783184429 ], [ 14.486919847, 68.653704463832284 ], [ 14.486919847, 68.65336853418988 ], [ 14.48682961494953, 68.653389014471813 ] ] ] ] } },
{ "type": "Feature", "properties": { "fid": 129359, "navn": null, "hoyde_moh": 0, "arealInnsjo_km2": 0.0031, "magasinKategori": null, "fid_2": 812, "id": 812, "left": 13.986919847, "top": 68.946110046000001, "right": 14.486919847, "bottom": 68.446110046000001, "row_index": 11, "col_index": 20, "tile_id": 812 }, "geometry": { "type": "MultiPolygon", "coordinates": [ [ [ [ 14.446332823161343, 68.615944343820843 ], [ 14.445115057623033, 68.615248653747699 ], [ 14.443479545986639, 68.615219405552878 ], [ 14.443799326942633, 68.615425581110955 ], [ 14.444969922682628, 68.615343785199087 ], [ 14.445187136210457, 68.615723169882685 ], [ 14.44540266952912, 68.615782805108068 ], [ 14.445360970399435, 68.615988505693153 ], [ 14.446351566596501, 68.616111138415476 ], [ 14.446332823161343, 68.615944343820843 ] ] ] ] } },
{ "type": "Feature", "properties": { "fid": 149618, "navn": "Husvatnet", "hoyde_moh": 6, "arealInnsjo_km2": 0.0997, "magasinKategori": null, "fid_2": 812, "id": 812, "left": 13.986919847, "top": 68.946110046000001, "right": 14.486919847, "bottom": 68.446110046000001, "row_index": 11, "col_index": 20, "tile_id": 812 }, "geometry": { "type": "MultiPolygon", "coordinates": [ [ [ [ 14.486919847, 68.778741023960904 ], [ 14.486919847, 68.777516234952728 ], [ 14.486877241501499, 68.777506798612748 ], [ 14.485556444617137, 68.777888454645193 ], [ 14.484937244152787, 68.777913482038912 ], [ 14.486919847, 68.777134054370819 ], [ 14.486919847, 68.776760133576929 ], [ 14.486823898112833, 68.776609762262595 ], [ 14.484952524426577, 68.776182559323217 ], [ 14.48384953204498, 68.775712831543956 ], [ 14.482614504237063, 68.775601354321807 ], [ 14.481621352064623, 68.775732943224682 ], [ 14.481375307798265, 68.775669409846884 ], [ 14.481555868628949, 68.775356055304186 ], [ 14.479958623620531, 68.774857884235189 ], [ 14.478595294147738, 68.774943386585406 ], [ 14.478043864265526, 68.775237659773026 ], [ 14.477906600834709, 68.776869551713418 ], [ 14.480629307367318, 68.77687790959456 ], [ 14.481735837559244, 68.777195200247945 ], [ 14.481853338733448, 68.777464621829751 ], [ 14.481472653477582, 68.777867052610375 ], [ 14.481493856523022, 68.778019586244596 ], [ 14.483759297135721, 68.778537714150943 ], [ 14.485684911277305, 68.778767781647062 ], [ 14.486919847, 68.778741023960904 ] ] ] ] } },
{ "type": "Feature", "properties": { "fid": 161212, "navn": "Saltvatnet", "hoyde_moh": 1, "arealInnsjo_km2": 0.7036, "magasinKategori": null, "fid_2": 812, "id": 812, "left": 13.986919847, "top": 68.946110046000001, "right": 14.486919847, "bottom": 68.446110046000001, "row_index": 11, "col_index": 20, "tile_id": 812 }, "geometry": { "type": "MultiPolygon", "coordinates": [ [ [ [ 14.48222905922284, 68.686901046284888 ], [ 14.481958406234149, 68.686590163962748 ], [ 14.479829571814236, 68.685921456581994 ], [ 14.479613892836493, 68.685760967811959 ], [ 14.479603691708906, 68.685521198932577 ], [ 14.4812829718852, 68.684630192308262 ], [ 14.483126199986541, 68.684095285654806 ], [ 14.483214911790727, 68.683723080448701 ], [ 14.482898921754442, 68.683423092525629 ], [ 14.481561956084137, 68.683111813956216 ], [ 14.481399753374893, 68.682867453208814 ], [ 14.480665212447057, 68.682654250465163 ], [ 14.48063751594943, 68.682435056200532 ], [ 14.480812768808475, 68.682243930137417 ], [ 14.480578207662859, 68.681963650209866 ], [ 14.480939896421873, 68.681747087158854 ], [ 14.480696004259679, 68.681561041406411 ], [ 14.479740011225932, 68.681513885018305 ], [ 14.480100725881538, 68.681127091815995 ], [ 14.479738549197885, 68.680972430507779 ], [ 14.479801083972673, 68.68067853409292 ], [ 14.478860869697286, 68.68048469062947 ], [ 14.479434593492655, 68.680243492256736 ], [ 14.479820981569764, 68.679854267426322 ], [ 14.480697076935284, 68.679517849019717 ], [ 14.480156297026097, 68.67946685779458 ], [ 14.480339019246809, 68.679176111141132 ], [ 14.481424159699973, 68.67889970553145 ], [ 14.482645724735606, 68.678872058388123 ], [ 14.482849854027393, 68.678687834976131 ], [ 14.48333845367307, 68.678692647866782 ], [ 14.484011435410265, 68.678107871568542 ], [ 14.483367503334811, 68.677754414716986 ], [ 14.483866568101307, 68.677464810503565 ], [ 14.48390923327398, 68.677324488477424 ], [ 14.48365188767867, 68.677113741383081 ], [ 14.484262617045404, 68.676779184439241 ], [ 14.48426861617291, 68.67641183827908 ], [ 14.483698811728406, 68.67598748565635 ], [ 14.482047417264585, 68.675716236251972 ], [ 14.481879308112187, 68.675462978346957 ], [ 14.481992294308901, 68.675350944889445 ], [ 14.482501189627605, 68.675476633180367 ], [ 14.482557988232994, 68.675364696336999 ], [ 14.482312740758781, 68.675154432551935 ], [ 14.483153919151132, 68.675082745315393 ], [ 14.483744532581067, 68.674571262805841 ], [ 14.483164803436319, 68.674440518384586 ], [ 14.48187396281295, 68.674501499811939 ], [ 14.481567763049064, 68.67425328905513 ], [ 14.481838491876092, 68.673819667676256 ], [ 14.481792545384753, 68.673611807865157 ], [ 14.483007768455705, 68.673099372296107 ], [ 14.483114722907136, 68.672820947215413 ], [ 14.482353462097604, 68.672455557042298 ], [ 14.480894685287936, 68.672379061528304 ], [ 14.478266544728301, 68.671649331312082 ], [ 14.476404137069329, 68.671473430498935 ], [ 14.474170481526723, 68.670709968983601 ], [ 14.472888826587685, 68.670870195353586 ], [ 14.471935190655904, 68.671463916873179 ], [ 14.471739140337846, 68.671847710102355 ], [ 14.472254587598034, 68.672254086294259 ], [ 14.471277948184346, 68.672618846620182 ], [ 14.471219452824705, 68.672873559046934 ], [ 14.470871921429744, 68.673149968135618 ], [ 14.470821029493703, 68.673666505738382 ], [ 14.470153391742384, 68.674006127728845 ], [ 14.469346521396435, 68.673950499946031 ], [ 14.468814553524693, 68.6741787008187 ], [ 14.468425521949687, 68.674561166017497 ], [ 14.469742739331537, 68.676082748742161 ], [ 14.470473539082843, 68.676659407003143 ], [ 14.470554921625535, 68.677011062448287 ], [ 14.47159913508183, 68.677811484004607 ], [ 14.471683400058016, 68.678177677383061 ], [ 14.471540300891947, 68.678727290799898 ], [ 14.472096967721972, 68.67921074851219 ], [ 14.471878268262019, 68.679684697796901 ], [ 14.472067515301122, 68.680438494604985 ], [ 14.472520173708306, 68.680746284427215 ], [ 14.473473357305636, 68.681005138263387 ], [ 14.473867472279334, 68.681445481192242 ], [ 14.473496175793072, 68.681648635746754 ], [ 14.471695163398399, 68.681699161087948 ], [ 14.471689841882519, 68.681987224453607 ], [ 14.472044220689348, 68.682470767046752 ], [ 14.471525378459054, 68.682751575238441 ], [ 14.471678761640273, 68.682905512019047 ], [ 14.470456146933277, 68.683217569663569 ], [ 14.47043181606699, 68.683474899905221 ], [ 14.471186586059941, 68.683319410821014 ], [ 14.470894244471406, 68.683590073242783 ], [ 14.471326399866269, 68.683891254571179 ], [ 14.472771858984558, 68.683695135702962 ], [ 14.472551014683924, 68.683850953406449 ], [ 14.472663263775853, 68.684025030509687 ], [ 14.474496055070622, 68.685064399464792 ], [ 14.474945868697954, 68.6854988137394 ], [ 14.475009069517858, 68.685789152621993 ], [ 14.475772368847306, 68.686239605521067 ], [ 14.475216524495748, 68.686456541696828 ], [ 14.473953982954766, 68.686489300356243 ], [ 14.473486475950853, 68.686670540629123 ], [ 14.473823437102249, 68.686872133441483 ], [ 14.475196336295328, 68.687043939211819 ], [ 14.479855615818957, 68.686890262559899 ], [ 14.480629238503532, 68.687252292002896 ], [ 14.481785573016177, 68.687250548859183 ], [ 14.48222905922284, 68.686901046284888 ] ], [ [ 14.474680513460697, 68.680378652381179 ], [ 14.473938797163925, 68.680361546758377 ], [ 14.475076884667571, 68.680250463179547 ], [ 14.476208951185397, 68.680564656813942 ], [ 14.47540312123693, 68.68061166568684 ], [ 14.474680513460697, 68.680378652381179 ] ], [ [ 14.477238820966663, 68.681287865558005 ], [ 14.476606764073278, 68.681017471435709 ], [ 14.478221526162953, 68.681309288280261 ], [ 14.477238820966663, 68.681287865558005 ] ] ] ] } },
{ "type": "Feature", "properties": { "fid": 161589, "navn": null, "hoyde_moh": 0, "arealInnsjo_km2": 0.0067, "magasinKategori": null, "fid_2": 812, "id": 812, "left": 13.986919847, "top": 68.946110046000001, "right": 14.486919847, "bottom": 68.446110046000001, "row_index": 11, "col_index": 20, "tile_id": 812 }, "geometry": { "type": "MultiPolygon", "coordinates": [ [ [ [ 14.44823084611142, 68.613613971694335 ], [ 14.447849503299869, 68.613262485061966 ], [ 14.446834145029214, 68.613341850341712 ], [ 14.446516810399999, 68.613156137760612 ], [ 14.446970199279887, 68.613065783476927 ], [ 14.447321192485887, 68.613191961923746 ], [ 14.447352884734149, 68.612982550769374 ], [ 14.446070796561369, 68.613036999984729 ], [ 14.445342140493581, 68.612860516503176 ], [ 14.446224974041076, 68.612484659337198 ], [ 14.446024643599303, 68.612397629974254 ], [ 14.445293840627723, 68.612547699326498 ], [ 14.445209572932033, 68.612855416419308 ], [ 14.445425744740856, 68.613156767511441 ], [ 14.446326487784763, 68.613540012413253 ], [ 14.446532146820813, 68.613800159920388 ], [ 14.44823084611142, 68.613613971694335 ] ] ] ] } },
{ "type": "Feature", "properties": { "fid": 168689, "navn": "Bjørnvatnet", "hoyde_moh": 5, "arealInnsjo_km2": 0.0203, "magasinKategori": null, "fid_2": 812, "id": 812, "left": 13.986919847, "top": 68.946110046000001, "right": 14.486919847, "bottom": 68.446110046000001, "row_index": 11, "col_index": 20, "tile_id": 812 }, "geometry": { "type": "MultiPolygon", "coordinates": [ [ [ [ 14.446135300851859, 68.683808796287892 ], [ 14.446725175904835, 68.683151514489069 ], [ 14.447425359685427, 68.682777201123642 ], [ 14.44719748176826, 68.682532412445084 ], [ 14.44617483868274, 68.682171474994192 ], [ 14.445122542197101, 68.682043535498678 ], [ 14.445558656103589, 68.682279234160319 ], [ 14.445014026118397, 68.6825628370148 ], [ 14.444986202980051, 68.682889572185886 ], [ 14.444650091232914, 68.683212873142935 ], [ 14.443542737003225, 68.683473454985858 ], [ 14.442825829948141, 68.683941691386693 ], [ 14.442956760914621, 68.684069032784407 ], [ 14.443975466512818, 68.684143420401384 ], [ 14.446135300851859, 68.683808796287892 ] ] ] ] } },
{ "type": "Feature", "properties": { "fid": 194076, "navn": "Nøkktjønna", "hoyde_moh": 61, "arealInnsjo_km2": 0.0126, "magasinKategori": null, "fid_2": 812, "id": 812, "left": 13.986919847, "top": 68.946110046000001, "right": 14.486919847, "bottom": 68.446110046000001, "row_index": 11, "col_index": 20, "tile_id": 812 }, "geometry": { "type": "MultiPolygon", "coordinates": [ [ [ [ 14.479487718194495, 68.654854478551385 ], [ 14.477636564399726, 68.654931185956912 ], [ 14.476804926133802, 68.655406204488045 ], [ 14.479075633820253, 68.65590149123841 ], [ 14.480838276542199, 68.656035354235044 ], [ 14.479487718194495, 68.654854478551385 ] ] ] ] } },
{ "type": "Feature", "properties": { "fid": 201589, "navn": "Førvatnet", "hoyde_moh": 1, "arealInnsjo_km2": 0.0646, "magasinKategori": null, "fid_2": 812, "id": 812, "left": 13.986919847, "top": 68.946110046000001, "right": 14.486919847, "bottom": 68.446110046000001, "row_index": 11, "col_index": 20, "tile_id": 812 }, "geometry": { "type": "MultiPolygon", "coordinates": [ [ [ [ 14.475489943396024, 68.669050613086057 ], [ 14.476192407721015, 68.668707759915009 ], [ 14.476044573401682, 68.668456352322252 ], [ 14.475617298973402, 68.668314394608004 ], [ 14.476108746267725, 68.668135106809657 ], [ 14.476278989104468, 68.667807463476123 ], [ 14.476099221830516, 68.667741971401426 ], [ 14.476123301735631, 68.667565538575957 ], [ 14.474885500600267, 68.667155943394221 ], [ 14.475053349428434, 68.666941391353262 ], [ 14.47550919943844, 68.66681903678149 ], [ 14.473742924263258, 68.66631227278765 ], [ 14.471626928967924, 68.666266652798782 ], [ 14.470257125537003, 68.666893682419953 ], [ 14.470466556163395, 68.667068335395641 ], [ 14.47027646581283, 68.667221555776052 ], [ 14.470445801366619, 68.667362718782769 ], [ 14.47015481085405, 68.667761728863681 ], [ 14.470948852891711, 68.668799405806226 ], [ 14.471631397726402, 68.669251241553127 ], [ 14.475489943396024, 68.669050613086057 ] ] ] ] } },
{ "type": "Feature", "properties": { "fid": 211509, "navn": "Kamtjønna", "hoyde_moh": 83, "arealInnsjo_km2": 0.0064, "magasinKategori": null, "fid_2": 812, "id": 812, "left": 13.986919847, "top": 68.946110046000001, "right": 14.486919847, "bottom": 68.446110046000001, "row_index": 11, "col_index": 20, "tile_id": 812 }, "geometry": { "type": "MultiPolygon", "coordinates": [ [ [ [ 14.486910308399972, 68.755667965828763 ], [ 14.486919847, 68.755648226659389 ], [ 14.486919847, 68.754819980099469 ], [ 14.48668615183009, 68.754662784535313 ], [ 14.486192226975879, 68.754634381624911 ], [ 14.485693545139064, 68.754812244656407 ], [ 14.485674306378158, 68.755646192591783 ], [ 14.48661088533826, 68.755783563540007 ], [ 14.486910308399972, 68.755667965828763 ] ] ] ] } },
{ "type": "Feature", "properties": { "fid": 212927, "navn": "Burnesvatnet", "hoyde_moh": 368, "arealInnsjo_km2": 0.0106, "magasinKategori": null, "fid_2": 812, "id": 812, "left": 13.986919847, "top": 68.946110046000001, "right": 14.486919847, "bottom": 68.446110046000001, "row_index": 11, "col_index": 20, "tile_id": 812 }, "geometry": { "type": "MultiPolygon", "coordinates": [ [ [ [ 14.475865306820303, 68.720259330037706 ], [ 14.477326916663156, 68.720242144968722 ], [ 14.477732834709188, 68.720009849813039 ], [ 14.475754469862883, 68.719711260845585 ], [ 14.475184783660696, 68.719840799043311 ], [ 14.474123679134603, 68.71979499352733 ], [ 14.472841420001808, 68.720070652933671 ], [ 14.473716064976109, 68.720391229720889 ], [ 14.4747822092287, 68.720475888355182 ], [ 14.475865306820303, 68.720259330037706 ] ] ] ] } },
{ "type": "Feature", "properties": { "fid": 227601, "navn": "Langvatnet", "hoyde_moh": 3, "arealInnsjo_km2": 0.4753, "magasinKategori": null, "fid_2": 812, "id": 812, "left": 13.986919847, "top": 68.946110046000001, "right": 14.486919847, "bottom": 68.446110046000001, "row_index": 11, "col_index": 20, "tile_id": 812 }, "geometry": { "type": "MultiPolygon", "coordinates": [ [ [ [ 14.486609911723905, 68.695460636251099 ], [ 14.483707553700832, 68.69478577423547 ], [ 14.482079829660208, 68.69387978693122 ], [ 14.481791208807859, 68.693606429233469 ], [ 14.481605574094516, 68.693071586205434 ], [ 14.481241539754812, 68.692828759425481 ], [ 14.481175660269592, 68.692383792263698 ], [ 14.480359683451228, 68.691947463506068 ], [ 14.479562120897821, 68.691706708272235 ], [ 14.477535584386468, 68.691581262547885 ], [ 14.476053757353263, 68.691067694941353 ], [ 14.474871528596998, 68.690189295023842 ], [ 14.473210105682073, 68.68978034879035 ], [ 14.470524320758498, 68.689535181357712 ], [ 14.469911273140001, 68.689892104492174 ], [ 14.470199774227995, 68.690620472948794 ], [ 14.470420365781672, 68.690780899388983 ], [ 14.470613026420848, 68.692121629427234 ], [ 14.471777726600129, 68.69228805661281 ], [ 14.474749397356383, 68.691925196043755 ], [ 14.47474514239134, 68.691549836329045 ], [ 14.474277785947345, 68.691405689400682 ], [ 14.474168315496554, 68.691247676542631 ], [ 14.474270956688725, 68.691182164326406 ], [ 14.476270579790322, 68.691538513897356 ], [ 14.475960631974903, 68.692042948361859 ], [ 14.477115111508855, 68.692595326309075 ], [ 14.477630263870171, 68.693313439853199 ], [ 14.481235103473756, 68.694679819398047 ], [ 14.482380834143006, 68.696175745425151 ], [ 14.481905703162912, 68.696733497703221 ], [ 14.483094293530586, 68.697096785199292 ], [ 14.482756464773718, 68.697199701156109 ], [ 14.481242070716515, 68.697090665435283 ], [ 14.480349942281618, 68.697556996980296 ], [ 14.480478394334011, 68.697877937976358 ], [ 14.481103432437006, 68.6983563712582 ], [ 14.483160309245894, 68.698370472237102 ], [ 14.484345566310195, 68.698070046551294 ], [ 14.485496198736241, 68.698029513833646 ], [ 14.485285610343716, 68.697844653190231 ], [ 14.485576970818496, 68.697799439846818 ], [ 14.48623582233324, 68.697927365002869 ], [ 14.485678906171957, 68.698150521003043 ], [ 14.485888302015921, 68.698451882666348 ], [ 14.486278491210649, 68.698560963362027 ], [ 14.486919847, 68.698566833567995 ], [ 14.486919847, 68.695602048771903 ], [ 14.486609911723905, 68.695460636251099 ] ] ] ] } },
{ "type": "Feature", "properties": { "fid": 227603, "navn": "Kjerringstrandvatnet", "hoyde_moh": 66, "arealInnsjo_km2": 0.0145, "magasinKategori": null, "fid_2": 812, "id": 812, "left": 13.986919847, "top": 68.946110046000001, "right": 14.486919847, "bottom": 68.446110046000001, "row_index": 11, "col_index": 20, "tile_id": 812 }, "geometry": { "type": "MultiPolygon", "coordinates": [ [ [ [ 14.449952730153891, 68.717729779313103 ], [ 14.449952180147722, 68.716960070593331 ], [ 14.451116587141591, 68.716632362078542 ], [ 14.450816823776272, 68.716544571157144 ], [ 14.450717204461895, 68.716047911555449 ], [ 14.450379324269427, 68.715804027746998 ], [ 14.448304771515017, 68.715901406207081 ], [ 14.448227316046767, 68.716078916424621 ], [ 14.449138511106677, 68.716798854918878 ], [ 14.448945964371127, 68.717158596672419 ], [ 14.449032138519556, 68.717838626627284 ], [ 14.449572277254267, 68.717880385145932 ], [ 14.449952730153891, 68.717729779313103 ] ] ] ] } }
]
}
