{
"type": "FeatureCollection",
"name": "innsjo_tile_id_617",
"crs": { "type": "name", "properties": { "name": "urn:ogc:def:crs:OGC:1.3:CRS84" } },
"xy_coordinate_resolution": 1e-15,
"features": [
{ "type": "Feature", "properties": { "fid": 142837, "navn": null, "hoyde_moh": null, "arealInnsjo_km2": 0.0028, "magasinKategori": null, "fid_2": 617, "id": 617, "left": 11.486919847, "top": 66.446110046000001, "right": 11.986919847, "bottom": 65.946110046000001, "row_index": 16, "col_index": 15, "tile_id": 617 }, "geometry": { "type": "MultiPolygon", "coordinates": [ [ [ [ 11.936806581004342, 66.126297921576267 ], [ 11.936080925112531, 66.126347560312396 ], [ 11.936959722015844, 66.126663214378169 ], [ 11.938566980658111, 66.126955852482325 ], [ 11.936806581004342, 66.126297921576267 ] ] ] ] } }
]
}
