{
"type": "FeatureCollection",
"name": "innsjo_tile_id_1807",
"crs": { "type": "name", "properties": { "name": "urn:ogc:def:crs:OGC:1.3:CRS84" } },
"xy_coordinate_resolution": 1e-15,
"features": [
{ "type": "Feature", "properties": { "fid": 234791, "navn": null, "hoyde_moh": 34, "arealInnsjo_km2": 0.0063, "magasinKategori": null, "fid_2": 1807, "id": 1807, "left": 26.486919847, "top": 71.446110046000001, "right": 26.986919847, "bottom": 70.946110046000001, "row_index": 6, "col_index": 45, "tile_id": 1807 }, "geometry": { "type": "MultiPolygon", "coordinates": [ [ [ [ 26.674460079302655, 70.963020654578898 ], [ 26.6744584165912, 70.962840997875446 ], [ 26.673360246570972, 70.962113202059314 ], [ 26.672921899499926, 70.962027930244759 ], [ 26.672023755779534, 70.962163671286078 ], [ 26.67271280070932, 70.962280091867186 ], [ 26.67242469981905, 70.96266627627692 ], [ 26.672972657043079, 70.962934260550355 ], [ 26.672819755210458, 70.963032977094372 ], [ 26.674130730688795, 70.963226793229353 ], [ 26.674460079302655, 70.963020654578898 ] ] ] ] } }
]
}
