{
"type": "FeatureCollection",
"name": "innsjo_tile_id_2128",
"crs": { "type": "name", "properties": { "name": "urn:ogc:def:crs:OGC:1.3:CRS84" } },
"xy_coordinate_resolution": 1e-15,
"features": [
{ "type": "Feature", "properties": { "fid": 230717, "navn": null, "hoyde_moh": 140, "arealInnsjo_km2": 0.0071, "magasinKategori": null, "fid_2": 2128, "id": 2128, "left": 30.486919847, "top": 70.946110046000001, "right": 30.986919847, "bottom": 70.446110046000001, "row_index": 7, "col_index": 53, "tile_id": 2128 }, "geometry": { "type": "MultiPolygon", "coordinates": [ [ [ [ 30.630168007286198, 70.480054365748714 ], [ 30.629052554718807, 70.479572173094027 ], [ 30.627747790301264, 70.479420766884516 ], [ 30.627342406814158, 70.479598086084962 ], [ 30.627609899378172, 70.479942259782348 ], [ 30.628863573826806, 70.480302740743682 ], [ 30.630254351312356, 70.480334070656937 ], [ 30.630168007286198, 70.480054365748714 ] ] ] ] } },
{ "type": "Feature", "properties": { "fid": 230718, "navn": null, "hoyde_moh": 142, "arealInnsjo_km2": 0.0066, "magasinKategori": null, "fid_2": 2128, "id": 2128, "left": 30.486919847, "top": 70.946110046000001, "right": 30.986919847, "bottom": 70.446110046000001, "row_index": 7, "col_index": 53, "tile_id": 2128 }, "geometry": { "type": "MultiPolygon", "coordinates": [ [ [ [ 30.651275987191152, 70.482775647327728 ], [ 30.650950049242923, 70.482605012152305 ], [ 30.64928142806863, 70.482067271769338 ], [ 30.648826044557072, 70.482063600943022 ], [ 30.648621255202436, 70.482331796556466 ], [ 30.648668964003289, 70.48271439854912 ], [ 30.649026773623895, 70.48286070253036 ], [ 30.651231371517127, 70.482946856404965 ], [ 30.651275987191152, 70.482775647327728 ] ] ] ] } },
{ "type": "Feature", "properties": { "fid": 230737, "navn": null, "hoyde_moh": 205, "arealInnsjo_km2": 0.0113, "magasinKategori": null, "fid_2": 2128, "id": 2128, "left": 30.486919847, "top": 70.946110046000001, "right": 30.986919847, "bottom": 70.446110046000001, "row_index": 7, "col_index": 53, "tile_id": 2128 }, "geometry": { "type": "MultiPolygon", "coordinates": [ [ [ [ 30.653504569961093, 70.454208409241048 ], [ 30.653303770475123, 70.453923029628413 ], [ 30.65266081437418, 70.453506518788018 ], [ 30.651952045964222, 70.45331084407033 ], [ 30.651067179240499, 70.453417609542782 ], [ 30.651575401674524, 70.453521290970912 ], [ 30.650813460641963, 70.453910249604391 ], [ 30.650937275745228, 70.454504548506065 ], [ 30.651859591649433, 70.454707213509522 ], [ 30.652847682369831, 70.454668998874027 ], [ 30.653504569961093, 70.454208409241048 ] ] ] ] } },
{ "type": "Feature", "properties": { "fid": 230754, "navn": null, "hoyde_moh": 195, "arealInnsjo_km2": 0.0085, "magasinKategori": null, "fid_2": 2128, "id": 2128, "left": 30.486919847, "top": 70.946110046000001, "right": 30.986919847, "bottom": 70.446110046000001, "row_index": 7, "col_index": 53, "tile_id": 2128 }, "geometry": { "type": "MultiPolygon", "coordinates": [ [ [ [ 30.629992761835105, 70.470950845988696 ], [ 30.62901584256559, 70.470452504255121 ], [ 30.628239148099379, 70.470298899011169 ], [ 30.627068562518332, 70.470354118068983 ], [ 30.626678823864395, 70.470563685368703 ], [ 30.626773151408745, 70.470832981964605 ], [ 30.628202929927784, 70.471250941602563 ], [ 30.629992761835105, 70.470950845988696 ] ] ] ] } },
{ "type": "Feature", "properties": { "fid": 230771, "navn": null, "hoyde_moh": 215, "arealInnsjo_km2": 0.0032, "magasinKategori": null, "fid_2": 2128, "id": 2128, "left": 30.486919847, "top": 70.946110046000001, "right": 30.986919847, "bottom": 70.446110046000001, "row_index": 7, "col_index": 53, "tile_id": 2128 }, "geometry": { "type": "MultiPolygon", "coordinates": [ [ [ [ 30.633023119821772, 70.452167634458348 ], [ 30.632639341472789, 70.452066960371269 ], [ 30.630951397736357, 70.452206386761716 ], [ 30.630661705320691, 70.452353038461027 ], [ 30.631021483656017, 70.452533228098574 ], [ 30.632126592693133, 70.452582502872701 ], [ 30.633023119821772, 70.452167634458348 ] ] ] ] } },
{ "type": "Feature", "properties": { "fid": 248122, "navn": null, "hoyde_moh": 83, "arealInnsjo_km2": 0.0027, "magasinKategori": null, "fid_2": 2128, "id": 2128, "left": 30.486919847, "top": 70.946110046000001, "right": 30.986919847, "bottom": 70.446110046000001, "row_index": 7, "col_index": 53, "tile_id": 2128 }, "geometry": { "type": "MultiPolygon", "coordinates": [ [ [ [ 30.580723526867331, 70.527201869222921 ], [ 30.57921507716927, 70.526919180996487 ], [ 30.579548397769724, 70.527476035333919 ], [ 30.581020103359617, 70.527421208342432 ], [ 30.580723526867331, 70.527201869222921 ] ] ] ] } },
{ "type": "Feature", "properties": { "fid": 248148, "navn": null, "hoyde_moh": 72, "arealInnsjo_km2": 0.0026, "magasinKategori": null, "fid_2": 2128, "id": 2128, "left": 30.486919847, "top": 70.946110046000001, "right": 30.986919847, "bottom": 70.446110046000001, "row_index": 7, "col_index": 53, "tile_id": 2128 }, "geometry": { "type": "MultiPolygon", "coordinates": [ [ [ [ 30.588703198177274, 70.535931168840037 ], [ 30.586591582777288, 70.535230621475392 ], [ 30.58688717686001, 70.535552738611543 ], [ 30.587884031212681, 70.536027678229743 ], [ 30.588702912316183, 70.53606490858364 ], [ 30.588703198177274, 70.535931168840037 ] ] ] ] } },
{ "type": "Feature", "properties": { "fid": 248151, "navn": null, "hoyde_moh": 82, "arealInnsjo_km2": 0.0126, "magasinKategori": null, "fid_2": 2128, "id": 2128, "left": 30.486919847, "top": 70.946110046000001, "right": 30.986919847, "bottom": 70.446110046000001, "row_index": 7, "col_index": 53, "tile_id": 2128 }, "geometry": { "type": "MultiPolygon", "coordinates": [ [ [ [ 30.577324208427783, 70.528202395376738 ], [ 30.577881482922216, 70.527575391784055 ], [ 30.575523075952574, 70.527378835317705 ], [ 30.575054424541403, 70.527457135035945 ], [ 30.575010428704328, 70.527669031824033 ], [ 30.57455512152999, 70.527995843913473 ], [ 30.574577800450705, 70.528252681591297 ], [ 30.574959346877055, 70.528427457897095 ], [ 30.575941951228895, 70.528642064091798 ], [ 30.577324208427783, 70.528202395376738 ] ] ] ] } },
{ "type": "Feature", "properties": { "fid": 248164, "navn": null, "hoyde_moh": 107, "arealInnsjo_km2": 0.0029, "magasinKategori": null, "fid_2": 2128, "id": 2128, "left": 30.486919847, "top": 70.946110046000001, "right": 30.986919847, "bottom": 70.446110046000001, "row_index": 7, "col_index": 53, "tile_id": 2128 }, "geometry": { "type": "MultiPolygon", "coordinates": [ [ [ [ 30.5343415854928, 70.528283614500964 ], [ 30.533088304146521, 70.528273249168961 ], [ 30.532464919742321, 70.528455242309391 ], [ 30.532430502688001, 70.52861049295106 ], [ 30.535059744867077, 70.528473797556998 ], [ 30.5343415854928, 70.528283614500964 ] ] ] ] } },
{ "type": "Feature", "properties": { "fid": 248256, "navn": "Stormyrvatnet", "hoyde_moh": 143, "arealInnsjo_km2": 0.0742, "magasinKategori": null, "fid_2": 2128, "id": 2128, "left": 30.486919847, "top": 70.946110046000001, "right": 30.986919847, "bottom": 70.446110046000001, "row_index": 7, "col_index": 53, "tile_id": 2128 }, "geometry": { "type": "MultiPolygon", "coordinates": [ [ [ [ 30.497688373163868, 70.515511405563103 ], [ 30.497769612890306, 70.515326987757661 ], [ 30.494637446840937, 70.514488024528262 ], [ 30.491794735353867, 70.514351262668683 ], [ 30.490038397652498, 70.514085373692836 ], [ 30.489296469697013, 70.514231957665601 ], [ 30.488929430748772, 70.514561844153732 ], [ 30.488904594532489, 70.514790163769902 ], [ 30.488260103209047, 70.515064120233873 ], [ 30.488072222662385, 70.515431456448042 ], [ 30.488103178795814, 70.515797155902604 ], [ 30.488301567892641, 70.515947117596738 ], [ 30.492126706890524, 70.516861721366709 ], [ 30.494938864033411, 70.516693040679669 ], [ 30.497688373163868, 70.515511405563103 ] ] ] ] } },
{ "type": "Feature", "properties": { "fid": 248263, "navn": null, "hoyde_moh": 10, "arealInnsjo_km2": 0.0314, "magasinKategori": null, "fid_2": 2128, "id": 2128, "left": 30.486919847, "top": 70.946110046000001, "right": 30.986919847, "bottom": 70.446110046000001, "row_index": 7, "col_index": 53, "tile_id": 2128 }, "geometry": { "type": "MultiPolygon", "coordinates": [ [ [ [ 30.59064040120764, 70.519024153483386 ], [ 30.590166132737394, 70.518310787548586 ], [ 30.590152706642765, 70.517909347462009 ], [ 30.588327601191185, 70.518030972594957 ], [ 30.587896848231459, 70.517817889284942 ], [ 30.588743968337706, 70.517283471284813 ], [ 30.589924425979305, 70.517273195202748 ], [ 30.590846601408202, 70.516885000958894 ], [ 30.590329995238072, 70.516594228429582 ], [ 30.589278129122544, 70.516505032777246 ], [ 30.588296943210963, 70.516630511166525 ], [ 30.586569110455066, 70.517488882741844 ], [ 30.586743847087053, 70.518748241645355 ], [ 30.588006197182416, 70.519153912917133 ], [ 30.590411649079218, 70.519278051096478 ], [ 30.59064040120764, 70.519024153483386 ] ] ] ] } },
{ "type": "Feature", "properties": { "fid": 248265, "navn": "Kvalbeinvatnet", "hoyde_moh": 152, "arealInnsjo_km2": 0.2824, "magasinKategori": null, "fid_2": 2128, "id": 2128, "left": 30.486919847, "top": 70.946110046000001, "right": 30.986919847, "bottom": 70.446110046000001, "row_index": 7, "col_index": 53, "tile_id": 2128 }, "geometry": { "type": "MultiPolygon", "coordinates": [ [ [ [ 30.487216802756926, 70.529033527365129 ], [ 30.487776068731122, 70.528601064918902 ], [ 30.488546336098487, 70.528340179867698 ], [ 30.491315498146637, 70.528297553181758 ], [ 30.492014921286401, 70.528136334073508 ], [ 30.492219963610292, 70.528019410992584 ], [ 30.492305206974205, 70.527646064215205 ], [ 30.49353962151725, 70.527170680828021 ], [ 30.49444073289791, 70.526627698515725 ], [ 30.494749753482697, 70.525931871642072 ], [ 30.493856004448201, 70.524996516750605 ], [ 30.490856856924353, 70.525015883201689 ], [ 30.490147615225563, 70.52484435734732 ], [ 30.488895043884334, 70.524204005025894 ], [ 30.487197711464827, 70.524161525421974 ], [ 30.486919847, 70.524021520374035 ], [ 30.486919847, 70.529097295018985 ], [ 30.487216802756926, 70.529033527365129 ] ] ] ] } },
{ "type": "Feature", "properties": { "fid": 248270, "navn": "Tårnvatnet", "hoyde_moh": 66, "arealInnsjo_km2": 0.0154, "magasinKategori": null, "fid_2": 2128, "id": 2128, "left": 30.486919847, "top": 70.946110046000001, "right": 30.986919847, "bottom": 70.446110046000001, "row_index": 7, "col_index": 53, "tile_id": 2128 }, "geometry": { "type": "MultiPolygon", "coordinates": [ [ [ [ 30.578831015220647, 70.522778624191616 ], [ 30.578609047728399, 70.522325404540922 ], [ 30.576678954265525, 70.521838149178222 ], [ 30.575666404228862, 70.521887979878684 ], [ 30.574064732657749, 70.522318740572146 ], [ 30.575873706103568, 70.522862721341937 ], [ 30.578350766380929, 70.523091486319572 ], [ 30.578831015220647, 70.522778624191616 ] ] ] ] } },
{ "type": "Feature", "properties": { "fid": 248277, "navn": "Vatnan", "hoyde_moh": 81, "arealInnsjo_km2": 0.0312, "magasinKategori": null, "fid_2": 2128, "id": 2128, "left": 30.486919847, "top": 70.946110046000001, "right": 30.986919847, "bottom": 70.446110046000001, "row_index": 7, "col_index": 53, "tile_id": 2128 }, "geometry": { "type": "MultiPolygon", "coordinates": [ [ [ [ 30.5740433945716, 70.527168749592491 ], [ 30.575256680522624, 70.527231455727303 ], [ 30.57604078353155, 70.526858267719604 ], [ 30.576137874070451, 70.526411974343489 ], [ 30.574254715892799, 70.526421856770227 ], [ 30.574001418228935, 70.526202874546328 ], [ 30.572660330492965, 70.525936682296063 ], [ 30.571736829777162, 70.526240076131145 ], [ 30.571607390448531, 70.526447547240906 ], [ 30.569996813732274, 70.526525182701477 ], [ 30.568762258737973, 70.526902170112336 ], [ 30.56910562625222, 70.527422960631611 ], [ 30.570219361983998, 70.527672451120054 ], [ 30.57249814379502, 70.5275936855422 ], [ 30.5740433945716, 70.527168749592491 ] ] ] ] } },
{ "type": "Feature", "properties": { "fid": 248296, "navn": "Vatnan", "hoyde_moh": 82, "arealInnsjo_km2": 0.029, "magasinKategori": null, "fid_2": 2128, "id": 2128, "left": 30.486919847, "top": 70.946110046000001, "right": 30.986919847, "bottom": 70.446110046000001, "row_index": 7, "col_index": 53, "tile_id": 2128 }, "geometry": { "type": "MultiPolygon", "coordinates": [ [ [ [ 30.579637020381313, 70.530580607209828 ], [ 30.579771013733041, 70.529921641065741 ], [ 30.581749415460266, 70.529414332449591 ], [ 30.582692197904571, 70.5293253669808 ], [ 30.583071839711241, 70.529042099478602 ], [ 30.582855367741036, 70.528821551483077 ], [ 30.580640083993632, 70.528564199265418 ], [ 30.57988720099895, 70.528719517495119 ], [ 30.579370445544257, 70.52907472765861 ], [ 30.577896753033642, 70.529263137105346 ], [ 30.577023536983603, 70.530000758491241 ], [ 30.576374475110629, 70.530235230389422 ], [ 30.576737028386436, 70.53047963440045 ], [ 30.579011249076999, 70.53089837017896 ], [ 30.579637020381313, 70.530580607209828 ] ] ] ] } },
{ "type": "Feature", "properties": { "fid": 248297, "navn": null, "hoyde_moh": 83, "arealInnsjo_km2": 0.0076, "magasinKategori": null, "fid_2": 2128, "id": 2128, "left": 30.486919847, "top": 70.946110046000001, "right": 30.986919847, "bottom": 70.446110046000001, "row_index": 7, "col_index": 53, "tile_id": 2128 }, "geometry": { "type": "MultiPolygon", "coordinates": [ [ [ [ 30.582395870074254, 70.531894265256142 ], [ 30.582361049498822, 70.53159406822121 ], [ 30.581933530144564, 70.531442628657103 ], [ 30.581450638711626, 70.53088410893389 ], [ 30.580749288841591, 70.530677452780992 ], [ 30.580420876246816, 70.530745496176166 ], [ 30.580457607302698, 70.531593291234771 ], [ 30.581534874199615, 70.532085380428526 ], [ 30.582395870074254, 70.531894265256142 ] ] ] ] } },
{ "type": "Feature", "properties": { "fid": 248889, "navn": null, "hoyde_moh": 225, "arealInnsjo_km2": 0.0067, "magasinKategori": null, "fid_2": 2128, "id": 2128, "left": 30.486919847, "top": 70.946110046000001, "right": 30.986919847, "bottom": 70.446110046000001, "row_index": 7, "col_index": 53, "tile_id": 2128 }, "geometry": { "type": "MultiPolygon", "coordinates": [ [ [ [ 30.614869799103214, 70.452615438409424 ], [ 30.614515062578622, 70.452324334222638 ], [ 30.612031505334294, 70.452617121052157 ], [ 30.612920381586601, 70.452939717924707 ], [ 30.614991712904867, 70.45304777470642 ], [ 30.614869799103214, 70.452615438409424 ] ] ] ] } },
{ "type": "Feature", "properties": { "fid": 248893, "navn": null, "hoyde_moh": 121, "arealInnsjo_km2": 0.0043, "magasinKategori": null, "fid_2": 2128, "id": 2128, "left": 30.486919847, "top": 70.946110046000001, "right": 30.986919847, "bottom": 70.446110046000001, "row_index": 7, "col_index": 53, "tile_id": 2128 }, "geometry": { "type": "MultiPolygon", "coordinates": [ [ [ [ 30.599171596765792, 70.490361302237019 ], [ 30.601022823340553, 70.489463767328232 ], [ 30.600577547465782, 70.489403203107642 ], [ 30.599596384614582, 70.489634028354899 ], [ 30.598636153245771, 70.490056745349747 ], [ 30.59882191508623, 70.49052217160029 ], [ 30.599528896173503, 70.490457497577907 ], [ 30.599171596765792, 70.490361302237019 ] ] ] ] } },
{ "type": "Feature", "properties": { "fid": 248973, "navn": null, "hoyde_moh": 117, "arealInnsjo_km2": 0.0039, "magasinKategori": null, "fid_2": 2128, "id": 2128, "left": 30.486919847, "top": 70.946110046000001, "right": 30.986919847, "bottom": 70.446110046000001, "row_index": 7, "col_index": 53, "tile_id": 2128 }, "geometry": { "type": "MultiPolygon", "coordinates": [ [ [ [ 30.614388203535349, 70.490121666430269 ], [ 30.612900085790152, 70.490178614556982 ], [ 30.612398804358545, 70.490334579807396 ], [ 30.612441827970816, 70.490566931173149 ], [ 30.612772159387827, 70.490769742534937 ], [ 30.613502502639324, 70.490794657748253 ], [ 30.614388203535349, 70.490121666430269 ] ] ] ] } },
{ "type": "Feature", "properties": { "fid": 249175, "navn": null, "hoyde_moh": 138, "arealInnsjo_km2": 0.0113, "magasinKategori": null, "fid_2": 2128, "id": 2128, "left": 30.486919847, "top": 70.946110046000001, "right": 30.986919847, "bottom": 70.446110046000001, "row_index": 7, "col_index": 53, "tile_id": 2128 }, "geometry": { "type": "MultiPolygon", "coordinates": [ [ [ [ 30.608070314701511, 70.494189161033432 ], [ 30.608743528744171, 70.493763759594714 ], [ 30.608807466364105, 70.493530678064133 ], [ 30.608048452304196, 70.493220131720207 ], [ 30.607360376645953, 70.493180202254734 ], [ 30.605968734401628, 70.493612751800626 ], [ 30.605480561298776, 70.493842335574257 ], [ 30.60542326962787, 70.494013047623753 ], [ 30.606278739525354, 70.494301173744503 ], [ 30.607490405137742, 70.494338445580951 ], [ 30.608070314701511, 70.494189161033432 ] ] ] ] } },
{ "type": "Feature", "properties": { "fid": 249177, "navn": null, "hoyde_moh": 199, "arealInnsjo_km2": 0.003, "magasinKategori": null, "fid_2": 2128, "id": 2128, "left": 30.486919847, "top": 70.946110046000001, "right": 30.986919847, "bottom": 70.446110046000001, "row_index": 7, "col_index": 53, "tile_id": 2128 }, "geometry": { "type": "MultiPolygon", "coordinates": [ [ [ [ 30.573911661312838, 70.469890336560312 ], [ 30.574411747976711, 70.469529678450129 ], [ 30.574301900658917, 70.46927202244315 ], [ 30.574066171747639, 70.469224873218778 ], [ 30.572964488443429, 70.469651693654015 ], [ 30.573064895386263, 70.46987730783917 ], [ 30.572799459368191, 70.470115033796986 ], [ 30.573911661312838, 70.469890336560312 ] ] ] ] } },
{ "type": "Feature", "properties": { "fid": 249274, "navn": null, "hoyde_moh": 231, "arealInnsjo_km2": 0.0038, "magasinKategori": null, "fid_2": 2128, "id": 2128, "left": 30.486919847, "top": 70.946110046000001, "right": 30.986919847, "bottom": 70.446110046000001, "row_index": 7, "col_index": 53, "tile_id": 2128 }, "geometry": { "type": "MultiPolygon", "coordinates": [ [ [ [ 30.489426072845333, 70.483773062770098 ], [ 30.489361926995514, 70.483404364281199 ], [ 30.489804861514493, 70.483514018532844 ], [ 30.489972626781888, 70.483352046919251 ], [ 30.489898051025641, 70.483002166305567 ], [ 30.489530223362753, 70.483016197536614 ], [ 30.488321143042889, 70.483539465428748 ], [ 30.488090427487506, 70.483816313099069 ], [ 30.488284856505484, 70.48393548610882 ], [ 30.489426072845333, 70.483773062770098 ] ] ] ] } },
{ "type": "Feature", "properties": { "fid": 249322, "navn": null, "hoyde_moh": 230, "arealInnsjo_km2": 0.0093, "magasinKategori": null, "fid_2": 2128, "id": 2128, "left": 30.486919847, "top": 70.946110046000001, "right": 30.986919847, "bottom": 70.446110046000001, "row_index": 7, "col_index": 53, "tile_id": 2128 }, "geometry": { "type": "MultiPolygon", "coordinates": [ [ [ [ 30.494030423415328, 70.45598529087853 ], [ 30.493915736945915, 70.455725603988512 ], [ 30.493250385966856, 70.455458048127099 ], [ 30.492433709104692, 70.455426919022372 ], [ 30.491597939886773, 70.45604875918535 ], [ 30.491710813320175, 70.456125932503667 ], [ 30.49159682263663, 70.456297526303032 ], [ 30.491852304444709, 70.456452872911072 ], [ 30.491824690790121, 70.456675804254786 ], [ 30.493293735946047, 70.456504047249439 ], [ 30.494030423415328, 70.45598529087853 ] ] ] ] } },
{ "type": "Feature", "properties": { "fid": 249323, "navn": null, "hoyde_moh": 240, "arealInnsjo_km2": 0.0496, "magasinKategori": null, "fid_2": 2128, "id": 2128, "left": 30.486919847, "top": 70.946110046000001, "right": 30.986919847, "bottom": 70.446110046000001, "row_index": 7, "col_index": 53, "tile_id": 2128 }, "geometry": { "type": "MultiPolygon", "coordinates": [ [ [ [ 30.494960304946346, 70.467622541386547 ], [ 30.49531108885898, 70.467293815979133 ], [ 30.49525237559136, 70.46708332005332 ], [ 30.49506219537934, 70.466764872733251 ], [ 30.494297845093186, 70.466439576179965 ], [ 30.493797894461718, 70.466029965628962 ], [ 30.492276312356008, 70.46568372408592 ], [ 30.491137547466522, 70.465812984763772 ], [ 30.490052706218886, 70.466379942053294 ], [ 30.489194941279322, 70.466559671515355 ], [ 30.489374884714454, 70.466705387027403 ], [ 30.489348959499168, 70.46716483829384 ], [ 30.489674096552246, 70.467468629772782 ], [ 30.489643560708533, 70.467669477003724 ], [ 30.490129094995343, 70.468349056388789 ], [ 30.490467342345582, 70.468574536132977 ], [ 30.491085739925094, 70.468550676450747 ], [ 30.494960304946346, 70.467622541386547 ] ] ] ] } },
{ "type": "Feature", "properties": { "fid": 249324, "navn": null, "hoyde_moh": 214, "arealInnsjo_km2": 0.0254, "magasinKategori": null, "fid_2": 2128, "id": 2128, "left": 30.486919847, "top": 70.946110046000001, "right": 30.986919847, "bottom": 70.446110046000001, "row_index": 7, "col_index": 53, "tile_id": 2128 }, "geometry": { "type": "MultiPolygon", "coordinates": [ [ [ [ 30.528001501529999, 70.477795754911554 ], [ 30.527766975858963, 70.477496962602103 ], [ 30.528254183848432, 70.477498698498792 ], [ 30.528637230579719, 70.477915576457846 ], [ 30.529234555391394, 70.47793840858931 ], [ 30.529675563504796, 70.477534288294379 ], [ 30.530190407265042, 70.477359113792176 ], [ 30.529969230441022, 70.47696249424321 ], [ 30.530653138836819, 70.47662184170747 ], [ 30.528980678630521, 70.476416416901159 ], [ 30.527040286402343, 70.47679805030144 ], [ 30.525720429764792, 70.476650526531415 ], [ 30.525294813983241, 70.47673977201238 ], [ 30.525216038960096, 70.476936383734937 ], [ 30.525701477680951, 70.47744676956745 ], [ 30.525673748785454, 70.477947624230865 ], [ 30.526829938217439, 70.478256551291381 ], [ 30.527512743018857, 70.478245408734665 ], [ 30.528001501529999, 70.477795754911554 ] ] ] ] } },
{ "type": "Feature", "properties": { "fid": 249325, "navn": null, "hoyde_moh": 203, "arealInnsjo_km2": 0.0227, "magasinKategori": null, "fid_2": 2128, "id": 2128, "left": 30.486919847, "top": 70.946110046000001, "right": 30.986919847, "bottom": 70.446110046000001, "row_index": 7, "col_index": 53, "tile_id": 2128 }, "geometry": { "type": "MultiPolygon", "coordinates": [ [ [ [ 30.561491556431832, 70.47942130423985 ], [ 30.560129625735478, 70.479058408959332 ], [ 30.559911379004717, 70.478844705499554 ], [ 30.557686214643947, 70.478980795584022 ], [ 30.55619762018036, 70.478714951394011 ], [ 30.55421018508666, 70.478849619917398 ], [ 30.554353242942771, 70.479153387015259 ], [ 30.553883596745901, 70.479332526890119 ], [ 30.55725891833119, 70.479865876178678 ], [ 30.557501513478471, 70.479806272831169 ], [ 30.55747133602954, 70.479560923187407 ], [ 30.558805796544757, 70.479517317979145 ], [ 30.559137597192922, 70.479604813711916 ], [ 30.559068393595791, 70.479865995304451 ], [ 30.560131618774296, 70.479886624508438 ], [ 30.561491556431832, 70.47942130423985 ] ] ] ] } },
{ "type": "Feature", "properties": { "fid": 249326, "navn": null, "hoyde_moh": 208, "arealInnsjo_km2": 0.0398, "magasinKategori": null, "fid_2": 2128, "id": 2128, "left": 30.486919847, "top": 70.946110046000001, "right": 30.986919847, "bottom": 70.446110046000001, "row_index": 7, "col_index": 53, "tile_id": 2128 }, "geometry": { "type": "MultiPolygon", "coordinates": [ [ [ [ 30.493333789155432, 70.486214090783108 ], [ 30.49389912567672, 70.486185943167399 ], [ 30.495035628773927, 70.485756300971588 ], [ 30.497884004645755, 70.485571338248604 ], [ 30.498331603395958, 70.485387674419343 ], [ 30.498473072359758, 70.484921244872737 ], [ 30.497798370689811, 70.484720808753266 ], [ 30.496464700864536, 70.484800961225318 ], [ 30.49653590223857, 70.484352675575153 ], [ 30.49686003559982, 70.483940445373932 ], [ 30.49600240103106, 70.483758112498222 ], [ 30.495220697867186, 70.483860836195134 ], [ 30.494748662278099, 70.484270750523606 ], [ 30.492394549641247, 70.484426536240278 ], [ 30.492089535911518, 70.484671851638097 ], [ 30.491847974057116, 70.485373250640095 ], [ 30.491907563558446, 70.485665735946952 ], [ 30.492616637817303, 70.485626145579559 ], [ 30.493013374265086, 70.48577269347112 ], [ 30.493066851170692, 70.485941098888091 ], [ 30.492499605777006, 70.486271347571417 ], [ 30.493212350956412, 70.486437096598664 ], [ 30.493333789155432, 70.486214090783108 ] ] ] ] } },
{ "type": "Feature", "properties": { "fid": 249327, "navn": null, "hoyde_moh": 208, "arealInnsjo_km2": 0.0416, "magasinKategori": null, "fid_2": 2128, "id": 2128, "left": 30.486919847, "top": 70.946110046000001, "right": 30.986919847, "bottom": 70.446110046000001, "row_index": 7, "col_index": 53, "tile_id": 2128 }, "geometry": { "type": "MultiPolygon", "coordinates": [ [ [ [ 30.555718282928879, 70.483043944071056 ], [ 30.555810296999457, 70.482719921359219 ], [ 30.555630053624931, 70.482617274665259 ], [ 30.555956230835928, 70.482482204965734 ], [ 30.555409975501842, 70.482274188775008 ], [ 30.55550112043483, 70.482050050564808 ], [ 30.554527655495122, 70.482007385295105 ], [ 30.551512543755319, 70.481411532542396 ], [ 30.549782829203451, 70.481626563039498 ], [ 30.548673723071172, 70.482220261159469 ], [ 30.549189672588032, 70.482558730323873 ], [ 30.549138593190595, 70.482770667904902 ], [ 30.549330770538383, 70.482932931107058 ], [ 30.549866797001496, 70.483054056236014 ], [ 30.549977106937835, 70.483216850629404 ], [ 30.552229088911609, 70.483434653698723 ], [ 30.555718282928879, 70.483043944071056 ] ] ] ] } },
{ "type": "Feature", "properties": { "fid": 249334, "navn": null, "hoyde_moh": 211, "arealInnsjo_km2": 0.0171, "magasinKategori": null, "fid_2": 2128, "id": 2128, "left": 30.486919847, "top": 70.946110046000001, "right": 30.986919847, "bottom": 70.446110046000001, "row_index": 7, "col_index": 53, "tile_id": 2128 }, "geometry": { "type": "MultiPolygon", "coordinates": [ [ [ [ 30.55983642496313, 70.471219634601923 ], [ 30.559804548633483, 70.470864469739794 ], [ 30.560123872753273, 70.470505616214851 ], [ 30.560045064941541, 70.470176823280681 ], [ 30.560268439382298, 70.469918722812949 ], [ 30.559701440895456, 70.469773595748919 ], [ 30.557051932029001, 70.470554257155754 ], [ 30.556770887382843, 70.470805039956446 ], [ 30.556865073228071, 70.471018731463786 ], [ 30.556661052407041, 70.471143925488107 ], [ 30.556802295926257, 70.471450339775473 ], [ 30.558701102074046, 70.471458351501298 ], [ 30.55983642496313, 70.471219634601923 ] ] ] ] } },
{ "type": "Feature", "properties": { "fid": 249338, "navn": null, "hoyde_moh": 213, "arealInnsjo_km2": 0.0073, "magasinKategori": null, "fid_2": 2128, "id": 2128, "left": 30.486919847, "top": 70.946110046000001, "right": 30.986919847, "bottom": 70.446110046000001, "row_index": 7, "col_index": 53, "tile_id": 2128 }, "geometry": { "type": "MultiPolygon", "coordinates": [ [ [ [ 30.527889108058691, 70.47602494843278 ], [ 30.52749522497033, 70.475775011726128 ], [ 30.524701242488678, 70.475424797346989 ], [ 30.523807717036625, 70.475559075870549 ], [ 30.523449582331303, 70.475790578664416 ], [ 30.523777929538475, 70.475991422165762 ], [ 30.525268004497757, 70.475842387656314 ], [ 30.526220790649724, 70.476103574033459 ], [ 30.527889108058691, 70.47602494843278 ] ] ] ] } },
{ "type": "Feature", "properties": { "fid": 249346, "navn": null, "hoyde_moh": 214, "arealInnsjo_km2": 0.0053, "magasinKategori": null, "fid_2": 2128, "id": 2128, "left": 30.486919847, "top": 70.946110046000001, "right": 30.986919847, "bottom": 70.446110046000001, "row_index": 7, "col_index": 53, "tile_id": 2128 }, "geometry": { "type": "MultiPolygon", "coordinates": [ [ [ [ 30.530294380830902, 70.4787981373956 ], [ 30.529131067023023, 70.478369557666028 ], [ 30.528493533662093, 70.478462136706867 ], [ 30.528316475369969, 70.479069040722123 ], [ 30.529842443107174, 70.479265162289295 ], [ 30.530294380830902, 70.4787981373956 ] ] ] ] } },
{ "type": "Feature", "properties": { "fid": 249379, "navn": null, "hoyde_moh": 209, "arealInnsjo_km2": 0.0117, "magasinKategori": null, "fid_2": 2128, "id": 2128, "left": 30.486919847, "top": 70.946110046000001, "right": 30.986919847, "bottom": 70.446110046000001, "row_index": 7, "col_index": 53, "tile_id": 2128 }, "geometry": { "type": "MultiPolygon", "coordinates": [ [ [ [ 30.550579133267107, 70.480308557249657 ], [ 30.549422636025575, 70.479842632652321 ], [ 30.549341503986753, 70.479470930799835 ], [ 30.548562186756275, 70.479281313775886 ], [ 30.547791404972994, 70.47935499908678 ], [ 30.548000453900762, 70.479862742921938 ], [ 30.547708657150945, 70.480254311451375 ], [ 30.549239671949039, 70.480873534603347 ], [ 30.549885780563407, 70.480974199520048 ], [ 30.550579133267107, 70.480308557249657 ] ] ] ] } },
{ "type": "Feature", "properties": { "fid": 249392, "navn": null, "hoyde_moh": 145, "arealInnsjo_km2": 0.0044, "magasinKategori": null, "fid_2": 2128, "id": 2128, "left": 30.486919847, "top": 70.946110046000001, "right": 30.986919847, "bottom": 70.446110046000001, "row_index": 7, "col_index": 53, "tile_id": 2128 }, "geometry": { "type": "MultiPolygon", "coordinates": [ [ [ [ 30.598902262055645, 70.476923721425891 ], [ 30.598275392977513, 70.476866411074624 ], [ 30.595497706967478, 70.477437899038804 ], [ 30.598396135200211, 70.47736100035921 ], [ 30.598902262055645, 70.476923721425891 ] ] ] ] } },
{ "type": "Feature", "properties": { "fid": 249393, "navn": null, "hoyde_moh": 207, "arealInnsjo_km2": 0.0128, "magasinKategori": null, "fid_2": 2128, "id": 2128, "left": 30.486919847, "top": 70.946110046000001, "right": 30.986919847, "bottom": 70.446110046000001, "row_index": 7, "col_index": 53, "tile_id": 2128 }, "geometry": { "type": "MultiPolygon", "coordinates": [ [ [ [ 30.494992652459132, 70.48766787734013 ], [ 30.495724221522313, 70.487333051166047 ], [ 30.495415760741022, 70.487294548853427 ], [ 30.496762719024726, 70.486969099819461 ], [ 30.496596766351086, 70.486383129820496 ], [ 30.495317994156803, 70.48608785207557 ], [ 30.49395218604981, 70.4866802313894 ], [ 30.49381956019641, 70.486934492057273 ], [ 30.494121629391394, 70.487276416416961 ], [ 30.493854042496324, 70.487658310814567 ], [ 30.494992652459132, 70.48766787734013 ] ] ] ] } },
{ "type": "Feature", "properties": { "fid": 249394, "navn": null, "hoyde_moh": 207, "arealInnsjo_km2": 0.0033, "magasinKategori": null, "fid_2": 2128, "id": 2128, "left": 30.486919847, "top": 70.946110046000001, "right": 30.986919847, "bottom": 70.446110046000001, "row_index": 7, "col_index": 53, "tile_id": 2128 }, "geometry": { "type": "MultiPolygon", "coordinates": [ [ [ [ 30.511504584274171, 70.486230314554405 ], [ 30.511813472748084, 70.485881865135781 ], [ 30.511102777236662, 70.485564052451224 ], [ 30.510756503178836, 70.485886967387145 ], [ 30.50985772865101, 70.48627563924768 ], [ 30.510227559712707, 70.486383709756055 ], [ 30.511504584274171, 70.486230314554405 ] ] ] ] } },
{ "type": "Feature", "properties": { "fid": 249466, "navn": null, "hoyde_moh": 213, "arealInnsjo_km2": 0.0025, "magasinKategori": null, "fid_2": 2128, "id": 2128, "left": 30.486919847, "top": 70.946110046000001, "right": 30.986919847, "bottom": 70.446110046000001, "row_index": 7, "col_index": 53, "tile_id": 2128 }, "geometry": { "type": "MultiPolygon", "coordinates": [ [ [ [ 30.551889159056827, 70.470358939234686 ], [ 30.55221572160422, 70.47024358828736 ], [ 30.551528404499027, 70.469869223930331 ], [ 30.550630362423352, 70.470027239150951 ], [ 30.550826223924375, 70.470420353787262 ], [ 30.551889159056827, 70.470358939234686 ] ] ] ] } },
{ "type": "Feature", "properties": { "fid": 249489, "navn": null, "hoyde_moh": 197, "arealInnsjo_km2": 0.0074, "magasinKategori": null, "fid_2": 2128, "id": 2128, "left": 30.486919847, "top": 70.946110046000001, "right": 30.986919847, "bottom": 70.446110046000001, "row_index": 7, "col_index": 53, "tile_id": 2128 }, "geometry": { "type": "MultiPolygon", "coordinates": [ [ [ [ 30.523381080365333, 70.471884356063313 ], [ 30.525567061580112, 70.471512056127992 ], [ 30.52540341411963, 70.471374896051614 ], [ 30.525887516238232, 70.471170475968876 ], [ 30.525782866460272, 70.471037472715025 ], [ 30.526085382807249, 70.470998419457004 ], [ 30.525719897241565, 70.470862876020291 ], [ 30.52306452808967, 70.471342666104903 ], [ 30.522932719707772, 70.471431662920196 ], [ 30.522975947233199, 70.471801114873728 ], [ 30.523337747403719, 70.472054321697286 ], [ 30.523381080365333, 70.471884356063313 ] ] ] ] } },
{ "type": "Feature", "properties": { "fid": 249494, "navn": null, "hoyde_moh": 197, "arealInnsjo_km2": 0.0132, "magasinKategori": null, "fid_2": 2128, "id": 2128, "left": 30.486919847, "top": 70.946110046000001, "right": 30.986919847, "bottom": 70.446110046000001, "row_index": 7, "col_index": 53, "tile_id": 2128 }, "geometry": { "type": "MultiPolygon", "coordinates": [ [ [ [ 30.567924695650071, 70.465785325307095 ], [ 30.568602401710073, 70.465787458387481 ], [ 30.568704187237763, 70.465408352803735 ], [ 30.567032353864843, 70.464858688756834 ], [ 30.567251136700751, 70.464733469168806 ], [ 30.566529525149956, 70.464580719731657 ], [ 30.565934102477851, 70.46478962536311 ], [ 30.566255669553247, 70.465255073120971 ], [ 30.565260489421444, 70.466151324141919 ], [ 30.56546317463366, 70.466293253237708 ], [ 30.567174828472425, 70.466155072988357 ], [ 30.567924695650071, 70.465785325307095 ] ] ] ] } },
{ "type": "Feature", "properties": { "fid": 249495, "navn": null, "hoyde_moh": 176, "arealInnsjo_km2": 0.0036, "magasinKategori": null, "fid_2": 2128, "id": 2128, "left": 30.486919847, "top": 70.946110046000001, "right": 30.986919847, "bottom": 70.446110046000001, "row_index": 7, "col_index": 53, "tile_id": 2128 }, "geometry": { "type": "MultiPolygon", "coordinates": [ [ [ [ 30.601327788718745, 70.46527584836231 ], [ 30.599900301168514, 70.465032356989681 ], [ 30.598289010941084, 70.465162223667079 ], [ 30.599894867160327, 70.465438502060238 ], [ 30.601327788718745, 70.46527584836231 ] ] ] ] } },
{ "type": "Feature", "properties": { "fid": 249650, "navn": null, "hoyde_moh": 135, "arealInnsjo_km2": 0.0035, "magasinKategori": null, "fid_2": 2128, "id": 2128, "left": 30.486919847, "top": 70.946110046000001, "right": 30.986919847, "bottom": 70.446110046000001, "row_index": 7, "col_index": 53, "tile_id": 2128 }, "geometry": { "type": "MultiPolygon", "coordinates": [ [ [ [ 30.524250103974527, 70.49142980584196 ], [ 30.523919922963049, 70.491027755025399 ], [ 30.522578250946029, 70.491118010261033 ], [ 30.522936286484192, 70.49157892373475 ], [ 30.523932648818281, 70.491650807186744 ], [ 30.524250103974527, 70.49142980584196 ] ] ] ] } },
{ "type": "Feature", "properties": { "fid": 249651, "navn": null, "hoyde_moh": 147, "arealInnsjo_km2": 0.006, "magasinKategori": null, "fid_2": 2128, "id": 2128, "left": 30.486919847, "top": 70.946110046000001, "right": 30.986919847, "bottom": 70.446110046000001, "row_index": 7, "col_index": 53, "tile_id": 2128 }, "geometry": { "type": "MultiPolygon", "coordinates": [ [ [ [ 30.517019789866083, 70.492348880133989 ], [ 30.517226255254883, 70.491967004553203 ], [ 30.517137523256217, 70.491783855286585 ], [ 30.515999675072148, 70.491731602022099 ], [ 30.51515226505029, 70.492238300361564 ], [ 30.51515187213927, 70.492437828530754 ], [ 30.515351946908886, 70.492533880582755 ], [ 30.516569160413948, 70.49258160069455 ], [ 30.517019789866083, 70.492348880133989 ] ] ] ] } }
]
}
