{
"type": "FeatureCollection",
"name": "innsjo_tile_id_1770",
"crs": { "type": "name", "properties": { "name": "urn:ogc:def:crs:OGC:1.3:CRS84" } },
"xy_coordinate_resolution": 1e-15,
"features": [
{ "type": "Feature", "properties": { "fid": 516, "navn": null, "hoyde_moh": 434, "arealInnsjo_km2": 0.0166, "magasinKategori": null, "fid_2": 1770, "id": 1770, "left": 25.986919847, "top": 69.946110046000001, "right": 26.486919847, "bottom": 69.446110046000001, "row_index": 9, "col_index": 44, "tile_id": 1770 }, "geometry": { "type": "MultiPolygon", "coordinates": [ [ [ [ 26.157324487316373, 69.87557949526321 ], [ 26.157048666761966, 69.875317727093645 ], [ 26.157103939457322, 69.875207737733973 ], [ 26.154932160322652, 69.874595684834603 ], [ 26.153439686772522, 69.874694017189583 ], [ 26.152854751170182, 69.874928216222429 ], [ 26.15317153568456, 69.875345434168366 ], [ 26.154471929588773, 69.875648628512664 ], [ 26.156468950773903, 69.875925233824333 ], [ 26.157043340224238, 69.875884696039208 ], [ 26.157324487316373, 69.87557949526321 ] ] ] ] } },
{ "type": "Feature", "properties": { "fid": 656, "navn": null, "hoyde_moh": 452, "arealInnsjo_km2": 0.0074, "magasinKategori": null, "fid_2": 1770, "id": 1770, "left": 25.986919847, "top": 69.946110046000001, "right": 26.486919847, "bottom": 69.446110046000001, "row_index": 9, "col_index": 44, "tile_id": 1770 }, "geometry": { "type": "MultiPolygon", "coordinates": [ [ [ [ 26.114007197141692, 69.864020122102147 ], [ 26.114339782284944, 69.86400007982121 ], [ 26.115755686830312, 69.86365406625923 ], [ 26.115376958203822, 69.863289993248998 ], [ 26.11451622156552, 69.863159084856022 ], [ 26.113440870791152, 69.863199486719111 ], [ 26.112821773714931, 69.863511596385223 ], [ 26.113005645422874, 69.863682428495864 ], [ 26.113802799229294, 69.863836128124774 ], [ 26.114007197141692, 69.864020122102147 ] ] ] ] } },
{ "type": "Feature", "properties": { "fid": 1134, "navn": null, "hoyde_moh": 482, "arealInnsjo_km2": 0.0035, "magasinKategori": null, "fid_2": 1770, "id": 1770, "left": 25.986919847, "top": 69.946110046000001, "right": 26.486919847, "bottom": 69.446110046000001, "row_index": 9, "col_index": 44, "tile_id": 1770 }, "geometry": { "type": "MultiPolygon", "coordinates": [ [ [ [ 26.112582606878512, 69.919509944245078 ], [ 26.112169301270161, 69.919250083290578 ], [ 26.11182283436089, 69.91924738766987 ], [ 26.111159019885605, 69.919377628160717 ], [ 26.110610183346363, 69.919844413164299 ], [ 26.110842985945052, 69.919933291210441 ], [ 26.112341561168652, 69.919701645806811 ], [ 26.112582606878512, 69.919509944245078 ] ] ] ] } },
{ "type": "Feature", "properties": { "fid": 1566, "navn": null, "hoyde_moh": 408, "arealInnsjo_km2": 0.0025, "magasinKategori": null, "fid_2": 1770, "id": 1770, "left": 25.986919847, "top": 69.946110046000001, "right": 26.486919847, "bottom": 69.446110046000001, "row_index": 9, "col_index": 44, "tile_id": 1770 }, "geometry": { "type": "MultiPolygon", "coordinates": [ [ [ [ 26.07986821858691, 69.924236963095822 ], [ 26.079330459976692, 69.923861721228462 ], [ 26.078518005185224, 69.923812795662784 ], [ 26.078735505814006, 69.923901495238695 ], [ 26.078539012101913, 69.924061294045913 ], [ 26.078559201199084, 69.924297380153234 ], [ 26.079032277292715, 69.92443853018483 ], [ 26.07986821858691, 69.924236963095822 ] ] ] ] } },
{ "type": "Feature", "properties": { "fid": 2102, "navn": null, "hoyde_moh": 196, "arealInnsjo_km2": 0.0187, "magasinKategori": null, "fid_2": 1770, "id": 1770, "left": 25.986919847, "top": 69.946110046000001, "right": 26.486919847, "bottom": 69.446110046000001, "row_index": 9, "col_index": 44, "tile_id": 1770 }, "geometry": { "type": "MultiPolygon", "coordinates": [ [ [ [ 26.175867912842737, 69.782187587859454 ], [ 26.17032521391204, 69.781695458934152 ], [ 26.168294903799517, 69.781879531471617 ], [ 26.172188654936921, 69.782103434593282 ], [ 26.175303257495774, 69.782621907164241 ], [ 26.178423538780017, 69.782859148645855 ], [ 26.179909872607297, 69.782354322096893 ], [ 26.175867912842737, 69.782187587859454 ] ] ] ] } },
{ "type": "Feature", "properties": { "fid": 7701, "navn": null, "hoyde_moh": 483, "arealInnsjo_km2": 0.0039, "magasinKategori": null, "fid_2": 1770, "id": 1770, "left": 25.986919847, "top": 69.946110046000001, "right": 26.486919847, "bottom": 69.446110046000001, "row_index": 9, "col_index": 44, "tile_id": 1770 }, "geometry": { "type": "MultiPolygon", "coordinates": [ [ [ [ 26.225464264525389, 69.934196859047248 ], [ 26.224294758692867, 69.934002407794253 ], [ 26.224263047272792, 69.934158341340691 ], [ 26.223568341892506, 69.934316570932623 ], [ 26.224121576669578, 69.934655046329709 ], [ 26.224911247543712, 69.934745938833132 ], [ 26.225805059271959, 69.934574594911297 ], [ 26.225464264525389, 69.934196859047248 ] ] ] ] } },
{ "type": "Feature", "properties": { "fid": 8254, "navn": null, "hoyde_moh": 446, "arealInnsjo_km2": 0.0045, "magasinKategori": null, "fid_2": 1770, "id": 1770, "left": 25.986919847, "top": 69.946110046000001, "right": 26.486919847, "bottom": 69.446110046000001, "row_index": 9, "col_index": 44, "tile_id": 1770 }, "geometry": { "type": "MultiPolygon", "coordinates": [ [ [ [ 26.140368483066869, 69.867827514327516 ], [ 26.140616320296569, 69.867436390394772 ], [ 26.139237749850015, 69.867033836565398 ], [ 26.138921894423213, 69.867140756542952 ], [ 26.139167517457242, 69.867331664210781 ], [ 26.139220937646829, 69.867608878564866 ], [ 26.140165679807385, 69.867859629594605 ], [ 26.140321206963488, 69.86797319962038 ], [ 26.140248204756229, 69.868112789032224 ], [ 26.141153315088744, 69.868293085548871 ], [ 26.140368483066869, 69.867827514327516 ] ] ] ] } },
{ "type": "Feature", "properties": { "fid": 14321, "navn": null, "hoyde_moh": 453, "arealInnsjo_km2": 0.0059, "magasinKategori": null, "fid_2": 1770, "id": 1770, "left": 25.986919847, "top": 69.946110046000001, "right": 26.486919847, "bottom": 69.446110046000001, "row_index": 9, "col_index": 44, "tile_id": 1770 }, "geometry": { "type": "MultiPolygon", "coordinates": [ [ [ [ 26.027384746858356, 69.833952830320797 ], [ 26.026953753206787, 69.833562601602864 ], [ 26.025537169464254, 69.833279052561423 ], [ 26.025223169705519, 69.833071642343739 ], [ 26.023449273528684, 69.833144458957719 ], [ 26.024227269384806, 69.833376263004595 ], [ 26.025258595238036, 69.833296631832482 ], [ 26.025827274531544, 69.833902397515416 ], [ 26.027384746858356, 69.833952830320797 ] ] ] ] } },
{ "type": "Feature", "properties": { "fid": 14454, "navn": null, "hoyde_moh": 434, "arealInnsjo_km2": 0.004, "magasinKategori": null, "fid_2": 1770, "id": 1770, "left": 25.986919847, "top": 69.946110046000001, "right": 26.486919847, "bottom": 69.446110046000001, "row_index": 9, "col_index": 44, "tile_id": 1770 }, "geometry": { "type": "MultiPolygon", "coordinates": [ [ [ [ 26.151222386603806, 69.877216119866105 ], [ 26.151621704505246, 69.876874921725459 ], [ 26.151578294163905, 69.876691423031474 ], [ 26.150607046056358, 69.876688894928819 ], [ 26.150829355821607, 69.877864020889518 ], [ 26.151157906114392, 69.877957008946879 ], [ 26.15151092968517, 69.877546876498513 ], [ 26.151222386603806, 69.877216119866105 ] ] ] ] } },
{ "type": "Feature", "properties": { "fid": 18284, "navn": null, "hoyde_moh": 406, "arealInnsjo_km2": 0.0033, "magasinKategori": null, "fid_2": 1770, "id": 1770, "left": 25.986919847, "top": 69.946110046000001, "right": 26.486919847, "bottom": 69.446110046000001, "row_index": 9, "col_index": 44, "tile_id": 1770 }, "geometry": { "type": "MultiPolygon", "coordinates": [ [ [ [ 26.164145650778618, 69.847409999253159 ], [ 26.164720988467575, 69.847142841293504 ], [ 26.163368331230547, 69.84694761790773 ], [ 26.162578975847332, 69.847187310616363 ], [ 26.163156299558057, 69.847377196738094 ], [ 26.164145650778618, 69.847409999253159 ] ] ] ] } },
{ "type": "Feature", "properties": { "fid": 18798, "navn": null, "hoyde_moh": 441, "arealInnsjo_km2": 0.0054, "magasinKategori": null, "fid_2": 1770, "id": 1770, "left": 25.986919847, "top": 69.946110046000001, "right": 26.486919847, "bottom": 69.446110046000001, "row_index": 9, "col_index": 44, "tile_id": 1770 }, "geometry": { "type": "MultiPolygon", "coordinates": [ [ [ [ 26.144481117450116, 69.871488033898444 ], [ 26.144164288292835, 69.871125866826304 ], [ 26.144605444081034, 69.870808953765902 ], [ 26.143822668761359, 69.871005316498838 ], [ 26.14235949515329, 69.870969306313853 ], [ 26.141909627211852, 69.871181489054379 ], [ 26.142246819676075, 69.871461105415989 ], [ 26.144481117450116, 69.871488033898444 ] ] ] ] } },
{ "type": "Feature", "properties": { "fid": 29329, "navn": null, "hoyde_moh": 371, "arealInnsjo_km2": 0.004, "magasinKategori": null, "fid_2": 1770, "id": 1770, "left": 25.986919847, "top": 69.946110046000001, "right": 26.486919847, "bottom": 69.446110046000001, "row_index": 9, "col_index": 44, "tile_id": 1770 }, "geometry": { "type": "MultiPolygon", "coordinates": [ [ [ [ 26.240772245821038, 69.90310344732795 ], [ 26.240363050867611, 69.902623567520095 ], [ 26.239320590328887, 69.902400312227812 ], [ 26.238760927582963, 69.902507312433954 ], [ 26.238896582946669, 69.90275827603763 ], [ 26.240416455174309, 69.903195000432703 ], [ 26.240772245821038, 69.90310344732795 ] ] ] ] } },
{ "type": "Feature", "properties": { "fid": 32265, "navn": null, "hoyde_moh": 396, "arealInnsjo_km2": 0.0062, "magasinKategori": null, "fid_2": 1770, "id": 1770, "left": 25.986919847, "top": 69.946110046000001, "right": 26.486919847, "bottom": 69.446110046000001, "row_index": 9, "col_index": 44, "tile_id": 1770 }, "geometry": { "type": "MultiPolygon", "coordinates": [ [ [ [ 26.1663075951707, 69.896242732632956 ], [ 26.165368701157288, 69.895839054662389 ], [ 26.163431424433597, 69.895738621273253 ], [ 26.16252474523596, 69.895445169621539 ], [ 26.161815939718505, 69.895467966030651 ], [ 26.162003996237466, 69.895679104347565 ], [ 26.16291174992417, 69.895975038300236 ], [ 26.164097166522602, 69.895901014877779 ], [ 26.164319694069007, 69.896118144413336 ], [ 26.165777137671586, 69.896352085312643 ], [ 26.1663075951707, 69.896242732632956 ] ] ] ] } },
{ "type": "Feature", "properties": { "fid": 34645, "navn": null, "hoyde_moh": 461, "arealInnsjo_km2": 0.0034, "magasinKategori": null, "fid_2": 1770, "id": 1770, "left": 25.986919847, "top": 69.946110046000001, "right": 26.486919847, "bottom": 69.446110046000001, "row_index": 9, "col_index": 44, "tile_id": 1770 }, "geometry": { "type": "MultiPolygon", "coordinates": [ [ [ [ 25.987927754026444, 69.858625917267219 ], [ 25.987315069009892, 69.858295402251983 ], [ 25.986988923212035, 69.858302518892671 ], [ 25.987077330000975, 69.858188729961029 ], [ 25.986919847, 69.858167142675242 ], [ 25.986919847, 69.858652182806395 ], [ 25.987927754026444, 69.858625917267219 ] ] ] ] } },
{ "type": "Feature", "properties": { "fid": 34715, "navn": null, "hoyde_moh": 451, "arealInnsjo_km2": 0.0097, "magasinKategori": null, "fid_2": 1770, "id": 1770, "left": 25.986919847, "top": 69.946110046000001, "right": 26.486919847, "bottom": 69.446110046000001, "row_index": 9, "col_index": 44, "tile_id": 1770 }, "geometry": { "type": "MultiPolygon", "coordinates": [ [ [ [ 25.99206601155846, 69.861398637101956 ], [ 25.989889320226723, 69.861022501558807 ], [ 25.988165180643442, 69.861011659718343 ], [ 25.988084048924712, 69.861167649740679 ], [ 25.988925164774312, 69.861604424531194 ], [ 25.990046763715391, 69.861615370033959 ], [ 25.990414955283541, 69.861816807016254 ], [ 25.991723334258186, 69.861870399265626 ], [ 25.991773288749226, 69.862018155790281 ], [ 25.99259648448335, 69.861868743630794 ], [ 25.99206601155846, 69.861398637101956 ] ] ] ] } },
{ "type": "Feature", "properties": { "fid": 41848, "navn": null, "hoyde_moh": 526, "arealInnsjo_km2": 0.0044, "magasinKategori": null, "fid_2": 1770, "id": 1770, "left": 25.986919847, "top": 69.946110046000001, "right": 26.486919847, "bottom": 69.446110046000001, "row_index": 9, "col_index": 44, "tile_id": 1770 }, "geometry": { "type": "MultiPolygon", "coordinates": [ [ [ [ 26.076840370581717, 69.880910404376877 ], [ 26.076774697113422, 69.881071494574357 ], [ 26.077511040682964, 69.881558564919004 ], [ 26.078511698694044, 69.881470126558298 ], [ 26.078796526656991, 69.881183990624208 ], [ 26.076840370581717, 69.880910404376877 ] ] ] ] } },
{ "type": "Feature", "properties": { "fid": 41951, "navn": null, "hoyde_moh": 422, "arealInnsjo_km2": 0.0031, "magasinKategori": null, "fid_2": 1770, "id": 1770, "left": 25.986919847, "top": 69.946110046000001, "right": 26.486919847, "bottom": 69.446110046000001, "row_index": 9, "col_index": 44, "tile_id": 1770 }, "geometry": { "type": "MultiPolygon", "coordinates": [ [ [ [ 26.120300860517276, 69.873626682503328 ], [ 26.120906432077501, 69.87341813963387 ], [ 26.119426597307086, 69.87271460401827 ], [ 26.119101059832243, 69.872990145246362 ], [ 26.120300860517276, 69.873626682503328 ] ] ] ] } },
{ "type": "Feature", "properties": { "fid": 43311, "navn": null, "hoyde_moh": 437, "arealInnsjo_km2": 0.0006, "magasinKategori": null, "fid_2": 1770, "id": 1770, "left": 25.986919847, "top": 69.946110046000001, "right": 26.486919847, "bottom": 69.446110046000001, "row_index": 9, "col_index": 44, "tile_id": 1770 }, "geometry": { "type": "MultiPolygon", "coordinates": [ [ [ [ 26.150511177365996, 69.874893960337502 ], [ 26.150241569387294, 69.874963645540063 ], [ 26.151076486136443, 69.875152207495702 ], [ 26.15144481386486, 69.875104437373665 ], [ 26.150511177365996, 69.874893960337502 ] ] ] ] } },
{ "type": "Feature", "properties": { "fid": 44465, "navn": null, "hoyde_moh": 112, "arealInnsjo_km2": 0.007, "magasinKategori": null, "fid_2": 1770, "id": 1770, "left": 25.986919847, "top": 69.946110046000001, "right": 26.486919847, "bottom": 69.446110046000001, "row_index": 9, "col_index": 44, "tile_id": 1770 }, "geometry": { "type": "MultiPolygon", "coordinates": [ [ [ [ 26.133387866245076, 69.74109186835976 ], [ 26.13278690258981, 69.740872098915915 ], [ 26.131247826331983, 69.741004676854388 ], [ 26.131009620467282, 69.741244102380108 ], [ 26.131027979583497, 69.741510243416016 ], [ 26.131384919075909, 69.741677571273797 ], [ 26.132804117640649, 69.741669308006749 ], [ 26.133387866245076, 69.74109186835976 ] ] ] ] } },
{ "type": "Feature", "properties": { "fid": 45147, "navn": null, "hoyde_moh": 122, "arealInnsjo_km2": 0.0068, "magasinKategori": null, "fid_2": 1770, "id": 1770, "left": 25.986919847, "top": 69.946110046000001, "right": 26.486919847, "bottom": 69.446110046000001, "row_index": 9, "col_index": 44, "tile_id": 1770 }, "geometry": { "type": "MultiPolygon", "coordinates": [ [ [ [ 26.398046688789453, 69.897594639017527 ], [ 26.398249175385875, 69.897201661879535 ], [ 26.398091984995773, 69.896875176788328 ], [ 26.397655973392776, 69.896787566482331 ], [ 26.397508221537827, 69.896866845114005 ], [ 26.39765426232907, 69.897054286868084 ], [ 26.396950966690301, 69.897036072290646 ], [ 26.396711814177273, 69.897218639101737 ], [ 26.396609312535322, 69.8974455747245 ], [ 26.396935701017391, 69.897986221693515 ], [ 26.396628073632378, 69.898286336388693 ], [ 26.396854494268002, 69.898392787852757 ], [ 26.398046688789453, 69.897594639017527 ] ] ] ] } },
{ "type": "Feature", "properties": { "fid": 55011, "navn": null, "hoyde_moh": 431, "arealInnsjo_km2": 0.0065, "magasinKategori": null, "fid_2": 1770, "id": 1770, "left": 25.986919847, "top": 69.946110046000001, "right": 26.486919847, "bottom": 69.446110046000001, "row_index": 9, "col_index": 44, "tile_id": 1770 }, "geometry": { "type": "MultiPolygon", "coordinates": [ [ [ [ 26.146618578376732, 69.881596674920715 ], [ 26.146492967330271, 69.881438703361738 ], [ 26.143882072002118, 69.881159103636861 ], [ 26.143968369372782, 69.880972897512592 ], [ 26.143229871548371, 69.880905542329259 ], [ 26.143675531653365, 69.881266159005463 ], [ 26.143637584058837, 69.881509887271179 ], [ 26.143929271270096, 69.881637539834912 ], [ 26.145071344001288, 69.881796211426192 ], [ 26.146284204782337, 69.881755552078772 ], [ 26.146618578376732, 69.881596674920715 ] ] ] ] } },
{ "type": "Feature", "properties": { "fid": 59157, "navn": null, "hoyde_moh": 432, "arealInnsjo_km2": 0.0027, "magasinKategori": null, "fid_2": 1770, "id": 1770, "left": 25.986919847, "top": 69.946110046000001, "right": 26.486919847, "bottom": 69.446110046000001, "row_index": 9, "col_index": 44, "tile_id": 1770 }, "geometry": { "type": "MultiPolygon", "coordinates": [ [ [ [ 26.297336369907345, 69.865622311060463 ], [ 26.298831614248861, 69.865331977404736 ], [ 26.29873292043359, 69.865180327886193 ], [ 26.298427377165901, 69.865168030806288 ], [ 26.296467347601588, 69.865483112331901 ], [ 26.296796719514635, 69.865535291694854 ], [ 26.296574662554743, 69.865669069455052 ], [ 26.296699323655165, 69.865762148428303 ], [ 26.296606729123216, 69.865886195912026 ], [ 26.297336369907345, 69.865622311060463 ] ] ] ] } },
{ "type": "Feature", "properties": { "fid": 59497, "navn": null, "hoyde_moh": 453, "arealInnsjo_km2": 0.0035, "magasinKategori": null, "fid_2": 1770, "id": 1770, "left": 25.986919847, "top": 69.946110046000001, "right": 26.486919847, "bottom": 69.446110046000001, "row_index": 9, "col_index": 44, "tile_id": 1770 }, "geometry": { "type": "MultiPolygon", "coordinates": [ [ [ [ 26.259084897059484, 69.926942028330956 ], [ 26.258993706152047, 69.9265797932282 ], [ 26.259160206514437, 69.926504018560593 ], [ 26.259031912577367, 69.926350604060872 ], [ 26.259224766660509, 69.926195221876355 ], [ 26.25840302583946, 69.925954182839604 ], [ 26.257574107438003, 69.925983753522246 ], [ 26.257793104293487, 69.926278524931121 ], [ 26.258606164582893, 69.926431560591269 ], [ 26.258724998540313, 69.926662041070173 ], [ 26.258558593814151, 69.926909839982685 ], [ 26.258843982730543, 69.927109416798942 ], [ 26.259084897059484, 69.926942028330956 ] ] ] ] } },
{ "type": "Feature", "properties": { "fid": 59545, "navn": null, "hoyde_moh": 446, "arealInnsjo_km2": 0.0085, "magasinKategori": null, "fid_2": 1770, "id": 1770, "left": 25.986919847, "top": 69.946110046000001, "right": 26.486919847, "bottom": 69.446110046000001, "row_index": 9, "col_index": 44, "tile_id": 1770 }, "geometry": { "type": "MultiPolygon", "coordinates": [ [ [ [ 26.000352441781288, 69.864352143948608 ], [ 25.999144573900704, 69.864214063798343 ], [ 25.998498928668596, 69.863706364160976 ], [ 26.000725625751937, 69.863750369384746 ], [ 26.000891191692808, 69.863611889827595 ], [ 26.000640009251978, 69.863276769561182 ], [ 26.000324572970687, 69.863164715739842 ], [ 25.999417926743014, 69.863242825151929 ], [ 25.998587306887721, 69.863562189152915 ], [ 25.998175355835901, 69.86356298326362 ], [ 25.997814807002076, 69.86381786260057 ], [ 25.9983585335847, 69.864139141940498 ], [ 25.9978275108422, 69.864213727811077 ], [ 25.998458680166181, 69.864442373589782 ], [ 26.000352441781288, 69.864352143948608 ] ] ] ] } },
{ "type": "Feature", "properties": { "fid": 59643, "navn": null, "hoyde_moh": 445, "arealInnsjo_km2": 0.007, "magasinKategori": null, "fid_2": 1770, "id": 1770, "left": 25.986919847, "top": 69.946110046000001, "right": 26.486919847, "bottom": 69.446110046000001, "row_index": 9, "col_index": 44, "tile_id": 1770 }, "geometry": { "type": "MultiPolygon", "coordinates": [ [ [ [ 26.135717115272207, 69.869289454310533 ], [ 26.135622148628354, 69.869493039352079 ], [ 26.136695884001643, 69.869589287622674 ], [ 26.137608402710036, 69.869426461758223 ], [ 26.138638817808932, 69.868855763338885 ], [ 26.138275969714748, 69.86863546706364 ], [ 26.137897793732943, 69.868638618781006 ], [ 26.135717115272207, 69.869289454310533 ] ] ] ] } },
{ "type": "Feature", "properties": { "fid": 60544, "navn": null, "hoyde_moh": 426, "arealInnsjo_km2": 0.0019, "magasinKategori": null, "fid_2": 1770, "id": 1770, "left": 25.986919847, "top": 69.946110046000001, "right": 26.486919847, "bottom": 69.446110046000001, "row_index": 9, "col_index": 44, "tile_id": 1770 }, "geometry": { "type": "MultiPolygon", "coordinates": [ [ [ [ 26.287228602562482, 69.872302289662116 ], [ 26.286181892196431, 69.872141452766684 ], [ 26.285630249880469, 69.872612158311583 ], [ 26.285756053186645, 69.872802569764445 ], [ 26.286128877943202, 69.872854792136934 ], [ 26.28639771418829, 69.872554623277651 ], [ 26.286173818465912, 69.872424885183321 ], [ 26.287228602562482, 69.872302289662116 ] ] ] ] } },
{ "type": "Feature", "properties": { "fid": 60928, "navn": null, "hoyde_moh": 488, "arealInnsjo_km2": 0.007, "magasinKategori": null, "fid_2": 1770, "id": 1770, "left": 25.986919847, "top": 69.946110046000001, "right": 26.486919847, "bottom": 69.446110046000001, "row_index": 9, "col_index": 44, "tile_id": 1770 }, "geometry": { "type": "MultiPolygon", "coordinates": [ [ [ [ 26.24605094145981, 69.933168602991245 ], [ 26.246110175596687, 69.93274875704742 ], [ 26.245239778301709, 69.932834614884655 ], [ 26.245125461052933, 69.932921223281724 ], [ 26.245293216231222, 69.933020597574966 ], [ 26.24459031369059, 69.933200016942635 ], [ 26.243766763989434, 69.933252643906798 ], [ 26.243193317728803, 69.933605336811979 ], [ 26.24495413025922, 69.933783689044418 ], [ 26.24605094145981, 69.933168602991245 ] ] ] ] } },
{ "type": "Feature", "properties": { "fid": 63568, "navn": null, "hoyde_moh": 423, "arealInnsjo_km2": 0.0056, "magasinKategori": null, "fid_2": 1770, "id": 1770, "left": 25.986919847, "top": 69.946110046000001, "right": 26.486919847, "bottom": 69.446110046000001, "row_index": 9, "col_index": 44, "tile_id": 1770 }, "geometry": { "type": "MultiPolygon", "coordinates": [ [ [ [ 26.108909345394878, 69.875181060413681 ], [ 26.107809131100542, 69.875385923400998 ], [ 26.108357330803241, 69.875936058975 ], [ 26.109554375057929, 69.876258395295579 ], [ 26.109800311308057, 69.876146247453477 ], [ 26.109371720273874, 69.875829446270984 ], [ 26.109730007153019, 69.875840272915056 ], [ 26.109706112706746, 69.875572112909353 ], [ 26.108909345394878, 69.875181060413681 ] ] ] ] } },
{ "type": "Feature", "properties": { "fid": 65356, "navn": null, "hoyde_moh": 131, "arealInnsjo_km2": 0.0031, "magasinKategori": null, "fid_2": 1770, "id": 1770, "left": 25.986919847, "top": 69.946110046000001, "right": 26.486919847, "bottom": 69.446110046000001, "row_index": 9, "col_index": 44, "tile_id": 1770 }, "geometry": { "type": "MultiPolygon", "coordinates": [ [ [ [ 26.211595308619323, 69.784744606339373 ], [ 26.211947601418, 69.784856997674453 ], [ 26.211671159282531, 69.78496342033749 ], [ 26.21170847077676, 69.785319493632983 ], [ 26.212730421506759, 69.785514850942434 ], [ 26.213390921428534, 69.78541447910132 ], [ 26.212716889939244, 69.785253895897952 ], [ 26.21231618204537, 69.784748196412437 ], [ 26.211595308619323, 69.784744606339373 ] ] ] ] } },
{ "type": "Feature", "properties": { "fid": 69139, "navn": null, "hoyde_moh": 451, "arealInnsjo_km2": 0.0052, "magasinKategori": null, "fid_2": 1770, "id": 1770, "left": 25.986919847, "top": 69.946110046000001, "right": 26.486919847, "bottom": 69.446110046000001, "row_index": 9, "col_index": 44, "tile_id": 1770 }, "geometry": { "type": "MultiPolygon", "coordinates": [ [ [ [ 26.019816841291167, 69.832994019392927 ], [ 26.0196960131324, 69.832858012175791 ], [ 26.01998468519097, 69.832767945186973 ], [ 26.019983817326249, 69.8325881690524 ], [ 26.017546210710393, 69.832660582879654 ], [ 26.017063025757455, 69.83281694156949 ], [ 26.017629147881525, 69.833007280710191 ], [ 26.019387782207609, 69.833116681042242 ], [ 26.019816841291167, 69.832994019392927 ] ] ] ] } },
{ "type": "Feature", "properties": { "fid": 73269, "navn": null, "hoyde_moh": 456, "arealInnsjo_km2": 0.0025, "magasinKategori": null, "fid_2": 1770, "id": 1770, "left": 25.986919847, "top": 69.946110046000001, "right": 26.486919847, "bottom": 69.446110046000001, "row_index": 9, "col_index": 44, "tile_id": 1770 }, "geometry": { "type": "MultiPolygon", "coordinates": [ [ [ [ 26.063677769760361, 69.889298812338097 ], [ 26.063647189455569, 69.88914736321307 ], [ 26.063278764725748, 69.888915187763075 ], [ 26.062296656111926, 69.888885989913348 ], [ 26.06230124378078, 69.889260782361092 ], [ 26.063677769760361, 69.889298812338097 ] ] ] ] } },
{ "type": "Feature", "properties": { "fid": 73550, "navn": null, "hoyde_moh": 370, "arealInnsjo_km2": 0.0099, "magasinKategori": null, "fid_2": 1770, "id": 1770, "left": 25.986919847, "top": 69.946110046000001, "right": 26.486919847, "bottom": 69.446110046000001, "row_index": 9, "col_index": 44, "tile_id": 1770 }, "geometry": { "type": "MultiPolygon", "coordinates": [ [ [ [ 26.338593327198698, 69.887121757097475 ], [ 26.337980624701803, 69.887041923566187 ], [ 26.337725479037299, 69.88685407134939 ], [ 26.336600440297918, 69.886868153445079 ], [ 26.337070745146196, 69.88712582301585 ], [ 26.336931199719061, 69.887535165883378 ], [ 26.337575342182184, 69.887988688227551 ], [ 26.339166670734151, 69.888208768817094 ], [ 26.339473367696169, 69.887931887503072 ], [ 26.338593327198698, 69.887121757097475 ] ] ] ] } },
{ "type": "Feature", "properties": { "fid": 74104, "navn": null, "hoyde_moh": 476, "arealInnsjo_km2": 0.007, "magasinKategori": null, "fid_2": 1770, "id": 1770, "left": 25.986919847, "top": 69.946110046000001, "right": 26.486919847, "bottom": 69.446110046000001, "row_index": 9, "col_index": 44, "tile_id": 1770 }, "geometry": { "type": "MultiPolygon", "coordinates": [ [ [ [ 26.025482123314834, 69.848913886915 ], [ 26.025746539043777, 69.84857483755124 ], [ 26.023310651161957, 69.847624428767503 ], [ 26.023121719581276, 69.84786311162388 ], [ 26.02389815445342, 69.848364478332428 ], [ 26.023766781639655, 69.84871614686449 ], [ 26.024029584226529, 69.848942992419225 ], [ 26.025482123314834, 69.848913886915 ] ] ] ] } },
{ "type": "Feature", "properties": { "fid": 74802, "navn": null, "hoyde_moh": 394, "arealInnsjo_km2": 0.0042, "magasinKategori": null, "fid_2": 1770, "id": 1770, "left": 25.986919847, "top": 69.946110046000001, "right": 26.486919847, "bottom": 69.446110046000001, "row_index": 9, "col_index": 44, "tile_id": 1770 }, "geometry": { "type": "MultiPolygon", "coordinates": [ [ [ [ 26.327980894045364, 69.860453172597119 ], [ 26.32737359215141, 69.860631451950468 ], [ 26.32627003737581, 69.860659994977681 ], [ 26.326593891412838, 69.86084966764804 ], [ 26.326559964432487, 69.861104583136964 ], [ 26.326724838168712, 69.861173829405047 ], [ 26.327244401604538, 69.861104383651607 ], [ 26.327838435570843, 69.860780760461495 ], [ 26.328222182235582, 69.86092185050812 ], [ 26.32811486906246, 69.861067454363464 ], [ 26.328561336900883, 69.861062552735063 ], [ 26.328476686592563, 69.86095442496007 ], [ 26.328780308291904, 69.860847078207627 ], [ 26.328779858092581, 69.860710734060618 ], [ 26.327980894045364, 69.860453172597119 ] ] ] ] } },
{ "type": "Feature", "properties": { "fid": 77665, "navn": null, "hoyde_moh": 413, "arealInnsjo_km2": 0.0062, "magasinKategori": null, "fid_2": 1770, "id": 1770, "left": 25.986919847, "top": 69.946110046000001, "right": 26.486919847, "bottom": 69.446110046000001, "row_index": 9, "col_index": 44, "tile_id": 1770 }, "geometry": { "type": "MultiPolygon", "coordinates": [ [ [ [ 26.288389385218466, 69.848573542279098 ], [ 26.28825367537879, 69.848081936732385 ], [ 26.287735603164982, 69.84781847943151 ], [ 26.287106108652303, 69.847894556832742 ], [ 26.286896018813646, 69.84800980539741 ], [ 26.287109186469355, 69.84849631531425 ], [ 26.285992003838537, 69.848805059352898 ], [ 26.287403352009896, 69.84892051946791 ], [ 26.288389385218466, 69.848573542279098 ] ] ] ] } },
{ "type": "Feature", "properties": { "fid": 77929, "navn": null, "hoyde_moh": 455, "arealInnsjo_km2": 0.0129, "magasinKategori": null, "fid_2": 1770, "id": 1770, "left": 25.986919847, "top": 69.946110046000001, "right": 26.486919847, "bottom": 69.446110046000001, "row_index": 9, "col_index": 44, "tile_id": 1770 }, "geometry": { "type": "MultiPolygon", "coordinates": [ [ [ [ 26.033477098288863, 69.838442370311839 ], [ 26.033328648279966, 69.83835195472868 ], [ 26.03343409320761, 69.838262428153612 ], [ 26.032823828064917, 69.837946741800877 ], [ 26.032152209561826, 69.837863794544916 ], [ 26.0315966966396, 69.838199501717654 ], [ 26.032080235033281, 69.838497540066271 ], [ 26.032852666858552, 69.838664088062629 ], [ 26.033385213762578, 69.839267128329709 ], [ 26.034140682736748, 69.839616310025065 ], [ 26.035654348468306, 69.839509269714654 ], [ 26.035930487072349, 69.839399501802959 ], [ 26.035812590660427, 69.839214646004521 ], [ 26.033477098288863, 69.838442370311839 ] ] ] ] } },
{ "type": "Feature", "properties": { "fid": 78191, "navn": null, "hoyde_moh": 466, "arealInnsjo_km2": 0.0068, "magasinKategori": null, "fid_2": 1770, "id": 1770, "left": 25.986919847, "top": 69.946110046000001, "right": 26.486919847, "bottom": 69.446110046000001, "row_index": 9, "col_index": 44, "tile_id": 1770 }, "geometry": { "type": "MultiPolygon", "coordinates": [ [ [ [ 26.075795145327959, 69.916946620341179 ], [ 26.076562758411562, 69.916697514643559 ], [ 26.076991263546642, 69.916142678290086 ], [ 26.076025457269562, 69.915442317366015 ], [ 26.074923894073255, 69.915751460096558 ], [ 26.075782683289642, 69.916376526170595 ], [ 26.075795145327959, 69.916946620341179 ] ] ] ] } },
{ "type": "Feature", "properties": { "fid": 78930, "navn": null, "hoyde_moh": 415, "arealInnsjo_km2": 0.0059, "magasinKategori": null, "fid_2": 1770, "id": 1770, "left": 25.986919847, "top": 69.946110046000001, "right": 26.486919847, "bottom": 69.446110046000001, "row_index": 9, "col_index": 44, "tile_id": 1770 }, "geometry": { "type": "MultiPolygon", "coordinates": [ [ [ [ 26.0835151905539, 69.90966064344957 ], [ 26.082116860347124, 69.90962761969206 ], [ 26.082036073411441, 69.91017004717807 ], [ 26.082148095652016, 69.91036702808313 ], [ 26.0846619704521, 69.910314942487375 ], [ 26.0835151905539, 69.90966064344957 ] ] ] ] } },
{ "type": "Feature", "properties": { "fid": 79266, "navn": null, "hoyde_moh": 423, "arealInnsjo_km2": 0.0025, "magasinKategori": null, "fid_2": 1770, "id": 1770, "left": 25.986919847, "top": 69.946110046000001, "right": 26.486919847, "bottom": 69.446110046000001, "row_index": 9, "col_index": 44, "tile_id": 1770 }, "geometry": { "type": "MultiPolygon", "coordinates": [ [ [ [ 26.09894843168755, 69.888890753087765 ], [ 26.097236906532494, 69.888857944349212 ], [ 26.09761507215827, 69.889166331408092 ], [ 26.098258345026085, 69.889274495441825 ], [ 26.099240959985828, 69.889025786941588 ], [ 26.09894843168755, 69.888890753087765 ] ] ] ] } },
{ "type": "Feature", "properties": { "fid": 79580, "navn": null, "hoyde_moh": 435, "arealInnsjo_km2": 0.0071, "magasinKategori": null, "fid_2": 1770, "id": 1770, "left": 25.986919847, "top": 69.946110046000001, "right": 26.486919847, "bottom": 69.446110046000001, "row_index": 9, "col_index": 44, "tile_id": 1770 }, "geometry": { "type": "MultiPolygon", "coordinates": [ [ [ [ 26.098296646242023, 69.920435114516209 ], [ 26.097149026302628, 69.920262743882347 ], [ 26.096370176499089, 69.920859208333084 ], [ 26.096476290271013, 69.921280381619653 ], [ 26.095768813178804, 69.921586275637395 ], [ 26.095426270877905, 69.921950045769137 ], [ 26.096483924429105, 69.921784576955005 ], [ 26.098296646242023, 69.920435114516209 ] ] ] ] } },
{ "type": "Feature", "properties": { "fid": 79733, "navn": null, "hoyde_moh": 430, "arealInnsjo_km2": 0.0015, "magasinKategori": null, "fid_2": 1770, "id": 1770, "left": 25.986919847, "top": 69.946110046000001, "right": 26.486919847, "bottom": 69.446110046000001, "row_index": 9, "col_index": 44, "tile_id": 1770 }, "geometry": { "type": "MultiPolygon", "coordinates": [ [ [ [ 26.29624020208238, 69.934118644328223 ], [ 26.295560324354035, 69.934566713129257 ], [ 26.296566675895217, 69.934534651344251 ], [ 26.296809222845706, 69.93424447440556 ], [ 26.29624020208238, 69.934118644328223 ] ] ] ] } },
{ "type": "Feature", "properties": { "fid": 85488, "navn": null, "hoyde_moh": 312, "arealInnsjo_km2": 0.0041, "magasinKategori": null, "fid_2": 1770, "id": 1770, "left": 25.986919847, "top": 69.946110046000001, "right": 26.486919847, "bottom": 69.446110046000001, "row_index": 9, "col_index": 44, "tile_id": 1770 }, "geometry": { "type": "MultiPolygon", "coordinates": [ [ [ [ 26.29287298513751, 69.894265456614249 ], [ 26.292318307499116, 69.894668723434023 ], [ 26.293001582135066, 69.894857679756697 ], [ 26.292942437620468, 69.895083151252123 ], [ 26.293393869913263, 69.895145785834018 ], [ 26.293618556333229, 69.89509487867312 ], [ 26.294128117493347, 69.894548688641819 ], [ 26.29287298513751, 69.894265456614249 ] ] ] ] } },
{ "type": "Feature", "properties": { "fid": 85727, "navn": null, "hoyde_moh": 415, "arealInnsjo_km2": 0.0062, "magasinKategori": null, "fid_2": 1770, "id": 1770, "left": 25.986919847, "top": 69.946110046000001, "right": 26.486919847, "bottom": 69.446110046000001, "row_index": 9, "col_index": 44, "tile_id": 1770 }, "geometry": { "type": "MultiPolygon", "coordinates": [ [ [ [ 26.126983032073639, 69.90666668429445 ], [ 26.125942108041336, 69.90692513857347 ], [ 26.125598329529662, 69.906861075089381 ], [ 26.125673896332305, 69.906675117812782 ], [ 26.125060638273325, 69.906736532941949 ], [ 26.124242366093402, 69.906944442675496 ], [ 26.123861416901455, 69.907267435161941 ], [ 26.124055415457995, 69.907413802366136 ], [ 26.124674289798126, 69.907318460594183 ], [ 26.124699575611007, 69.907128053705975 ], [ 26.125051218303533, 69.907035301086268 ], [ 26.12547776924599, 69.90711649309435 ], [ 26.124974700795576, 69.907676716592292 ], [ 26.125037562914518, 69.90782576829065 ], [ 26.125615814508215, 69.907668582791004 ], [ 26.126650100063411, 69.907063703750779 ], [ 26.126983032073639, 69.90666668429445 ] ] ] ] } },
{ "type": "Feature", "properties": { "fid": 86464, "navn": null, "hoyde_moh": 352, "arealInnsjo_km2": 0.0064, "magasinKategori": null, "fid_2": 1770, "id": 1770, "left": 25.986919847, "top": 69.946110046000001, "right": 26.486919847, "bottom": 69.446110046000001, "row_index": 9, "col_index": 44, "tile_id": 1770 }, "geometry": { "type": "MultiPolygon", "coordinates": [ [ [ [ 26.25106329717697, 69.888078639553171 ], [ 26.250176683494647, 69.887888517029467 ], [ 26.249648285617965, 69.888216561610975 ], [ 26.249389173453995, 69.8886519002169 ], [ 26.250632021396076, 69.888694252423562 ], [ 26.251485824888036, 69.888535424356249 ], [ 26.251996627136243, 69.888310445488756 ], [ 26.251772198921259, 69.888168412086245 ], [ 26.251848234845365, 69.887995685003702 ], [ 26.25106329717697, 69.888078639553171 ] ] ] ] } },
{ "type": "Feature", "properties": { "fid": 86965, "navn": null, "hoyde_moh": 113, "arealInnsjo_km2": 0.0034, "magasinKategori": null, "fid_2": 1770, "id": 1770, "left": 25.986919847, "top": 69.946110046000001, "right": 26.486919847, "bottom": 69.446110046000001, "row_index": 9, "col_index": 44, "tile_id": 1770 }, "geometry": { "type": "MultiPolygon", "coordinates": [ [ [ [ 26.124985049981266, 69.7419832855755 ], [ 26.124962852629775, 69.741799552055681 ], [ 26.124315462007957, 69.741454437914896 ], [ 26.123778585419181, 69.741536887601526 ], [ 26.123571338745453, 69.741937725775003 ], [ 26.123683525478363, 69.742106062427069 ], [ 26.124985049981266, 69.7419832855755 ] ] ] ] } },
{ "type": "Feature", "properties": { "fid": 88832, "navn": null, "hoyde_moh": 412, "arealInnsjo_km2": 0.0033, "magasinKategori": null, "fid_2": 1770, "id": 1770, "left": 25.986919847, "top": 69.946110046000001, "right": 26.486919847, "bottom": 69.446110046000001, "row_index": 9, "col_index": 44, "tile_id": 1770 }, "geometry": { "type": "MultiPolygon", "coordinates": [ [ [ [ 26.28959657941461, 69.880946829168465 ], [ 26.290597964723343, 69.880653545013558 ], [ 26.29003139651369, 69.880582330712613 ], [ 26.289762361641184, 69.88037621837104 ], [ 26.28988753650836, 69.880309882698654 ], [ 26.2897541844453, 69.880162102169336 ], [ 26.28953717765647, 69.880130682995443 ], [ 26.289429312370213, 69.880278827807828 ], [ 26.288632848018004, 69.880369090383923 ], [ 26.28959657941461, 69.880946829168465 ] ] ] ] } },
{ "type": "Feature", "properties": { "fid": 88975, "navn": null, "hoyde_moh": 434, "arealInnsjo_km2": 0.0019, "magasinKategori": null, "fid_2": 1770, "id": 1770, "left": 25.986919847, "top": 69.946110046000001, "right": 26.486919847, "bottom": 69.446110046000001, "row_index": 9, "col_index": 44, "tile_id": 1770 }, "geometry": { "type": "MultiPolygon", "coordinates": [ [ [ [ 26.292776738628994, 69.866059329341709 ], [ 26.291642401446111, 69.865848672994034 ], [ 26.291676094111693, 69.865698394537475 ], [ 26.292272364724468, 69.865539910127822 ], [ 26.291595741408354, 69.865625026709225 ], [ 26.291254513376074, 69.865834125705462 ], [ 26.291768378807582, 69.866165143084586 ], [ 26.292570173075767, 69.866208029695727 ], [ 26.292776738628994, 69.866059329341709 ] ] ] ] } },
{ "type": "Feature", "properties": { "fid": 101737, "navn": null, "hoyde_moh": 426, "arealInnsjo_km2": 0.0026, "magasinKategori": null, "fid_2": 1770, "id": 1770, "left": 25.986919847, "top": 69.946110046000001, "right": 26.486919847, "bottom": 69.446110046000001, "row_index": 9, "col_index": 44, "tile_id": 1770 }, "geometry": { "type": "MultiPolygon", "coordinates": [ [ [ [ 26.292554418859886, 69.872286916132182 ], [ 26.292834596768593, 69.872058731280717 ], [ 26.292164002922885, 69.871888752016801 ], [ 26.291072482512384, 69.872043335829773 ], [ 26.291547316755551, 69.872275659497234 ], [ 26.292554418859886, 69.872286916132182 ] ] ] ] } },
{ "type": "Feature", "properties": { "fid": 103327, "navn": null, "hoyde_moh": 455, "arealInnsjo_km2": 0.0026, "magasinKategori": null, "fid_2": 1770, "id": 1770, "left": 25.986919847, "top": 69.946110046000001, "right": 26.486919847, "bottom": 69.446110046000001, "row_index": 9, "col_index": 44, "tile_id": 1770 }, "geometry": { "type": "MultiPolygon", "coordinates": [ [ [ [ 26.126002220871651, 69.863136463669093 ], [ 26.124288844709394, 69.862886600042103 ], [ 26.123492492669001, 69.86304552650499 ], [ 26.125040510787969, 69.863286445377824 ], [ 26.126002220871651, 69.863136463669093 ] ] ] ] } },
{ "type": "Feature", "properties": { "fid": 103498, "navn": null, "hoyde_moh": 402, "arealInnsjo_km2": 0.007, "magasinKategori": null, "fid_2": 1770, "id": 1770, "left": 25.986919847, "top": 69.946110046000001, "right": 26.486919847, "bottom": 69.446110046000001, "row_index": 9, "col_index": 44, "tile_id": 1770 }, "geometry": { "type": "MultiPolygon", "coordinates": [ [ [ [ 26.309495515458764, 69.855333530041008 ], [ 26.308208314929288, 69.855764293245187 ], [ 26.308030170962176, 69.856018146423239 ], [ 26.308536988866884, 69.85628912588092 ], [ 26.308005584692889, 69.856605799385591 ], [ 26.308757239105894, 69.856674049103162 ], [ 26.308846104022727, 69.856458015226295 ], [ 26.309448186194288, 69.856344317681362 ], [ 26.310265286671587, 69.855731318687134 ], [ 26.309495515458764, 69.855333530041008 ] ] ] ] } },
{ "type": "Feature", "properties": { "fid": 103907, "navn": null, "hoyde_moh": 360, "arealInnsjo_km2": 0.0014, "magasinKategori": null, "fid_2": 1770, "id": 1770, "left": 25.986919847, "top": 69.946110046000001, "right": 26.486919847, "bottom": 69.446110046000001, "row_index": 9, "col_index": 44, "tile_id": 1770 }, "geometry": { "type": "MultiPolygon", "coordinates": [ [ [ [ 26.189631721505535, 69.907073228811313 ], [ 26.191813044927301, 69.907570373331268 ], [ 26.191372268072431, 69.907213217682497 ], [ 26.189631721505535, 69.907073228811313 ] ] ] ] } },
{ "type": "Feature", "properties": { "fid": 104164, "navn": null, "hoyde_moh": 344, "arealInnsjo_km2": 0.001, "magasinKategori": null, "fid_2": 1770, "id": 1770, "left": 25.986919847, "top": 69.946110046000001, "right": 26.486919847, "bottom": 69.446110046000001, "row_index": 9, "col_index": 44, "tile_id": 1770 }, "geometry": { "type": "MultiPolygon", "coordinates": [ [ [ [ 26.022508102859433, 69.792802534967578 ], [ 26.021979558748214, 69.792698674251156 ], [ 26.021197324157345, 69.793177981887567 ], [ 26.021538077129179, 69.793189924987161 ], [ 26.022508102859433, 69.792802534967578 ] ] ] ] } },
{ "type": "Feature", "properties": { "fid": 104719, "navn": null, "hoyde_moh": 429, "arealInnsjo_km2": 0.0038, "magasinKategori": null, "fid_2": 1770, "id": 1770, "left": 25.986919847, "top": 69.946110046000001, "right": 26.486919847, "bottom": 69.446110046000001, "row_index": 9, "col_index": 44, "tile_id": 1770 }, "geometry": { "type": "MultiPolygon", "coordinates": [ [ [ [ 26.034561208696594, 69.887061265033196 ], [ 26.03406467465275, 69.88673760433737 ], [ 26.032183334027728, 69.886417783954784 ], [ 26.031689596653468, 69.886173811187135 ], [ 26.031152307237438, 69.886274794174625 ], [ 26.032869653451801, 69.886732582653678 ], [ 26.03423058766991, 69.887285409715147 ], [ 26.034561208696594, 69.887061265033196 ] ] ] ] } },
{ "type": "Feature", "properties": { "fid": 106609, "navn": null, "hoyde_moh": 445, "arealInnsjo_km2": 0.014, "magasinKategori": null, "fid_2": 1770, "id": 1770, "left": 25.986919847, "top": 69.946110046000001, "right": 26.486919847, "bottom": 69.446110046000001, "row_index": 9, "col_index": 44, "tile_id": 1770 }, "geometry": { "type": "MultiPolygon", "coordinates": [ [ [ [ 26.133003570154237, 69.866021036248483 ], [ 26.132986911053823, 69.866464214503779 ], [ 26.132793026400641, 69.866737512651952 ], [ 26.132882010472354, 69.867072331687993 ], [ 26.13346682569798, 69.867152121818975 ], [ 26.135239165247278, 69.866931935020006 ], [ 26.135581235714373, 69.867277576352237 ], [ 26.137035360308534, 69.867212112842111 ], [ 26.137059628002834, 69.867043691143223 ], [ 26.136300519361967, 69.866719326459375 ], [ 26.13493128000254, 69.866605682081641 ], [ 26.135032083755743, 69.866353409966123 ], [ 26.134425235807146, 69.866078399508794 ], [ 26.134201604717624, 69.865804288745295 ], [ 26.133003570154237, 69.866021036248483 ] ] ] ] } },
{ "type": "Feature", "properties": { "fid": 108621, "navn": null, "hoyde_moh": 442, "arealInnsjo_km2": 0.0056, "magasinKategori": null, "fid_2": 1770, "id": 1770, "left": 25.986919847, "top": 69.946110046000001, "right": 26.486919847, "bottom": 69.446110046000001, "row_index": 9, "col_index": 44, "tile_id": 1770 }, "geometry": { "type": "MultiPolygon", "coordinates": [ [ [ [ 26.128418626642688, 69.86820845738913 ], [ 26.128560537299748, 69.868021364899903 ], [ 26.127723016693029, 69.868015138477901 ], [ 26.128217312158441, 69.867600450645469 ], [ 26.126990571249099, 69.867804325244464 ], [ 26.127423575961579, 69.868022722276521 ], [ 26.127154894476469, 69.868404493894715 ], [ 26.12741010585771, 69.868640570119766 ], [ 26.128749290516964, 69.868680305912719 ], [ 26.128857710073209, 69.868287889930883 ], [ 26.128418626642688, 69.86820845738913 ] ] ] ] } },
{ "type": "Feature", "properties": { "fid": 108769, "navn": null, "hoyde_moh": 439, "arealInnsjo_km2": 0.003, "magasinKategori": null, "fid_2": 1770, "id": 1770, "left": 25.986919847, "top": 69.946110046000001, "right": 26.486919847, "bottom": 69.446110046000001, "row_index": 9, "col_index": 44, "tile_id": 1770 }, "geometry": { "type": "MultiPolygon", "coordinates": [ [ [ [ 26.289957853006861, 69.866570252361058 ], [ 26.289601227443629, 69.866534020184218 ], [ 26.289746590803954, 69.866437429998257 ], [ 26.289626515065091, 69.866365351948374 ], [ 26.288350928337053, 69.866363235933321 ], [ 26.288166083823249, 69.866536378579639 ], [ 26.288517999118323, 69.866845180122084 ], [ 26.28983873838903, 69.86673888021879 ], [ 26.289957853006861, 69.866570252361058 ] ] ] ] } },
{ "type": "Feature", "properties": { "fid": 113690, "navn": null, "hoyde_moh": 411, "arealInnsjo_km2": 0.0064, "magasinKategori": null, "fid_2": 1770, "id": 1770, "left": 25.986919847, "top": 69.946110046000001, "right": 26.486919847, "bottom": 69.446110046000001, "row_index": 9, "col_index": 44, "tile_id": 1770 }, "geometry": { "type": "MultiPolygon", "coordinates": [ [ [ [ 26.077405650007123, 69.895302268215602 ], [ 26.076773655557677, 69.895375627582425 ], [ 26.076183157576711, 69.895029778162723 ], [ 26.075574422854316, 69.895147150711182 ], [ 26.075373249527058, 69.89538931483284 ], [ 26.075606784271987, 69.895799134389804 ], [ 26.076969231634468, 69.895982083002778 ], [ 26.077892313358866, 69.895731376277837 ], [ 26.077745130717382, 69.895454016797018 ], [ 26.077405650007123, 69.895302268215602 ] ] ] ] } },
{ "type": "Feature", "properties": { "fid": 118884, "navn": null, "hoyde_moh": 427, "arealInnsjo_km2": 0.0062, "magasinKategori": null, "fid_2": 1770, "id": 1770, "left": 25.986919847, "top": 69.946110046000001, "right": 26.486919847, "bottom": 69.446110046000001, "row_index": 9, "col_index": 44, "tile_id": 1770 }, "geometry": { "type": "MultiPolygon", "coordinates": [ [ [ [ 26.303389377951444, 69.865490976590095 ], [ 26.302788428746869, 69.865001394389665 ], [ 26.300866579271219, 69.865450515641953 ], [ 26.300935079185368, 69.865618499324839 ], [ 26.301364562696254, 69.865726373722723 ], [ 26.302678315986782, 69.865804849336058 ], [ 26.303389377951444, 69.865490976590095 ] ] ] ] } },
{ "type": "Feature", "properties": { "fid": 119628, "navn": null, "hoyde_moh": 386, "arealInnsjo_km2": 0.0062, "magasinKategori": null, "fid_2": 1770, "id": 1770, "left": 25.986919847, "top": 69.946110046000001, "right": 26.486919847, "bottom": 69.446110046000001, "row_index": 9, "col_index": 44, "tile_id": 1770 }, "geometry": { "type": "MultiPolygon", "coordinates": [ [ [ [ 26.333891533608952, 69.861174570452846 ], [ 26.333394843032696, 69.860970441180839 ], [ 26.330867270698118, 69.860887323633293 ], [ 26.331943089642206, 69.861515839686078 ], [ 26.333685142252531, 69.861503946545199 ], [ 26.333891533608952, 69.861174570452846 ] ] ] ] } },
{ "type": "Feature", "properties": { "fid": 120594, "navn": null, "hoyde_moh": 468, "arealInnsjo_km2": 0.0101, "magasinKategori": null, "fid_2": 1770, "id": 1770, "left": 25.986919847, "top": 69.946110046000001, "right": 26.486919847, "bottom": 69.446110046000001, "row_index": 9, "col_index": 44, "tile_id": 1770 }, "geometry": { "type": "MultiPolygon", "coordinates": [ [ [ [ 26.020002480630801, 69.854866720587495 ], [ 26.020076133599847, 69.85476875206669 ], [ 26.021255730192753, 69.854150275741631 ], [ 26.021454120252965, 69.853929286021256 ], [ 26.021326248080172, 69.853790714077078 ], [ 26.021736687205639, 69.853474492463036 ], [ 26.021065299281833, 69.853389825618692 ], [ 26.020182252843632, 69.853742924952655 ], [ 26.020097251895159, 69.854062282924204 ], [ 26.01923788245163, 69.854503389564854 ], [ 26.018492979692489, 69.85466129989949 ], [ 26.018469949116639, 69.854889063821702 ], [ 26.018041384256779, 69.855092622687906 ], [ 26.020233800885595, 69.854990860682392 ], [ 26.020002480630801, 69.854866720587495 ] ] ] ] } },
{ "type": "Feature", "properties": { "fid": 124678, "navn": null, "hoyde_moh": 476, "arealInnsjo_km2": 0.0335, "magasinKategori": null, "fid_2": 1770, "id": 1770, "left": 25.986919847, "top": 69.946110046000001, "right": 26.486919847, "bottom": 69.446110046000001, "row_index": 9, "col_index": 44, "tile_id": 1770 }, "geometry": { "type": "MultiPolygon", "coordinates": [ [ [ [ 26.022751162201946, 69.848806926406283 ], [ 26.023059179949716, 69.848503247716451 ], [ 26.022468112870982, 69.848232969870423 ], [ 26.022523752280083, 69.84807473463421 ], [ 26.019727594502839, 69.846716571183606 ], [ 26.017611212017101, 69.846119092462956 ], [ 26.016825822670359, 69.84603733321849 ], [ 26.016349103214939, 69.846183078272517 ], [ 26.017835328905871, 69.847575994527233 ], [ 26.019837638582334, 69.848024215196332 ], [ 26.020454704168515, 69.84867644776665 ], [ 26.021646496641672, 69.849036754992696 ], [ 26.022751162201946, 69.848806926406283 ] ] ] ] } },
{ "type": "Feature", "properties": { "fid": 124922, "navn": null, "hoyde_moh": 465, "arealInnsjo_km2": 0.0031, "magasinKategori": null, "fid_2": 1770, "id": 1770, "left": 25.986919847, "top": 69.946110046000001, "right": 26.486919847, "bottom": 69.446110046000001, "row_index": 9, "col_index": 44, "tile_id": 1770 }, "geometry": { "type": "MultiPolygon", "coordinates": [ [ [ [ 26.274920587734101, 69.867626079606595 ], [ 26.275359141142292, 69.867366236632009 ], [ 26.275356777654604, 69.867092497686826 ], [ 26.274551447503743, 69.866967657004892 ], [ 26.274046270271619, 69.86708251446835 ], [ 26.274069259221523, 69.867377223475771 ], [ 26.274920587734101, 69.867626079606595 ] ] ] ] } },
{ "type": "Feature", "properties": { "fid": 124959, "navn": null, "hoyde_moh": 428, "arealInnsjo_km2": 0.0027, "magasinKategori": null, "fid_2": 1770, "id": 1770, "left": 25.986919847, "top": 69.946110046000001, "right": 26.486919847, "bottom": 69.446110046000001, "row_index": 9, "col_index": 44, "tile_id": 1770 }, "geometry": { "type": "MultiPolygon", "coordinates": [ [ [ [ 26.154843731197161, 69.880362220715767 ], [ 26.153708298366773, 69.880368800439783 ], [ 26.153733932901329, 69.880552614236166 ], [ 26.154198195166497, 69.880900289890931 ], [ 26.15499652589418, 69.88087433891171 ], [ 26.154843731197161, 69.880362220715767 ] ] ] ] } },
{ "type": "Feature", "properties": { "fid": 125325, "navn": null, "hoyde_moh": 476, "arealInnsjo_km2": 0.0026, "magasinKategori": null, "fid_2": 1770, "id": 1770, "left": 25.986919847, "top": 69.946110046000001, "right": 26.486919847, "bottom": 69.446110046000001, "row_index": 9, "col_index": 44, "tile_id": 1770 }, "geometry": { "type": "MultiPolygon", "coordinates": [ [ [ [ 26.024822844988766, 69.877518632903843 ], [ 26.025070894063685, 69.877468351832746 ], [ 26.022876860994199, 69.876978704852021 ], [ 26.022573049038012, 69.877028946905753 ], [ 26.022991679801979, 69.877128203957739 ], [ 26.022504235732764, 69.877186371599663 ], [ 26.022941633369335, 69.877454730644445 ], [ 26.024822844988766, 69.877518632903843 ] ] ] ] } },
{ "type": "Feature", "properties": { "fid": 125457, "navn": null, "hoyde_moh": 435, "arealInnsjo_km2": 0.0029, "magasinKategori": null, "fid_2": 1770, "id": 1770, "left": 25.986919847, "top": 69.946110046000001, "right": 26.486919847, "bottom": 69.446110046000001, "row_index": 9, "col_index": 44, "tile_id": 1770 }, "geometry": { "type": "MultiPolygon", "coordinates": [ [ [ [ 26.093513325080604, 69.921176470627344 ], [ 26.093627698154023, 69.921470382681647 ], [ 26.094703404578038, 69.921464091702347 ], [ 26.095032061035777, 69.921196914968746 ], [ 26.094505108901778, 69.92080765091211 ], [ 26.093616851504166, 69.921012431012215 ], [ 26.093513325080604, 69.921176470627344 ] ] ] ] } },
{ "type": "Feature", "properties": { "fid": 125826, "navn": null, "hoyde_moh": 443, "arealInnsjo_km2": 0.0069, "magasinKategori": null, "fid_2": 1770, "id": 1770, "left": 25.986919847, "top": 69.946110046000001, "right": 26.486919847, "bottom": 69.446110046000001, "row_index": 9, "col_index": 44, "tile_id": 1770 }, "geometry": { "type": "MultiPolygon", "coordinates": [ [ [ [ 26.131757678538801, 69.86794477492225 ], [ 26.130682895136616, 69.86796603589552 ], [ 26.130012900753492, 69.868109664774991 ], [ 26.1299401988969, 69.868320380208019 ], [ 26.130610849495614, 69.868628652468885 ], [ 26.130799293961722, 69.868917471521414 ], [ 26.131255799058906, 69.868905711626013 ], [ 26.132001982879562, 69.868645040632032 ], [ 26.132327206436674, 69.868269849313293 ], [ 26.131757678538801, 69.86794477492225 ] ] ] ] } },
{ "type": "Feature", "properties": { "fid": 126350, "navn": null, "hoyde_moh": 471, "arealInnsjo_km2": 0.0095, "magasinKategori": null, "fid_2": 1770, "id": 1770, "left": 25.986919847, "top": 69.946110046000001, "right": 26.486919847, "bottom": 69.446110046000001, "row_index": 9, "col_index": 44, "tile_id": 1770 }, "geometry": { "type": "MultiPolygon", "coordinates": [ [ [ [ 26.221091843509083, 69.930390125912311 ], [ 26.221226443126213, 69.930683128011282 ], [ 26.221654428602296, 69.930795442688719 ], [ 26.222804769331375, 69.930892468365641 ], [ 26.224131709758115, 69.930732810567434 ], [ 26.223895711798043, 69.930579724696983 ], [ 26.224189312434145, 69.930206615351253 ], [ 26.223346763641864, 69.930197658600761 ], [ 26.222087262889584, 69.929892561643243 ], [ 26.220245683381414, 69.930222113341003 ], [ 26.221091843509083, 69.930390125912311 ] ] ] ] } },
{ "type": "Feature", "properties": { "fid": 127166, "navn": null, "hoyde_moh": 487, "arealInnsjo_km2": 0.0037, "magasinKategori": null, "fid_2": 1770, "id": 1770, "left": 25.986919847, "top": 69.946110046000001, "right": 26.486919847, "bottom": 69.446110046000001, "row_index": 9, "col_index": 44, "tile_id": 1770 }, "geometry": { "type": "MultiPolygon", "coordinates": [ [ [ [ 26.221063885643883, 69.935804895880821 ], [ 26.22057648588472, 69.935561312520406 ], [ 26.220102184846901, 69.935567994044717 ], [ 26.219203974198937, 69.935927252915178 ], [ 26.219522266990399, 69.93620604912978 ], [ 26.219925901327429, 69.936259135419476 ], [ 26.221063885643883, 69.935804895880821 ] ] ] ] } },
{ "type": "Feature", "properties": { "fid": 129765, "navn": null, "hoyde_moh": 422, "arealInnsjo_km2": 0.0031, "magasinKategori": null, "fid_2": 1770, "id": 1770, "left": 25.986919847, "top": 69.946110046000001, "right": 26.486919847, "bottom": 69.446110046000001, "row_index": 9, "col_index": 44, "tile_id": 1770 }, "geometry": { "type": "MultiPolygon", "coordinates": [ [ [ [ 26.120740748654089, 69.875024214157577 ], [ 26.121795248067535, 69.874752016841143 ], [ 26.121137126020148, 69.874372577523587 ], [ 26.120462418677057, 69.874416187472221 ], [ 26.120285764040528, 69.874521403790297 ], [ 26.120206441426287, 69.874992114629336 ], [ 26.120740748654089, 69.875024214157577 ] ] ] ] } },
{ "type": "Feature", "properties": { "fid": 130106, "navn": null, "hoyde_moh": 344, "arealInnsjo_km2": 0.0333, "magasinKategori": null, "fid_2": 1770, "id": 1770, "left": 25.986919847, "top": 69.946110046000001, "right": 26.486919847, "bottom": 69.446110046000001, "row_index": 9, "col_index": 44, "tile_id": 1770 }, "geometry": { "type": "MultiPolygon", "coordinates": [ [ [ [ 26.027009496908203, 69.790169924927312 ], [ 26.025835845734424, 69.790267957907005 ], [ 26.023674501191458, 69.78988182726286 ], [ 26.022464199678023, 69.790197640612718 ], [ 26.021750542417109, 69.790934862027655 ], [ 26.022009466478305, 69.791336009879771 ], [ 26.023328412543936, 69.791396192513275 ], [ 26.023710570178423, 69.791513847882001 ], [ 26.023743370863205, 69.791736085253518 ], [ 26.024202769816181, 69.791691313065797 ], [ 26.024458458852322, 69.79178075815156 ], [ 26.024436843442817, 69.791905559057284 ], [ 26.02526541674116, 69.792029469589508 ], [ 26.025347080112855, 69.791913243378374 ], [ 26.025020142159374, 69.791884608158412 ], [ 26.025827388006174, 69.791758264023954 ], [ 26.027155338918138, 69.790806261498773 ], [ 26.027037361071788, 69.790669272926777 ], [ 26.028234332355343, 69.790399931609727 ], [ 26.027009496908203, 69.790169924927312 ] ] ] ] } },
{ "type": "Feature", "properties": { "fid": 135515, "navn": null, "hoyde_moh": 412, "arealInnsjo_km2": 0.0026, "magasinKategori": null, "fid_2": 1770, "id": 1770, "left": 25.986919847, "top": 69.946110046000001, "right": 26.486919847, "bottom": 69.446110046000001, "row_index": 9, "col_index": 44, "tile_id": 1770 }, "geometry": { "type": "MultiPolygon", "coordinates": [ [ [ [ 26.292379730190824, 69.879971075849298 ], [ 26.291008241161613, 69.879800712619584 ], [ 26.291041488753269, 69.879678227470137 ], [ 26.29074967909018, 69.879605577547608 ], [ 26.290303368463178, 69.879668243972901 ], [ 26.290169029633692, 69.879917318709644 ], [ 26.291292722411363, 69.879941469342796 ], [ 26.291134975783322, 69.88015482559787 ], [ 26.292379730190824, 69.879971075849298 ] ] ] ] } },
{ "type": "Feature", "properties": { "fid": 176307, "navn": "Leavvajávri", "hoyde_moh": 433, "arealInnsjo_km2": 0.7093, "magasinKategori": null, "fid_2": 1770, "id": 1770, "left": 25.986919847, "top": 69.946110046000001, "right": 26.486919847, "bottom": 69.446110046000001, "row_index": 9, "col_index": 44, "tile_id": 1770 }, "geometry": { "type": "MultiPolygon", "coordinates": [ [ [ [ 26.006428451595053, 69.879186487334493 ], [ 26.004695931428529, 69.879099573744185 ], [ 26.004075190490344, 69.878892096066807 ], [ 26.004214853876682, 69.878494375964664 ], [ 26.003837308453289, 69.877809357416339 ], [ 26.003915497706817, 69.876929053886244 ], [ 26.003433615302249, 69.876313721546765 ], [ 26.002749582965581, 69.875826250661305 ], [ 26.000933898604909, 69.875104471563091 ], [ 25.9993577388313, 69.874678885282947 ], [ 25.999124107522608, 69.874299356963107 ], [ 25.998790178374836, 69.874178630119147 ], [ 25.997454261758577, 69.873984884234318 ], [ 25.996100990421279, 69.874215988289009 ], [ 25.995337607263139, 69.87415061503161 ], [ 25.996906006742702, 69.873741276960558 ], [ 25.996974321187508, 69.87339862404751 ], [ 25.997146175503584, 69.873316697218598 ], [ 25.997981586045995, 69.87329822026453 ], [ 25.998538737959237, 69.872585665674336 ], [ 25.998215015465771, 69.87222544391706 ], [ 25.997384744472736, 69.872017754654081 ], [ 25.996929683835152, 69.871281946637168 ], [ 25.996643801335612, 69.87118648755623 ], [ 25.996361442562684, 69.870821483303658 ], [ 25.996217632846385, 69.870839160679495 ], [ 25.9962360060095, 69.871006458340545 ], [ 25.995913283617657, 69.870862377501467 ], [ 25.994841632454047, 69.870889871216804 ], [ 25.991230271024584, 69.86990246695359 ], [ 25.989029276185001, 69.869805848630094 ], [ 25.987980094834061, 69.869118805611024 ], [ 25.986919847, 69.868864235831907 ], [ 25.986919847, 69.875972555182301 ], [ 25.988741979365393, 69.875931619509473 ], [ 25.989340121020696, 69.876604247486625 ], [ 25.991306896906679, 69.876906161046492 ], [ 25.993029375466463, 69.877433961756068 ], [ 25.994728340457208, 69.877387198413217 ], [ 25.996262799970353, 69.8777094871119 ], [ 25.997373945456577, 69.877645686321003 ], [ 25.998176249135074, 69.878052887050032 ], [ 25.99973351173967, 69.878370625835132 ], [ 26.001525427911861, 69.87899878256151 ], [ 26.005096756883248, 69.879312325064163 ], [ 26.006041892422843, 69.879676048993687 ], [ 26.007038740366049, 69.879545517799201 ], [ 26.006428451595053, 69.879186487334493 ] ] ] ] } },
{ "type": "Feature", "properties": { "fid": 183122, "navn": null, "hoyde_moh": 413, "arealInnsjo_km2": 0.0025, "magasinKategori": null, "fid_2": 1770, "id": 1770, "left": 25.986919847, "top": 69.946110046000001, "right": 26.486919847, "bottom": 69.446110046000001, "row_index": 9, "col_index": 44, "tile_id": 1770 }, "geometry": { "type": "MultiPolygon", "coordinates": [ [ [ [ 26.111658936543819, 69.887636895684892 ], [ 26.109606519057248, 69.887560429567145 ], [ 26.110828632147253, 69.887952901419709 ], [ 26.111725409382544, 69.887907451366857 ], [ 26.111842430030968, 69.887771098528617 ], [ 26.111658936543819, 69.887636895684892 ] ] ] ] } },
{ "type": "Feature", "properties": { "fid": 183413, "navn": null, "hoyde_moh": 143, "arealInnsjo_km2": 0.0054, "magasinKategori": null, "fid_2": 1770, "id": 1770, "left": 25.986919847, "top": 69.946110046000001, "right": 26.486919847, "bottom": 69.446110046000001, "row_index": 9, "col_index": 44, "tile_id": 1770 }, "geometry": { "type": "MultiPolygon", "coordinates": [ [ [ [ 26.155180786944946, 69.760858659811433 ], [ 26.156587037408567, 69.761432362293803 ], [ 26.158736444423432, 69.761515489390774 ], [ 26.15694991029466, 69.760905563722673 ], [ 26.155180786944946, 69.760858659811433 ] ] ] ] } },
{ "type": "Feature", "properties": { "fid": 187039, "navn": null, "hoyde_moh": 454, "arealInnsjo_km2": 0.0527, "magasinKategori": null, "fid_2": 1770, "id": 1770, "left": 25.986919847, "top": 69.946110046000001, "right": 26.486919847, "bottom": 69.446110046000001, "row_index": 9, "col_index": 44, "tile_id": 1770 }, "geometry": { "type": "MultiPolygon", "coordinates": [ [ [ [ 26.030122635904846, 69.858419683162339 ], [ 26.032133423974752, 69.857715865514564 ], [ 26.032894434505508, 69.857012272388474 ], [ 26.032903154400632, 69.856358319031898 ], [ 26.03312169208526, 69.856091466304434 ], [ 26.033072227409811, 69.855681786747127 ], [ 26.031958488859804, 69.855493982480539 ], [ 26.031849169694091, 69.855290113088472 ], [ 26.02979169771492, 69.855160465453224 ], [ 26.028986842602635, 69.855733818083976 ], [ 26.028904443401313, 69.856035467249811 ], [ 26.028238097266023, 69.856430339365431 ], [ 26.028246120238823, 69.856727831875375 ], [ 26.027911946926992, 69.857335804620675 ], [ 26.028069872946464, 69.857756561277839 ], [ 26.028859346775903, 69.858193527928989 ], [ 26.030122635904846, 69.858419683162339 ] ] ] ] } },
{ "type": "Feature", "properties": { "fid": 189826, "navn": null, "hoyde_moh": 444, "arealInnsjo_km2": 0.0126, "magasinKategori": null, "fid_2": 1770, "id": 1770, "left": 25.986919847, "top": 69.946110046000001, "right": 26.486919847, "bottom": 69.446110046000001, "row_index": 9, "col_index": 44, "tile_id": 1770 }, "geometry": { "type": "MultiPolygon", "coordinates": [ [ [ [ 26.133735700561441, 69.870804351057629 ], [ 26.1331016787057, 69.870651256157444 ], [ 26.132278147953784, 69.870725499815734 ], [ 26.131609385886488, 69.871036563477887 ], [ 26.130543035894078, 69.870997498412763 ], [ 26.13135280721778, 69.871511747746126 ], [ 26.133201692643642, 69.871659062297127 ], [ 26.133366161924066, 69.8717898120412 ], [ 26.133141559009577, 69.872009377670452 ], [ 26.133463131764863, 69.872281264145926 ], [ 26.133728922659561, 69.87217736370404 ], [ 26.134035196085868, 69.87150338244588 ], [ 26.13428807365711, 69.871326691444736 ], [ 26.133735700561441, 69.870804351057629 ] ] ] ] } },
{ "type": "Feature", "properties": { "fid": 193008, "navn": null, "hoyde_moh": 421, "arealInnsjo_km2": 0.0107, "magasinKategori": null, "fid_2": 1770, "id": 1770, "left": 25.986919847, "top": 69.946110046000001, "right": 26.486919847, "bottom": 69.446110046000001, "row_index": 9, "col_index": 44, "tile_id": 1770 }, "geometry": { "type": "MultiPolygon", "coordinates": [ [ [ [ 26.127363530249305, 69.87755411019009 ], [ 26.127001580484819, 69.877372492168547 ], [ 26.127345987694255, 69.877243044329362 ], [ 26.127478532726194, 69.876978756524821 ], [ 26.127105113414096, 69.876803327886648 ], [ 26.127156262239563, 69.876492716750434 ], [ 26.126535885692025, 69.876167210535527 ], [ 26.126381906452945, 69.8758303363919 ], [ 26.12576576584587, 69.876137472554987 ], [ 26.125885068849815, 69.876323964620397 ], [ 26.124262082105929, 69.876506398489823 ], [ 26.124857475942722, 69.8765803715022 ], [ 26.126331575436087, 69.8774447552737 ], [ 26.127363530249305, 69.87755411019009 ] ] ] ] } },
{ "type": "Feature", "properties": { "fid": 207902, "navn": "Stuorrajávri", "hoyde_moh": 111, "arealInnsjo_km2": 0.0496, "magasinKategori": null, "fid_2": 1770, "id": 1770, "left": 25.986919847, "top": 69.946110046000001, "right": 26.486919847, "bottom": 69.446110046000001, "row_index": 9, "col_index": 44, "tile_id": 1770 }, "geometry": { "type": "MultiPolygon", "coordinates": [ [ [ [ 26.135607503705458, 69.749484666826163 ], [ 26.136911269036474, 69.749628362263437 ], [ 26.139806129394625, 69.750618873284282 ], [ 26.139971239, 69.750535426052863 ], [ 26.139433063777012, 69.750306000660785 ], [ 26.141346755818358, 69.750097909633226 ], [ 26.141991653863151, 69.74950560721112 ], [ 26.141825965582456, 69.749120140484237 ], [ 26.140899757853976, 69.748428589630535 ], [ 26.139446041156241, 69.748071603217781 ], [ 26.137852890406485, 69.748178102440903 ], [ 26.137541793406037, 69.748413830318924 ], [ 26.136757263600874, 69.748199527428341 ], [ 26.136075005619002, 69.748246999184687 ], [ 26.135043291043349, 69.748515447385628 ], [ 26.134849100865683, 69.748632049355905 ], [ 26.134838233633086, 69.74892799610258 ], [ 26.135607503705458, 69.749484666826163 ] ] ] ] } },
{ "type": "Feature", "properties": { "fid": 208277, "navn": "Stuorrajavri", "hoyde_moh": 335, "arealInnsjo_km2": 0.0513, "magasinKategori": null, "fid_2": 1770, "id": 1770, "left": 25.986919847, "top": 69.946110046000001, "right": 26.486919847, "bottom": 69.446110046000001, "row_index": 9, "col_index": 44, "tile_id": 1770 }, "geometry": { "type": "MultiPolygon", "coordinates": [ [ [ [ 26.013772957105665, 69.774515211598512 ], [ 26.01363260994825, 69.774356898371806 ], [ 26.013782037300015, 69.774153896726801 ], [ 26.012997261392844, 69.773780710771447 ], [ 26.012050672362911, 69.773692621575549 ], [ 26.012119091182168, 69.773523391943371 ], [ 26.010305745934716, 69.773566186429306 ], [ 26.010897574917838, 69.773392999211453 ], [ 26.010676283710023, 69.773258081382252 ], [ 26.009824207595251, 69.773368483565861 ], [ 26.009683059314479, 69.773497554382402 ], [ 26.010093885476412, 69.77351589941361 ], [ 26.00987325294258, 69.773684646169684 ], [ 26.010054924436538, 69.773743480423533 ], [ 26.008966496319609, 69.774225086631802 ], [ 26.008135778300002, 69.774340677895836 ], [ 26.007566455537017, 69.774105126584658 ], [ 26.007324872432829, 69.774243174965477 ], [ 26.007833974875311, 69.774391482315039 ], [ 26.007096018124745, 69.774694402040296 ], [ 26.009051735530608, 69.774576983081289 ], [ 26.009140905742676, 69.774689686482844 ], [ 26.008670185114724, 69.774815467827892 ], [ 26.009405165535128, 69.774940410103525 ], [ 26.008093850288219, 69.775697313157679 ], [ 26.00915083888248, 69.775911798749988 ], [ 26.00944832249268, 69.776168156299988 ], [ 26.010481956432148, 69.776238669631638 ], [ 26.010215120988434, 69.776503747423249 ], [ 26.00954829080943, 69.776630637194444 ], [ 26.009643967023393, 69.776673438592226 ], [ 26.012215435058987, 69.7760441197576 ], [ 26.012755880274252, 69.775667882068248 ], [ 26.013932709602422, 69.775615719993809 ], [ 26.013495149768879, 69.77545617505254 ], [ 26.014020979624092, 69.775341178153951 ], [ 26.013951344567257, 69.775175394908345 ], [ 26.014130718043788, 69.775098843288603 ], [ 26.013473413561236, 69.775070338642053 ], [ 26.013507684160366, 69.774789112941605 ], [ 26.013772957105665, 69.774515211598512 ] ] ] ] } },
{ "type": "Feature", "properties": { "fid": 209158, "navn": "Ullojávri", "hoyde_moh": 452, "arealInnsjo_km2": 0.2601, "magasinKategori": null, "fid_2": 1770, "id": 1770, "left": 25.986919847, "top": 69.946110046000001, "right": 26.486919847, "bottom": 69.446110046000001, "row_index": 9, "col_index": 44, "tile_id": 1770 }, "geometry": { "type": "MultiPolygon", "coordinates": [ [ [ [ 26.032951269433887, 69.865903371915152 ], [ 26.032340282243471, 69.865470610576196 ], [ 26.031203862494895, 69.865099453026616 ], [ 26.030422544511726, 69.864564632391321 ], [ 26.030324207114592, 69.863576314437466 ], [ 26.029962787507685, 69.862959530322613 ], [ 26.030014001649029, 69.86249974919393 ], [ 26.02961137032899, 69.861948967080536 ], [ 26.028528705904083, 69.861434967886638 ], [ 26.026485835445531, 69.860931649863033 ], [ 26.02613327398609, 69.860656423195564 ], [ 26.026023051414004, 69.860223561870512 ], [ 26.025578788368893, 69.859976947718877 ], [ 26.024735204564898, 69.859888582805127 ], [ 26.023445974128677, 69.860411829349857 ], [ 26.022882210260075, 69.860433895670511 ], [ 26.023129236008089, 69.860679482932838 ], [ 26.022962501377751, 69.860758758458346 ], [ 26.023039763786731, 69.860886422539991 ], [ 26.020500884348923, 69.862260202804165 ], [ 26.019716222699294, 69.862300902578511 ], [ 26.019203804997314, 69.862067572523685 ], [ 26.019182026694548, 69.861881744398886 ], [ 26.018821720785407, 69.861881336644757 ], [ 26.018900948426211, 69.86196348758412 ], [ 26.0185851028832, 69.861981199876865 ], [ 26.018421561024212, 69.862082463207571 ], [ 26.018546154531432, 69.862140653560076 ], [ 26.017719941306719, 69.862511060248906 ], [ 26.016528421381487, 69.862913017626724 ], [ 26.016013574830566, 69.862927883966762 ], [ 26.016091252638418, 69.863084266947993 ], [ 26.015880928369832, 69.863210849286489 ], [ 26.015572910665629, 69.863184127773479 ], [ 26.015857509561929, 69.863287639982985 ], [ 26.016095212362004, 69.863625237964868 ], [ 26.015926659215083, 69.863659865649552 ], [ 26.016574238533121, 69.863929992857322 ], [ 26.017196583102358, 69.864496878504596 ], [ 26.020052981321687, 69.865542871761733 ], [ 26.021141016361835, 69.865633245470676 ], [ 26.024096219171657, 69.865376649375364 ], [ 26.025247761513572, 69.865492104667709 ], [ 26.025941628681171, 69.865768477498207 ], [ 26.027173968481254, 69.865945506489325 ], [ 26.027770918935872, 69.866226254594707 ], [ 26.029010438735551, 69.866433111678816 ], [ 26.032241281858727, 69.866332837359636 ], [ 26.032951269433887, 69.865903371915152 ] ] ] ] } },
{ "type": "Feature", "properties": { "fid": 255181, "navn": null, "hoyde_moh": 104, "arealInnsjo_km2": 0.0032, "magasinKategori": null, "fid_2": 1770, "id": 1770, "left": 25.986919847, "top": 69.946110046000001, "right": 26.486919847, "bottom": 69.446110046000001, "row_index": 9, "col_index": 44, "tile_id": 1770 }, "geometry": { "type": "MultiPolygon", "coordinates": [ [ [ [ 26.460206840763018, 69.940113910615281 ], [ 26.458318545837187, 69.939880247213097 ], [ 26.457737596407643, 69.939599558829244 ], [ 26.457174999253503, 69.939758544870969 ], [ 26.458973270175516, 69.940217858954028 ], [ 26.460546308370024, 69.940324590044 ], [ 26.460206840763018, 69.940113910615281 ] ] ] ] } },
{ "type": "Feature", "properties": { "fid": 259839, "navn": "Mihkkaljávri", "hoyde_moh": 113, "arealInnsjo_km2": 0.1214, "magasinKategori": null, "fid_2": 1770, "id": 1770, "left": 25.986919847, "top": 69.946110046000001, "right": 26.486919847, "bottom": 69.446110046000001, "row_index": 9, "col_index": 44, "tile_id": 1770 }, "geometry": { "type": "MultiPolygon", "coordinates": [ [ [ [ 26.429909742436866, 69.910842193688907 ], [ 26.429522102604817, 69.910502968861678 ], [ 26.427855904325639, 69.909829575075207 ], [ 26.425646964230907, 69.909602642348375 ], [ 26.420213364667017, 69.908140612872657 ], [ 26.416889581768196, 69.907684976369367 ], [ 26.40802550639788, 69.90578229595765 ], [ 26.407586372840285, 69.905737515528884 ], [ 26.406855244567108, 69.905941860282823 ], [ 26.405993544193887, 69.905813151297437 ], [ 26.406064278599761, 69.905918449471287 ], [ 26.405835151315753, 69.906002943608001 ], [ 26.406092394626196, 69.906193432139943 ], [ 26.407654842654093, 69.906361990065918 ], [ 26.407787212287349, 69.906436865659543 ], [ 26.407680015520906, 69.906692619665137 ], [ 26.407919442358921, 69.906851213799442 ], [ 26.40872160375584, 69.907055822830173 ], [ 26.409995207070761, 69.907098038048559 ], [ 26.409934042858417, 69.907474725519833 ], [ 26.410212895868611, 69.90760197445357 ], [ 26.414542457818531, 69.90841213150199 ], [ 26.417919662884717, 69.909348591641717 ], [ 26.423978799809323, 69.910053874525957 ], [ 26.425149284664904, 69.910009107574496 ], [ 26.424225757515838, 69.910192204106252 ], [ 26.422738003053919, 69.910051405942156 ], [ 26.424713617086756, 69.910539922075714 ], [ 26.426297611902811, 69.910724419830515 ], [ 26.428388379734486, 69.911306013956917 ], [ 26.429202617504558, 69.911263618965904 ], [ 26.429909742436866, 69.910842193688907 ] ] ] ] } },
{ "type": "Feature", "properties": { "fid": 259840, "navn": "Njáhkájávri", "hoyde_moh": 106, "arealInnsjo_km2": 0.0199, "magasinKategori": null, "fid_2": 1770, "id": 1770, "left": 25.986919847, "top": 69.946110046000001, "right": 26.486919847, "bottom": 69.446110046000001, "row_index": 9, "col_index": 44, "tile_id": 1770 }, "geometry": { "type": "MultiPolygon", "coordinates": [ [ [ [ 26.449473759160412, 69.924382349373658 ], [ 26.449598220335613, 69.923840189118053 ], [ 26.449019218298641, 69.923619392481086 ], [ 26.449165169169778, 69.923308964167163 ], [ 26.448241867314856, 69.92220626704615 ], [ 26.447466241679372, 69.922216243776703 ], [ 26.447205161471324, 69.922435565658958 ], [ 26.447195140430782, 69.922701410548171 ], [ 26.447565156692097, 69.92294652134099 ], [ 26.44765000201253, 69.9237653263353 ], [ 26.44824688088276, 69.924158717139036 ], [ 26.446952804594186, 69.924701889810393 ], [ 26.446773174034135, 69.925015242921049 ], [ 26.447001908899288, 69.925170778389983 ], [ 26.448466297526863, 69.925217620779748 ], [ 26.449473759160412, 69.924382349373658 ] ] ] ] } },
{ "type": "Feature", "properties": { "fid": 259841, "navn": "Sárajávri", "hoyde_moh": 105, "arealInnsjo_km2": 0.1402, "magasinKategori": null, "fid_2": 1770, "id": 1770, "left": 25.986919847, "top": 69.946110046000001, "right": 26.486919847, "bottom": 69.446110046000001, "row_index": 9, "col_index": 44, "tile_id": 1770 }, "geometry": { "type": "MultiPolygon", "coordinates": [ [ [ [ 26.44750481954463, 69.935114456750995 ], [ 26.447071309783077, 69.934867650815775 ], [ 26.448321451183745, 69.934899474247075 ], [ 26.448183032423827, 69.934995758718514 ], [ 26.448790725853659, 69.935074365379023 ], [ 26.450478980363282, 69.93498830969115 ], [ 26.450602400305854, 69.935027238724828 ], [ 26.450425025594058, 69.93512260976874 ], [ 26.450653618311105, 69.935144559544696 ], [ 26.451172748356218, 69.934826872989106 ], [ 26.451285214157238, 69.93486087090659 ], [ 26.451061235259161, 69.935020030838857 ], [ 26.451841509163806, 69.93501996134043 ], [ 26.451640307437319, 69.934728206006838 ], [ 26.450636061256517, 69.934507857448239 ], [ 26.450760465564809, 69.934303020537627 ], [ 26.450460116825056, 69.933829411478868 ], [ 26.450067277106623, 69.93362922392356 ], [ 26.450123014198002, 69.932854318681166 ], [ 26.449134583845535, 69.932295615610798 ], [ 26.449216593050849, 69.931913233314404 ], [ 26.44971726552669, 69.931819872750523 ], [ 26.450554732125024, 69.93128950391808 ], [ 26.450612651471808, 69.930503253645654 ], [ 26.450363261672504, 69.929478174095664 ], [ 26.450180010371408, 69.929268941320544 ], [ 26.44940307505145, 69.929030015249523 ], [ 26.4492321188171, 69.927626978925957 ], [ 26.449013210197165, 69.927141224367332 ], [ 26.447792131320387, 69.926392101046503 ], [ 26.447489778419559, 69.926500099961117 ], [ 26.447564466150848, 69.926730267542055 ], [ 26.44804220072669, 69.926963882172174 ], [ 26.447984390305784, 69.927316724206605 ], [ 26.448479112746579, 69.92737128102749 ], [ 26.447684332191429, 69.927625196320164 ], [ 26.447610015363026, 69.927712195057069 ], [ 26.447893209806125, 69.927761084336197 ], [ 26.447240904298454, 69.92795104744458 ], [ 26.446571759709066, 69.928394092724616 ], [ 26.446547404757911, 69.928614429082614 ], [ 26.446164431299039, 69.928902995607061 ], [ 26.446053345662769, 69.929521226324013 ], [ 26.446431110709916, 69.929476061530011 ], [ 26.446173175375254, 69.929855906204068 ], [ 26.446366722935938, 69.93005363158656 ], [ 26.446143219470741, 69.930474119918415 ], [ 26.446283847926807, 69.930777389338274 ], [ 26.446194791800394, 69.931131814338329 ], [ 26.445906917260515, 69.931279021682755 ], [ 26.446669795257112, 69.932175303423321 ], [ 26.447527763084995, 69.932560856054138 ], [ 26.446693823092765, 69.932926868161488 ], [ 26.445901601556482, 69.932907118175621 ], [ 26.446573146392115, 69.933214146769487 ], [ 26.445750389752696, 69.933361951304747 ], [ 26.444152040139311, 69.934125924423881 ], [ 26.443700471312017, 69.934889047696387 ], [ 26.443968578584045, 69.93507289387874 ], [ 26.443527119429522, 69.935312627871696 ], [ 26.446949801751718, 69.935497218682656 ], [ 26.44750481954463, 69.935114456750995 ] ] ] ] } }
]
}
