{
"type": "FeatureCollection",
"name": "innsjo_tile_id_461",
"crs": { "type": "name", "properties": { "name": "urn:ogc:def:crs:OGC:1.3:CRS84" } },
"xy_coordinate_resolution": 1e-15,
"features": [
{ "type": "Feature", "properties": { "fid": 4634, "navn": null, "hoyde_moh": null, "arealInnsjo_km2": 0.0049, "magasinKategori": null, "fid_2": 461, "id": 461, "left": 9.486919847, "top": 64.446110046000001, "right": 9.986919847, "bottom": 63.946110046000001, "row_index": 20, "col_index": 11, "tile_id": 461 }, "geometry": { "type": "MultiPolygon", "coordinates": [ [ [ [ 9.96527406679462, 64.074213516934208 ], [ 9.965166806692764, 64.074079542817088 ], [ 9.963992331415465, 64.073907825748933 ], [ 9.963689354357975, 64.074035483420573 ], [ 9.964015556987007, 64.074580859905936 ], [ 9.964841736928365, 64.074754977247181 ], [ 9.96527406679462, 64.074213516934208 ] ] ] ] } },
{ "type": "Feature", "properties": { "fid": 20024, "navn": null, "hoyde_moh": null, "arealInnsjo_km2": 0.0028, "magasinKategori": null, "fid_2": 461, "id": 461, "left": 9.486919847, "top": 64.446110046000001, "right": 9.986919847, "bottom": 63.946110046000001, "row_index": 20, "col_index": 11, "tile_id": 461 }, "geometry": { "type": "MultiPolygon", "coordinates": [ [ [ [ 9.95990849326288, 64.110704218124425 ], [ 9.960730079930023, 64.110725698723201 ], [ 9.960478438329462, 64.110565847410754 ], [ 9.958828796337727, 64.110352279935313 ], [ 9.959145061971835, 64.110592457059013 ], [ 9.958675496092823, 64.110667469303621 ], [ 9.959563231669428, 64.110814219573939 ], [ 9.95990849326288, 64.110704218124425 ] ] ] ] } },
{ "type": "Feature", "properties": { "fid": 35295, "navn": "Kamvatna", "hoyde_moh": 157, "arealInnsjo_km2": 0.0087, "magasinKategori": null, "fid_2": 461, "id": 461, "left": 9.486919847, "top": 64.446110046000001, "right": 9.986919847, "bottom": 63.946110046000001, "row_index": 20, "col_index": 11, "tile_id": 461 }, "geometry": { "type": "MultiPolygon", "coordinates": [ [ [ [ 9.98663563501864, 64.057395162880724 ], [ 9.986499750724114, 64.057611480534717 ], [ 9.986593229639182, 64.057933951709728 ], [ 9.986466318684572, 64.058401456734813 ], [ 9.986919847, 64.058478610762066 ], [ 9.986919847, 64.057243828866703 ], [ 9.98663563501864, 64.057395162880724 ] ] ] ] } },
{ "type": "Feature", "properties": { "fid": 44828, "navn": null, "hoyde_moh": null, "arealInnsjo_km2": 0.0032, "magasinKategori": null, "fid_2": 461, "id": 461, "left": 9.486919847, "top": 64.446110046000001, "right": 9.986919847, "bottom": 63.946110046000001, "row_index": 20, "col_index": 11, "tile_id": 461 }, "geometry": { "type": "MultiPolygon", "coordinates": [ [ [ [ 9.966244445527378, 64.067314499615691 ], [ 9.967002997060895, 64.067318499997199 ], [ 9.967362543524731, 64.067046804089387 ], [ 9.966474151223847, 64.066846429911379 ], [ 9.966236092509931, 64.067072233323742 ], [ 9.965421711546957, 64.067230368368058 ], [ 9.965430513914638, 64.067481465990539 ], [ 9.965780271410754, 64.067524003611453 ], [ 9.966244445527378, 64.067314499615691 ] ] ] ] } },
{ "type": "Feature", "properties": { "fid": 66494, "navn": null, "hoyde_moh": null, "arealInnsjo_km2": 0.004, "magasinKategori": null, "fid_2": 461, "id": 461, "left": 9.486919847, "top": 64.446110046000001, "right": 9.986919847, "bottom": 63.946110046000001, "row_index": 20, "col_index": 11, "tile_id": 461 }, "geometry": { "type": "MultiPolygon", "coordinates": [ [ [ [ 9.895054849987392, 64.041519150409115 ], [ 9.894367807159718, 64.041164447730083 ], [ 9.894164592069576, 64.040573269651304 ], [ 9.893798188954166, 64.0406473595108 ], [ 9.893963172800545, 64.041319415936215 ], [ 9.894490297445733, 64.041791825980496 ], [ 9.895045916030298, 64.04187813743259 ], [ 9.895054849987392, 64.041519150409115 ] ] ] ] } },
{ "type": "Feature", "properties": { "fid": 66640, "navn": null, "hoyde_moh": null, "arealInnsjo_km2": 0.0028, "magasinKategori": null, "fid_2": 461, "id": 461, "left": 9.486919847, "top": 64.446110046000001, "right": 9.986919847, "bottom": 63.946110046000001, "row_index": 20, "col_index": 11, "tile_id": 461 }, "geometry": { "type": "MultiPolygon", "coordinates": [ [ [ [ 9.861335097738003, 63.994545338241423 ], [ 9.860126742260929, 63.994471689173267 ], [ 9.86015526289443, 63.99474079259857 ], [ 9.860407850721002, 63.994972686506614 ], [ 9.861119466005395, 63.994851748975343 ], [ 9.861335097738003, 63.994545338241423 ] ] ] ] } },
{ "type": "Feature", "properties": { "fid": 81877, "navn": null, "hoyde_moh": null, "arealInnsjo_km2": 0.0028, "magasinKategori": null, "fid_2": 461, "id": 461, "left": 9.486919847, "top": 64.446110046000001, "right": 9.986919847, "bottom": 63.946110046000001, "row_index": 20, "col_index": 11, "tile_id": 461 }, "geometry": { "type": "MultiPolygon", "coordinates": [ [ [ [ 9.966080498624692, 64.077376296959756 ], [ 9.966115941835964, 64.077214529217173 ], [ 9.965141651503961, 64.076906829716236 ], [ 9.964529954844412, 64.077000573641769 ], [ 9.96453848035949, 64.077242936206304 ], [ 9.966080498624692, 64.077376296959756 ] ] ] ] } },
{ "type": "Feature", "properties": { "fid": 81933, "navn": null, "hoyde_moh": null, "arealInnsjo_km2": 0.0069, "magasinKategori": null, "fid_2": 461, "id": 461, "left": 9.486919847, "top": 64.446110046000001, "right": 9.986919847, "bottom": 63.946110046000001, "row_index": 20, "col_index": 11, "tile_id": 461 }, "geometry": { "type": "MultiPolygon", "coordinates": [ [ [ [ 9.945918092894123, 64.072913660699044 ], [ 9.946010420712483, 64.072616962894358 ], [ 9.946719583545866, 64.072369988399743 ], [ 9.947357405543558, 64.072257799695294 ], [ 9.947771250192318, 64.072354965051332 ], [ 9.947181868597607, 64.071961761481774 ], [ 9.9454417901618, 64.072171850129962 ], [ 9.945144116113331, 64.072461036419284 ], [ 9.945662140296612, 64.072619227973235 ], [ 9.94495448543295, 64.072910958329587 ], [ 9.945002947596707, 64.07313501718869 ], [ 9.945918092894123, 64.072913660699044 ] ] ] ] } },
{ "type": "Feature", "properties": { "fid": 127773, "navn": null, "hoyde_moh": null, "arealInnsjo_km2": 0.0036, "magasinKategori": null, "fid_2": 461, "id": 461, "left": 9.486919847, "top": 64.446110046000001, "right": 9.986919847, "bottom": 63.946110046000001, "row_index": 20, "col_index": 11, "tile_id": 461 }, "geometry": { "type": "MultiPolygon", "coordinates": [ [ [ [ 9.84832544615738, 64.009104854494268 ], [ 9.848475137566476, 64.008646230601144 ], [ 9.847989022390884, 64.00880167593003 ], [ 9.8480049134187, 64.00864903148765 ], [ 9.847249153099044, 64.008680360126448 ], [ 9.8467702522048, 64.008404947708428 ], [ 9.846526330547766, 64.008460145872405 ], [ 9.846672677555169, 64.008558015303734 ], [ 9.846432010627636, 64.008712110308309 ], [ 9.847416965148522, 64.008822984825983 ], [ 9.847629135113683, 64.009072895191366 ], [ 9.84832544615738, 64.009104854494268 ] ] ] ] } },
{ "type": "Feature", "properties": { "fid": 132578, "navn": null, "hoyde_moh": null, "arealInnsjo_km2": 0.0029, "magasinKategori": null, "fid_2": 461, "id": 461, "left": 9.486919847, "top": 64.446110046000001, "right": 9.986919847, "bottom": 63.946110046000001, "row_index": 20, "col_index": 11, "tile_id": 461 }, "geometry": { "type": "MultiPolygon", "coordinates": [ [ [ [ 9.954896180015018, 64.072890925861998 ], [ 9.953754480238683, 64.072933275984113 ], [ 9.953992365903293, 64.073435400094795 ], [ 9.954507879345826, 64.073521686786393 ], [ 9.954896180015018, 64.072890925861998 ] ] ] ] } },
{ "type": "Feature", "properties": { "fid": 142832, "navn": null, "hoyde_moh": null, "arealInnsjo_km2": 0.0046, "magasinKategori": null, "fid_2": 461, "id": 461, "left": 9.486919847, "top": 64.446110046000001, "right": 9.986919847, "bottom": 63.946110046000001, "row_index": 20, "col_index": 11, "tile_id": 461 }, "geometry": { "type": "MultiPolygon", "coordinates": [ [ [ [ 9.89361946584917, 64.044013952949996 ], [ 9.892997113651431, 64.043766326801432 ], [ 9.893260386120396, 64.04367502215112 ], [ 9.893153773149036, 64.043541094996172 ], [ 9.891813787858572, 64.043373083910922 ], [ 9.891720448230268, 64.043469022582869 ], [ 9.891815367322561, 64.043953205491363 ], [ 9.892022893945102, 64.04404165970297 ], [ 9.892589766623447, 64.04384068217891 ], [ 9.892907130727032, 64.04415295679803 ], [ 9.89361946584917, 64.044013952949996 ] ] ] ] } },
{ "type": "Feature", "properties": { "fid": 176710, "navn": null, "hoyde_moh": 1, "arealInnsjo_km2": 0.0151, "magasinKategori": null, "fid_2": 461, "id": 461, "left": 9.486919847, "top": 64.446110046000001, "right": 9.986919847, "bottom": 63.946110046000001, "row_index": 20, "col_index": 11, "tile_id": 461 }, "geometry": { "type": "MultiPolygon", "coordinates": [ [ [ [ 9.85834854365844, 64.009808719446127 ], [ 9.857573829059222, 64.009221019554388 ], [ 9.856829463414861, 64.008292080017696 ], [ 9.855178705007456, 64.009154426807456 ], [ 9.855351648360687, 64.009458438601825 ], [ 9.856159551191437, 64.009794801423496 ], [ 9.858189441304257, 64.009953312177927 ], [ 9.85834854365844, 64.009808719446127 ] ] ] ] } },
{ "type": "Feature", "properties": { "fid": 191944, "navn": null, "hoyde_moh": 150, "arealInnsjo_km2": 0.0066, "magasinKategori": null, "fid_2": 461, "id": 461, "left": 9.486919847, "top": 64.446110046000001, "right": 9.986919847, "bottom": 63.946110046000001, "row_index": 20, "col_index": 11, "tile_id": 461 }, "geometry": { "type": "MultiPolygon", "coordinates": [ [ [ [ 9.968838750026702, 64.05466977715642 ], [ 9.969458746854301, 64.054827287506399 ], [ 9.969822730018665, 64.054690225138259 ], [ 9.968941409294608, 64.054085758343689 ], [ 9.968716368180601, 64.05350395771454 ], [ 9.968448606707966, 64.053460848307324 ], [ 9.968308203984705, 64.053551509664715 ], [ 9.968416303812505, 64.053712318651236 ], [ 9.96832846344909, 64.054134754276419 ], [ 9.967811634787365, 64.054586927364767 ], [ 9.967877734008241, 64.054721092715667 ], [ 9.968454636071408, 64.05481594397412 ], [ 9.968838750026702, 64.05466977715642 ] ] ] ] } },
{ "type": "Feature", "properties": { "fid": 250797, "navn": null, "hoyde_moh": 2, "arealInnsjo_km2": 0.0889, "magasinKategori": null, "fid_2": 461, "id": 461, "left": 9.486919847, "top": 64.446110046000001, "right": 9.986919847, "bottom": 63.946110046000001, "row_index": 20, "col_index": 11, "tile_id": 461 }, "geometry": { "type": "MultiPolygon", "coordinates": [ [ [ [ 9.916202555686581, 64.027018874590269 ], [ 9.917150784443937, 64.02660008580402 ], [ 9.917414327831031, 64.025898385266984 ], [ 9.916212044845958, 64.025430359785148 ], [ 9.911993111368837, 64.024711988945 ], [ 9.909480730748299, 64.024853351400097 ], [ 9.907530760630058, 64.024677084090925 ], [ 9.907664101700268, 64.024999325027665 ], [ 9.908944771771919, 64.025996530061875 ], [ 9.910338207857825, 64.026678865933405 ], [ 9.911598329949635, 64.027038861946423 ], [ 9.916202555686581, 64.027018874590269 ] ] ] ] } },
{ "type": "Feature", "properties": { "fid": 250920, "navn": "Vadtjønna", "hoyde_moh": 1, "arealInnsjo_km2": 0.039, "magasinKategori": null, "fid_2": 461, "id": 461, "left": 9.486919847, "top": 64.446110046000001, "right": 9.986919847, "bottom": 63.946110046000001, "row_index": 20, "col_index": 11, "tile_id": 461 }, "geometry": { "type": "MultiPolygon", "coordinates": [ [ [ [ 9.950195423432286, 64.068497208582002 ], [ 9.950579376326052, 64.068333175887972 ], [ 9.950854639018154, 64.067990307566035 ], [ 9.951649814665849, 64.067868465128612 ], [ 9.951767194664841, 64.067706130906004 ], [ 9.950903175784667, 64.067613014029007 ], [ 9.95000906269358, 64.067232966042639 ], [ 9.947780561231294, 64.067391084492002 ], [ 9.946665626742918, 64.067155981697468 ], [ 9.945835520590091, 64.067457661480077 ], [ 9.945651669614845, 64.067476805844564 ], [ 9.945687446009675, 64.06732395745648 ], [ 9.945363251640329, 64.067433746628907 ], [ 9.945392707919902, 64.068304106412214 ], [ 9.945519347557505, 64.068411066838877 ], [ 9.946639422550996, 64.068197297039944 ], [ 9.946544755908572, 64.068431214085479 ], [ 9.946672680614393, 64.068574110478366 ], [ 9.947315607970719, 64.068794218587144 ], [ 9.950195423432286, 64.068497208582002 ] ] ] ] } },
{ "type": "Feature", "properties": { "fid": 250962, "navn": "Kvernavatnet", "hoyde_moh": 30, "arealInnsjo_km2": 0.0309, "magasinKategori": null, "fid_2": 461, "id": 461, "left": 9.486919847, "top": 64.446110046000001, "right": 9.986919847, "bottom": 63.946110046000001, "row_index": 20, "col_index": 11, "tile_id": 461 }, "geometry": { "type": "MultiPolygon", "coordinates": [ [ [ [ 9.872280576949482, 64.031552218536405 ], [ 9.871979754887107, 64.03109626403274 ], [ 9.872258575858876, 64.030843256829911 ], [ 9.87324342259371, 64.030927029208485 ], [ 9.873053009890244, 64.030721838304274 ], [ 9.872952794406846, 64.030139026864944 ], [ 9.873124512849417, 64.029734242479222 ], [ 9.873644788902526, 64.029354109708521 ], [ 9.874922525360514, 64.028978447321961 ], [ 9.875224401242871, 64.028815133351841 ], [ 9.875258505685567, 64.028599530455352 ], [ 9.874126602265203, 64.028399916144906 ], [ 9.873706133288636, 64.028043460491887 ], [ 9.873676055134162, 64.027738504399395 ], [ 9.873469498618558, 64.027676952050882 ], [ 9.873012274845246, 64.028110412161439 ], [ 9.872156293914612, 64.029533565511841 ], [ 9.872173552485277, 64.030089873425979 ], [ 9.871482229359032, 64.030237515237701 ], [ 9.870961101412268, 64.030590802525111 ], [ 9.870894414344418, 64.031075769631485 ], [ 9.871248725176319, 64.031280015177188 ], [ 9.871153740410254, 64.03152297182416 ], [ 9.871369238416911, 64.031862737050844 ], [ 9.872280576949482, 64.031552218536405 ] ] ] ] } }
]
}
