{
"type": "FeatureCollection",
"name": "innsjo_tile_id_693",
"crs": { "type": "name", "properties": { "name": "urn:ogc:def:crs:OGC:1.3:CRS84" } },
"xy_coordinate_resolution": 1e-15,
"features": [
{ "type": "Feature", "properties": { "fid": 152328, "navn": "Kringeldalsvatn", "hoyde_moh": 358, "arealInnsjo_km2": 0.0822, "magasinKategori": null, "fid_2": 693, "id": 693, "left": 12.486919847, "top": 68.446110046000001, "right": 12.986919847, "bottom": 67.946110046000001, "row_index": 12, "col_index": 17, "tile_id": 693 }, "geometry": { "type": "MultiPolygon", "coordinates": [ [ [ [ 12.952831882415433, 67.947560382209616 ], [ 12.95550982250545, 67.94670532726613 ], [ 12.956702761899992, 67.946172774381182 ], [ 12.956720243754299, 67.946110046 ], [ 12.951734977467979, 67.946110046 ], [ 12.951756328266931, 67.946218819406084 ], [ 12.951516238434557, 67.946233864986183 ], [ 12.951510696706267, 67.946110046 ], [ 12.949235707594971, 67.946110046 ], [ 12.949186057983058, 67.946124054574099 ], [ 12.949182203667823, 67.946438079432653 ], [ 12.948117836768178, 67.946864502065381 ], [ 12.949377385488221, 67.94747246765246 ], [ 12.952831882415433, 67.947560382209616 ] ] ] ] } },
{ "type": "Feature", "properties": { "fid": 152330, "navn": "Øvervatnet", "hoyde_moh": 144, "arealInnsjo_km2": 0.0232, "magasinKategori": null, "fid_2": 693, "id": 693, "left": 12.486919847, "top": 68.446110046000001, "right": 12.986919847, "bottom": 67.946110046000001, "row_index": 12, "col_index": 17, "tile_id": 693 }, "geometry": { "type": "MultiPolygon", "coordinates": [ [ [ [ 12.961279413313228, 67.956593932807806 ], [ 12.961575977053341, 67.956480953609415 ], [ 12.961876224182214, 67.956053948731466 ], [ 12.961217100255112, 67.955399690933589 ], [ 12.960798650998283, 67.955268874872502 ], [ 12.957212236233666, 67.95585251187488 ], [ 12.957220514636758, 67.956301288229341 ], [ 12.95833585947206, 67.956656128716688 ], [ 12.960026044896445, 67.956721967661053 ], [ 12.961279413313228, 67.956593932807806 ] ] ] ] } },
{ "type": "Feature", "properties": { "fid": 215456, "navn": "Hermannsdalsvatnet", "hoyde_moh": 3, "arealInnsjo_km2": 0.2009, "magasinKategori": null, "fid_2": 693, "id": 693, "left": 12.486919847, "top": 68.446110046000001, "right": 12.986919847, "bottom": 67.946110046000001, "row_index": 12, "col_index": 17, "tile_id": 693 }, "geometry": { "type": "MultiPolygon", "coordinates": [ [ [ [ 12.919090363170602, 67.958775606548656 ], [ 12.92075293589386, 67.95861715884358 ], [ 12.921712462816073, 67.95830623523679 ], [ 12.924402033769214, 67.957882542667889 ], [ 12.930782815389419, 67.957586047443812 ], [ 12.932746019292004, 67.957000530728592 ], [ 12.935490876265519, 67.956756826526913 ], [ 12.936080269530748, 67.956575778878147 ], [ 12.939197264505591, 67.956444275881864 ], [ 12.939977494776372, 67.956265695399807 ], [ 12.940198840950735, 67.955927473104467 ], [ 12.939659381538133, 67.955543827412015 ], [ 12.937334901079652, 67.955631347898589 ], [ 12.93547925966655, 67.955276043565775 ], [ 12.932270080345665, 67.95563944915952 ], [ 12.929690857442562, 67.955634013079305 ], [ 12.929407615487627, 67.955863760604842 ], [ 12.928458691693711, 67.956058203947123 ], [ 12.925159456245087, 67.95635761332511 ], [ 12.924927086562517, 67.956552101023334 ], [ 12.9232622838732, 67.956737481755653 ], [ 12.921459326995988, 67.956598049940027 ], [ 12.919621847123871, 67.956844027227945 ], [ 12.918789391981937, 67.956537366122248 ], [ 12.917299062984407, 67.956375012733304 ], [ 12.915266145014508, 67.956403009635011 ], [ 12.914656761274518, 67.956538862700299 ], [ 12.914127202103922, 67.957115434530721 ], [ 12.913597432733688, 67.957162557098144 ], [ 12.91341590334387, 67.957321779938411 ], [ 12.913407524020396, 67.95768070925655 ], [ 12.914127593550202, 67.958174329484493 ], [ 12.91568850120804, 67.958615877438561 ], [ 12.915809136752046, 67.958868667856692 ], [ 12.91652420794332, 67.95888670046817 ], [ 12.916995555752365, 67.959224694440863 ], [ 12.917827541047107, 67.959271122633112 ], [ 12.919090363170602, 67.958775606548656 ] ] ] ] } }
]
}
