{
"type": "FeatureCollection",
"name": "innsjo_tile_id_1293",
"crs": { "type": "name", "properties": { "name": "urn:ogc:def:crs:OGC:1.3:CRS84" } },
"xy_coordinate_resolution": 1e-15,
"features": [
{ "type": "Feature", "properties": { "fid": 39498, "navn": null, "hoyde_moh": 529, "arealInnsjo_km2": 0.005, "magasinKategori": null, "fid_2": 1293, "id": 1293, "left": 19.986919847, "top": 68.446110046000001, "right": 20.486919847, "bottom": 67.946110046000001, "row_index": 12, "col_index": 32, "tile_id": 1293 }, "geometry": { "type": "MultiPolygon", "coordinates": [ [ [ [ 19.991834260363767, 68.408542009687125 ], [ 19.989864558535828, 68.408217964150253 ], [ 19.988723238907877, 68.408320890465063 ], [ 19.989047350330718, 68.40853955246881 ], [ 19.990328351228555, 68.408795525929833 ], [ 19.991834260363767, 68.408542009687125 ] ] ] ] } },
{ "type": "Feature", "properties": { "fid": 40595, "navn": null, "hoyde_moh": 802, "arealInnsjo_km2": 0.0041, "magasinKategori": null, "fid_2": 1293, "id": 1293, "left": 19.986919847, "top": 68.446110046000001, "right": 20.486919847, "bottom": 67.946110046000001, "row_index": 12, "col_index": 32, "tile_id": 1293 }, "geometry": { "type": "MultiPolygon", "coordinates": [ [ [ [ 19.997746410924911, 68.432062943425635 ], [ 19.998327235738202, 68.432126147268193 ], [ 19.998638370177332, 68.431882725765007 ], [ 19.998535329085794, 68.431769339197956 ], [ 19.99693776508348, 68.431751938249505 ], [ 19.996182627795253, 68.431925265726548 ], [ 19.996365488030257, 68.432217401496473 ], [ 19.996119751021059, 68.4322668435548 ], [ 19.99665993012027, 68.432318677669969 ], [ 19.997746410924911, 68.432062943425635 ] ] ] ] } },
{ "type": "Feature", "properties": { "fid": 44134, "navn": null, "hoyde_moh": 753, "arealInnsjo_km2": 0.0042, "magasinKategori": null, "fid_2": 1293, "id": 1293, "left": 19.986919847, "top": 68.446110046000001, "right": 20.486919847, "bottom": 67.946110046000001, "row_index": 12, "col_index": 32, "tile_id": 1293 }, "geometry": { "type": "MultiPolygon", "coordinates": [ [ [ [ 20.068165973392038, 68.444669716095433 ], [ 20.067641876527023, 68.443912081174403 ], [ 20.066653788396941, 68.443854440398482 ], [ 20.06631075571001, 68.444022966258473 ], [ 20.067888642083826, 68.444824739242108 ], [ 20.068165973392038, 68.444669716095433 ] ] ] ] } },
{ "type": "Feature", "properties": { "fid": 44197, "navn": null, "hoyde_moh": 751, "arealInnsjo_km2": 0.0079, "magasinKategori": null, "fid_2": 1293, "id": 1293, "left": 19.986919847, "top": 68.446110046000001, "right": 20.486919847, "bottom": 67.946110046000001, "row_index": 12, "col_index": 32, "tile_id": 1293 }, "geometry": { "type": "MultiPolygon", "coordinates": [ [ [ [ 20.076699153104986, 68.445038668344196 ], [ 20.076695393434495, 68.444908720050421 ], [ 20.077857416594256, 68.444917123505078 ], [ 20.077435454864951, 68.444561076053219 ], [ 20.075982738129085, 68.444497639679511 ], [ 20.075292071682473, 68.444322627605658 ], [ 20.07495634044728, 68.44406604482036 ], [ 20.07508035609056, 68.444399306538799 ], [ 20.074984226832399, 68.44451798720948 ], [ 20.075411287676342, 68.444906715344075 ], [ 20.074972502075717, 68.445211738945417 ], [ 20.075103647103866, 68.445393764498633 ], [ 20.075514599655879, 68.44545917541609 ], [ 20.076699153104986, 68.445038668344196 ] ] ] ] } },
{ "type": "Feature", "properties": { "fid": 44199, "navn": null, "hoyde_moh": 756, "arealInnsjo_km2": 0.0091, "magasinKategori": null, "fid_2": 1293, "id": 1293, "left": 19.986919847, "top": 68.446110046000001, "right": 20.486919847, "bottom": 67.946110046000001, "row_index": 12, "col_index": 32, "tile_id": 1293 }, "geometry": { "type": "MultiPolygon", "coordinates": [ [ [ [ 20.052190388276539, 68.445939454780643 ], [ 20.053348104073663, 68.444986927959874 ], [ 20.051774765731633, 68.44509800344855 ], [ 20.050268964867001, 68.445965428009771 ], [ 20.050568449930648, 68.446110046 ], [ 20.051435384763586, 68.446110046 ], [ 20.052190388276539, 68.445939454780643 ] ] ] ] } },
{ "type": "Feature", "properties": { "fid": 102373, "navn": null, "hoyde_moh": 768, "arealInnsjo_km2": 0.0028, "magasinKategori": null, "fid_2": 1293, "id": 1293, "left": 19.986919847, "top": 68.446110046000001, "right": 20.486919847, "bottom": 67.946110046000001, "row_index": 12, "col_index": 32, "tile_id": 1293 }, "geometry": { "type": "MultiPolygon", "coordinates": [ [ [ [ 19.990376259275504, 68.441274569335036 ], [ 19.990412994722099, 68.440787538692163 ], [ 19.989712537460555, 68.440578758581864 ], [ 19.989546213734204, 68.440759104143936 ], [ 19.989659555093429, 68.441350027119398 ], [ 19.989932936429124, 68.441542693406049 ], [ 19.990376259275504, 68.441274569335036 ] ] ] ] } },
{ "type": "Feature", "properties": { "fid": 169674, "navn": null, "hoyde_moh": 768, "arealInnsjo_km2": 0.0041, "magasinKategori": null, "fid_2": 1293, "id": 1293, "left": 19.986919847, "top": 68.446110046000001, "right": 20.486919847, "bottom": 67.946110046000001, "row_index": 12, "col_index": 32, "tile_id": 1293 }, "geometry": { "type": "MultiPolygon", "coordinates": [ [ [ [ 20.010532537913836, 68.434190516822653 ], [ 20.010899264410813, 68.434250208161899 ], [ 20.012101972976396, 68.433962111219884 ], [ 20.011831009262195, 68.43375213769643 ], [ 20.010963868745797, 68.433627325747381 ], [ 20.00964547776778, 68.434102720892099 ], [ 20.010656217176148, 68.434268741810186 ], [ 20.010532537913836, 68.434190516822653 ] ] ] ] } },
{ "type": "Feature", "properties": { "fid": 169678, "navn": null, "hoyde_moh": 792, "arealInnsjo_km2": 0.0077, "magasinKategori": null, "fid_2": 1293, "id": 1293, "left": 19.986919847, "top": 68.446110046000001, "right": 20.486919847, "bottom": 67.946110046000001, "row_index": 12, "col_index": 32, "tile_id": 1293 }, "geometry": { "type": "MultiPolygon", "coordinates": [ [ [ [ 20.065198730455926, 68.438313676729649 ], [ 20.064895687426397, 68.43808963730585 ], [ 20.064985909582219, 68.437682597834495 ], [ 20.064721569778364, 68.437500288682656 ], [ 20.06328933385905, 68.437372092639393 ], [ 20.062807561850047, 68.43762936684918 ], [ 20.063437610333548, 68.438138787275946 ], [ 20.064853160219926, 68.43842363415024 ], [ 20.065198730455926, 68.438313676729649 ] ] ] ] } },
{ "type": "Feature", "properties": { "fid": 169741, "navn": null, "hoyde_moh": 767, "arealInnsjo_km2": 0.0038, "magasinKategori": null, "fid_2": 1293, "id": 1293, "left": 19.986919847, "top": 68.446110046000001, "right": 20.486919847, "bottom": 67.946110046000001, "row_index": 12, "col_index": 32, "tile_id": 1293 }, "geometry": { "type": "MultiPolygon", "coordinates": [ [ [ [ 19.996174124548062, 68.439657965006887 ], [ 19.995795087204094, 68.439335898643208 ], [ 19.996169905072819, 68.439149939880892 ], [ 19.996337449132788, 68.438793990024024 ], [ 19.996635763332133, 68.438691172435398 ], [ 19.99657780951744, 68.438600449162749 ], [ 19.996028984518052, 68.438536727902445 ], [ 19.995119701611692, 68.43949729638706 ], [ 19.995334960905602, 68.439755458407291 ], [ 19.996174124548062, 68.439657965006887 ] ] ] ] } },
{ "type": "Feature", "properties": { "fid": 169972, "navn": null, "hoyde_moh": 750, "arealInnsjo_km2": 0.0089, "magasinKategori": null, "fid_2": 1293, "id": 1293, "left": 19.986919847, "top": 68.446110046000001, "right": 20.486919847, "bottom": 67.946110046000001, "row_index": 12, "col_index": 32, "tile_id": 1293 }, "geometry": { "type": "MultiPolygon", "coordinates": [ [ [ [ 20.025357180404853, 68.432090588880769 ], [ 20.028412445674796, 68.43065364420481 ], [ 20.028885861697844, 68.430337995042322 ], [ 20.0287835363496, 68.430127375045416 ], [ 20.02909737887958, 68.429976805906293 ], [ 20.029006024404595, 68.429514378891781 ], [ 20.028661662559493, 68.429494708170907 ], [ 20.028517584701859, 68.429673353338544 ], [ 20.028931075660328, 68.429798333006588 ], [ 20.028980452304936, 68.429950016676173 ], [ 20.028195394481223, 68.430154617936708 ], [ 20.028183832418176, 68.430469761416589 ], [ 20.027699726532507, 68.430838525736149 ], [ 20.026165270321073, 68.431503149501538 ], [ 20.025344502077047, 68.431477031441645 ], [ 20.024719740319679, 68.431657543456552 ], [ 20.023845572482802, 68.432258025134587 ], [ 20.02379735984999, 68.432475603784781 ], [ 20.025357180404853, 68.432090588880769 ] ] ] ] } },
{ "type": "Feature", "properties": { "fid": 178058, "navn": null, "hoyde_moh": 767, "arealInnsjo_km2": 0.0052, "magasinKategori": null, "fid_2": 1293, "id": 1293, "left": 19.986919847, "top": 68.446110046000001, "right": 20.486919847, "bottom": 67.946110046000001, "row_index": 12, "col_index": 32, "tile_id": 1293 }, "geometry": { "type": "MultiPolygon", "coordinates": [ [ [ [ 19.992178824644416, 68.441847316921994 ], [ 19.992996044012759, 68.441016963440333 ], [ 19.992962207456134, 68.440897008069825 ], [ 19.992149200002313, 68.441008002425505 ], [ 19.991192098091069, 68.441629197307137 ], [ 19.991295062193032, 68.441772090467552 ], [ 19.991091611180668, 68.44207109542721 ], [ 19.992019139736069, 68.4421119184926 ], [ 19.992220816389882, 68.441988703741558 ], [ 19.992178824644416, 68.441847316921994 ] ] ] ] } },
{ "type": "Feature", "properties": { "fid": 178993, "navn": null, "hoyde_moh": 767, "arealInnsjo_km2": 0.0065, "magasinKategori": null, "fid_2": 1293, "id": 1293, "left": 19.986919847, "top": 68.446110046000001, "right": 20.486919847, "bottom": 67.946110046000001, "row_index": 12, "col_index": 32, "tile_id": 1293 }, "geometry": { "type": "MultiPolygon", "coordinates": [ [ [ [ 19.994695934345433, 68.440091416086176 ], [ 19.993823293321647, 68.439985472970122 ], [ 19.993327658669767, 68.439682266281253 ], [ 19.992564499119485, 68.439920205308283 ], [ 19.99270767718787, 68.440149945150708 ], [ 19.992476248967424, 68.440283403563484 ], [ 19.992904968641895, 68.440543823442312 ], [ 19.993374983259216, 68.440722154029487 ], [ 19.99410619501543, 68.44066711147876 ], [ 19.994695934345433, 68.440091416086176 ] ] ] ] } },
{ "type": "Feature", "properties": { "fid": 178995, "navn": null, "hoyde_moh": 735, "arealInnsjo_km2": 0.0532, "magasinKategori": null, "fid_2": 1293, "id": 1293, "left": 19.986919847, "top": 68.446110046000001, "right": 20.486919847, "bottom": 67.946110046000001, "row_index": 12, "col_index": 32, "tile_id": 1293 }, "geometry": { "type": "MultiPolygon", "coordinates": [ [ [ [ 20.081199842160395, 68.446015492688787 ], [ 20.081912453598722, 68.445911339661166 ], [ 20.082131762197665, 68.445646611620404 ], [ 20.081519988527901, 68.445542170511189 ], [ 20.080146135450047, 68.446110046 ], [ 20.081037740046202, 68.446110046 ], [ 20.081199842160395, 68.446015492688787 ] ] ] ] } },
{ "type": "Feature", "properties": { "fid": 223422, "navn": null, "hoyde_moh": 767, "arealInnsjo_km2": 0.0237, "magasinKategori": null, "fid_2": 1293, "id": 1293, "left": 19.986919847, "top": 68.446110046000001, "right": 20.486919847, "bottom": 67.946110046000001, "row_index": 12, "col_index": 32, "tile_id": 1293 }, "geometry": { "type": "MultiPolygon", "coordinates": [ [ [ [ 20.000550745225965, 68.437471564080582 ], [ 20.001276224610621, 68.437055194603772 ], [ 20.002714697432058, 68.436585092187698 ], [ 20.002461760070307, 68.436545808755724 ], [ 20.002351198996987, 68.436287037631772 ], [ 20.000945318487993, 68.436288839636234 ], [ 19.999798218376164, 68.435987166229481 ], [ 19.998667486923168, 68.436120928023811 ], [ 19.997786581186915, 68.43649786605296 ], [ 19.997629673976004, 68.436828767099342 ], [ 19.998623686540149, 68.437007503741924 ], [ 19.998682777267913, 68.437094504913432 ], [ 19.998223586253651, 68.437129739979042 ], [ 19.99829255222517, 68.437344338340452 ], [ 19.998926870307312, 68.437568102240803 ], [ 19.998814509580509, 68.437643775083956 ], [ 19.998901419609364, 68.437796858084923 ], [ 20.000550745225965, 68.437471564080582 ] ] ] ] } },
{ "type": "Feature", "properties": { "fid": 223423, "navn": null, "hoyde_moh": 790, "arealInnsjo_km2": 0.059, "magasinKategori": null, "fid_2": 1293, "id": 1293, "left": 19.986919847, "top": 68.446110046000001, "right": 20.486919847, "bottom": 67.946110046000001, "row_index": 12, "col_index": 32, "tile_id": 1293 }, "geometry": { "type": "MultiPolygon", "coordinates": [ [ [ [ 20.039970944291419, 68.445248124149032 ], [ 20.041157228446089, 68.444833769545227 ], [ 20.042704591189828, 68.443596863227214 ], [ 20.042375404289377, 68.443189192914815 ], [ 20.041192998948283, 68.44315453732726 ], [ 20.040189066365677, 68.44293865174383 ], [ 20.037801311717807, 68.443015251106303 ], [ 20.036593863599041, 68.443232437522113 ], [ 20.036154472344389, 68.44349077484604 ], [ 20.036465379866137, 68.443655621692457 ], [ 20.036556300641088, 68.444212772135245 ], [ 20.036247396534357, 68.444669276297404 ], [ 20.035843435899526, 68.444847484835094 ], [ 20.035973129746015, 68.445209910997065 ], [ 20.036220650478111, 68.44544142766631 ], [ 20.036878434167082, 68.445634854431688 ], [ 20.037966887760149, 68.445652409087543 ], [ 20.039970944291419, 68.445248124149032 ] ] ] ] } },
{ "type": "Feature", "properties": { "fid": 269353, "navn": null, "hoyde_moh": 685, "arealInnsjo_km2": 0.0279, "magasinKategori": null, "fid_2": 1293, "id": 1293, "left": 19.986919847, "top": 68.446110046000001, "right": 20.486919847, "bottom": 67.946110046000001, "row_index": 12, "col_index": 32, "tile_id": 1293 }, "geometry": { "type": "MultiPolygon", "coordinates": [ [ [ [ 20.116416128057708, 68.445016019579484 ], [ 20.118776176059011, 68.443533402676522 ], [ 20.117954739297367, 68.443342870967484 ], [ 20.11656294241255, 68.44337305629503 ], [ 20.115562167982098, 68.443884872149809 ], [ 20.11541646319051, 68.444287542849139 ], [ 20.115192399425162, 68.444393954596663 ], [ 20.114432543127499, 68.444325961022784 ], [ 20.11393305493139, 68.444561094051622 ], [ 20.111531776862748, 68.444791427192641 ], [ 20.111824571843105, 68.444927648682111 ], [ 20.111775478968902, 68.445099875796544 ], [ 20.112312162104651, 68.445286922441909 ], [ 20.114560200538797, 68.445288538607883 ], [ 20.116416128057708, 68.445016019579484 ] ] ] ] } }
]
}
