{
"type": "FeatureCollection",
"name": "innsjo_tile_id_1850",
"crs": { "type": "name", "properties": { "name": "urn:ogc:def:crs:OGC:1.3:CRS84" } },
"xy_coordinate_resolution": 1e-15,
"features": [
{ "type": "Feature", "properties": { "fid": 229410, "navn": "Alggavárjávri", "hoyde_moh": 239, "arealInnsjo_km2": 0.0296, "magasinKategori": null, "fid_2": 1850, "id": 1850, "left": 26.986919847, "top": 69.946110046000001, "right": 27.486919847, "bottom": 69.446110046000001, "row_index": 9, "col_index": 46, "tile_id": 1850 }, "geometry": { "type": "MultiPolygon", "coordinates": [ [ [ [ 27.042623752927774, 69.938087139921819 ], [ 27.042708762179146, 69.937936433027687 ], [ 27.04225754397438, 69.937693721402312 ], [ 27.040510195655351, 69.937644432922497 ], [ 27.040129597599201, 69.937431615017061 ], [ 27.039257731488913, 69.937580338959137 ], [ 27.038766127408312, 69.937316590578916 ], [ 27.036302300879811, 69.937147599049226 ], [ 27.033720390969911, 69.937138663093407 ], [ 27.033474323736016, 69.937599629904696 ], [ 27.036967110888988, 69.938263470900239 ], [ 27.039157780794806, 69.938284224169777 ], [ 27.039585317344383, 69.938147636499934 ], [ 27.041621208659382, 69.938265572039739 ], [ 27.042623752927774, 69.938087139921819 ] ] ] ] } },
{ "type": "Feature", "properties": { "fid": 229411, "navn": null, "hoyde_moh": 252, "arealInnsjo_km2": 0.0238, "magasinKategori": null, "fid_2": 1850, "id": 1850, "left": 26.986919847, "top": 69.946110046000001, "right": 27.486919847, "bottom": 69.446110046000001, "row_index": 9, "col_index": 46, "tile_id": 1850 }, "geometry": { "type": "MultiPolygon", "coordinates": [ [ [ [ 27.049160894881243, 69.931246153864365 ], [ 27.049214433248363, 69.93095748920382 ], [ 27.048296557002516, 69.931092387214917 ], [ 27.047506709768772, 69.931415231230829 ], [ 27.044671659290465, 69.931012426899443 ], [ 27.043917513276092, 69.931245860895103 ], [ 27.043675974902502, 69.931527024400708 ], [ 27.043917108203658, 69.93165528809071 ], [ 27.043392512897178, 69.931871095575943 ], [ 27.043764205789618, 69.931861206058457 ], [ 27.043691776518269, 69.932362523246141 ], [ 27.044867239968035, 69.932707993559475 ], [ 27.045785092453862, 69.932727193578827 ], [ 27.049160894881243, 69.931246153864365 ] ] ] ] } },
{ "type": "Feature", "properties": { "fid": 229419, "navn": null, "hoyde_moh": 72, "arealInnsjo_km2": 0.0108, "magasinKategori": null, "fid_2": 1850, "id": 1850, "left": 26.986919847, "top": 69.946110046000001, "right": 27.486919847, "bottom": 69.446110046000001, "row_index": 9, "col_index": 46, "tile_id": 1850 }, "geometry": { "type": "MultiPolygon", "coordinates": [ [ [ [ 27.031645440968976, 69.917216998558871 ], [ 27.03295474573456, 69.917188588743826 ], [ 27.035475829238148, 69.916571255788099 ], [ 27.031622401409326, 69.916865755499089 ], [ 27.027510433907274, 69.918228843886922 ], [ 27.027885792840372, 69.918279927850122 ], [ 27.031645440968976, 69.917216998558871 ] ] ] ] } },
{ "type": "Feature", "properties": { "fid": 229422, "navn": null, "hoyde_moh": 81, "arealInnsjo_km2": 0.0027, "magasinKategori": null, "fid_2": 1850, "id": 1850, "left": 26.986919847, "top": 69.946110046000001, "right": 27.486919847, "bottom": 69.446110046000001, "row_index": 9, "col_index": 46, "tile_id": 1850 }, "geometry": { "type": "MultiPolygon", "coordinates": [ [ [ [ 27.104358213884336, 69.928827987344434 ], [ 27.104007939626285, 69.928590371758716 ], [ 27.102680970468821, 69.928378628485717 ], [ 27.101663519201974, 69.928406584686826 ], [ 27.102236802062613, 69.928687076886561 ], [ 27.104358213884336, 69.928827987344434 ] ] ] ] } },
{ "type": "Feature", "properties": { "fid": 229424, "navn": null, "hoyde_moh": 252, "arealInnsjo_km2": 0.0084, "magasinKategori": null, "fid_2": 1850, "id": 1850, "left": 26.986919847, "top": 69.946110046000001, "right": 27.486919847, "bottom": 69.446110046000001, "row_index": 9, "col_index": 46, "tile_id": 1850 }, "geometry": { "type": "MultiPolygon", "coordinates": [ [ [ [ 27.032455577035737, 69.931317147420614 ], [ 27.031759287748866, 69.930772013205882 ], [ 27.029650720010213, 69.931088913168054 ], [ 27.029163047420628, 69.931371000966791 ], [ 27.030709299486634, 69.931694710229209 ], [ 27.031702827210253, 69.931672108568435 ], [ 27.032455577035737, 69.931317147420614 ] ] ] ] } },
{ "type": "Feature", "properties": { "fid": 229425, "navn": null, "hoyde_moh": 253, "arealInnsjo_km2": 0.0035, "magasinKategori": null, "fid_2": 1850, "id": 1850, "left": 26.986919847, "top": 69.946110046000001, "right": 27.486919847, "bottom": 69.446110046000001, "row_index": 9, "col_index": 46, "tile_id": 1850 }, "geometry": { "type": "MultiPolygon", "coordinates": [ [ [ [ 27.020119492233892, 69.932447344016325 ], [ 27.021414502773705, 69.932449340022231 ], [ 27.021627149847067, 69.932389856027982 ], [ 27.021640012223799, 69.932236825807365 ], [ 27.019626565757623, 69.932213482396151 ], [ 27.018982987166542, 69.932431078660656 ], [ 27.018754838185785, 69.932714368875978 ], [ 27.020119492233892, 69.932447344016325 ] ] ] ] } },
{ "type": "Feature", "properties": { "fid": 229430, "navn": null, "hoyde_moh": 252, "arealInnsjo_km2": 0.0111, "magasinKategori": null, "fid_2": 1850, "id": 1850, "left": 26.986919847, "top": 69.946110046000001, "right": 27.486919847, "bottom": 69.446110046000001, "row_index": 9, "col_index": 46, "tile_id": 1850 }, "geometry": { "type": "MultiPolygon", "coordinates": [ [ [ [ 27.022545556707598, 69.933043083598804 ], [ 27.023893773723646, 69.932425520508772 ], [ 27.023905493667002, 69.932260983223344 ], [ 27.025563967868816, 69.932212071455766 ], [ 27.026534282801176, 69.931836446690156 ], [ 27.026746699514987, 69.931595632930481 ], [ 27.025472238189987, 69.931844935803014 ], [ 27.023713216366836, 69.931891269856649 ], [ 27.021981515014716, 69.93258415767194 ], [ 27.021465664014414, 69.932943495123155 ], [ 27.022202105157472, 69.933335395632824 ], [ 27.022106105737798, 69.933738775942658 ], [ 27.022431418259384, 69.933807919785608 ], [ 27.022545556707598, 69.933043083598804 ] ] ] ] } },
{ "type": "Feature", "properties": { "fid": 229431, "navn": null, "hoyde_moh": 253, "arealInnsjo_km2": 0.015, "magasinKategori": null, "fid_2": 1850, "id": 1850, "left": 26.986919847, "top": 69.946110046000001, "right": 27.486919847, "bottom": 69.446110046000001, "row_index": 9, "col_index": 46, "tile_id": 1850 }, "geometry": { "type": "MultiPolygon", "coordinates": [ [ [ [ 27.040933885580969, 69.931069418956 ], [ 27.040372481924809, 69.931056871332856 ], [ 27.038996137149393, 69.930641279039534 ], [ 27.035078796612108, 69.930809657335502 ], [ 27.035224221991893, 69.931038101462036 ], [ 27.035625121731751, 69.931168064939712 ], [ 27.036726181451353, 69.931333975973999 ], [ 27.04138211682945, 69.931450710423618 ], [ 27.040933885580969, 69.931069418956 ] ] ] ] } },
{ "type": "Feature", "properties": { "fid": 229447, "navn": null, "hoyde_moh": 212, "arealInnsjo_km2": 0.0086, "magasinKategori": null, "fid_2": 1850, "id": 1850, "left": 26.986919847, "top": 69.946110046000001, "right": 27.486919847, "bottom": 69.446110046000001, "row_index": 9, "col_index": 46, "tile_id": 1850 }, "geometry": { "type": "MultiPolygon", "coordinates": [ [ [ [ 27.044532898425821, 69.940876238701549 ], [ 27.044273239889822, 69.940692777285648 ], [ 27.041962112487557, 69.94027679754393 ], [ 27.041247110225125, 69.940314757572892 ], [ 27.040494238237507, 69.940606539782664 ], [ 27.041092745557037, 69.940869322444641 ], [ 27.044479807797128, 69.941050657647637 ], [ 27.044532898425821, 69.940876238701549 ] ] ] ] } },
{ "type": "Feature", "properties": { "fid": 229456, "navn": null, "hoyde_moh": 59, "arealInnsjo_km2": 0.0071, "magasinKategori": null, "fid_2": 1850, "id": 1850, "left": 26.986919847, "top": 69.946110046000001, "right": 27.486919847, "bottom": 69.446110046000001, "row_index": 9, "col_index": 46, "tile_id": 1850 }, "geometry": { "type": "MultiPolygon", "coordinates": [ [ [ [ 27.207754007762873, 69.945736091173103 ], [ 27.207153770171566, 69.945730222672168 ], [ 27.206632806745116, 69.945974546687196 ], [ 27.206732955662659, 69.946110046 ], [ 27.208878722402918, 69.946110046 ], [ 27.207754007762873, 69.945736091173103 ] ] ] ] } },
{ "type": "Feature", "properties": { "fid": 259869, "navn": null, "hoyde_moh": 290, "arealInnsjo_km2": 0.0031, "magasinKategori": null, "fid_2": 1850, "id": 1850, "left": 26.986919847, "top": 69.946110046000001, "right": 27.486919847, "bottom": 69.446110046000001, "row_index": 9, "col_index": 46, "tile_id": 1850 }, "geometry": { "type": "MultiPolygon", "coordinates": [ [ [ [ 27.017737381675715, 69.946030099603149 ], [ 27.017383065962122, 69.945912849881012 ], [ 27.016855666883064, 69.945927788721349 ], [ 27.016877681824187, 69.946110046 ], [ 27.01776580054441, 69.946110046 ], [ 27.017737381675715, 69.946030099603149 ] ] ] ] } }
]
}
