{
"type": "FeatureCollection",
"name": "innsjo_tile_id_976",
"crs": { "type": "name", "properties": { "name": "urn:ogc:def:crs:OGC:1.3:CRS84" } },
"xy_coordinate_resolution": 1e-15,
"features": [
{ "type": "Feature", "properties": { "fid": 1916, "navn": null, "hoyde_moh": null, "arealInnsjo_km2": 0.0084, "magasinKategori": null, "fid_2": 976, "id": 976, "left": 15.986919847, "top": 66.946110046000001, "right": 16.486919847, "bottom": 66.446110046000001, "row_index": 15, "col_index": 24, "tile_id": 976 }, "geometry": { "type": "MultiPolygon", "coordinates": [ [ [ [ 16.036592439582787, 66.941403026494555 ], [ 16.037385466239055, 66.941218417498135 ], [ 16.035783798465637, 66.941219900719204 ], [ 16.033957256953709, 66.940774255899271 ], [ 16.033432267895662, 66.940804587783447 ], [ 16.033714365290479, 66.940982182201566 ], [ 16.034172100510084, 66.940979201965348 ], [ 16.033952615151051, 66.941204919243091 ], [ 16.034008623225567, 66.941446785697266 ], [ 16.034472219375882, 66.941587310861706 ], [ 16.035110842613562, 66.941538291941868 ], [ 16.035788702642577, 66.94187479015541 ], [ 16.036592439582787, 66.941403026494555 ] ] ] ] } },
{ "type": "Feature", "properties": { "fid": 2584, "navn": null, "hoyde_moh": null, "arealInnsjo_km2": 0.0044, "magasinKategori": null, "fid_2": 976, "id": 976, "left": 15.986919847, "top": 66.946110046000001, "right": 16.486919847, "bottom": 66.446110046000001, "row_index": 15, "col_index": 24, "tile_id": 976 }, "geometry": { "type": "MultiPolygon", "coordinates": [ [ [ [ 16.025163255549835, 66.935690594934556 ], [ 16.023626800266978, 66.935601821295634 ], [ 16.024834126538785, 66.936024665589656 ], [ 16.02563573263032, 66.936046404109916 ], [ 16.026267820900589, 66.935844946521058 ], [ 16.026137261401022, 66.935460015250271 ], [ 16.025163255549835, 66.935690594934556 ] ] ] ] } },
{ "type": "Feature", "properties": { "fid": 3843, "navn": "Metskidalstjørna", "hoyde_moh": 645, "arealInnsjo_km2": 0.1144, "magasinKategori": null, "fid_2": 976, "id": 976, "left": 15.986919847, "top": 66.946110046000001, "right": 16.486919847, "bottom": 66.446110046000001, "row_index": 15, "col_index": 24, "tile_id": 976 }, "geometry": { "type": "MultiPolygon", "coordinates": [ [ [ [ 16.072190158362037, 66.943049094284163 ], [ 16.072084367003189, 66.943000644121227 ], [ 16.072399179090592, 66.942259438372403 ], [ 16.071949068874137, 66.942207301892054 ], [ 16.071877433822298, 66.942045489204261 ], [ 16.070850712952243, 66.941947089219809 ], [ 16.070261793317687, 66.941755837353355 ], [ 16.070076097188746, 66.94147645724567 ], [ 16.06896759342456, 66.941202753091787 ], [ 16.066776231585518, 66.941188151763583 ], [ 16.066181291548713, 66.940946953724236 ], [ 16.065386476475872, 66.941122209870315 ], [ 16.063783855095991, 66.940870803872329 ], [ 16.062614163710489, 66.940881775151823 ], [ 16.062505569996439, 66.940673643373415 ], [ 16.062183427175995, 66.940595413084495 ], [ 16.060181646080508, 66.940461028096209 ], [ 16.058929049793782, 66.940944609980662 ], [ 16.058639597500704, 66.941197923298944 ], [ 16.059297325600163, 66.941764488213011 ], [ 16.060892963169724, 66.942091885712514 ], [ 16.063775541912655, 66.942145093358562 ], [ 16.065832177427644, 66.942358195124868 ], [ 16.068410545948193, 66.943375473543767 ], [ 16.068303676009325, 66.943642110360216 ], [ 16.068414919132, 66.944139374921974 ], [ 16.069146939630429, 66.944430511224752 ], [ 16.070789757331646, 66.944464750181851 ], [ 16.072009317527343, 66.943605298056497 ], [ 16.073296042124397, 66.943156371082139 ], [ 16.073360986248307, 66.943004401844192 ], [ 16.072190158362037, 66.943049094284163 ] ], [ [ 16.07072002524075, 66.943219424832549 ], [ 16.070785543094686, 66.943090599584195 ], [ 16.07151992526121, 66.942914288899559 ], [ 16.071423940133219, 66.943250833034924 ], [ 16.07072002524075, 66.943219424832549 ] ] ] ] } },
{ "type": "Feature", "properties": { "fid": 18359, "navn": null, "hoyde_moh": 788, "arealInnsjo_km2": 0.0028, "magasinKategori": null, "fid_2": 976, "id": 976, "left": 15.986919847, "top": 66.946110046000001, "right": 16.486919847, "bottom": 66.446110046000001, "row_index": 15, "col_index": 24, "tile_id": 976 }, "geometry": { "type": "MultiPolygon", "coordinates": [ [ [ [ 16.042961260793113, 66.915157657123615 ], [ 16.043211779623622, 66.915184450058632 ], [ 16.043490530129159, 66.915556641823798 ], [ 16.042615587802629, 66.915713385036938 ], [ 16.043127093605118, 66.915867384414241 ], [ 16.043780905971303, 66.915644178436935 ], [ 16.043908770911035, 66.915250202992866 ], [ 16.0435844771911, 66.915015935391665 ], [ 16.042933692642563, 66.914886538069254 ], [ 16.042961260793113, 66.915157657123615 ] ] ] ] } },
{ "type": "Feature", "properties": { "fid": 19108, "navn": null, "hoyde_moh": 760, "arealInnsjo_km2": 0.0051, "magasinKategori": null, "fid_2": 976, "id": 976, "left": 15.986919847, "top": 66.946110046000001, "right": 16.486919847, "bottom": 66.446110046000001, "row_index": 15, "col_index": 24, "tile_id": 976 }, "geometry": { "type": "MultiPolygon", "coordinates": [ [ [ [ 16.061882033442068, 66.926921500754915 ], [ 16.061923043089664, 66.926649656230069 ], [ 16.061089716173065, 66.926344184101453 ], [ 16.060907295058122, 66.926403629138676 ], [ 16.061149374269203, 66.926664699161478 ], [ 16.0608558514487, 66.926904139259833 ], [ 16.059198458154494, 66.926901660697197 ], [ 16.059673206162174, 66.927223173796492 ], [ 16.061882033442068, 66.926921500754915 ] ] ] ] } },
{ "type": "Feature", "properties": { "fid": 23340, "navn": null, "hoyde_moh": 712, "arealInnsjo_km2": 0.0029, "magasinKategori": null, "fid_2": 976, "id": 976, "left": 15.986919847, "top": 66.946110046000001, "right": 16.486919847, "bottom": 66.446110046000001, "row_index": 15, "col_index": 24, "tile_id": 976 }, "geometry": { "type": "MultiPolygon", "coordinates": [ [ [ [ 16.079436329439869, 66.931157112550054 ], [ 16.079345268967145, 66.930825243269624 ], [ 16.079142370268972, 66.930726409620675 ], [ 16.078639865736051, 66.931006061082584 ], [ 16.078281698379868, 66.931498614045566 ], [ 16.078592878160567, 66.931609811724442 ], [ 16.079110036039207, 66.931532101876499 ], [ 16.079436329439869, 66.931157112550054 ] ] ] ] } },
{ "type": "Feature", "properties": { "fid": 29479, "navn": null, "hoyde_moh": 628, "arealInnsjo_km2": 0.0037, "magasinKategori": null, "fid_2": 976, "id": 976, "left": 15.986919847, "top": 66.946110046000001, "right": 16.486919847, "bottom": 66.446110046000001, "row_index": 15, "col_index": 24, "tile_id": 976 }, "geometry": { "type": "MultiPolygon", "coordinates": [ [ [ [ 16.036400835232268, 66.923581061736783 ], [ 16.034979923266974, 66.923579657974713 ], [ 16.033824291040393, 66.924125033789338 ], [ 16.034380304803697, 66.924193273125212 ], [ 16.035531226482544, 66.923806720307667 ], [ 16.036498899245732, 66.923736705692704 ], [ 16.036400835232268, 66.923581061736783 ] ] ] ] } },
{ "type": "Feature", "properties": { "fid": 32458, "navn": null, "hoyde_moh": null, "arealInnsjo_km2": 0.0043, "magasinKategori": null, "fid_2": 976, "id": 976, "left": 15.986919847, "top": 66.946110046000001, "right": 16.486919847, "bottom": 66.446110046000001, "row_index": 15, "col_index": 24, "tile_id": 976 }, "geometry": { "type": "MultiPolygon", "coordinates": [ [ [ [ 16.025212356538109, 66.941763989361959 ], [ 16.023890055264111, 66.941880178227791 ], [ 16.025348586804693, 66.942283457161324 ], [ 16.026420015731226, 66.942186820883776 ], [ 16.026020559844525, 66.941938199950201 ], [ 16.026193390218797, 66.941694852549929 ], [ 16.025664226373522, 66.941626499000535 ], [ 16.025212356538109, 66.941763989361959 ] ] ] ] } },
{ "type": "Feature", "properties": { "fid": 34068, "navn": null, "hoyde_moh": null, "arealInnsjo_km2": 0.0127, "magasinKategori": null, "fid_2": 976, "id": 976, "left": 15.986919847, "top": 66.946110046000001, "right": 16.486919847, "bottom": 66.446110046000001, "row_index": 15, "col_index": 24, "tile_id": 976 }, "geometry": { "type": "MultiPolygon", "coordinates": [ [ [ [ 16.017231701615323, 66.943537835104152 ], [ 16.01805000704103, 66.943954251732748 ], [ 16.018381206040861, 66.943665040693801 ], [ 16.019015419547316, 66.943508367631694 ], [ 16.019006062816114, 66.943284230090612 ], [ 16.019185334961037, 66.943193275097613 ], [ 16.018952819729002, 66.943105141867562 ], [ 16.019176725757067, 66.942987075737975 ], [ 16.018665186886754, 66.942792895129926 ], [ 16.01881671705447, 66.942585578793839 ], [ 16.018696725528173, 66.942451955569084 ], [ 16.018305196958874, 66.942391576385333 ], [ 16.015802701835739, 66.942748429502615 ], [ 16.017857321097303, 66.943174967185755 ], [ 16.017861809013869, 66.943282596297848 ], [ 16.016714193145155, 66.94320023239861 ], [ 16.016833064158842, 66.943307129212641 ], [ 16.016540510632364, 66.943425631364974 ], [ 16.017231701615323, 66.943537835104152 ] ] ] ] } },
{ "type": "Feature", "properties": { "fid": 34380, "navn": null, "hoyde_moh": 789, "arealInnsjo_km2": 0.0025, "magasinKategori": null, "fid_2": 976, "id": 976, "left": 15.986919847, "top": 66.946110046000001, "right": 16.486919847, "bottom": 66.446110046000001, "row_index": 15, "col_index": 24, "tile_id": 976 }, "geometry": { "type": "MultiPolygon", "coordinates": [ [ [ [ 16.056981587996095, 66.934433456528097 ], [ 16.055163679546844, 66.934714426690547 ], [ 16.056524178120615, 66.934800657263182 ], [ 16.057175638560711, 66.934709745111221 ], [ 16.057382394376553, 66.934497446508928 ], [ 16.056981587996095, 66.934433456528097 ] ] ] ] } },
{ "type": "Feature", "properties": { "fid": 38546, "navn": null, "hoyde_moh": null, "arealInnsjo_km2": 0.0043, "magasinKategori": null, "fid_2": 976, "id": 976, "left": 15.986919847, "top": 66.946110046000001, "right": 16.486919847, "bottom": 66.446110046000001, "row_index": 15, "col_index": 24, "tile_id": 976 }, "geometry": { "type": "MultiPolygon", "coordinates": [ [ [ [ 16.048140460686835, 66.944960704941764 ], [ 16.049635305768437, 66.945130263869615 ], [ 16.048550116187677, 66.944374850319576 ], [ 16.047500403891874, 66.944444577954485 ], [ 16.048140460686835, 66.944960704941764 ] ] ] ] } },
{ "type": "Feature", "properties": { "fid": 38598, "navn": null, "hoyde_moh": 598, "arealInnsjo_km2": 0.0059, "magasinKategori": null, "fid_2": 976, "id": 976, "left": 15.986919847, "top": 66.946110046000001, "right": 16.486919847, "bottom": 66.446110046000001, "row_index": 15, "col_index": 24, "tile_id": 976 }, "geometry": { "type": "MultiPolygon", "coordinates": [ [ [ [ 16.01808355180205, 66.927858451340356 ], [ 16.017604990508147, 66.928102225505413 ], [ 16.017881182969241, 66.928418853432021 ], [ 16.019562249663071, 66.928646796756894 ], [ 16.019704684178357, 66.928399165339101 ], [ 16.019546895617246, 66.928246048343297 ], [ 16.020046701493854, 66.927936370549162 ], [ 16.01808355180205, 66.927858451340356 ] ] ] ] } },
{ "type": "Feature", "properties": { "fid": 43512, "navn": null, "hoyde_moh": 1026, "arealInnsjo_km2": 0.0045, "magasinKategori": null, "fid_2": 976, "id": 976, "left": 15.986919847, "top": 66.946110046000001, "right": 16.486919847, "bottom": 66.446110046000001, "row_index": 15, "col_index": 24, "tile_id": 976 }, "geometry": { "type": "MultiPolygon", "coordinates": [ [ [ [ 16.013041258056681, 66.906959642888893 ], [ 16.013134388623389, 66.907111743364183 ], [ 16.013003501216037, 66.907261685956627 ], [ 16.01427598967118, 66.907145357951748 ], [ 16.015836923817023, 66.906591246256909 ], [ 16.013565992657018, 66.906940142074802 ], [ 16.014021887959128, 66.906660187728505 ], [ 16.013041258056681, 66.906959642888893 ] ] ] ] } },
{ "type": "Feature", "properties": { "fid": 44182, "navn": null, "hoyde_moh": 750, "arealInnsjo_km2": 0.0076, "magasinKategori": null, "fid_2": 976, "id": 976, "left": 15.986919847, "top": 66.946110046000001, "right": 16.486919847, "bottom": 66.446110046000001, "row_index": 15, "col_index": 24, "tile_id": 976 }, "geometry": { "type": "MultiPolygon", "coordinates": [ [ [ [ 16.017436144733349, 66.918974436999093 ], [ 16.018926104369534, 66.91891131700369 ], [ 16.019521410524678, 66.919185520810174 ], [ 16.020256178875258, 66.919251494023754 ], [ 16.020483999274454, 66.919238007291639 ], [ 16.020827287102879, 66.918885640814196 ], [ 16.020347814172162, 66.918522327600158 ], [ 16.019479801131812, 66.918445637757486 ], [ 16.018904506144654, 66.918481002216396 ], [ 16.018474255906945, 66.918859132564862 ], [ 16.018085904239978, 66.918838478083742 ], [ 16.018149609541339, 66.918699459414441 ], [ 16.017904304295453, 66.918583954847762 ], [ 16.017315780601656, 66.91873001716236 ], [ 16.017436144733349, 66.918974436999093 ] ] ] ] } },
{ "type": "Feature", "properties": { "fid": 45640, "navn": null, "hoyde_moh": 783, "arealInnsjo_km2": 0.0027, "magasinKategori": null, "fid_2": 976, "id": 976, "left": 15.986919847, "top": 66.946110046000001, "right": 16.486919847, "bottom": 66.446110046000001, "row_index": 15, "col_index": 24, "tile_id": 976 }, "geometry": { "type": "MultiPolygon", "coordinates": [ [ [ [ 16.039178054175846, 66.913704505011708 ], [ 16.03862193341034, 66.913730665141614 ], [ 16.039014515697328, 66.913992127802416 ], [ 16.038390093207994, 66.914229207193571 ], [ 16.038614350251162, 66.914396763561825 ], [ 16.039944913969308, 66.914248001854915 ], [ 16.039178054175846, 66.913704505011708 ] ] ] ] } },
{ "type": "Feature", "properties": { "fid": 45901, "navn": null, "hoyde_moh": null, "arealInnsjo_km2": 0.003, "magasinKategori": null, "fid_2": 976, "id": 976, "left": 15.986919847, "top": 66.946110046000001, "right": 16.486919847, "bottom": 66.446110046000001, "row_index": 15, "col_index": 24, "tile_id": 976 }, "geometry": { "type": "MultiPolygon", "coordinates": [ [ [ [ 16.048778695495837, 66.9422381121435 ], [ 16.046833816288533, 66.942241972647381 ], [ 16.047371903018547, 66.942516542803702 ], [ 16.048563419332577, 66.942553627667039 ], [ 16.048778695495837, 66.9422381121435 ] ] ] ] } },
{ "type": "Feature", "properties": { "fid": 46166, "navn": null, "hoyde_moh": 754, "arealInnsjo_km2": 0.0045, "magasinKategori": null, "fid_2": 976, "id": 976, "left": 15.986919847, "top": 66.946110046000001, "right": 16.486919847, "bottom": 66.446110046000001, "row_index": 15, "col_index": 24, "tile_id": 976 }, "geometry": { "type": "MultiPolygon", "coordinates": [ [ [ [ 16.026737866225332, 66.918605635392026 ], [ 16.027099124717857, 66.918770257783564 ], [ 16.026805396904606, 66.918983258871933 ], [ 16.027206861633353, 66.919168793698944 ], [ 16.027329969082832, 66.919416239114753 ], [ 16.028444476616102, 66.919454595427325 ], [ 16.028304749197268, 66.919160157949634 ], [ 16.02767192374937, 66.918697378735828 ], [ 16.027841682148644, 66.918597233500336 ], [ 16.026737866225332, 66.918605635392026 ] ] ] ] } },
{ "type": "Feature", "properties": { "fid": 50187, "navn": null, "hoyde_moh": null, "arealInnsjo_km2": 0.0027, "magasinKategori": null, "fid_2": 976, "id": 976, "left": 15.986919847, "top": 66.946110046000001, "right": 16.486919847, "bottom": 66.446110046000001, "row_index": 15, "col_index": 24, "tile_id": 976 }, "geometry": { "type": "MultiPolygon", "coordinates": [ [ [ [ 16.038352039497113, 66.944576334450986 ], [ 16.03675320301608, 66.944649669674121 ], [ 16.037745759087741, 66.944849532554002 ], [ 16.039231360826225, 66.944803932668336 ], [ 16.038352039497113, 66.944576334450986 ] ] ] ] } },
{ "type": "Feature", "properties": { "fid": 60645, "navn": null, "hoyde_moh": 626, "arealInnsjo_km2": 0.0025, "magasinKategori": null, "fid_2": 976, "id": 976, "left": 15.986919847, "top": 66.946110046000001, "right": 16.486919847, "bottom": 66.446110046000001, "row_index": 15, "col_index": 24, "tile_id": 976 }, "geometry": { "type": "MultiPolygon", "coordinates": [ [ [ [ 16.031457550679896, 66.924614937125924 ], [ 16.031319216915765, 66.924701783379305 ], [ 16.032829263755531, 66.924873727501136 ], [ 16.033098086746087, 66.924785133448708 ], [ 16.032817965298786, 66.924660547540654 ], [ 16.032822470294235, 66.924523702251776 ], [ 16.033386882556037, 66.924536266895331 ], [ 16.032831081779602, 66.92440827221678 ], [ 16.031457550679896, 66.924614937125924 ] ] ] ] } },
{ "type": "Feature", "properties": { "fid": 68094, "navn": null, "hoyde_moh": null, "arealInnsjo_km2": 0.0038, "magasinKategori": null, "fid_2": 976, "id": 976, "left": 15.986919847, "top": 66.946110046000001, "right": 16.486919847, "bottom": 66.446110046000001, "row_index": 15, "col_index": 24, "tile_id": 976 }, "geometry": { "type": "MultiPolygon", "coordinates": [ [ [ [ 16.028645012516179, 66.94557253723157 ], [ 16.028538933083336, 66.945770687097848 ], [ 16.029053634305814, 66.946036498439568 ], [ 16.029523901369277, 66.945791220165063 ], [ 16.031162914333123, 66.945583214431906 ], [ 16.029051934288951, 66.945453361398876 ], [ 16.028645012516179, 66.94557253723157 ] ] ] ] } },
{ "type": "Feature", "properties": { "fid": 69666, "navn": null, "hoyde_moh": null, "arealInnsjo_km2": 0.0073, "magasinKategori": null, "fid_2": 976, "id": 976, "left": 15.986919847, "top": 66.946110046000001, "right": 16.486919847, "bottom": 66.446110046000001, "row_index": 15, "col_index": 24, "tile_id": 976 }, "geometry": { "type": "MultiPolygon", "coordinates": [ [ [ [ 16.037292098649484, 66.939021002327294 ], [ 16.036779360729245, 66.938800062604628 ], [ 16.035926200021098, 66.938644143209942 ], [ 16.034650625909283, 66.938778061097622 ], [ 16.033959490390391, 66.938665933035608 ], [ 16.031457461053275, 66.939014151399164 ], [ 16.031394295147955, 66.939149134494158 ], [ 16.032331583816198, 66.939125100827368 ], [ 16.033237038264406, 66.938894923704666 ], [ 16.037292098649484, 66.939021002327294 ] ] ] ] } },
{ "type": "Feature", "properties": { "fid": 74708, "navn": null, "hoyde_moh": 1025, "arealInnsjo_km2": 0.0028, "magasinKategori": null, "fid_2": 976, "id": 976, "left": 15.986919847, "top": 66.946110046000001, "right": 16.486919847, "bottom": 66.446110046000001, "row_index": 15, "col_index": 24, "tile_id": 976 }, "geometry": { "type": "MultiPolygon", "coordinates": [ [ [ [ 16.001271257109117, 66.908155991501573 ], [ 16.001080465763312, 66.908000015046937 ], [ 16.001227051283248, 66.907835360083865 ], [ 16.000985454528749, 66.907766727707298 ], [ 15.999594491417394, 66.908318633211437 ], [ 16.000000107829543, 66.908497749493151 ], [ 16.001271257109117, 66.908155991501573 ] ] ] ] } },
{ "type": "Feature", "properties": { "fid": 87024, "navn": null, "hoyde_moh": null, "arealInnsjo_km2": 0.0067, "magasinKategori": null, "fid_2": 976, "id": 976, "left": 15.986919847, "top": 66.946110046000001, "right": 16.486919847, "bottom": 66.446110046000001, "row_index": 15, "col_index": 24, "tile_id": 976 }, "geometry": { "type": "MultiPolygon", "coordinates": [ [ [ [ 16.021573942766505, 66.942307782948731 ], [ 16.021728823779593, 66.942181185605605 ], [ 16.022537996354394, 66.942373350612982 ], [ 16.022945038169869, 66.942263071268371 ], [ 16.022931887578089, 66.941949243166519 ], [ 16.022421092025045, 66.941773012800937 ], [ 16.021444547768702, 66.941949755336822 ], [ 16.020929645255944, 66.9422222112063 ], [ 16.020939022917368, 66.942446438334471 ], [ 16.020016814708008, 66.942829166935596 ], [ 16.020775886290313, 66.942922976271618 ], [ 16.021676857372338, 66.942585237336573 ], [ 16.021573942766505, 66.942307782948731 ] ] ] ] } },
{ "type": "Feature", "properties": { "fid": 88621, "navn": null, "hoyde_moh": null, "arealInnsjo_km2": 0.0032, "magasinKategori": null, "fid_2": 976, "id": 976, "left": 15.986919847, "top": 66.946110046000001, "right": 16.486919847, "bottom": 66.446110046000001, "row_index": 15, "col_index": 24, "tile_id": 976 }, "geometry": { "type": "MultiPolygon", "coordinates": [ [ [ [ 16.043947718043221, 66.93682421477962 ], [ 16.04399921292492, 66.936958449419407 ], [ 16.044812608059178, 66.937249160333451 ], [ 16.046070709319633, 66.937249848445148 ], [ 16.046132407701361, 66.937087954033402 ], [ 16.044126849812933, 66.936733231733882 ], [ 16.043947718043221, 66.93682421477962 ] ] ] ] } },
{ "type": "Feature", "properties": { "fid": 103553, "navn": null, "hoyde_moh": 643, "arealInnsjo_km2": 0.0034, "magasinKategori": null, "fid_2": 976, "id": 976, "left": 15.986919847, "top": 66.946110046000001, "right": 16.486919847, "bottom": 66.446110046000001, "row_index": 15, "col_index": 24, "tile_id": 976 }, "geometry": { "type": "MultiPolygon", "coordinates": [ [ [ [ 16.083994735569846, 66.939503042009221 ], [ 16.084014586196805, 66.939342045253767 ], [ 16.083776055828523, 66.939174468570712 ], [ 16.084067932441418, 66.939049116352479 ], [ 16.08389312727174, 66.938940855814892 ], [ 16.082779784097141, 66.93905943047308 ], [ 16.082576074822779, 66.939305385847746 ], [ 16.082661546105751, 66.939504332011737 ], [ 16.083994735569846, 66.939503042009221 ] ] ] ] } },
{ "type": "Feature", "properties": { "fid": 103923, "navn": null, "hoyde_moh": null, "arealInnsjo_km2": 0.0033, "magasinKategori": null, "fid_2": 976, "id": 976, "left": 15.986919847, "top": 66.946110046000001, "right": 16.486919847, "bottom": 66.446110046000001, "row_index": 15, "col_index": 24, "tile_id": 976 }, "geometry": { "type": "MultiPolygon", "coordinates": [ [ [ [ 16.047053706022268, 66.940966563150837 ], [ 16.044988792735236, 66.940836619815201 ], [ 16.044765799145782, 66.94097266022392 ], [ 16.04567537627705, 66.941379364639616 ], [ 16.046646566429111, 66.941076905646725 ], [ 16.047563888232737, 66.94112468639328 ], [ 16.047053706022268, 66.940966563150837 ] ] ] ] } },
{ "type": "Feature", "properties": { "fid": 112752, "navn": null, "hoyde_moh": null, "arealInnsjo_km2": 0.0029, "magasinKategori": null, "fid_2": 976, "id": 976, "left": 15.986919847, "top": 66.946110046000001, "right": 16.486919847, "bottom": 66.446110046000001, "row_index": 15, "col_index": 24, "tile_id": 976 }, "geometry": { "type": "MultiPolygon", "coordinates": [ [ [ [ 16.048370706230703, 66.943927457280878 ], [ 16.048367620663853, 66.943855615544564 ], [ 16.047883113803938, 66.943230894410348 ], [ 16.04715373235523, 66.943298506116733 ], [ 16.047781042861146, 66.943518567675383 ], [ 16.047721268208655, 66.943725397333296 ], [ 16.0465343142012, 66.943796024048623 ], [ 16.046538928684626, 66.943903652181518 ], [ 16.048370706230703, 66.943927457280878 ] ] ] ] } },
{ "type": "Feature", "properties": { "fid": 113078, "navn": null, "hoyde_moh": 780, "arealInnsjo_km2": 0.003, "magasinKategori": null, "fid_2": 976, "id": 976, "left": 15.986919847, "top": 66.946110046000001, "right": 16.486919847, "bottom": 66.446110046000001, "row_index": 15, "col_index": 24, "tile_id": 976 }, "geometry": { "type": "MultiPolygon", "coordinates": [ [ [ [ 16.034765292104797, 66.914370237017877 ], [ 16.033775736266776, 66.914573523512829 ], [ 16.034406738201181, 66.914717531273254 ], [ 16.036629325156827, 66.914641301217742 ], [ 16.034765292104797, 66.914370237017877 ] ] ] ] } },
{ "type": "Feature", "properties": { "fid": 119214, "navn": null, "hoyde_moh": null, "arealInnsjo_km2": 0.0033, "magasinKategori": null, "fid_2": 976, "id": 976, "left": 15.986919847, "top": 66.946110046000001, "right": 16.486919847, "bottom": 66.446110046000001, "row_index": 15, "col_index": 24, "tile_id": 976 }, "geometry": { "type": "MultiPolygon", "coordinates": [ [ [ [ 16.0182473627127, 66.932227241227167 ], [ 16.017674560503625, 66.93220399956202 ], [ 16.016771073304714, 66.932478933560006 ], [ 16.016776674321687, 66.932613470177984 ], [ 16.017472272623888, 66.932833301198499 ], [ 16.018376658272096, 66.932585271993347 ], [ 16.0182473627127, 66.932227241227167 ] ] ] ] } },
{ "type": "Feature", "properties": { "fid": 125976, "navn": null, "hoyde_moh": null, "arealInnsjo_km2": 0.0051, "magasinKategori": null, "fid_2": 976, "id": 976, "left": 15.986919847, "top": 66.946110046000001, "right": 16.486919847, "bottom": 66.446110046000001, "row_index": 15, "col_index": 24, "tile_id": 976 }, "geometry": { "type": "MultiPolygon", "coordinates": [ [ [ [ 16.042078291648245, 66.940730143932811 ], [ 16.042525222207722, 66.94048497889257 ], [ 16.043714173091765, 66.940459225899147 ], [ 16.043612322161604, 66.940217663617105 ], [ 16.043260388863938, 66.940013630616548 ], [ 16.042801756345408, 66.939989818134592 ], [ 16.041033616586081, 66.940378134272052 ], [ 16.042078291648245, 66.940730143932811 ] ] ] ] } },
{ "type": "Feature", "properties": { "fid": 130622, "navn": null, "hoyde_moh": null, "arealInnsjo_km2": 0.004, "magasinKategori": null, "fid_2": 976, "id": 976, "left": 15.986919847, "top": 66.946110046000001, "right": 16.486919847, "bottom": 66.446110046000001, "row_index": 15, "col_index": 24, "tile_id": 976 }, "geometry": { "type": "MultiPolygon", "coordinates": [ [ [ [ 16.029745528909874, 66.938567714803938 ], [ 16.0298056503844, 66.938908242583778 ], [ 16.030772013269807, 66.939036545354682 ], [ 16.030718693413235, 66.938857461074107 ], [ 16.031558336624926, 66.938699492883387 ], [ 16.030643258371175, 66.938696463355939 ], [ 16.030874414326998, 66.938210500772172 ], [ 16.030007898149183, 66.938278924552804 ], [ 16.029745528909874, 66.938567714803938 ] ] ] ] } },
{ "type": "Feature", "properties": { "fid": 131915, "navn": null, "hoyde_moh": 1133, "arealInnsjo_km2": 0.0281, "magasinKategori": null, "fid_2": 976, "id": 976, "left": 15.986919847, "top": 66.946110046000001, "right": 16.486919847, "bottom": 66.446110046000001, "row_index": 15, "col_index": 24, "tile_id": 976 }, "geometry": { "type": "MultiPolygon", "coordinates": [ [ [ [ 15.988947576508313, 66.901617463484868 ], [ 15.988684494663953, 66.901495297331564 ], [ 15.988728359007313, 66.901382342078364 ], [ 15.987923720102804, 66.901329938964096 ], [ 15.987773986865507, 66.901101112047229 ], [ 15.987211009893571, 66.901053390343264 ], [ 15.988363330268299, 66.900941964543023 ], [ 15.989518586914087, 66.900621027871892 ], [ 15.991955105710765, 66.900767831587345 ], [ 15.992281811611981, 66.900492875097441 ], [ 15.990506975167831, 66.900106264271514 ], [ 15.987851681036592, 66.900292836089093 ], [ 15.986919847, 66.900260061618184 ], [ 15.986919847, 66.901385092764116 ], [ 15.987705425881762, 66.901649158113329 ], [ 15.988642464402375, 66.901755373408861 ], [ 15.988947576508313, 66.901617463484868 ] ] ] ] } },
{ "type": "Feature", "properties": { "fid": 188705, "navn": null, "hoyde_moh": 697, "arealInnsjo_km2": 0.0111, "magasinKategori": null, "fid_2": 976, "id": 976, "left": 15.986919847, "top": 66.946110046000001, "right": 16.486919847, "bottom": 66.446110046000001, "row_index": 15, "col_index": 24, "tile_id": 976 }, "geometry": { "type": "MultiPolygon", "coordinates": [ [ [ [ 16.076495686923689, 66.933582730161888 ], [ 16.075755593930584, 66.93426097662784 ], [ 16.076364869869227, 66.934756296997861 ], [ 16.07683075220487, 66.934883674901755 ], [ 16.077020533938121, 66.935203212610844 ], [ 16.077823687178721, 66.935451120884096 ], [ 16.078037747919911, 66.935273465021112 ], [ 16.077907781925237, 66.935034446362081 ], [ 16.077447153644943, 66.934824138176765 ], [ 16.077383084026799, 66.934419325006303 ], [ 16.077448685044391, 66.934164085885328 ], [ 16.077935280811047, 66.933890198873115 ], [ 16.077119889912563, 66.93354521180116 ], [ 16.076495686923689, 66.933582730161888 ] ] ] ] } },
{ "type": "Feature", "properties": { "fid": 218045, "navn": null, "hoyde_moh": 666, "arealInnsjo_km2": 0.0223, "magasinKategori": null, "fid_2": 976, "id": 976, "left": 15.986919847, "top": 66.946110046000001, "right": 16.486919847, "bottom": 66.446110046000001, "row_index": 15, "col_index": 24, "tile_id": 976 }, "geometry": { "type": "MultiPolygon", "coordinates": [ [ [ [ 16.03080026049637, 66.940247517013503 ], [ 16.028438123806183, 66.94011928831037 ], [ 16.028517327331386, 66.940369977721119 ], [ 16.027538241038805, 66.940483974173702 ], [ 16.027644160944174, 66.940276944003941 ], [ 16.026903264331104, 66.940075392104362 ], [ 16.026843557559395, 66.939743832303122 ], [ 16.027013342281791, 66.939428641706542 ], [ 16.026548325297981, 66.939252308032763 ], [ 16.025580309054707, 66.940173656807659 ], [ 16.02578188485997, 66.941159220691617 ], [ 16.026130901732909, 66.941291538490276 ], [ 16.028177394185022, 66.94099121338914 ], [ 16.029326078679933, 66.941100401746752 ], [ 16.03080026049637, 66.940247517013503 ] ] ] ] } },
{ "type": "Feature", "properties": { "fid": 225575, "navn": null, "hoyde_moh": 1005, "arealInnsjo_km2": 0.0163, "magasinKategori": null, "fid_2": 976, "id": 976, "left": 15.986919847, "top": 66.946110046000001, "right": 16.486919847, "bottom": 66.446110046000001, "row_index": 15, "col_index": 24, "tile_id": 976 }, "geometry": { "type": "MultiPolygon", "coordinates": [ [ [ [ 16.021587381812232, 66.90915534264613 ], [ 16.01962321170382, 66.909345705548034 ], [ 16.016060264311506, 66.910069152494913 ], [ 16.016843789651642, 66.910341711155183 ], [ 16.016267775262424, 66.910492714609646 ], [ 16.01691710232577, 66.910653809118344 ], [ 16.016821462778761, 66.910788456712311 ], [ 16.017088507633471, 66.910890186536079 ], [ 16.01755065883318, 66.910677378973531 ], [ 16.017427668401869, 66.910484203433384 ], [ 16.017534307773275, 66.910399815148523 ], [ 16.018835189908451, 66.910314310723464 ], [ 16.01962174826981, 66.909940796546337 ], [ 16.021323404165106, 66.909542818364343 ], [ 16.021822837717728, 66.909255742796091 ], [ 16.021587381812232, 66.90915534264613 ] ] ] ] } },
{ "type": "Feature", "properties": { "fid": 268775, "navn": "Bállávrre", "hoyde_moh": 597, "arealInnsjo_km2": 40.8385, "magasinKategori": 1, "fid_2": 976, "id": 976, "left": 15.986919847, "top": 66.946110046000001, "right": 16.486919847, "bottom": 66.446110046000001, "row_index": 15, "col_index": 24, "tile_id": 976 }, "geometry": { "type": "MultiPolygon", "coordinates": [ [ [ [ 15.998212219490197, 66.946028324579231 ], [ 15.9982458911349, 66.945558995874066 ], [ 15.998021289239002, 66.945310462766656 ], [ 15.997549890110873, 66.945182710174365 ], [ 15.99658729898095, 66.945299640106271 ], [ 15.996313370510313, 66.945154137237694 ], [ 15.99686570973611, 66.944837567964129 ], [ 15.998015140595641, 66.944661955298258 ], [ 15.998278515056679, 66.944252727084702 ], [ 15.998029731340269, 66.944039334662193 ], [ 15.998480402948134, 66.943851062099526 ], [ 15.997784280511445, 66.943672239977374 ], [ 15.99729133916675, 66.943246052237882 ], [ 15.997325844385824, 66.94276317151278 ], [ 15.998633667272449, 66.942350520099538 ], [ 15.999099615444061, 66.941239255870428 ], [ 15.999613668975993, 66.940979796150046 ], [ 16.000681360356232, 66.94101990287642 ], [ 16.00092872505385, 66.940841695915168 ], [ 16.001533728924983, 66.940931453808417 ], [ 16.002155683823563, 66.940720558465614 ], [ 16.002434870263844, 66.940414932912262 ], [ 16.003057207041309, 66.940486722351565 ], [ 16.003449449082638, 66.940349044328769 ], [ 16.003580365140689, 66.939915792382607 ], [ 16.003254414389939, 66.939556212223096 ], [ 16.002628912330344, 66.939278638252802 ], [ 16.003570276074814, 66.938724086524147 ], [ 16.004485646855439, 66.938556453431062 ], [ 16.005636455057605, 66.938606048592703 ], [ 16.005683165331103, 66.938490289929888 ], [ 16.006786971137519, 66.938315528725454 ], [ 16.00669116333993, 66.938172592573025 ], [ 16.006951569807828, 66.938057183143812 ], [ 16.009572362865104, 66.93721687031163 ], [ 16.009588783879462, 66.936966641027183 ], [ 16.009831490918465, 66.936871973664282 ], [ 16.010401917547409, 66.936929350894474 ], [ 16.010561521386485, 66.937115300881388 ], [ 16.01114588565968, 66.937056047200485 ], [ 16.011967992819233, 66.936517634446432 ], [ 16.011877730460647, 66.936238568488321 ], [ 16.012569282064113, 66.935857357344105 ], [ 16.014735231521332, 66.93543299416595 ], [ 16.014757756353756, 66.935039181117745 ], [ 16.01449354670919, 66.934758536669207 ], [ 16.014743863738602, 66.93462227491915 ], [ 16.014684510689413, 66.934311433151251 ], [ 16.014500724746089, 66.934254023764836 ], [ 16.014385514633421, 66.933947575974315 ], [ 16.014056138241642, 66.933871000080742 ], [ 16.014316844694061, 66.933748219550111 ], [ 16.014230566931374, 66.93349389061251 ], [ 16.014523791369257, 66.933366595655343 ], [ 16.014415895188442, 66.933291206823583 ], [ 16.014594805704498, 66.933104802216064 ], [ 16.014592817768413, 66.932710069152478 ], [ 16.014406016283885, 66.932590775667506 ], [ 16.014873264316531, 66.932374626722392 ], [ 16.015810138949234, 66.931389665036633 ], [ 16.014215272179996, 66.931208769211651 ], [ 16.013687040148088, 66.931602941341822 ], [ 16.013600902715098, 66.931836660460931 ], [ 16.013753236019646, 66.931957879541386 ], [ 16.013600021417389, 66.932041395578182 ], [ 16.011833120362166, 66.932208232374919 ], [ 16.010942167861796, 66.932052600952503 ], [ 16.011389453103295, 66.931873103436146 ], [ 16.012539143568979, 66.931776059985324 ], [ 16.012561495583569, 66.931024196067156 ], [ 16.011706569642019, 66.929324345496667 ], [ 16.010147418770515, 66.927165954987487 ], [ 16.009836410536625, 66.926574110837748 ], [ 16.00970550334921, 66.925830220011179 ], [ 16.010272765925524, 66.925137151042648 ], [ 16.011025506379625, 66.924976164207251 ], [ 16.011286936970013, 66.925165591588708 ], [ 16.01082387997927, 66.925325721898972 ], [ 16.012037707596093, 66.925420889996104 ], [ 16.011173559603375, 66.925752242363785 ], [ 16.011026726897381, 66.926088711655495 ], [ 16.011801928208271, 66.925961490471707 ], [ 16.012607871997012, 66.925566539236527 ], [ 16.012536084747293, 66.925313103783168 ], [ 16.011937319314711, 66.925017812644285 ], [ 16.012284009695929, 66.924830968437163 ], [ 16.010336513092934, 66.924754380138296 ], [ 16.0101115251301, 66.924810089711755 ], [ 16.009993682915027, 66.925128968839346 ], [ 16.009732789510991, 66.925190199508108 ], [ 16.009434958776822, 66.924335316283177 ], [ 16.009116954935376, 66.923916037122339 ], [ 16.009558243042296, 66.923755153005558 ], [ 16.009003347498034, 66.92382273815339 ], [ 16.008540617744185, 66.923503064343649 ], [ 16.005320890774019, 66.923545382075972 ], [ 16.003931966656651, 66.923275968069618 ], [ 16.003532455939762, 66.923035098329905 ], [ 16.00042508296664, 66.923016766792685 ], [ 15.998180263287752, 66.922832811035818 ], [ 15.996730319631213, 66.922527473618928 ], [ 15.991833664670892, 66.922672267741319 ], [ 15.989545674700748, 66.92261109996727 ], [ 15.988660418805731, 66.922267537714873 ], [ 15.986919847, 66.922327924398473 ], [ 15.986919847, 66.946110046 ], [ 15.998029984933741, 66.946110046 ], [ 15.998212219490197, 66.946028324579231 ] ] ] ] } },
{ "type": "Feature", "properties": { "fid": 269550, "navn": null, "hoyde_moh": 1075, "arealInnsjo_km2": 0.1194, "magasinKategori": null, "fid_2": 976, "id": 976, "left": 15.986919847, "top": 66.946110046000001, "right": 16.486919847, "bottom": 66.446110046000001, "row_index": 15, "col_index": 24, "tile_id": 976 }, "geometry": { "type": "MultiPolygon", "coordinates": [ [ [ [ 16.00577828257477, 66.88625357400727 ], [ 16.00738380681873, 66.885739985971838 ], [ 16.007221580456132, 66.885242917375791 ], [ 16.007604080681158, 66.884182764844283 ], [ 16.007120255907129, 66.884224002019991 ], [ 16.006981925225443, 66.88400863015579 ], [ 16.00711546962042, 66.883320868028306 ], [ 16.008203500866298, 66.882232698333439 ], [ 16.007611652071091, 66.88200749054532 ], [ 16.006715599163901, 66.882254876104298 ], [ 16.005967205703364, 66.882157863910109 ], [ 16.004907254649098, 66.882355397274807 ], [ 16.004763545697905, 66.883212919172195 ], [ 16.003961099123956, 66.883473064691955 ], [ 16.00225172168583, 66.884648656148002 ], [ 16.001370763497981, 66.885642168192135 ], [ 16.00081441725219, 66.886697861763395 ], [ 16.000681216773803, 66.887371207750803 ], [ 16.000876015192301, 66.887573362260369 ], [ 16.00208989718751, 66.887493562279516 ], [ 16.002308832557709, 66.887744008721398 ], [ 16.00234421759421, 66.888078422719417 ], [ 16.002554119446611, 66.8881917514055 ], [ 16.003455330438314, 66.888120018874176 ], [ 16.003975900158906, 66.887802719448828 ], [ 16.005260507399896, 66.887465861578249 ], [ 16.00577828257477, 66.88625357400727 ] ] ] ] } },
{ "type": "Feature", "properties": { "fid": 269551, "navn": null, "hoyde_moh": 783, "arealInnsjo_km2": 0.0044, "magasinKategori": null, "fid_2": 976, "id": 976, "left": 15.986919847, "top": 66.946110046000001, "right": 16.486919847, "bottom": 66.446110046000001, "row_index": 15, "col_index": 24, "tile_id": 976 }, "geometry": { "type": "MultiPolygon", "coordinates": [ [ [ [ 16.04005184511275, 66.913312374110888 ], [ 16.039491898397948, 66.913565453293913 ], [ 16.040365143944051, 66.913767600733223 ], [ 16.040335194600704, 66.913992983418126 ], [ 16.040871198891264, 66.914084745950589 ], [ 16.041422736878808, 66.914036717423699 ], [ 16.041334027774184, 66.913944892528335 ], [ 16.041560664443871, 66.913835297475003 ], [ 16.041441444673893, 66.913614442875556 ], [ 16.04005184511275, 66.913312374110888 ] ] ] ] } }
]
}
