{
"type": "FeatureCollection",
"name": "innsjo_tile_id_859",
"crs": { "type": "name", "properties": { "name": "urn:ogc:def:crs:OGC:1.3:CRS84" } },
"xy_coordinate_resolution": 1e-15,
"features": [
{ "type": "Feature", "properties": { "fid": 20269, "navn": null, "hoyde_moh": 845, "arealInnsjo_km2": 0.0127, "magasinKategori": null, "fid_2": 859, "id": 859, "left": 14.486919847, "top": 65.446110046000001, "right": 14.986919847, "bottom": 64.946110046000001, "row_index": 18, "col_index": 21, "tile_id": 859 }, "geometry": { "type": "MultiPolygon", "coordinates": [ [ [ [ 14.487147455340271, 65.338125110375287 ], [ 14.487348704840521, 65.338036965210108 ], [ 14.487837937945157, 65.338105382618863 ], [ 14.488309640617214, 65.337948615984317 ], [ 14.488937385413621, 65.338095740636263 ], [ 14.489555810257082, 65.337881862713189 ], [ 14.487317803527603, 65.337461804998185 ], [ 14.486919847, 65.33725259588212 ], [ 14.486919847, 65.338341966351678 ], [ 14.487098057018096, 65.338367651866591 ], [ 14.487147455340271, 65.338125110375287 ] ] ] ] } },
{ "type": "Feature", "properties": { "fid": 62357, "navn": null, "hoyde_moh": 934, "arealInnsjo_km2": 0.009, "magasinKategori": null, "fid_2": 859, "id": 859, "left": 14.486919847, "top": 65.446110046000001, "right": 14.986919847, "bottom": 64.946110046000001, "row_index": 18, "col_index": 21, "tile_id": 859 }, "geometry": { "type": "MultiPolygon", "coordinates": [ [ [ [ 14.489242109618784, 65.349660494246947 ], [ 14.489083359384532, 65.349237526837825 ], [ 14.488450102031894, 65.348597430063208 ], [ 14.487315265352359, 65.348724670083641 ], [ 14.487434936038625, 65.348945982035886 ], [ 14.487036053518379, 65.349181683468089 ], [ 14.487061273487051, 65.349331970600389 ], [ 14.48884847799547, 65.34992484080442 ], [ 14.489242109618784, 65.349660494246947 ] ] ] ] } },
{ "type": "Feature", "properties": { "fid": 62386, "navn": null, "hoyde_moh": 788, "arealInnsjo_km2": 0.0042, "magasinKategori": null, "fid_2": 859, "id": 859, "left": 14.486919847, "top": 65.446110046000001, "right": 14.986919847, "bottom": 64.946110046000001, "row_index": 18, "col_index": 21, "tile_id": 859 }, "geometry": { "type": "MultiPolygon", "coordinates": [ [ [ [ 14.501150055268614, 65.331716880039082 ], [ 14.501228760374403, 65.331370617830231 ], [ 14.500596380561479, 65.331291630752702 ], [ 14.500036317955406, 65.331599959332706 ], [ 14.499078179836673, 65.331532896426666 ], [ 14.49918933810955, 65.33172868901616 ], [ 14.499593903140626, 65.331841112273111 ], [ 14.500634539045132, 65.331929351115122 ], [ 14.501150055268614, 65.331716880039082 ] ] ] ] } },
{ "type": "Feature", "properties": { "fid": 93160, "navn": null, "hoyde_moh": 607, "arealInnsjo_km2": 0.0049, "magasinKategori": null, "fid_2": 859, "id": 859, "left": 14.486919847, "top": 65.446110046000001, "right": 14.986919847, "bottom": 64.946110046000001, "row_index": 18, "col_index": 21, "tile_id": 859 }, "geometry": { "type": "MultiPolygon", "coordinates": [ [ [ [ 14.492983411786541, 65.303462543456504 ], [ 14.492957756186129, 65.303190316508577 ], [ 14.491948648428313, 65.302939632733199 ], [ 14.491307143703406, 65.303036886519507 ], [ 14.491379079835705, 65.303355389407443 ], [ 14.491667179812728, 65.303554387663439 ], [ 14.492362571922845, 65.303655878671321 ], [ 14.492983411786541, 65.303462543456504 ] ] ] ] } },
{ "type": "Feature", "properties": { "fid": 176564, "navn": "Daarenege", "hoyde_moh": 749, "arealInnsjo_km2": 3.729, "magasinKategori": null, "fid_2": 859, "id": 859, "left": 14.486919847, "top": 65.446110046000001, "right": 14.986919847, "bottom": 64.946110046000001, "row_index": 18, "col_index": 21, "tile_id": 859 }, "geometry": { "type": "MultiPolygon", "coordinates": [ [ [ [ 14.487928383032942, 65.365309635402383 ], [ 14.488243288900017, 65.365169922827718 ], [ 14.487391702668557, 65.364671120079407 ], [ 14.486919847, 65.364577275061492 ], [ 14.486919847, 65.365268833032431 ], [ 14.487928383032942, 65.365309635402383 ] ] ] ] } },
{ "type": "Feature", "properties": { "fid": 269526, "navn": "Haarrere", "hoyde_moh": 607, "arealInnsjo_km2": 0.2792, "magasinKategori": null, "fid_2": 859, "id": 859, "left": 14.486919847, "top": 65.446110046000001, "right": 14.986919847, "bottom": 64.946110046000001, "row_index": 18, "col_index": 21, "tile_id": 859 }, "geometry": { "type": "MultiPolygon", "coordinates": [ [ [ [ 14.496056940989932, 65.306328574604265 ], [ 14.4972183665513, 65.306812937468621 ], [ 14.498606283286861, 65.306399613459121 ], [ 14.498865660948503, 65.306624522804228 ], [ 14.499352949353767, 65.306641933520609 ], [ 14.49997482645669, 65.306247765161615 ], [ 14.500659776610748, 65.306271659301402 ], [ 14.500668963764275, 65.306092326536785 ], [ 14.502611501370984, 65.305839976417872 ], [ 14.50262472479857, 65.30557102015257 ], [ 14.503919929352666, 65.305402833207594 ], [ 14.505254709613943, 65.304427586044483 ], [ 14.506326650155721, 65.304436842439301 ], [ 14.507385202837741, 65.304715047270022 ], [ 14.509100155459963, 65.304729882893852 ], [ 14.509515526432843, 65.305002567432709 ], [ 14.511007332910538, 65.305194851774274 ], [ 14.511637215018178, 65.305469302684841 ], [ 14.511833906242455, 65.30582974241041 ], [ 14.513124620385007, 65.305751188330362 ], [ 14.513356663129752, 65.305394377962799 ], [ 14.51532099473485, 65.304693572306846 ], [ 14.516178473321679, 65.304700902562701 ], [ 14.517000937200001, 65.305425567499825 ], [ 14.517639528174461, 65.305520747869551 ], [ 14.517674739007184, 65.304803498568148 ], [ 14.516843415691087, 65.304258082082953 ], [ 14.515128701896337, 65.304243424966771 ], [ 14.513921371378277, 65.302618361016783 ], [ 14.510697503796791, 65.30277015711944 ], [ 14.508960603758364, 65.303203720519662 ], [ 14.507250212982433, 65.303099261249827 ], [ 14.506812786607984, 65.303274861142881 ], [ 14.505312177799999, 65.3032619589126 ], [ 14.504468168664229, 65.302985521338456 ], [ 14.503396502283113, 65.302976252476171 ], [ 14.502941138536876, 65.303510598275949 ], [ 14.502289423949149, 65.303684312010745 ], [ 14.498863941603808, 65.303564843847951 ], [ 14.498636209353567, 65.303832099744326 ], [ 14.496689068781114, 65.304174019848574 ], [ 14.49464301816905, 65.304917468535834 ], [ 14.493750079999966, 65.304701013353949 ], [ 14.490770823447944, 65.3046409123899 ], [ 14.490230510534124, 65.304361382671289 ], [ 14.489567806899128, 65.304299382512554 ], [ 14.489290525474216, 65.304295392761588 ], [ 14.489063870445905, 65.304534912580763 ], [ 14.489678399725955, 65.304603571100415 ], [ 14.49081557117205, 65.3054787506982 ], [ 14.490802102448953, 65.30562083207279 ], [ 14.490335256128471, 65.305856760829016 ], [ 14.489765621916094, 65.305938638738667 ], [ 14.491306718371076, 65.306151204319633 ], [ 14.491772239148144, 65.306573950620844 ], [ 14.491721133346813, 65.306743451217159 ], [ 14.491295594548092, 65.30685031598145 ], [ 14.491428122895252, 65.307086564398787 ], [ 14.492266579709401, 65.307027120040757 ], [ 14.492568818813018, 65.306616292790423 ], [ 14.493400720553502, 65.306461620268593 ], [ 14.493566539144433, 65.306283352382636 ], [ 14.496056940989932, 65.306328574604265 ] ], [ [ 14.494867115325707, 65.30595159986477 ], [ 14.494979332726414, 65.305995223973227 ], [ 14.494901432980694, 65.306030315263385 ], [ 14.494867115325707, 65.30595159986477 ] ] ] ] } },
{ "type": "Feature", "properties": { "fid": 269527, "navn": null, "hoyde_moh": 723, "arealInnsjo_km2": 0.0103, "magasinKategori": null, "fid_2": 859, "id": 859, "left": 14.486919847, "top": 65.446110046000001, "right": 14.986919847, "bottom": 64.946110046000001, "row_index": 18, "col_index": 21, "tile_id": 859 }, "geometry": { "type": "MultiPolygon", "coordinates": [ [ [ [ 14.501969295968516, 65.383361874529101 ], [ 14.50147886498754, 65.383074167607177 ], [ 14.500413480986111, 65.383264456476368 ], [ 14.499533535323101, 65.383172716612648 ], [ 14.499494807394822, 65.382879006335358 ], [ 14.499692826559183, 65.382705145840362 ], [ 14.499028512290709, 65.382701958042915 ], [ 14.498593297973668, 65.383185391580028 ], [ 14.49885018313082, 65.383264663830403 ], [ 14.499230129187502, 65.383728279112233 ], [ 14.500602221976235, 65.383544754825934 ], [ 14.501011073627078, 65.383598325631212 ], [ 14.50093887835655, 65.383717870820959 ], [ 14.501113166639632, 65.38380790263993 ], [ 14.502233489457698, 65.383813609447657 ], [ 14.501969295968516, 65.383361874529101 ] ] ] ] } },
{ "type": "Feature", "properties": { "fid": 269528, "navn": null, "hoyde_moh": 722, "arealInnsjo_km2": 0.0055, "magasinKategori": null, "fid_2": 859, "id": 859, "left": 14.486919847, "top": 65.446110046000001, "right": 14.986919847, "bottom": 64.946110046000001, "row_index": 18, "col_index": 21, "tile_id": 859 }, "geometry": { "type": "MultiPolygon", "coordinates": [ [ [ [ 14.502316258954377, 65.377323426710447 ], [ 14.50244501636805, 65.377177331559466 ], [ 14.501626167522382, 65.37684886516773 ], [ 14.501272522217448, 65.37688403712616 ], [ 14.500472672052567, 65.377376590506913 ], [ 14.500114334211274, 65.37815583875954 ], [ 14.50079973122207, 65.37825482895677 ], [ 14.500938191339545, 65.377635372154444 ], [ 14.501461239017475, 65.377141005997544 ], [ 14.502316258954377, 65.377323426710447 ] ] ] ] } }
]
}
