{
"type": "FeatureCollection",
"name": "innsjo_tile_id_263",
"crs": { "type": "name", "properties": { "name": "urn:ogc:def:crs:OGC:1.3:CRS84" } },
"xy_coordinate_resolution": 1e-15,
"features": [
{ "type": "Feature", "properties": { "fid": 26447, "navn": "Drepartjønna", "hoyde_moh": null, "arealInnsjo_km2": 0.0027, "magasinKategori": null, "fid_2": 263, "id": 263, "left": 6.986919847, "top": 63.446110046000001, "right": 7.486919847, "bottom": 62.946110046000001, "row_index": 22, "col_index": 6, "tile_id": 263 }, "geometry": { "type": "MultiPolygon", "coordinates": [ [ [ [ 7.483508966016206, 63.034579981270554 ], [ 7.483460440348707, 63.034373060748962 ], [ 7.481830913263526, 63.034535107545395 ], [ 7.482234159272187, 63.034763861656323 ], [ 7.483045173671878, 63.034763692913948 ], [ 7.483508966016206, 63.034579981270554 ] ] ] ] } },
{ "type": "Feature", "properties": { "fid": 26633, "navn": null, "hoyde_moh": 29, "arealInnsjo_km2": 0.0026, "magasinKategori": null, "fid_2": 263, "id": 263, "left": 6.986919847, "top": 63.446110046000001, "right": 7.486919847, "bottom": 62.946110046000001, "row_index": 22, "col_index": 6, "tile_id": 263 }, "geometry": { "type": "MultiPolygon", "coordinates": [ [ [ [ 7.149436669454297, 62.958192889972167 ], [ 7.149413139328235, 62.957965581045883 ], [ 7.149063933783308, 62.957734502823925 ], [ 7.148758978380766, 62.957906711454818 ], [ 7.148144819888204, 62.957936177144539 ], [ 7.148470013274145, 62.958158514388586 ], [ 7.149272525675675, 62.958338405867089 ], [ 7.149436669454297, 62.958192889972167 ] ] ] ] } },
{ "type": "Feature", "properties": { "fid": 42506, "navn": "Follandsvatnet", "hoyde_moh": 61, "arealInnsjo_km2": 0.3638, "magasinKategori": null, "fid_2": 263, "id": 263, "left": 6.986919847, "top": 63.446110046000001, "right": 7.486919847, "bottom": 62.946110046000001, "row_index": 22, "col_index": 6, "tile_id": 263 }, "geometry": { "type": "MultiPolygon", "coordinates": [ [ [ [ 7.473675848286573, 62.990973697731022 ], [ 7.477046745047445, 62.991045937832901 ], [ 7.477368514409902, 62.990530633020924 ], [ 7.477860748960455, 62.990337844251663 ], [ 7.47773370611165, 62.989568305784758 ], [ 7.478427892979707, 62.9889781124226 ], [ 7.478228555148964, 62.988272546345556 ], [ 7.477597252367467, 62.987849054016444 ], [ 7.47780557401121, 62.987560516638105 ], [ 7.477751080215095, 62.987334867840929 ], [ 7.47673379459576, 62.986752783267882 ], [ 7.475104689960091, 62.986393693937238 ], [ 7.474772470228233, 62.986023451897367 ], [ 7.473994410791862, 62.985665426179352 ], [ 7.472713478266529, 62.985655753761989 ], [ 7.471938747307064, 62.985412192797135 ], [ 7.471732734547401, 62.985451048113269 ], [ 7.471580509139816, 62.985711188340389 ], [ 7.471186725646021, 62.985749820392741 ], [ 7.470845625348391, 62.985208769644117 ], [ 7.469919557153595, 62.98500824155068 ], [ 7.46669472860684, 62.985612109374593 ], [ 7.464482482819323, 62.985505630436599 ], [ 7.463902841201357, 62.985711909934381 ], [ 7.463138759062563, 62.986461489150074 ], [ 7.463113554279175, 62.986748550915991 ], [ 7.46407543440241, 62.987387315993132 ], [ 7.464493032818794, 62.988128792246926 ], [ 7.465843238326897, 62.988610364838536 ], [ 7.466090247040682, 62.98893402580876 ], [ 7.465833275739573, 62.989200818539246 ], [ 7.465845382352779, 62.989487894688686 ], [ 7.466207261950744, 62.989715048137697 ], [ 7.467455840514851, 62.99019034358971 ], [ 7.468949164773601, 62.990388701617391 ], [ 7.469337500021253, 62.990634854220652 ], [ 7.471902311790106, 62.990571754621783 ], [ 7.471990469502881, 62.991064885895319 ], [ 7.473675848286573, 62.990973697731022 ] ], [ [ 7.47150537056806, 62.990101331528734 ], [ 7.471844353413449, 62.990095305725887 ], [ 7.472324386736084, 62.989810316158405 ], [ 7.472921918250548, 62.989949570370143 ], [ 7.472415736731555, 62.990311827193615 ], [ 7.47150537056806, 62.990101331528734 ] ] ] ] } },
{ "type": "Feature", "properties": { "fid": 72039, "navn": "Ostervatnet", "hoyde_moh": null, "arealInnsjo_km2": 0.0589, "magasinKategori": null, "fid_2": 263, "id": 263, "left": 6.986919847, "top": 63.446110046000001, "right": 7.486919847, "bottom": 62.946110046000001, "row_index": 22, "col_index": 6, "tile_id": 263 }, "geometry": { "type": "MultiPolygon", "coordinates": [ [ [ [ 7.465565202054848, 63.050608240648536 ], [ 7.466210965502885, 63.050740944919106 ], [ 7.466599774360192, 63.050493811620008 ], [ 7.46764235868499, 63.05022680149375 ], [ 7.467746433112841, 63.050129164272875 ], [ 7.467639280464905, 63.049912603022754 ], [ 7.46817487053824, 63.049882433254901 ], [ 7.468521709451799, 63.049679691224334 ], [ 7.466446933484422, 63.04926242531721 ], [ 7.465731596567905, 63.048949269112519 ], [ 7.466081806733368, 63.048683834216277 ], [ 7.465624950511006, 63.048346707359222 ], [ 7.464450469345985, 63.048486566809053 ], [ 7.463393436751063, 63.047900525135503 ], [ 7.462474791967952, 63.04844721551067 ], [ 7.462566362198608, 63.048582837973299 ], [ 7.462175221573698, 63.048874852548543 ], [ 7.46143381388675, 63.049055283182582 ], [ 7.460444982482256, 63.049053490067934 ], [ 7.460494787873085, 63.049233518763444 ], [ 7.459616730726896, 63.049753679394286 ], [ 7.460515447668847, 63.049592957208233 ], [ 7.461492517423287, 63.049819023984597 ], [ 7.4627813269389, 63.049384080934104 ], [ 7.463966929032574, 63.049405861057267 ], [ 7.463825725921429, 63.049835301040041 ], [ 7.463968707797734, 63.0501242411462 ], [ 7.463677728466134, 63.05039031640397 ], [ 7.46374504672917, 63.05061548532727 ], [ 7.464426511626308, 63.050820385630558 ], [ 7.465565202054848, 63.050608240648536 ] ] ] ] } },
{ "type": "Feature", "properties": { "fid": 80043, "navn": null, "hoyde_moh": null, "arealInnsjo_km2": 0.0134, "magasinKategori": null, "fid_2": 263, "id": 263, "left": 6.986919847, "top": 63.446110046000001, "right": 7.486919847, "bottom": 62.946110046000001, "row_index": 22, "col_index": 6, "tile_id": 263 }, "geometry": { "type": "MultiPolygon", "coordinates": [ [ [ [ 7.485531001932665, 63.062277943054987 ], [ 7.486625609225181, 63.062164029994619 ], [ 7.486375265060611, 63.062026635561075 ], [ 7.48499107390285, 63.062011881292079 ], [ 7.485140917172136, 63.06178902415418 ], [ 7.484286889167007, 63.061851711910208 ], [ 7.482999249004398, 63.061496848498194 ], [ 7.482467182115497, 63.061455191357943 ], [ 7.482013751960922, 63.061800408677421 ], [ 7.482427309384741, 63.062217790033543 ], [ 7.485203058332844, 63.062498967035054 ], [ 7.485531001932665, 63.062277943054987 ] ] ] ] } },
{ "type": "Feature", "properties": { "fid": 89761, "navn": null, "hoyde_moh": null, "arealInnsjo_km2": 0.0194, "magasinKategori": null, "fid_2": 263, "id": 263, "left": 6.986919847, "top": 63.446110046000001, "right": 7.486919847, "bottom": 62.946110046000001, "row_index": 22, "col_index": 6, "tile_id": 263 }, "geometry": { "type": "MultiPolygon", "coordinates": [ [ [ [ 7.077015884442336, 62.964377223155914 ], [ 7.078102598706656, 62.964347281797309 ], [ 7.078089296990272, 62.963951904951585 ], [ 7.077489711839116, 62.963250406097004 ], [ 7.076753862598442, 62.962964183726044 ], [ 7.076568687771288, 62.963078386724924 ], [ 7.076062244033007, 62.96298156861193 ], [ 7.07517415726519, 62.963589190830689 ], [ 7.075437470070294, 62.964086505199752 ], [ 7.076016543998325, 62.964579253047937 ], [ 7.076132666561789, 62.964913007509125 ], [ 7.077015884442336, 62.964377223155914 ] ] ] ] } },
{ "type": "Feature", "properties": { "fid": 116109, "navn": null, "hoyde_moh": null, "arealInnsjo_km2": 0.0046, "magasinKategori": null, "fid_2": 263, "id": 263, "left": 6.986919847, "top": 63.446110046000001, "right": 7.486919847, "bottom": 62.946110046000001, "row_index": 22, "col_index": 6, "tile_id": 263 }, "geometry": { "type": "MultiPolygon", "coordinates": [ [ [ [ 7.462424426127887, 63.051651458010568 ], [ 7.462815603503551, 63.051359443235661 ], [ 7.462605092775913, 63.051222506721615 ], [ 7.461146438996161, 63.051879939242767 ], [ 7.461725809403662, 63.052146505865792 ], [ 7.462320341748978, 63.052126097483978 ], [ 7.462424426127887, 63.051651458010568 ] ] ] ] } },
{ "type": "Feature", "properties": { "fid": 134108, "navn": null, "hoyde_moh": null, "arealInnsjo_km2": 0.004, "magasinKategori": null, "fid_2": 263, "id": 263, "left": 6.986919847, "top": 63.446110046000001, "right": 7.486919847, "bottom": 62.946110046000001, "row_index": 22, "col_index": 6, "tile_id": 263 }, "geometry": { "type": "MultiPolygon", "coordinates": [ [ [ [ 7.294422212591346, 63.003510810665489 ], [ 7.294569976573797, 63.003009803323437 ], [ 7.29350581358138, 63.002970068462659 ], [ 7.292885111162816, 63.00311516267476 ], [ 7.293456776284986, 63.003472245640573 ], [ 7.294422212591346, 63.003510810665489 ] ] ] ] } },
{ "type": "Feature", "properties": { "fid": 134620, "navn": "Vågavatnet", "hoyde_moh": null, "arealInnsjo_km2": 0.0688, "magasinKategori": null, "fid_2": 263, "id": 263, "left": 6.986919847, "top": 63.446110046000001, "right": 7.486919847, "bottom": 62.946110046000001, "row_index": 22, "col_index": 6, "tile_id": 263 }, "geometry": { "type": "MultiPolygon", "coordinates": [ [ [ [ 7.459598497689178, 63.035865878507771 ], [ 7.460695400010668, 63.036066362474457 ], [ 7.461579206889225, 63.03579767763587 ], [ 7.46256583686721, 63.035835268119691 ], [ 7.462869361500307, 63.035703930934986 ], [ 7.46285899316612, 63.035524300680052 ], [ 7.462260152904073, 63.035257405433505 ], [ 7.46033426217171, 63.035039052619524 ], [ 7.460283449527008, 63.034876741407352 ], [ 7.460528591611117, 63.03472694543688 ], [ 7.46003558240176, 63.034703603672234 ], [ 7.458336260167213, 63.033940011980391 ], [ 7.457550986304344, 63.033832707827507 ], [ 7.457544077652299, 63.033590201146353 ], [ 7.456939372112599, 63.033431042824105 ], [ 7.457099952831385, 63.033764873173155 ], [ 7.456753233279925, 63.033967588698658 ], [ 7.457100573899326, 63.034124051710428 ], [ 7.457106269797338, 63.034393377598711 ], [ 7.456923158843535, 63.03449019846542 ], [ 7.454004218674344, 63.034359538663658 ], [ 7.453657274744304, 63.034562235680625 ], [ 7.453846370130348, 63.03472592022348 ], [ 7.453760176244083, 63.034859508828724 ], [ 7.453360264335436, 63.034944972611477 ], [ 7.453227429859939, 63.035212826735744 ], [ 7.45153935588334, 63.035355965013913 ], [ 7.454563250852805, 63.035748149026141 ], [ 7.459598497689178, 63.035865878507771 ] ], [ [ 7.455141340817411, 63.035287645523148 ], [ 7.455570633539535, 63.035391037927965 ], [ 7.455291722614337, 63.035432923514087 ], [ 7.454740900092067, 63.035382016263057 ], [ 7.455141340817411, 63.035287645523148 ] ] ] ] } },
{ "type": "Feature", "properties": { "fid": 141524, "navn": null, "hoyde_moh": 17, "arealInnsjo_km2": 0.0033, "magasinKategori": null, "fid_2": 263, "id": 263, "left": 6.986919847, "top": 63.446110046000001, "right": 7.486919847, "bottom": 62.946110046000001, "row_index": 22, "col_index": 6, "tile_id": 263 }, "geometry": { "type": "MultiPolygon", "coordinates": [ [ [ [ 7.170284763094384, 62.989924413184333 ], [ 7.170067905925547, 62.989606741944435 ], [ 7.169077658625549, 62.989313572211273 ], [ 7.169818997502601, 62.99006217630577 ], [ 7.170948364900315, 62.990345130202293 ], [ 7.170284763094384, 62.989924413184333 ] ] ] ] } },
{ "type": "Feature", "properties": { "fid": 156274, "navn": "Skavatnet", "hoyde_moh": 309, "arealInnsjo_km2": 0.067, "magasinKategori": null, "fid_2": 263, "id": 263, "left": 6.986919847, "top": 63.446110046000001, "right": 7.486919847, "bottom": 62.946110046000001, "row_index": 22, "col_index": 6, "tile_id": 263 }, "geometry": { "type": "MultiPolygon", "coordinates": [ [ [ [ 7.23566786908478, 62.961931827788774 ], [ 7.236659081096447, 62.961845575066725 ], [ 7.236321764756174, 62.961553947044514 ], [ 7.235733225833694, 62.961501828592148 ], [ 7.234903755405066, 62.960539832086774 ], [ 7.234114230890392, 62.960224727093959 ], [ 7.234208168493089, 62.959974446280221 ], [ 7.234059663881994, 62.959820041989403 ], [ 7.232529738299517, 62.959684172191757 ], [ 7.232031085114665, 62.959776703163641 ], [ 7.230807597211506, 62.960443686254081 ], [ 7.230356418059689, 62.960402120853672 ], [ 7.22986177154918, 62.960755036141641 ], [ 7.230060255848707, 62.961385984639193 ], [ 7.231235542792959, 62.962172672505844 ], [ 7.233643342544977, 62.962472248417519 ], [ 7.23566786908478, 62.961931827788774 ] ] ] ] } },
{ "type": "Feature", "properties": { "fid": 163049, "navn": null, "hoyde_moh": null, "arealInnsjo_km2": 0.0025, "magasinKategori": null, "fid_2": 263, "id": 263, "left": 6.986919847, "top": 63.446110046000001, "right": 7.486919847, "bottom": 62.946110046000001, "row_index": 22, "col_index": 6, "tile_id": 263 }, "geometry": { "type": "MultiPolygon", "coordinates": [ [ [ [ 7.486768824953646, 63.055971259648381 ], [ 7.486680377165969, 63.05614994085937 ], [ 7.486919847, 63.05616052653226 ], [ 7.486919847, 63.05593680189947 ], [ 7.486768824953646, 63.055971259648381 ] ] ] ] } },
{ "type": "Feature", "properties": { "fid": 163051, "navn": null, "hoyde_moh": null, "arealInnsjo_km2": 0.0041, "magasinKategori": null, "fid_2": 263, "id": 263, "left": 6.986919847, "top": 63.446110046000001, "right": 7.486919847, "bottom": 62.946110046000001, "row_index": 22, "col_index": 6, "tile_id": 263 }, "geometry": { "type": "MultiPolygon", "coordinates": [ [ [ [ 7.464310339505475, 63.055280759691101 ], [ 7.463261993871276, 63.054901330808129 ], [ 7.462665644190746, 63.054933105368825 ], [ 7.462470975512416, 63.055269740770733 ], [ 7.464258918493496, 63.055504626072207 ], [ 7.464310339505475, 63.055280759691101 ] ] ] ] } },
{ "type": "Feature", "properties": { "fid": 183384, "navn": null, "hoyde_moh": 380, "arealInnsjo_km2": 0.004, "magasinKategori": null, "fid_2": 263, "id": 263, "left": 6.986919847, "top": 63.446110046000001, "right": 7.486919847, "bottom": 62.946110046000001, "row_index": 22, "col_index": 6, "tile_id": 263 }, "geometry": { "type": "MultiPolygon", "coordinates": [ [ [ [ 7.243026106662647, 62.958096921810089 ], [ 7.242942207313609, 62.957711109628306 ], [ 7.242034326735062, 62.957408733222884 ], [ 7.241441840655477, 62.957571011116279 ], [ 7.241808407473762, 62.957943293660499 ], [ 7.242295841900319, 62.957939449383311 ], [ 7.242787704666136, 62.958164428436461 ], [ 7.243026106662647, 62.958096921810089 ] ] ] ] } },
{ "type": "Feature", "properties": { "fid": 200920, "navn": "Gådalsvatnet", "hoyde_moh": 134, "arealInnsjo_km2": 0.347, "magasinKategori": null, "fid_2": 263, "id": 263, "left": 6.986919847, "top": 63.446110046000001, "right": 7.486919847, "bottom": 62.946110046000001, "row_index": 22, "col_index": 6, "tile_id": 263 }, "geometry": { "type": "MultiPolygon", "coordinates": [ [ [ [ 7.281720001071857, 62.953512894312333 ], [ 7.282546379147826, 62.952867647730599 ], [ 7.283625263249649, 62.953008691898603 ], [ 7.284182339766987, 62.952869479360729 ], [ 7.285557780192239, 62.951943616007398 ], [ 7.28557224562948, 62.951360226141645 ], [ 7.285076532695721, 62.950734729243571 ], [ 7.284844187932564, 62.949654476274105 ], [ 7.284202352175504, 62.948829826237109 ], [ 7.28405691553945, 62.947948172395861 ], [ 7.283718868408981, 62.947324654438916 ], [ 7.283315822789599, 62.947140168913592 ], [ 7.283270854417956, 62.946897128889368 ], [ 7.282932153690629, 62.946623867273978 ], [ 7.282349999829583, 62.946408057347035 ], [ 7.279573370251645, 62.946421342811696 ], [ 7.278988362071645, 62.946647608757274 ], [ 7.277803432500443, 62.946687023975308 ], [ 7.277100308852948, 62.94691183944321 ], [ 7.276163286665793, 62.947762298931323 ], [ 7.276022322476799, 62.948146622358664 ], [ 7.274296616071923, 62.948996365166956 ], [ 7.274283467195522, 62.949220692472267 ], [ 7.274733772301616, 62.949497320362184 ], [ 7.274426395804477, 62.949805982703175 ], [ 7.274882299590925, 62.950098889677484 ], [ 7.274522058693927, 62.9505253808777 ], [ 7.274678909429983, 62.951200139309556 ], [ 7.2755623019355, 62.951606437839388 ], [ 7.27566530810123, 62.951868015736238 ], [ 7.276544283908782, 62.952345621416185 ], [ 7.278021314642952, 62.95371028836022 ], [ 7.279207833146842, 62.953985059612968 ], [ 7.281720001071857, 62.953512894312333 ] ] ] ] } },
{ "type": "Feature", "properties": { "fid": 215577, "navn": "Skottenvatnet", "hoyde_moh": 274, "arealInnsjo_km2": 0.0815, "magasinKategori": null, "fid_2": 263, "id": 263, "left": 6.986919847, "top": 63.446110046000001, "right": 7.486919847, "bottom": 62.946110046000001, "row_index": 22, "col_index": 6, "tile_id": 263 }, "geometry": { "type": "MultiPolygon", "coordinates": [ [ [ [ 7.224437157307937, 62.970026279941621 ], [ 7.22462247946066, 62.969528016529999 ], [ 7.224564268272574, 62.969229427610443 ], [ 7.223950918187676, 62.968526228872449 ], [ 7.223740045372639, 62.967642261059446 ], [ 7.224487018379177, 62.966199741109463 ], [ 7.223923004264209, 62.965867103390593 ], [ 7.223444713470133, 62.965786476465006 ], [ 7.222045221467488, 62.966074650688547 ], [ 7.221795290465495, 62.966238229218696 ], [ 7.221513675675451, 62.966823657061738 ], [ 7.220610830865858, 62.967564823008907 ], [ 7.219477378590393, 62.968081137865568 ], [ 7.220837386375821, 62.969373133712431 ], [ 7.222935236167088, 62.970429096043269 ], [ 7.224437157307937, 62.970026279941621 ] ] ] ] } },
{ "type": "Feature", "properties": { "fid": 221855, "navn": "Melvatnet", "hoyde_moh": 480, "arealInnsjo_km2": 0.0213, "magasinKategori": null, "fid_2": 263, "id": 263, "left": 6.986919847, "top": 63.446110046000001, "right": 7.486919847, "bottom": 62.946110046000001, "row_index": 22, "col_index": 6, "tile_id": 263 }, "geometry": { "type": "MultiPolygon", "coordinates": [ [ [ [ 7.247138236284713, 62.954206873372613 ], [ 7.247375136491139, 62.954043623429627 ], [ 7.247343096763431, 62.953610234842515 ], [ 7.245903279789912, 62.952415358957687 ], [ 7.244811792996241, 62.952010449058925 ], [ 7.244212871565646, 62.952072391244293 ], [ 7.2444302127219, 62.952660312537894 ], [ 7.244716719198601, 62.952743095854672 ], [ 7.244816680160818, 62.953279953952901 ], [ 7.245852023549013, 62.953640611848108 ], [ 7.245859317538307, 62.95383421964894 ], [ 7.245505688161654, 62.953978838524549 ], [ 7.245696153898961, 62.954212431523963 ], [ 7.247138236284713, 62.954206873372613 ] ] ] ] } }
]
}
