{
"type": "FeatureCollection",
"name": "innsjo_tile_id_702",
"crs": { "type": "name", "properties": { "name": "urn:ogc:def:crs:OGC:1.3:CRS84" } },
"xy_coordinate_resolution": 1e-15,
"features": [
{ "type": "Feature", "properties": { "fid": 77469, "navn": "Bjørkvatnet", "hoyde_moh": 616, "arealInnsjo_km2": 0.0799, "magasinKategori": null, "fid_2": 702, "id": 702, "left": 12.486919847, "top": 63.946110046000001, "right": 12.986919847, "bottom": 63.446110046000001, "row_index": 21, "col_index": 17, "tile_id": 702 }, "geometry": { "type": "MultiPolygon", "coordinates": [ [ [ [ 12.570276218612882, 63.923857006530724 ], [ 12.569858363809555, 63.923690348508366 ], [ 12.570099601350902, 63.923533670380401 ], [ 12.573120876489087, 63.923621138859552 ], [ 12.571881456122508, 63.923108313775565 ], [ 12.570776807363673, 63.922938493658926 ], [ 12.5704927866223, 63.92262574765401 ], [ 12.566379413158893, 63.921214137844871 ], [ 12.565538479657677, 63.92136575916215 ], [ 12.564733604889192, 63.921054750427643 ], [ 12.564629661832404, 63.921359279634032 ], [ 12.564782495186645, 63.921523293616616 ], [ 12.564581329235065, 63.921605930819091 ], [ 12.564002945162374, 63.921282474193092 ], [ 12.563321001894939, 63.921350737063499 ], [ 12.563577144480238, 63.921682783415619 ], [ 12.564135676167362, 63.921576976269421 ], [ 12.564312773056306, 63.921623593072688 ], [ 12.564273363685151, 63.921767403998679 ], [ 12.564595009490924, 63.921807921159257 ], [ 12.564828359087297, 63.921631813915589 ], [ 12.565194803752252, 63.921626212106098 ], [ 12.565836543084599, 63.922075537857616 ], [ 12.566309793016773, 63.922143920013013 ], [ 12.565363771313709, 63.922575359164512 ], [ 12.564110730218136, 63.922628098911815 ], [ 12.564002786896983, 63.922492135737521 ], [ 12.564426163149921, 63.922437120514346 ], [ 12.56455220203271, 63.922272947074333 ], [ 12.563889937889401, 63.922379794775765 ], [ 12.563460159243251, 63.922146740968216 ], [ 12.562645816058087, 63.922080960285498 ], [ 12.562744910276296, 63.922224767073835 ], [ 12.563244979267756, 63.922219173856419 ], [ 12.563348243156742, 63.922359638277243 ], [ 12.563112610367281, 63.922528970576209 ], [ 12.563119549635106, 63.922773229106475 ], [ 12.563960996432996, 63.923250795184323 ], [ 12.564032586755294, 63.923589343919431 ], [ 12.564812435590081, 63.923895624913236 ], [ 12.56491591454005, 63.924097239248816 ], [ 12.565448557473184, 63.92415863090023 ], [ 12.564994639467708, 63.923744876279137 ], [ 12.56548526241334, 63.923561599553771 ], [ 12.565663953561987, 63.923578251140164 ], [ 12.565757712234268, 63.923826123344604 ], [ 12.566511628044477, 63.923820115346601 ], [ 12.566978734766765, 63.924004401467002 ], [ 12.566964926731576, 63.923650752744976 ], [ 12.566741638004538, 63.923468497550402 ], [ 12.56682481858558, 63.923372651425581 ], [ 12.567593863574713, 63.924072109235134 ], [ 12.569451118947793, 63.92423967908492 ], [ 12.570276218612882, 63.923857006530724 ] ], [ [ 12.565792863484242, 63.922938861674368 ], [ 12.566898752389632, 63.922924669762239 ], [ 12.566650000662714, 63.923193724447458 ], [ 12.566296432178408, 63.923055342394534 ], [ 12.565948345592853, 63.923178343069104 ], [ 12.565792863484242, 63.922938861674368 ] ] ] ] } },
{ "type": "Feature", "properties": { "fid": 78714, "navn": null, "hoyde_moh": 642, "arealInnsjo_km2": 0.004, "magasinKategori": null, "fid_2": 702, "id": 702, "left": 12.486919847, "top": 63.946110046000001, "right": 12.986919847, "bottom": 63.446110046000001, "row_index": 21, "col_index": 17, "tile_id": 702 }, "geometry": { "type": "MultiPolygon", "coordinates": [ [ [ [ 12.517779216967869, 63.885202020784995 ], [ 12.517369901175927, 63.884782487655734 ], [ 12.516311295517383, 63.884819811549562 ], [ 12.516902253601748, 63.885016455556197 ], [ 12.516623057819361, 63.885464760813157 ], [ 12.517205930251993, 63.885554769736061 ], [ 12.517779216967869, 63.885202020784995 ] ] ] ] } },
{ "type": "Feature", "properties": { "fid": 79471, "navn": null, "hoyde_moh": 790, "arealInnsjo_km2": 0.0094, "magasinKategori": null, "fid_2": 702, "id": 702, "left": 12.486919847, "top": 63.946110046000001, "right": 12.986919847, "bottom": 63.446110046000001, "row_index": 21, "col_index": 17, "tile_id": 702 }, "geometry": { "type": "MultiPolygon", "coordinates": [ [ [ [ 12.587791171186007, 63.91102676027154 ], [ 12.585950078993422, 63.910220199262653 ], [ 12.58455183792065, 63.910462659095266 ], [ 12.5836859304861, 63.910359767666058 ], [ 12.583552871489061, 63.910489000077561 ], [ 12.585025063673919, 63.910719182043778 ], [ 12.585669952010608, 63.91098090034648 ], [ 12.586293044111009, 63.910941275550584 ], [ 12.587793769627435, 63.911245711900392 ], [ 12.587791171186007, 63.91102676027154 ] ] ] ] } },
{ "type": "Feature", "properties": { "fid": 84161, "navn": null, "hoyde_moh": 563, "arealInnsjo_km2": 0.0048, "magasinKategori": null, "fid_2": 702, "id": 702, "left": 12.486919847, "top": 63.946110046000001, "right": 12.986919847, "bottom": 63.446110046000001, "row_index": 21, "col_index": 17, "tile_id": 702 }, "geometry": { "type": "MultiPolygon", "coordinates": [ [ [ [ 12.502802977300712, 63.920490414480099 ], [ 12.502956943175034, 63.920183730499943 ], [ 12.502818768120294, 63.920014960578541 ], [ 12.502624750146532, 63.920324725090303 ], [ 12.501851621498345, 63.920400556003358 ], [ 12.501412883145861, 63.920718578865461 ], [ 12.502259564706534, 63.920989903516272 ], [ 12.503597618732533, 63.921062450272686 ], [ 12.502802977300712, 63.920490414480099 ] ] ] ] } },
{ "type": "Feature", "properties": { "fid": 106992, "navn": null, "hoyde_moh": 460, "arealInnsjo_km2": 0.0028, "magasinKategori": null, "fid_2": 702, "id": 702, "left": 12.486919847, "top": 63.946110046000001, "right": 12.986919847, "bottom": 63.446110046000001, "row_index": 21, "col_index": 17, "tile_id": 702 }, "geometry": { "type": "MultiPolygon", "coordinates": [ [ [ [ 12.492719265708022, 63.837855762886399 ], [ 12.492722244887709, 63.837607531952365 ], [ 12.492502618263913, 63.837620871713668 ], [ 12.492398067552811, 63.837826573210634 ], [ 12.49228648800389, 63.837688597688683 ], [ 12.491470294184582, 63.83778900888327 ], [ 12.491593620067054, 63.838098786941629 ], [ 12.492361901144243, 63.838203083801893 ], [ 12.492719265708022, 63.837855762886399 ] ] ] ] } },
{ "type": "Feature", "properties": { "fid": 129175, "navn": null, "hoyde_moh": 793, "arealInnsjo_km2": 0.0033, "magasinKategori": null, "fid_2": 702, "id": 702, "left": 12.486919847, "top": 63.946110046000001, "right": 12.986919847, "bottom": 63.446110046000001, "row_index": 21, "col_index": 17, "tile_id": 702 }, "geometry": { "type": "MultiPolygon", "coordinates": [ [ [ [ 12.585663046946159, 63.908799062193495 ], [ 12.585593232183971, 63.908598473850127 ], [ 12.585197022878537, 63.90869144351749 ], [ 12.585508225067736, 63.908996622848413 ], [ 12.585282688480076, 63.909117849564346 ], [ 12.585514898261319, 63.909364784341598 ], [ 12.586642419018713, 63.90952895303213 ], [ 12.585663046946159, 63.908799062193495 ] ] ] ] } },
{ "type": "Feature", "properties": { "fid": 173894, "navn": null, "hoyde_moh": 565, "arealInnsjo_km2": 0.0042, "magasinKategori": null, "fid_2": 702, "id": 702, "left": 12.486919847, "top": 63.946110046000001, "right": 12.986919847, "bottom": 63.446110046000001, "row_index": 21, "col_index": 17, "tile_id": 702 }, "geometry": { "type": "MultiPolygon", "coordinates": [ [ [ [ 12.499772259736263, 63.917977238544864 ], [ 12.499318173618249, 63.917780920986836 ], [ 12.499895999467258, 63.917762792495211 ], [ 12.499854646547167, 63.917388985764752 ], [ 12.499204166098869, 63.916872035623676 ], [ 12.499034414312533, 63.916893258501929 ], [ 12.499131992771506, 63.917080008593999 ], [ 12.498606392045382, 63.916988320289555 ], [ 12.498587378277751, 63.917208525303678 ], [ 12.498789587103554, 63.917225936077315 ], [ 12.498733639977031, 63.917389112695268 ], [ 12.499022867466604, 63.917352443813641 ], [ 12.499259705146885, 63.917592422041707 ], [ 12.499043227682431, 63.918012060979422 ], [ 12.499772259736263, 63.917977238544864 ] ] ] ] } },
{ "type": "Feature", "properties": { "fid": 174628, "navn": null, "hoyde_moh": 631, "arealInnsjo_km2": 0.0027, "magasinKategori": null, "fid_2": 702, "id": 702, "left": 12.486919847, "top": 63.946110046000001, "right": 12.986919847, "bottom": 63.446110046000001, "row_index": 21, "col_index": 17, "tile_id": 702 }, "geometry": { "type": "MultiPolygon", "coordinates": [ [ [ [ 12.501888873501757, 63.865968343370817 ], [ 12.500749732771695, 63.865583826637611 ], [ 12.500001589542583, 63.865709267487077 ], [ 12.50095899974113, 63.866095139472996 ], [ 12.501888873501757, 63.865968343370817 ] ] ] ] } },
{ "type": "Feature", "properties": { "fid": 174629, "navn": null, "hoyde_moh": 793, "arealInnsjo_km2": 0.0029, "magasinKategori": null, "fid_2": 702, "id": 702, "left": 12.486919847, "top": 63.946110046000001, "right": 12.986919847, "bottom": 63.446110046000001, "row_index": 21, "col_index": 17, "tile_id": 702 }, "geometry": { "type": "MultiPolygon", "coordinates": [ [ [ [ 12.582241906872548, 63.910309533010931 ], [ 12.582392978991424, 63.910260066977841 ], [ 12.58169985596488, 63.909820281605541 ], [ 12.581072915939927, 63.909914235111245 ], [ 12.580912952395513, 63.910180484876697 ], [ 12.580993478147427, 63.910325045964214 ], [ 12.582241906872548, 63.910309533010931 ] ] ] ] } },
{ "type": "Feature", "properties": { "fid": 174648, "navn": null, "hoyde_moh": 558, "arealInnsjo_km2": 0.0029, "magasinKategori": null, "fid_2": 702, "id": 702, "left": 12.486919847, "top": 63.946110046000001, "right": 12.986919847, "bottom": 63.446110046000001, "row_index": 21, "col_index": 17, "tile_id": 702 }, "geometry": { "type": "MultiPolygon", "coordinates": [ [ [ [ 12.506504944032791, 63.913766086912766 ], [ 12.50543186896895, 63.913483251953402 ], [ 12.50509309112917, 63.913616774599795 ], [ 12.504725346148865, 63.913491102154893 ], [ 12.504363553218502, 63.913711416051306 ], [ 12.504485733549775, 63.913837347108576 ], [ 12.505243536014358, 63.913709250040036 ], [ 12.505402635802152, 63.913952188732942 ], [ 12.506504944032791, 63.913766086912766 ] ] ] ] } },
{ "type": "Feature", "properties": { "fid": 174674, "navn": null, "hoyde_moh": 564, "arealInnsjo_km2": 0.008, "magasinKategori": null, "fid_2": 702, "id": 702, "left": 12.486919847, "top": 63.946110046000001, "right": 12.986919847, "bottom": 63.446110046000001, "row_index": 21, "col_index": 17, "tile_id": 702 }, "geometry": { "type": "MultiPolygon", "coordinates": [ [ [ [ 12.517272138474066, 63.92386190942041 ], [ 12.516939118724553, 63.92368523491578 ], [ 12.51734929230734, 63.923199752182931 ], [ 12.516722509462701, 63.92294243566581 ], [ 12.514856839442279, 63.922979845607969 ], [ 12.515477244502495, 63.923486416111238 ], [ 12.515824157021866, 63.923508349759828 ], [ 12.515919027869725, 63.92393227318977 ], [ 12.517272138474066, 63.92386190942041 ] ] ] ] } },
{ "type": "Feature", "properties": { "fid": 174718, "navn": null, "hoyde_moh": 560, "arealInnsjo_km2": 0.003, "magasinKategori": null, "fid_2": 702, "id": 702, "left": 12.486919847, "top": 63.946110046000001, "right": 12.986919847, "bottom": 63.446110046000001, "row_index": 21, "col_index": 17, "tile_id": 702 }, "geometry": { "type": "MultiPolygon", "coordinates": [ [ [ [ 12.51840201599784, 63.92824143289873 ], [ 12.519378110799073, 63.928177338085341 ], [ 12.518785748498825, 63.927949265680354 ], [ 12.518993740215333, 63.927782311715539 ], [ 12.518465711377017, 63.927756655198145 ], [ 12.518630034772194, 63.927663571461977 ], [ 12.518558691156029, 63.927512844288074 ], [ 12.518067040791415, 63.92737125833829 ], [ 12.517952171258052, 63.927528043824317 ], [ 12.518482315171607, 63.927631229706989 ], [ 12.518140345249689, 63.927949523028822 ], [ 12.518222198937522, 63.92836891100292 ], [ 12.51840201599784, 63.92824143289873 ] ] ] ] } },
{ "type": "Feature", "properties": { "fid": 174756, "navn": null, "hoyde_moh": 619, "arealInnsjo_km2": 0.0081, "magasinKategori": null, "fid_2": 702, "id": 702, "left": 12.486919847, "top": 63.946110046000001, "right": 12.986919847, "bottom": 63.446110046000001, "row_index": 21, "col_index": 17, "tile_id": 702 }, "geometry": { "type": "MultiPolygon", "coordinates": [ [ [ [ 12.572205281912483, 63.925208198348756 ], [ 12.573295802121155, 63.925188670625829 ], [ 12.573611015504801, 63.925068244415826 ], [ 12.573596945767077, 63.924898304558987 ], [ 12.572251155027471, 63.924586089681419 ], [ 12.571864687405453, 63.924723635774363 ], [ 12.571817493123939, 63.925007301366506 ], [ 12.571281186001626, 63.924900707385952 ], [ 12.57014165318979, 63.925182394594792 ], [ 12.570671294844136, 63.925427248427276 ], [ 12.571902292196256, 63.925458394380556 ], [ 12.572205281912483, 63.925208198348756 ] ], [ [ 12.570780652478735, 63.925184492674887 ], [ 12.571130622621816, 63.9251175413266 ], [ 12.571076056620724, 63.925288306080816 ], [ 12.570780652478735, 63.925184492674887 ] ] ] ] } },
{ "type": "Feature", "properties": { "fid": 174883, "navn": null, "hoyde_moh": 565, "arealInnsjo_km2": 0.0182, "magasinKategori": null, "fid_2": 702, "id": 702, "left": 12.486919847, "top": 63.946110046000001, "right": 12.986919847, "bottom": 63.446110046000001, "row_index": 21, "col_index": 17, "tile_id": 702 }, "geometry": { "type": "MultiPolygon", "coordinates": [ [ [ [ 12.487455665936189, 63.910014552924594 ], [ 12.486919847, 63.909761059205991 ], [ 12.486919847, 63.910434133805474 ], [ 12.487217741819649, 63.910499353746566 ], [ 12.487455665936189, 63.910014552924594 ] ] ] ] } },
{ "type": "Feature", "properties": { "fid": 174909, "navn": null, "hoyde_moh": 789, "arealInnsjo_km2": 0.0037, "magasinKategori": null, "fid_2": 702, "id": 702, "left": 12.486919847, "top": 63.946110046000001, "right": 12.986919847, "bottom": 63.446110046000001, "row_index": 21, "col_index": 17, "tile_id": 702 }, "geometry": { "type": "MultiPolygon", "coordinates": [ [ [ [ 12.572831431718061, 63.907207488233773 ], [ 12.572705857563152, 63.907039808733828 ], [ 12.572877758194274, 63.906895613391995 ], [ 12.572506835586342, 63.906443493400729 ], [ 12.571763225141236, 63.906307470825354 ], [ 12.57208017031085, 63.907032370095791 ], [ 12.57275377707418, 63.907372299287275 ], [ 12.572831431718061, 63.907207488233773 ] ] ] ] } },
{ "type": "Feature", "properties": { "fid": 174943, "navn": null, "hoyde_moh": 670, "arealInnsjo_km2": 0.0114, "magasinKategori": null, "fid_2": 702, "id": 702, "left": 12.486919847, "top": 63.946110046000001, "right": 12.986919847, "bottom": 63.446110046000001, "row_index": 21, "col_index": 17, "tile_id": 702 }, "geometry": { "type": "MultiPolygon", "coordinates": [ [ [ [ 12.487701501283253, 63.939042976905519 ], [ 12.487372264495137, 63.938846904736202 ], [ 12.487603994736109, 63.938643588647068 ], [ 12.487905275050444, 63.938709692696008 ], [ 12.487954417291531, 63.938906205764845 ], [ 12.488490056689988, 63.938917376788517 ], [ 12.488803544657632, 63.93867857068004 ], [ 12.488792618186148, 63.938467814507646 ], [ 12.488065352880586, 63.93810537084692 ], [ 12.486919847, 63.938166328390913 ], [ 12.486919847, 63.93920149747359 ], [ 12.486945830915117, 63.939204701607579 ], [ 12.487701501283253, 63.939042976905519 ] ] ] ] } },
{ "type": "Feature", "properties": { "fid": 174981, "navn": null, "hoyde_moh": 673, "arealInnsjo_km2": 0.005, "magasinKategori": null, "fid_2": 702, "id": 702, "left": 12.486919847, "top": 63.946110046000001, "right": 12.986919847, "bottom": 63.446110046000001, "row_index": 21, "col_index": 17, "tile_id": 702 }, "geometry": { "type": "MultiPolygon", "coordinates": [ [ [ [ 12.572791723949258, 63.935196449756937 ], [ 12.572884654064955, 63.934992835258527 ], [ 12.572090129297248, 63.934556879303699 ], [ 12.571255532356295, 63.934543878796042 ], [ 12.571284345695787, 63.934411471767952 ], [ 12.571722850638901, 63.934459407165541 ], [ 12.57124109033529, 63.934279383066837 ], [ 12.571203681249614, 63.934136348111821 ], [ 12.571049669147644, 63.934194464621115 ], [ 12.571168247196438, 63.934300430000938 ], [ 12.571031273815489, 63.934484628731397 ], [ 12.571577652402171, 63.934872973163088 ], [ 12.571280110198988, 63.935077826302539 ], [ 12.570363261530767, 63.935064699114392 ], [ 12.572791723949258, 63.935196449756937 ] ] ] ] } },
{ "type": "Feature", "properties": { "fid": 175013, "navn": null, "hoyde_moh": 768, "arealInnsjo_km2": 0.0039, "magasinKategori": null, "fid_2": 702, "id": 702, "left": 12.486919847, "top": 63.946110046000001, "right": 12.986919847, "bottom": 63.446110046000001, "row_index": 21, "col_index": 17, "tile_id": 702 }, "geometry": { "type": "MultiPolygon", "coordinates": [ [ [ [ 12.550497666201752, 63.901475441611019 ], [ 12.551048035297596, 63.901414806138895 ], [ 12.551364947569928, 63.901429595506649 ], [ 12.551263331839758, 63.901669236682636 ], [ 12.551715303476593, 63.901762273702431 ], [ 12.551543948964692, 63.901373181271516 ], [ 12.550821003425048, 63.901192142517566 ], [ 12.549558845355477, 63.901315525818845 ], [ 12.54957879933173, 63.901523731604584 ], [ 12.550318707099727, 63.901837506445212 ], [ 12.550497666201752, 63.901475441611019 ] ] ] ] } },
{ "type": "Feature", "properties": { "fid": 177364, "navn": null, "hoyde_moh": 563, "arealInnsjo_km2": 0.0071, "magasinKategori": null, "fid_2": 702, "id": 702, "left": 12.486919847, "top": 63.946110046000001, "right": 12.986919847, "bottom": 63.446110046000001, "row_index": 21, "col_index": 17, "tile_id": 702 }, "geometry": { "type": "MultiPolygon", "coordinates": [ [ [ [ 12.501075775781597, 63.921278821434903 ], [ 12.500076765224581, 63.920906177257592 ], [ 12.498899571292251, 63.91997193186922 ], [ 12.498737036792903, 63.920172866713017 ], [ 12.499198177985479, 63.920647488265949 ], [ 12.498665767619475, 63.920505578614389 ], [ 12.498513476263961, 63.92077690885823 ], [ 12.497939779439712, 63.920869273617924 ], [ 12.498603189415659, 63.92126711577172 ], [ 12.498634515419813, 63.92112165225155 ], [ 12.500016760166545, 63.921055366239543 ], [ 12.501046129373689, 63.921471994701093 ], [ 12.501075775781597, 63.921278821434903 ] ] ] ] } },
{ "type": "Feature", "properties": { "fid": 177570, "navn": null, "hoyde_moh": 760, "arealInnsjo_km2": 0.005, "magasinKategori": null, "fid_2": 702, "id": 702, "left": 12.486919847, "top": 63.946110046000001, "right": 12.986919847, "bottom": 63.446110046000001, "row_index": 21, "col_index": 17, "tile_id": 702 }, "geometry": { "type": "MultiPolygon", "coordinates": [ [ [ [ 12.566655779072521, 63.908251800337148 ], [ 12.566657028872907, 63.908072688254862 ], [ 12.565940638890853, 63.907791811558411 ], [ 12.564823917763997, 63.907568668068372 ], [ 12.563670041244103, 63.907616508708585 ], [ 12.566655779072521, 63.908251800337148 ] ] ] ] } },
{ "type": "Feature", "properties": { "fid": 177756, "navn": null, "hoyde_moh": 641, "arealInnsjo_km2": 0.0049, "magasinKategori": null, "fid_2": 702, "id": 702, "left": 12.486919847, "top": 63.946110046000001, "right": 12.986919847, "bottom": 63.446110046000001, "row_index": 21, "col_index": 17, "tile_id": 702 }, "geometry": { "type": "MultiPolygon", "coordinates": [ [ [ [ 12.612937596525647, 63.944645300133395 ], [ 12.613392297511707, 63.944594336208446 ], [ 12.613337842740464, 63.944281962256852 ], [ 12.612508242124385, 63.944180484447628 ], [ 12.61215452687707, 63.944515136087368 ], [ 12.61146271802553, 63.944770768018522 ], [ 12.611620539333391, 63.944991106860662 ], [ 12.612181695891154, 63.945085383453737 ], [ 12.612937596525647, 63.944645300133395 ] ] ] ] } },
{ "type": "Feature", "properties": { "fid": 177825, "navn": null, "hoyde_moh": 560, "arealInnsjo_km2": 0.0053, "magasinKategori": null, "fid_2": 702, "id": 702, "left": 12.486919847, "top": 63.946110046000001, "right": 12.986919847, "bottom": 63.446110046000001, "row_index": 21, "col_index": 17, "tile_id": 702 }, "geometry": { "type": "MultiPolygon", "coordinates": [ [ [ [ 12.490100330808763, 63.911105808045903 ], [ 12.490823063116149, 63.911078017388519 ], [ 12.490827931617355, 63.910909468367315 ], [ 12.491301246014544, 63.910763224372403 ], [ 12.492175322940598, 63.910643585997612 ], [ 12.490762963385619, 63.910319921398326 ], [ 12.490238710997321, 63.91037907819755 ], [ 12.489854547900586, 63.91090804067948 ], [ 12.489928038815572, 63.911267503741861 ], [ 12.490100330808763, 63.911105808045903 ] ] ] ] } },
{ "type": "Feature", "properties": { "fid": 177826, "navn": null, "hoyde_moh": 557, "arealInnsjo_km2": 0.0133, "magasinKategori": null, "fid_2": 702, "id": 702, "left": 12.486919847, "top": 63.946110046000001, "right": 12.986919847, "bottom": 63.446110046000001, "row_index": 21, "col_index": 17, "tile_id": 702 }, "geometry": { "type": "MultiPolygon", "coordinates": [ [ [ [ 12.511575590467952, 63.914707879309496 ], [ 12.511599190626926, 63.914561293358297 ], [ 12.511007660493803, 63.914424338668205 ], [ 12.509620130961743, 63.913395694390843 ], [ 12.50930279430294, 63.913386644386698 ], [ 12.509115348752823, 63.914076444974121 ], [ 12.508597128167763, 63.914122482982428 ], [ 12.509139519256321, 63.914785419971274 ], [ 12.509658568970204, 63.914737059510095 ], [ 12.51076780289347, 63.914990312974957 ], [ 12.511575590467952, 63.914707879309496 ] ] ] ] } },
{ "type": "Feature", "properties": { "fid": 179313, "navn": null, "hoyde_moh": 795, "arealInnsjo_km2": 0.0026, "magasinKategori": null, "fid_2": 702, "id": 702, "left": 12.486919847, "top": 63.946110046000001, "right": 12.986919847, "bottom": 63.446110046000001, "row_index": 21, "col_index": 17, "tile_id": 702 }, "geometry": { "type": "MultiPolygon", "coordinates": [ [ [ [ 12.577009383650241, 63.90937946861839 ], [ 12.577223682364924, 63.909162080135232 ], [ 12.576185849513816, 63.908968271121815 ], [ 12.575632751095707, 63.909161039655217 ], [ 12.576434443666081, 63.909466191171354 ], [ 12.577009383650241, 63.90937946861839 ] ] ] ] } },
{ "type": "Feature", "properties": { "fid": 179315, "navn": null, "hoyde_moh": 553, "arealInnsjo_km2": 0.0081, "magasinKategori": null, "fid_2": 702, "id": 702, "left": 12.486919847, "top": 63.946110046000001, "right": 12.986919847, "bottom": 63.446110046000001, "row_index": 21, "col_index": 17, "tile_id": 702 }, "geometry": { "type": "MultiPolygon", "coordinates": [ [ [ [ 12.623583582160697, 63.936239628396649 ], [ 12.623031170964747, 63.93621961307101 ], [ 12.623106620305576, 63.936083115296697 ], [ 12.622697692691032, 63.936038964741293 ], [ 12.620887718931069, 63.936117182674082 ], [ 12.620230575722237, 63.935344804454949 ], [ 12.619890350965889, 63.935347386782205 ], [ 12.619992874187851, 63.935543732533127 ], [ 12.619497620603308, 63.935783413144989 ], [ 12.619612979113763, 63.936169962705755 ], [ 12.620924387394171, 63.93636578069593 ], [ 12.62104523318896, 63.936293330153525 ], [ 12.620876929133336, 63.936203471874116 ], [ 12.621403517134201, 63.936207897264673 ], [ 12.621254189204683, 63.93635629053508 ], [ 12.622080847131873, 63.9364275036355 ], [ 12.623583582160697, 63.936239628396649 ] ] ] ] } },
{ "type": "Feature", "properties": { "fid": 179326, "navn": null, "hoyde_moh": 555, "arealInnsjo_km2": 0.0032, "magasinKategori": null, "fid_2": 702, "id": 702, "left": 12.486919847, "top": 63.946110046000001, "right": 12.986919847, "bottom": 63.446110046000001, "row_index": 21, "col_index": 17, "tile_id": 702 }, "geometry": { "type": "MultiPolygon", "coordinates": [ [ [ [ 12.515996957827364, 63.932006710794681 ], [ 12.51581026180556, 63.931803630565533 ], [ 12.516048415153893, 63.931748271284881 ], [ 12.516008711112198, 63.931585963336552 ], [ 12.516479249042769, 63.931526506416539 ], [ 12.516648270098134, 63.931198607031945 ], [ 12.515925951035907, 63.931294603061772 ], [ 12.515270337839045, 63.931888384240537 ], [ 12.515371997881044, 63.93210455325876 ], [ 12.515774981955822, 63.93214666294238 ], [ 12.515996957827364, 63.932006710794681 ] ] ] ] } },
{ "type": "Feature", "properties": { "fid": 179330, "navn": null, "hoyde_moh": 788, "arealInnsjo_km2": 0.03, "magasinKategori": null, "fid_2": 702, "id": 702, "left": 12.486919847, "top": 63.946110046000001, "right": 12.986919847, "bottom": 63.446110046000001, "row_index": 21, "col_index": 17, "tile_id": 702 }, "geometry": { "type": "MultiPolygon", "coordinates": [ [ [ [ 12.588294761446877, 63.913954404688923 ], [ 12.587975567918436, 63.913382871843545 ], [ 12.588089080306105, 63.913248461249751 ], [ 12.590699417556703, 63.913946216767243 ], [ 12.591007695041229, 63.913714120536135 ], [ 12.590860143644528, 63.913318565215171 ], [ 12.591048094739918, 63.913160159950486 ], [ 12.591397133949243, 63.913327498367835 ], [ 12.591666961506283, 63.913141721446337 ], [ 12.590960531319055, 63.913020875575626 ], [ 12.590653999898988, 63.913299242532595 ], [ 12.590931846942762, 63.913661678400686 ], [ 12.59071480030271, 63.913705207018779 ], [ 12.58940288827835, 63.913002584992114 ], [ 12.589344213335321, 63.912849952784796 ], [ 12.589567155963953, 63.912692580858064 ], [ 12.589034032910403, 63.912593645712235 ], [ 12.589538569987138, 63.91212301567365 ], [ 12.589035876652682, 63.911800470934068 ], [ 12.588532003202943, 63.911676969281181 ], [ 12.585990793486982, 63.911833599958591 ], [ 12.586653736450225, 63.912310302694515 ], [ 12.585996118149309, 63.912317119136056 ], [ 12.585861541724599, 63.912475869299733 ], [ 12.586391811278563, 63.912759646698774 ], [ 12.587247319436866, 63.912775700092155 ], [ 12.588003038196021, 63.913034674460214 ], [ 12.587789625507801, 63.913375284907389 ], [ 12.587134573637931, 63.913515667514027 ], [ 12.587068983506731, 63.913759162889697 ], [ 12.586435758618896, 63.9139420177818 ], [ 12.588294761446877, 63.913954404688923 ] ] ] ] } },
{ "type": "Feature", "properties": { "fid": 179332, "navn": null, "hoyde_moh": 585, "arealInnsjo_km2": 0.0028, "magasinKategori": null, "fid_2": 702, "id": 702, "left": 12.486919847, "top": 63.946110046000001, "right": 12.986919847, "bottom": 63.446110046000001, "row_index": 21, "col_index": 17, "tile_id": 702 }, "geometry": { "type": "MultiPolygon", "coordinates": [ [ [ [ 12.605215593807388, 63.928573505874397 ], [ 12.605727192329155, 63.928340698718507 ], [ 12.60401685780108, 63.928616716283194 ], [ 12.603960897442331, 63.928474013407794 ], [ 12.604181790011815, 63.928417597777788 ], [ 12.604183112259314, 63.92792189295583 ], [ 12.603460395039315, 63.927919904914731 ], [ 12.603708934006772, 63.928182340326032 ], [ 12.603845583418828, 63.928677454198009 ], [ 12.605215593807388, 63.928573505874397 ] ] ] ] } },
{ "type": "Feature", "properties": { "fid": 179799, "navn": null, "hoyde_moh": 797, "arealInnsjo_km2": 0.0026, "magasinKategori": null, "fid_2": 702, "id": 702, "left": 12.486919847, "top": 63.946110046000001, "right": 12.986919847, "bottom": 63.446110046000001, "row_index": 21, "col_index": 17, "tile_id": 702 }, "geometry": { "type": "MultiPolygon", "coordinates": [ [ [ [ 12.582599184771395, 63.908892949907134 ], [ 12.582281100204041, 63.908810149536436 ], [ 12.581973505927378, 63.908967802726153 ], [ 12.581599966292819, 63.908768963385555 ], [ 12.581455976061145, 63.908501945816781 ], [ 12.581020132781543, 63.908728209457692 ], [ 12.581020669975148, 63.9088710750068 ], [ 12.581776296460379, 63.908942241002912 ], [ 12.581571225534082, 63.909060032759434 ], [ 12.58206803391719, 63.909335726160542 ], [ 12.582599184771395, 63.908892949907134 ] ] ] ] } },
{ "type": "Feature", "properties": { "fid": 181692, "navn": null, "hoyde_moh": 557, "arealInnsjo_km2": 0.003, "magasinKategori": null, "fid_2": 702, "id": 702, "left": 12.486919847, "top": 63.946110046000001, "right": 12.986919847, "bottom": 63.446110046000001, "row_index": 21, "col_index": 17, "tile_id": 702 }, "geometry": { "type": "MultiPolygon", "coordinates": [ [ [ [ 12.493381677852657, 63.90993579770786 ], [ 12.492304627726449, 63.909650278612261 ], [ 12.492094712501588, 63.909429879631823 ], [ 12.492439742070962, 63.909304127967886 ], [ 12.491726941791802, 63.909511147619767 ], [ 12.492473090454178, 63.910076844874403 ], [ 12.493312302970361, 63.910125857913229 ], [ 12.493381677852657, 63.90993579770786 ] ] ] ] } },
{ "type": "Feature", "properties": { "fid": 181694, "navn": null, "hoyde_moh": 643, "arealInnsjo_km2": 0.0028, "magasinKategori": null, "fid_2": 702, "id": 702, "left": 12.486919847, "top": 63.946110046000001, "right": 12.986919847, "bottom": 63.446110046000001, "row_index": 21, "col_index": 17, "tile_id": 702 }, "geometry": { "type": "MultiPolygon", "coordinates": [ [ [ [ 12.519625811199759, 63.881859349786275 ], [ 12.519598916127856, 63.881707048323349 ], [ 12.519956764177978, 63.881444521840649 ], [ 12.520188125970718, 63.881408080841481 ], [ 12.519702757261198, 63.881229691956626 ], [ 12.518816861658623, 63.881446616681551 ], [ 12.518960099282792, 63.881573167484405 ], [ 12.518971818997699, 63.881961993687987 ], [ 12.519625811199759, 63.881859349786275 ] ] ] ] } },
{ "type": "Feature", "properties": { "fid": 185096, "navn": null, "hoyde_moh": 654, "arealInnsjo_km2": 0.0037, "magasinKategori": null, "fid_2": 702, "id": 702, "left": 12.486919847, "top": 63.946110046000001, "right": 12.986919847, "bottom": 63.446110046000001, "row_index": 21, "col_index": 17, "tile_id": 702 }, "geometry": { "type": "MultiPolygon", "coordinates": [ [ [ [ 12.557402872874459, 63.927247037478303 ], [ 12.557597569451216, 63.926850390398229 ], [ 12.557798621973653, 63.926769735694705 ], [ 12.556927153596609, 63.926601766586884 ], [ 12.556728097527735, 63.926783648498692 ], [ 12.556328512191946, 63.926770712435683 ], [ 12.556638736857153, 63.927345850592559 ], [ 12.557402872874459, 63.927247037478303 ] ] ] ] } },
{ "type": "Feature", "properties": { "fid": 185780, "navn": null, "hoyde_moh": 697, "arealInnsjo_km2": 0.0089, "magasinKategori": null, "fid_2": 702, "id": 702, "left": 12.486919847, "top": 63.946110046000001, "right": 12.986919847, "bottom": 63.446110046000001, "row_index": 21, "col_index": 17, "tile_id": 702 }, "geometry": { "type": "MultiPolygon", "coordinates": [ [ [ [ 12.579947197516509, 63.899388766043444 ], [ 12.578364417932303, 63.898871678462243 ], [ 12.578245622950428, 63.898672690246748 ], [ 12.576785559292398, 63.898425573103104 ], [ 12.576416855278604, 63.898503444075523 ], [ 12.576572553036177, 63.898732862350769 ], [ 12.57706140513598, 63.898814584891724 ], [ 12.577485033320668, 63.899274489944574 ], [ 12.579720902971657, 63.899559625069749 ], [ 12.579947197516509, 63.899388766043444 ] ] ] ] } },
{ "type": "Feature", "properties": { "fid": 200984, "navn": null, "hoyde_moh": 563, "arealInnsjo_km2": 0.0131, "magasinKategori": null, "fid_2": 702, "id": 702, "left": 12.486919847, "top": 63.946110046000001, "right": 12.986919847, "bottom": 63.446110046000001, "row_index": 21, "col_index": 17, "tile_id": 702 }, "geometry": { "type": "MultiPolygon", "coordinates": [ [ [ [ 12.493439000469468, 63.913457344350718 ], [ 12.493319586049923, 63.913264464844374 ], [ 12.493538304946593, 63.913119462463435 ], [ 12.493354613484366, 63.913020651934843 ], [ 12.493115784508554, 63.913212717112877 ], [ 12.492610436178298, 63.913192114133665 ], [ 12.491440726761141, 63.91273267077721 ], [ 12.491391222499002, 63.91241717457418 ], [ 12.490686749262489, 63.911857043583112 ], [ 12.490193562014086, 63.911819312308282 ], [ 12.489710526864046, 63.912042068668036 ], [ 12.489844039514891, 63.912193262110264 ], [ 12.489782088131722, 63.912418559180935 ], [ 12.490270618859835, 63.912688688055994 ], [ 12.490481590264256, 63.912990910229503 ], [ 12.492710135381527, 63.913614795015945 ], [ 12.493439000469468, 63.913457344350718 ] ] ] ] } },
{ "type": "Feature", "properties": { "fid": 200986, "navn": null, "hoyde_moh": 622, "arealInnsjo_km2": 0.027, "magasinKategori": null, "fid_2": 702, "id": 702, "left": 12.486919847, "top": 63.946110046000001, "right": 12.986919847, "bottom": 63.446110046000001, "row_index": 21, "col_index": 17, "tile_id": 702 }, "geometry": { "type": "MultiPolygon", "coordinates": [ [ [ [ 12.598983207166999, 63.941161000946316 ], [ 12.598713183811562, 63.940886440291621 ], [ 12.599345943521133, 63.941172936667989 ], [ 12.599870531640201, 63.941137449803705 ], [ 12.599985795044944, 63.940985639487657 ], [ 12.599886874329961, 63.940874996888162 ], [ 12.600149079643337, 63.940704429848367 ], [ 12.600196286135322, 63.940477236522668 ], [ 12.599799103098064, 63.939758988001849 ], [ 12.59888303496392, 63.939572852605764 ], [ 12.598459849951775, 63.939659220736083 ], [ 12.597919161990141, 63.939268204869386 ], [ 12.597664664212685, 63.939336894879553 ], [ 12.597782288158047, 63.939548323631783 ], [ 12.597283553887783, 63.939887450271385 ], [ 12.597854299019508, 63.940299348901036 ], [ 12.597044001620835, 63.940134170216787 ], [ 12.596231878579996, 63.940966607588223 ], [ 12.596254046263018, 63.941088999204489 ], [ 12.596857792277902, 63.941261262194587 ], [ 12.598720987716993, 63.94131253042827 ], [ 12.598983207166999, 63.941161000946316 ] ] ] ] } },
{ "type": "Feature", "properties": { "fid": 201709, "navn": null, "hoyde_moh": 773, "arealInnsjo_km2": 0.0106, "magasinKategori": null, "fid_2": 702, "id": 702, "left": 12.486919847, "top": 63.946110046000001, "right": 12.986919847, "bottom": 63.446110046000001, "row_index": 21, "col_index": 17, "tile_id": 702 }, "geometry": { "type": "MultiPolygon", "coordinates": [ [ [ [ 12.558011532904343, 63.906263557965893 ], [ 12.557010825147678, 63.905797986931461 ], [ 12.556668418911405, 63.905457016931891 ], [ 12.556429880833225, 63.905492229686786 ], [ 12.556154997840949, 63.905818561031175 ], [ 12.555052087155577, 63.905646933990688 ], [ 12.554058338867716, 63.905830203192998 ], [ 12.554217575067209, 63.906068865659627 ], [ 12.556487972429188, 63.906352245114036 ], [ 12.558011532904343, 63.906263557965893 ] ] ] ] } },
{ "type": "Feature", "properties": { "fid": 202046, "navn": null, "hoyde_moh": 637, "arealInnsjo_km2": 0.0174, "magasinKategori": null, "fid_2": 702, "id": 702, "left": 12.486919847, "top": 63.946110046000001, "right": 12.986919847, "bottom": 63.446110046000001, "row_index": 21, "col_index": 17, "tile_id": 702 }, "geometry": { "type": "MultiPolygon", "coordinates": [ [ [ [ 12.520226412034459, 63.888508773057822 ], [ 12.52133779868814, 63.888479775750362 ], [ 12.521757045693848, 63.888127155874002 ], [ 12.52177668235232, 63.887761226224811 ], [ 12.51945306708169, 63.887413420322112 ], [ 12.51783834115262, 63.887854450366639 ], [ 12.519208250098899, 63.888303383695948 ], [ 12.51911462252769, 63.888523837007739 ], [ 12.519377569190567, 63.888732714267015 ], [ 12.520226412034459, 63.888508773057822 ] ] ] ] } },
{ "type": "Feature", "properties": { "fid": 202451, "navn": null, "hoyde_moh": 653, "arealInnsjo_km2": 0.009, "magasinKategori": null, "fid_2": 702, "id": 702, "left": 12.486919847, "top": 63.946110046000001, "right": 12.986919847, "bottom": 63.446110046000001, "row_index": 21, "col_index": 17, "tile_id": 702 }, "geometry": { "type": "MultiPolygon", "coordinates": [ [ [ [ 12.512807605350444, 63.891735317781723 ], [ 12.5121385669175, 63.891464134681712 ], [ 12.51265170021161, 63.891486873528393 ], [ 12.512959049907028, 63.891168540605108 ], [ 12.512506689817053, 63.89106935572206 ], [ 12.512772752771726, 63.890957287343028 ], [ 12.512592806719493, 63.890807831056918 ], [ 12.511999418544082, 63.891015019956441 ], [ 12.510538343903614, 63.890983067773789 ], [ 12.510737417060641, 63.891526061513936 ], [ 12.511518000664326, 63.891865257425906 ], [ 12.512807605350444, 63.891735317781723 ] ] ] ] } },
{ "type": "Feature", "properties": { "fid": 208813, "navn": null, "hoyde_moh": 561, "arealInnsjo_km2": 0.0063, "magasinKategori": null, "fid_2": 702, "id": 702, "left": 12.486919847, "top": 63.946110046000001, "right": 12.986919847, "bottom": 63.446110046000001, "row_index": 21, "col_index": 17, "tile_id": 702 }, "geometry": { "type": "MultiPolygon", "coordinates": [ [ [ [ 12.515066241673033, 63.924918387642094 ], [ 12.514706361347237, 63.924586623634951 ], [ 12.514883261201682, 63.924374514896485 ], [ 12.514401525634215, 63.924232367265041 ], [ 12.513823485525133, 63.924451867559526 ], [ 12.513241970049666, 63.924434252310085 ], [ 12.513100230539594, 63.924758216518946 ], [ 12.513552834399009, 63.925125518267876 ], [ 12.515066241673033, 63.924918387642094 ] ] ] ] } },
{ "type": "Feature", "properties": { "fid": 217420, "navn": "Heimtjønna", "hoyde_moh": 568, "arealInnsjo_km2": 0.0282, "magasinKategori": null, "fid_2": 702, "id": 702, "left": 12.486919847, "top": 63.946110046000001, "right": 12.986919847, "bottom": 63.446110046000001, "row_index": 21, "col_index": 17, "tile_id": 702 }, "geometry": { "type": "MultiPolygon", "coordinates": [ [ [ [ 12.49572739574632, 63.901663263078895 ], [ 12.495364334111777, 63.901167244664897 ], [ 12.495269106479675, 63.900655566634967 ], [ 12.494844992031741, 63.900346069906163 ], [ 12.493884183756403, 63.900194117818579 ], [ 12.494069218315996, 63.900071340281684 ], [ 12.493557609667764, 63.900176071496062 ], [ 12.493902887468293, 63.900356879216709 ], [ 12.493172175539272, 63.900356168461705 ], [ 12.493525649253318, 63.900707817668732 ], [ 12.492531393957373, 63.900887066949849 ], [ 12.491624054252963, 63.901603976974336 ], [ 12.49235771890004, 63.902026329888784 ], [ 12.494121643251027, 63.901905574079592 ], [ 12.495553972404569, 63.902222732438759 ], [ 12.49572739574632, 63.901663263078895 ] ] ] ] } },
{ "type": "Feature", "properties": { "fid": 217840, "navn": null, "hoyde_moh": 648, "arealInnsjo_km2": 0.0054, "magasinKategori": null, "fid_2": 702, "id": 702, "left": 12.486919847, "top": 63.946110046000001, "right": 12.986919847, "bottom": 63.446110046000001, "row_index": 21, "col_index": 17, "tile_id": 702 }, "geometry": { "type": "MultiPolygon", "coordinates": [ [ [ [ 12.561181719603558, 63.931176212288776 ], [ 12.561178498938141, 63.930854167504059 ], [ 12.56031119245772, 63.930446638468005 ], [ 12.559855699550521, 63.930752068334215 ], [ 12.559807834245653, 63.931060682113511 ], [ 12.559284390076289, 63.93127445636604 ], [ 12.561181719603558, 63.931176212288776 ] ] ] ] } },
{ "type": "Feature", "properties": { "fid": 228920, "navn": "Lakavatnet", "hoyde_moh": 556, "arealInnsjo_km2": 0.2135, "magasinKategori": null, "fid_2": 702, "id": 702, "left": 12.486919847, "top": 63.946110046000001, "right": 12.986919847, "bottom": 63.446110046000001, "row_index": 21, "col_index": 17, "tile_id": 702 }, "geometry": { "type": "MultiPolygon", "coordinates": [ [ [ [ 12.516079140119141, 63.920425191649507 ], [ 12.51657252564987, 63.920068554767099 ], [ 12.515921746227681, 63.920085498965534 ], [ 12.515515214674439, 63.919866524075438 ], [ 12.515658321373735, 63.919655541070711 ], [ 12.515474892712044, 63.919557034145832 ], [ 12.515311920778203, 63.919080041160761 ], [ 12.514478078882645, 63.918414283697587 ], [ 12.513872019254528, 63.918256081053144 ], [ 12.513358740168027, 63.917699979346146 ], [ 12.512460335439854, 63.917372428741324 ], [ 12.512590507681416, 63.916996815105797 ], [ 12.511854583784762, 63.916891326151877 ], [ 12.510579101320923, 63.916218852969486 ], [ 12.508568357106885, 63.91630549287472 ], [ 12.508047184981699, 63.916205115491003 ], [ 12.507976985559507, 63.916003398843188 ], [ 12.506686839531536, 63.915465327350979 ], [ 12.506038222318502, 63.91559217023908 ], [ 12.504917605129293, 63.915476337607934 ], [ 12.504202191141372, 63.915714353118005 ], [ 12.504184860506953, 63.9162555991768 ], [ 12.503950488169655, 63.916326986054713 ], [ 12.503890510222197, 63.916084048413772 ], [ 12.502981860659894, 63.915554763422584 ], [ 12.503160644098893, 63.914872451881045 ], [ 12.503030597039253, 63.914582780127958 ], [ 12.502443858019964, 63.91441992217301 ], [ 12.501422598340602, 63.914588445825736 ], [ 12.501148738696049, 63.914187101397481 ], [ 12.500406458858169, 63.913806135504025 ], [ 12.500689276875921, 63.913169890410423 ], [ 12.500443212404841, 63.912917004083809 ], [ 12.498730521433428, 63.911775601278215 ], [ 12.495777975108513, 63.910759639669713 ], [ 12.49550260888865, 63.91048163366392 ], [ 12.495594728530461, 63.909974724016116 ], [ 12.495465971403091, 63.909655703673977 ], [ 12.49430883591905, 63.909031368312256 ], [ 12.494385826589962, 63.908607346544024 ], [ 12.493957204535903, 63.908628123177969 ], [ 12.493837001342213, 63.908352888982861 ], [ 12.493074152811742, 63.907819145303037 ], [ 12.492680934331906, 63.907820327394006 ], [ 12.493797966996562, 63.908662272084605 ], [ 12.494217523115516, 63.908727092290661 ], [ 12.494106473267816, 63.908954683735331 ], [ 12.494261927246837, 63.909086318535039 ], [ 12.492947751305065, 63.908812323798195 ], [ 12.492514140138221, 63.909185720998202 ], [ 12.493628349265141, 63.909047964385323 ], [ 12.494411419394725, 63.909339610641311 ], [ 12.49494448497915, 63.90972983087336 ], [ 12.494785543954947, 63.910043963699621 ], [ 12.494818069613752, 63.910689516638065 ], [ 12.495116415358348, 63.910938469144348 ], [ 12.496650940979084, 63.911269679889983 ], [ 12.498447566798841, 63.91198738536103 ], [ 12.499246298732359, 63.912704447719648 ], [ 12.500138133094712, 63.913226105063877 ], [ 12.500169764518629, 63.913406777378427 ], [ 12.499698218363033, 63.913778193739041 ], [ 12.500643756397706, 63.914265216354167 ], [ 12.50064261102361, 63.914573548121297 ], [ 12.500864155753396, 63.914717180724047 ], [ 12.501457648649376, 63.914829338443894 ], [ 12.502766027828677, 63.91470716122096 ], [ 12.502511676095548, 63.915408911387452 ], [ 12.501997511117786, 63.915266878535043 ], [ 12.502175719864178, 63.915100063173483 ], [ 12.501866737646324, 63.914948818296025 ], [ 12.501537328695155, 63.915155407127394 ], [ 12.503243787953126, 63.916051707800612 ], [ 12.503091698769152, 63.916509546826013 ], [ 12.503571155965204, 63.916649989333784 ], [ 12.503120510804148, 63.916772600008919 ], [ 12.503143631287081, 63.916985001261729 ], [ 12.502674930964554, 63.917200415269669 ], [ 12.502635747140401, 63.917459691933651 ], [ 12.503157280289999, 63.918101729657081 ], [ 12.50415932107984, 63.918854770968267 ], [ 12.50632868343828, 63.919074243272419 ], [ 12.508581356417933, 63.918826664183712 ], [ 12.510345047488753, 63.919508176151297 ], [ 12.511939140250043, 63.919851105037289 ], [ 12.512267941492823, 63.919816795550048 ], [ 12.512005697647238, 63.919611153845331 ], [ 12.512374212698948, 63.9194532527045 ], [ 12.512566691741084, 63.919161857748328 ], [ 12.513998129769412, 63.919153483095243 ], [ 12.514263131324773, 63.919758747559676 ], [ 12.514964989975352, 63.919952713303246 ], [ 12.515128832443303, 63.920461328723363 ], [ 12.516079140119141, 63.920425191649507 ] ], [ [ 12.51173234821079, 63.91920642890954 ], [ 12.511296498089274, 63.919362273372087 ], [ 12.511324761112995, 63.919098767068647 ], [ 12.51173234821079, 63.91920642890954 ] ] ] ] } },
{ "type": "Feature", "properties": { "fid": 269359, "navn": "Grunntjønna", "hoyde_moh": 436, "arealInnsjo_km2": 0.3982, "magasinKategori": null, "fid_2": 702, "id": 702, "left": 12.486919847, "top": 63.946110046000001, "right": 12.986919847, "bottom": 63.446110046000001, "row_index": 21, "col_index": 17, "tile_id": 702 }, "geometry": { "type": "MultiPolygon", "coordinates": [ [ [ [ 12.509958193399855, 63.845057848437087 ], [ 12.510254104614978, 63.844895570300388 ], [ 12.510841295676101, 63.844901733565266 ], [ 12.511901199298999, 63.845307085663151 ], [ 12.514008722177982, 63.845161159890694 ], [ 12.51543527880896, 63.845700298610844 ], [ 12.518463478333398, 63.845280996170615 ], [ 12.518617279212906, 63.844835476715893 ], [ 12.518360051096586, 63.844425552003329 ], [ 12.518475148779565, 63.843440426535508 ], [ 12.519835694271727, 63.84311223933193 ], [ 12.519786643554092, 63.842662160074916 ], [ 12.518408294476316, 63.842271601620503 ], [ 12.517279919186254, 63.841482599232968 ], [ 12.515982077223208, 63.841273436015683 ], [ 12.516541485226638, 63.840837224373956 ], [ 12.516562571004007, 63.840658088976085 ], [ 12.515831587470508, 63.84082107204727 ], [ 12.515459243053316, 63.841396355313819 ], [ 12.514632122286983, 63.84151206451466 ], [ 12.513851542377989, 63.841224946237972 ], [ 12.511742546380077, 63.840997207866955 ], [ 12.511298756499839, 63.840704290378113 ], [ 12.508989661363545, 63.840607666215632 ], [ 12.508776399426068, 63.840528203730877 ], [ 12.508711926377712, 63.840238404212862 ], [ 12.507253232322084, 63.840312741455918 ], [ 12.507221209360344, 63.840106919593836 ], [ 12.506605099496655, 63.839557794567583 ], [ 12.504740592778363, 63.839178197255166 ], [ 12.504241550832676, 63.838908547075931 ], [ 12.503225650879539, 63.839240477284896 ], [ 12.503244302569682, 63.839665616589642 ], [ 12.502306965015832, 63.839946099078247 ], [ 12.501344450941609, 63.840904447393243 ], [ 12.501547329314986, 63.841336902925619 ], [ 12.502074790662142, 63.841845906363865 ], [ 12.502192891298607, 63.842225263573496 ], [ 12.502552637875951, 63.842497092596908 ], [ 12.50405181352907, 63.843176964108324 ], [ 12.504243692449746, 63.843396771798389 ], [ 12.504743141824411, 63.843570886755252 ], [ 12.505365940121752, 63.843445779720177 ], [ 12.506728537480843, 63.844141582306243 ], [ 12.50682361495228, 63.845004617712902 ], [ 12.507094571197577, 63.845230095334536 ], [ 12.509250369340997, 63.84601515794715 ], [ 12.510548544527904, 63.846056829499325 ], [ 12.51110482746714, 63.845851353429921 ], [ 12.511098409950398, 63.845505087229888 ], [ 12.509958193399855, 63.845057848437087 ] ] ] ] } }
]
}
