{
"type": "FeatureCollection",
"name": "innsjo_tile_id_1289",
"crs": { "type": "name", "properties": { "name": "urn:ogc:def:crs:OGC:1.3:CRS84" } },
"xy_coordinate_resolution": 1e-15,
"features": [
{ "type": "Feature", "properties": { "fid": 15159, "navn": null, "hoyde_moh": 542, "arealInnsjo_km2": 0.0142, "magasinKategori": null, "fid_2": 1289, "id": 1289, "left": 19.986919847, "top": 70.446110046000001, "right": 20.486919847, "bottom": 69.946110046000001, "row_index": 8, "col_index": 32, "tile_id": 1289 }, "geometry": { "type": "MultiPolygon", "coordinates": [ [ [ [ 20.409785843755515, 70.081049726532598 ], [ 20.410183468234059, 70.081501140092655 ], [ 20.410835827591846, 70.081592998812525 ], [ 20.41101580903857, 70.081917309508626 ], [ 20.41280117502416, 70.082034413226708 ], [ 20.414723161235237, 70.082614525226901 ], [ 20.415621263763562, 70.082578057967737 ], [ 20.41595976853916, 70.082325274447413 ], [ 20.415677163114253, 70.082091276089983 ], [ 20.415730049332943, 70.081984662036021 ], [ 20.416229721352806, 70.081892093567305 ], [ 20.413797793013089, 70.081851894187693 ], [ 20.409785843755515, 70.081049726532598 ] ] ] ] } },
{ "type": "Feature", "properties": { "fid": 15160, "navn": null, "hoyde_moh": 165, "arealInnsjo_km2": 0.007, "magasinKategori": null, "fid_2": 1289, "id": 1289, "left": 19.986919847, "top": 70.446110046000001, "right": 20.486919847, "bottom": 69.946110046000001, "row_index": 8, "col_index": 32, "tile_id": 1289 }, "geometry": { "type": "MultiPolygon", "coordinates": [ [ [ [ 20.026277736838825, 70.09674993741784 ], [ 20.025990072410462, 70.096794826396035 ], [ 20.026209131548967, 70.096928416992014 ], [ 20.025873822887618, 70.097365424840206 ], [ 20.026092868315786, 70.097708839445289 ], [ 20.027032839258176, 70.097998754586769 ], [ 20.028379138148598, 70.097756026408703 ], [ 20.027967071373322, 70.097435411729194 ], [ 20.026277736838825, 70.09674993741784 ] ] ] ] } },
{ "type": "Feature", "properties": { "fid": 15164, "navn": null, "hoyde_moh": 147, "arealInnsjo_km2": 0.0058, "magasinKategori": null, "fid_2": 1289, "id": 1289, "left": 19.986919847, "top": 70.446110046000001, "right": 20.486919847, "bottom": 69.946110046000001, "row_index": 8, "col_index": 32, "tile_id": 1289 }, "geometry": { "type": "MultiPolygon", "coordinates": [ [ [ [ 20.010497326748858, 70.10807081995587 ], [ 20.009497883423276, 70.107946343810298 ], [ 20.007320641985455, 70.108172830135928 ], [ 20.008291696640217, 70.108544537521155 ], [ 20.010165349512363, 70.108470189075987 ], [ 20.010497326748858, 70.10807081995587 ] ] ] ] } },
{ "type": "Feature", "properties": { "fid": 15166, "navn": null, "hoyde_moh": 98, "arealInnsjo_km2": 0.0096, "magasinKategori": null, "fid_2": 1289, "id": 1289, "left": 19.986919847, "top": 70.446110046000001, "right": 20.486919847, "bottom": 69.946110046000001, "row_index": 8, "col_index": 32, "tile_id": 1289 }, "geometry": { "type": "MultiPolygon", "coordinates": [ [ [ [ 19.998822777178976, 70.112431000086886 ], [ 19.998833360022189, 70.112209105837778 ], [ 19.997947368438126, 70.111845038109308 ], [ 19.996202839120322, 70.111906282945071 ], [ 19.994235623949226, 70.112405332585155 ], [ 19.996810348133337, 70.112584199181214 ], [ 19.998822777178976, 70.112431000086886 ] ] ] ] } },
{ "type": "Feature", "properties": { "fid": 15229, "navn": null, "hoyde_moh": 295, "arealInnsjo_km2": 0.004, "magasinKategori": null, "fid_2": 1289, "id": 1289, "left": 19.986919847, "top": 70.446110046000001, "right": 20.486919847, "bottom": 69.946110046000001, "row_index": 8, "col_index": 32, "tile_id": 1289 }, "geometry": { "type": "MultiPolygon", "coordinates": [ [ [ [ 20.425342507689667, 70.116968542474467 ], [ 20.426087711736116, 70.117030829818077 ], [ 20.426332596463833, 70.116616128698581 ], [ 20.426067256370494, 70.116220539879919 ], [ 20.424890004109105, 70.116295830938412 ], [ 20.424896641817078, 70.116737256931273 ], [ 20.425342507689667, 70.116968542474467 ] ] ] ] } },
{ "type": "Feature", "properties": { "fid": 20736, "navn": "Høgtindvannet", "hoyde_moh": 453, "arealInnsjo_km2": 0.1853, "magasinKategori": null, "fid_2": 1289, "id": 1289, "left": 19.986919847, "top": 70.446110046000001, "right": 20.486919847, "bottom": 69.946110046000001, "row_index": 8, "col_index": 32, "tile_id": 1289 }, "geometry": { "type": "MultiPolygon", "coordinates": [ [ [ [ 20.486282582727469, 70.141671016793111 ], [ 20.485974925887064, 70.141232413409369 ], [ 20.483829591841733, 70.140388413832838 ], [ 20.480556555787633, 70.140300876541076 ], [ 20.479022669787739, 70.140617892025517 ], [ 20.477884706095278, 70.141203243276649 ], [ 20.478448333958806, 70.141540779510606 ], [ 20.478503926426232, 70.142086467850945 ], [ 20.478289318355504, 70.142194464692864 ], [ 20.477236723144681, 70.142112185580629 ], [ 20.477435096071499, 70.142327112210921 ], [ 20.477102228725574, 70.142539158904327 ], [ 20.476982135611035, 70.142948592915559 ], [ 20.477480452495527, 70.143395040099023 ], [ 20.477512171018191, 70.143625334889705 ], [ 20.477312372140023, 70.143855078624725 ], [ 20.478725839005776, 70.144370111683543 ], [ 20.480305897364367, 70.144388513538274 ], [ 20.483278223819241, 70.144954138806 ], [ 20.486919847, 70.144945405947851 ], [ 20.486919847, 70.142123300894895 ], [ 20.486282582727469, 70.141671016793111 ] ] ] ] } },
{ "type": "Feature", "properties": { "fid": 21658, "navn": "Stakkvatnet", "hoyde_moh": 99, "arealInnsjo_km2": 0.0245, "magasinKategori": null, "fid_2": 1289, "id": 1289, "left": 19.986919847, "top": 70.446110046000001, "right": 20.486919847, "bottom": 69.946110046000001, "row_index": 8, "col_index": 32, "tile_id": 1289 }, "geometry": { "type": "MultiPolygon", "coordinates": [ [ [ [ 20.028883276328738, 70.091407611861271 ], [ 20.028660517192709, 70.091103158798958 ], [ 20.026061590843891, 70.090184229768312 ], [ 20.025088985847898, 70.089543943836972 ], [ 20.024479127767012, 70.0894187563445 ], [ 20.024193565209472, 70.089844018955418 ], [ 20.024421974356102, 70.089909893548906 ], [ 20.024346869291804, 70.09005285073799 ], [ 20.024726718716149, 70.090313309325225 ], [ 20.024610804738575, 70.090371796343632 ], [ 20.024889992977066, 70.090759023911261 ], [ 20.024736365370504, 70.091061313506785 ], [ 20.025668218997978, 70.091442023397434 ], [ 20.026264496292022, 70.091893793306781 ], [ 20.027156297632942, 70.091981980517943 ], [ 20.028658197231415, 70.091693663438122 ], [ 20.028883276328738, 70.091407611861271 ] ] ] ] } },
{ "type": "Feature", "properties": { "fid": 30742, "navn": null, "hoyde_moh": 540, "arealInnsjo_km2": 0.003, "magasinKategori": null, "fid_2": 1289, "id": 1289, "left": 19.986919847, "top": 70.446110046000001, "right": 20.486919847, "bottom": 69.946110046000001, "row_index": 8, "col_index": 32, "tile_id": 1289 }, "geometry": { "type": "MultiPolygon", "coordinates": [ [ [ [ 20.439085979908302, 70.149392778266744 ], [ 20.438583322308407, 70.149398447750926 ], [ 20.438439611525673, 70.149547423357788 ], [ 20.43937498552863, 70.149989026748443 ], [ 20.439986910629379, 70.149912632229928 ], [ 20.440206654403664, 70.149827118188526 ], [ 20.440185844861364, 70.149682879128278 ], [ 20.439085979908302, 70.149392778266744 ] ] ] ] } },
{ "type": "Feature", "properties": { "fid": 30847, "navn": null, "hoyde_moh": 338, "arealInnsjo_km2": 0.0025, "magasinKategori": null, "fid_2": 1289, "id": 1289, "left": 19.986919847, "top": 70.446110046000001, "right": 20.486919847, "bottom": 69.946110046000001, "row_index": 8, "col_index": 32, "tile_id": 1289 }, "geometry": { "type": "MultiPolygon", "coordinates": [ [ [ [ 20.207245487651701, 70.273869754670812 ], [ 20.206601247546594, 70.273695555450033 ], [ 20.206037383755046, 70.274002540659751 ], [ 20.205957258514417, 70.274266994485501 ], [ 20.20654346850441, 70.274395110808086 ], [ 20.207176632648551, 70.27420368904238 ], [ 20.207113297161193, 70.273988909256587 ], [ 20.207245487651701, 70.273869754670812 ] ] ] ] } },
{ "type": "Feature", "properties": { "fid": 30859, "navn": null, "hoyde_moh": 330, "arealInnsjo_km2": 0.0036, "magasinKategori": null, "fid_2": 1289, "id": 1289, "left": 19.986919847, "top": 70.446110046000001, "right": 20.486919847, "bottom": 69.946110046000001, "row_index": 8, "col_index": 32, "tile_id": 1289 }, "geometry": { "type": "MultiPolygon", "coordinates": [ [ [ [ 20.215511870960579, 70.271890879433371 ], [ 20.215629049760953, 70.271668971756881 ], [ 20.215001531560823, 70.271329155608441 ], [ 20.21437427373526, 70.27137983449532 ], [ 20.213892552446858, 70.271634269014243 ], [ 20.21391153691016, 70.271855552491985 ], [ 20.214530261206558, 70.271979640287427 ], [ 20.215511870960579, 70.271890879433371 ] ] ] ] } },
{ "type": "Feature", "properties": { "fid": 30937, "navn": null, "hoyde_moh": 463, "arealInnsjo_km2": 0.0036, "magasinKategori": null, "fid_2": 1289, "id": 1289, "left": 19.986919847, "top": 70.446110046000001, "right": 20.486919847, "bottom": 69.946110046000001, "row_index": 8, "col_index": 32, "tile_id": 1289 }, "geometry": { "type": "MultiPolygon", "coordinates": [ [ [ [ 20.282627095934764, 69.951216815893062 ], [ 20.282441394944673, 69.951115111087745 ], [ 20.281589755015439, 69.951326625488306 ], [ 20.281349723931388, 69.951579022042807 ], [ 20.281477219172981, 69.951939762630673 ], [ 20.281384571588802, 69.952054439569736 ], [ 20.281937887661257, 69.952109386559684 ], [ 20.282440017624193, 69.951684542673547 ], [ 20.282627095934764, 69.951216815893062 ] ] ] ] } },
{ "type": "Feature", "properties": { "fid": 44707, "navn": null, "hoyde_moh": 294, "arealInnsjo_km2": 0.0038, "magasinKategori": null, "fid_2": 1289, "id": 1289, "left": 19.986919847, "top": 70.446110046000001, "right": 20.486919847, "bottom": 69.946110046000001, "row_index": 8, "col_index": 32, "tile_id": 1289 }, "geometry": { "type": "MultiPolygon", "coordinates": [ [ [ [ 20.428389670088283, 70.116641573286302 ], [ 20.428914707215363, 70.116492609749727 ], [ 20.42878287149302, 70.116169716764375 ], [ 20.427821657755786, 70.115735638747481 ], [ 20.427262403215209, 70.116030150224418 ], [ 20.427281393949251, 70.116167964213389 ], [ 20.428389670088283, 70.116641573286302 ] ] ] ] } },
{ "type": "Feature", "properties": { "fid": 45054, "navn": null, "hoyde_moh": 338, "arealInnsjo_km2": 0.0033, "magasinKategori": null, "fid_2": 1289, "id": 1289, "left": 19.986919847, "top": 70.446110046000001, "right": 20.486919847, "bottom": 69.946110046000001, "row_index": 8, "col_index": 32, "tile_id": 1289 }, "geometry": { "type": "MultiPolygon", "coordinates": [ [ [ [ 20.405057559916258, 70.145333424051657 ], [ 20.405059757814119, 70.145132524671268 ], [ 20.404527155465654, 70.145028422741362 ], [ 20.403979258318707, 70.145076216203023 ], [ 20.403660466520602, 70.145308554450367 ], [ 20.40450117186041, 70.145748229488248 ], [ 20.405320170561676, 70.145540709852881 ], [ 20.405057559916258, 70.145333424051657 ] ] ] ] } },
{ "type": "Feature", "properties": { "fid": 45161, "navn": null, "hoyde_moh": 376, "arealInnsjo_km2": 0.0045, "magasinKategori": null, "fid_2": 1289, "id": 1289, "left": 19.986919847, "top": 70.446110046000001, "right": 20.486919847, "bottom": 69.946110046000001, "row_index": 8, "col_index": 32, "tile_id": 1289 }, "geometry": { "type": "MultiPolygon", "coordinates": [ [ [ [ 20.282075447246747, 69.968952364187018 ], [ 20.281097494913688, 69.968760345953257 ], [ 20.279842096939316, 69.968903783393429 ], [ 20.281117359132768, 69.969588783441282 ], [ 20.28158993067407, 69.969517946740893 ], [ 20.281554957852553, 69.96929704380149 ], [ 20.282075447246747, 69.968952364187018 ] ] ] ] } },
{ "type": "Feature", "properties": { "fid": 59923, "navn": null, "hoyde_moh": 236, "arealInnsjo_km2": 0.0097, "magasinKategori": null, "fid_2": 1289, "id": 1289, "left": 19.986919847, "top": 70.446110046000001, "right": 20.486919847, "bottom": 69.946110046000001, "row_index": 8, "col_index": 32, "tile_id": 1289 }, "geometry": { "type": "MultiPolygon", "coordinates": [ [ [ [ 20.428244239682595, 70.102286733107121 ], [ 20.425090707628442, 70.102273532626796 ], [ 20.42545087457853, 70.102602346627776 ], [ 20.426016059166514, 70.102658128826988 ], [ 20.426443024528794, 70.102883950193416 ], [ 20.428321272120112, 70.103072807593648 ], [ 20.429172608227731, 70.102771192375556 ], [ 20.428812959635195, 70.102673171456146 ], [ 20.429617629076905, 70.102584431037911 ], [ 20.428244239682595, 70.102286733107121 ] ] ] ] } },
{ "type": "Feature", "properties": { "fid": 60965, "navn": null, "hoyde_moh": 301, "arealInnsjo_km2": 0.0042, "magasinKategori": null, "fid_2": 1289, "id": 1289, "left": 19.986919847, "top": 70.446110046000001, "right": 20.486919847, "bottom": 69.946110046000001, "row_index": 8, "col_index": 32, "tile_id": 1289 }, "geometry": { "type": "MultiPolygon", "coordinates": [ [ [ [ 20.284323167210573, 69.965423550439155 ], [ 20.283987233439372, 69.965311475246764 ], [ 20.28365222149543, 69.965728008960241 ], [ 20.283145723676888, 69.966006334606291 ], [ 20.284097814799743, 69.966259296042068 ], [ 20.284587004435078, 69.966180846816073 ], [ 20.284877525334174, 69.965552598192446 ], [ 20.284226726262762, 69.965252160445331 ], [ 20.284323167210573, 69.965423550439155 ] ] ] ] } },
{ "type": "Feature", "properties": { "fid": 60966, "navn": null, "hoyde_moh": 377, "arealInnsjo_km2": 0.0042, "magasinKategori": null, "fid_2": 1289, "id": 1289, "left": 19.986919847, "top": 70.446110046000001, "right": 20.486919847, "bottom": 69.946110046000001, "row_index": 8, "col_index": 32, "tile_id": 1289 }, "geometry": { "type": "MultiPolygon", "coordinates": [ [ [ [ 20.276268764354011, 69.969624647241176 ], [ 20.27679107899927, 69.969370795611738 ], [ 20.276696573289215, 69.969280493222641 ], [ 20.277438962144011, 69.969190036534755 ], [ 20.277626918835498, 69.968997408225022 ], [ 20.276348234709882, 69.968809453326656 ], [ 20.275620152224437, 69.96912025320357 ], [ 20.275650688752272, 69.96940165381838 ], [ 20.276268764354011, 69.969624647241176 ] ] ] ] } },
{ "type": "Feature", "properties": { "fid": 61127, "navn": null, "hoyde_moh": 250, "arealInnsjo_km2": 0.0043, "magasinKategori": null, "fid_2": 1289, "id": 1289, "left": 19.986919847, "top": 70.446110046000001, "right": 20.486919847, "bottom": 69.946110046000001, "row_index": 8, "col_index": 32, "tile_id": 1289 }, "geometry": { "type": "MultiPolygon", "coordinates": [ [ [ [ 20.282394585281573, 69.961117140068481 ], [ 20.281421483182154, 69.960922109637934 ], [ 20.28050491280116, 69.961151285784709 ], [ 20.281245396462943, 69.961480279654864 ], [ 20.283253545722218, 69.961503593798909 ], [ 20.282394585281573, 69.961117140068481 ] ] ] ] } },
{ "type": "Feature", "properties": { "fid": 61166, "navn": null, "hoyde_moh": 237, "arealInnsjo_km2": 0.0032, "magasinKategori": null, "fid_2": 1289, "id": 1289, "left": 19.986919847, "top": 70.446110046000001, "right": 20.486919847, "bottom": 69.946110046000001, "row_index": 8, "col_index": 32, "tile_id": 1289 }, "geometry": { "type": "MultiPolygon", "coordinates": [ [ [ [ 20.429543415016312, 70.101509248649776 ], [ 20.427551040512252, 70.101040888735213 ], [ 20.427255797299111, 70.101207430872151 ], [ 20.427301729832369, 70.101456091731478 ], [ 20.427057530833768, 70.101606773010928 ], [ 20.429543415016312, 70.101509248649776 ] ] ] ] } },
{ "type": "Feature", "properties": { "fid": 61185, "navn": null, "hoyde_moh": 380, "arealInnsjo_km2": 0.0038, "magasinKategori": null, "fid_2": 1289, "id": 1289, "left": 19.986919847, "top": 70.446110046000001, "right": 20.486919847, "bottom": 69.946110046000001, "row_index": 8, "col_index": 32, "tile_id": 1289 }, "geometry": { "type": "MultiPolygon", "coordinates": [ [ [ [ 20.47195530855365, 70.150517343163372 ], [ 20.471075972548409, 70.150746464618976 ], [ 20.471935991642138, 70.151014750641963 ], [ 20.472557236854236, 70.150904841857155 ], [ 20.473424910838002, 70.151084070062836 ], [ 20.47404593955525, 70.15102527511128 ], [ 20.472828456955419, 70.150736270182662 ], [ 20.472686248840969, 70.150669355531107 ], [ 20.472774607352957, 70.150500264349134 ], [ 20.47195530855365, 70.150517343163372 ] ] ] ] } },
{ "type": "Feature", "properties": { "fid": 61352, "navn": null, "hoyde_moh": 175, "arealInnsjo_km2": 0.0044, "magasinKategori": null, "fid_2": 1289, "id": 1289, "left": 19.986919847, "top": 70.446110046000001, "right": 20.486919847, "bottom": 69.946110046000001, "row_index": 8, "col_index": 32, "tile_id": 1289 }, "geometry": { "type": "MultiPolygon", "coordinates": [ [ [ [ 20.015663550415677, 70.100198411859552 ], [ 20.015235982099849, 70.100117257060219 ], [ 20.013248884934246, 70.100386158525893 ], [ 20.012969538613351, 70.10062163452794 ], [ 20.015115458267434, 70.100672581842289 ], [ 20.015778272442269, 70.100512840960306 ], [ 20.015663550415677, 70.100198411859552 ] ] ] ] } },
{ "type": "Feature", "properties": { "fid": 75041, "navn": null, "hoyde_moh": 326, "arealInnsjo_km2": 0.0074, "magasinKategori": null, "fid_2": 1289, "id": 1289, "left": 19.986919847, "top": 70.446110046000001, "right": 20.486919847, "bottom": 69.946110046000001, "row_index": 8, "col_index": 32, "tile_id": 1289 }, "geometry": { "type": "MultiPolygon", "coordinates": [ [ [ [ 20.220883097389979, 70.283305730673064 ], [ 20.221585159011646, 70.283172892534424 ], [ 20.221923607941143, 70.282813484700156 ], [ 20.221422191487068, 70.282690143772157 ], [ 20.221579492270752, 70.282438550138352 ], [ 20.220637477881482, 70.282344737013645 ], [ 20.219940363296864, 70.282386031234111 ], [ 20.219225011433302, 70.282762674850019 ], [ 20.219261424313309, 70.282945401305952 ], [ 20.220883097389979, 70.283305730673064 ] ] ] ] } },
{ "type": "Feature", "properties": { "fid": 75119, "navn": null, "hoyde_moh": 90, "arealInnsjo_km2": 0.005, "magasinKategori": null, "fid_2": 1289, "id": 1289, "left": 19.986919847, "top": 70.446110046000001, "right": 20.486919847, "bottom": 69.946110046000001, "row_index": 8, "col_index": 32, "tile_id": 1289 }, "geometry": { "type": "MultiPolygon", "coordinates": [ [ [ [ 20.00937759144329, 70.158140891831678 ], [ 20.006882790135677, 70.159295542323207 ], [ 20.006779798744013, 70.159569489132195 ], [ 20.007003217625304, 70.159592194325612 ], [ 20.01051749159431, 70.158103206759563 ], [ 20.00937759144329, 70.158140891831678 ] ] ] ] } },
{ "type": "Feature", "properties": { "fid": 75389, "navn": null, "hoyde_moh": 427, "arealInnsjo_km2": 0.003, "magasinKategori": null, "fid_2": 1289, "id": 1289, "left": 19.986919847, "top": 70.446110046000001, "right": 20.486919847, "bottom": 69.946110046000001, "row_index": 8, "col_index": 32, "tile_id": 1289 }, "geometry": { "type": "MultiPolygon", "coordinates": [ [ [ [ 20.47915616065869, 70.156389136083291 ], [ 20.479164354880975, 70.156232486756181 ], [ 20.477641793140187, 70.156096835164334 ], [ 20.477455816224381, 70.156367096495856 ], [ 20.478322638824785, 70.15669967269551 ], [ 20.47915616065869, 70.156389136083291 ] ] ] ] } },
{ "type": "Feature", "properties": { "fid": 104414, "navn": null, "hoyde_moh": 78, "arealInnsjo_km2": 0.0092, "magasinKategori": null, "fid_2": 1289, "id": 1289, "left": 19.986919847, "top": 70.446110046000001, "right": 20.486919847, "bottom": 69.946110046000001, "row_index": 8, "col_index": 32, "tile_id": 1289 }, "geometry": { "type": "MultiPolygon", "coordinates": [ [ [ [ 20.039477155606601, 70.162121418754992 ], [ 20.040060008615391, 70.161739757663156 ], [ 20.039976499483416, 70.161547483709001 ], [ 20.040170767864691, 70.161342166725319 ], [ 20.039524407590651, 70.161103783442243 ], [ 20.039585556416061, 70.160982262688051 ], [ 20.039302225634305, 70.160717731594218 ], [ 20.038221477537157, 70.160847467448122 ], [ 20.038695296157918, 70.161047364931505 ], [ 20.038797443483823, 70.161237944927777 ], [ 20.03867607503679, 70.161350368965174 ], [ 20.038783712564364, 70.161475589055698 ], [ 20.038323590865687, 70.16149016833468 ], [ 20.038565846484357, 70.162302233163956 ], [ 20.039365148845189, 70.16259962877524 ], [ 20.040363691858129, 70.162339005420378 ], [ 20.039477155606601, 70.162121418754992 ] ] ] ] } },
{ "type": "Feature", "properties": { "fid": 104519, "navn": null, "hoyde_moh": 454, "arealInnsjo_km2": 0.0036, "magasinKategori": null, "fid_2": 1289, "id": 1289, "left": 19.986919847, "top": 70.446110046000001, "right": 20.486919847, "bottom": 69.946110046000001, "row_index": 8, "col_index": 32, "tile_id": 1289 }, "geometry": { "type": "MultiPolygon", "coordinates": [ [ [ [ 20.48030959167431, 70.138949550757076 ], [ 20.479710095143819, 70.139016265890263 ], [ 20.479489356536313, 70.139094037488945 ], [ 20.479447990304163, 70.139336112930508 ], [ 20.478573297010943, 70.13976023640565 ], [ 20.480096075218725, 70.139565137224437 ], [ 20.480761221080741, 70.139667923361301 ], [ 20.480985577747386, 70.139410333851558 ], [ 20.480334979974653, 70.139462061028269 ], [ 20.48030959167431, 70.138949550757076 ] ] ] ] } },
{ "type": "Feature", "properties": { "fid": 119848, "navn": null, "hoyde_moh": 356, "arealInnsjo_km2": 0.0112, "magasinKategori": null, "fid_2": 1289, "id": 1289, "left": 19.986919847, "top": 70.446110046000001, "right": 20.486919847, "bottom": 69.946110046000001, "row_index": 8, "col_index": 32, "tile_id": 1289 }, "geometry": { "type": "MultiPolygon", "coordinates": [ [ [ [ 20.468678715614548, 70.15333999037496 ], [ 20.468641983876175, 70.154112746033704 ], [ 20.468331864448238, 70.154314714379282 ], [ 20.470423164243467, 70.154057881444928 ], [ 20.471675858464394, 70.153552237614818 ], [ 20.471622568140557, 70.153425188202334 ], [ 20.470123874207871, 70.152977935810796 ], [ 20.468678715614548, 70.15333999037496 ] ] ] ] } },
{ "type": "Feature", "properties": { "fid": 120458, "navn": null, "hoyde_moh": 541, "arealInnsjo_km2": 0.0034, "magasinKategori": null, "fid_2": 1289, "id": 1289, "left": 19.986919847, "top": 70.446110046000001, "right": 20.486919847, "bottom": 69.946110046000001, "row_index": 8, "col_index": 32, "tile_id": 1289 }, "geometry": { "type": "MultiPolygon", "coordinates": [ [ [ [ 20.414709586777985, 70.080790591566995 ], [ 20.41282346651457, 70.080690516777267 ], [ 20.413065185690606, 70.080932868671766 ], [ 20.413767695704816, 70.081139897192742 ], [ 20.41508119934905, 70.08122488122369 ], [ 20.414709586777985, 70.080790591566995 ] ] ] ] } },
{ "type": "Feature", "properties": { "fid": 120525, "navn": null, "hoyde_moh": 165, "arealInnsjo_km2": 0.0027, "magasinKategori": null, "fid_2": 1289, "id": 1289, "left": 19.986919847, "top": 70.446110046000001, "right": 20.486919847, "bottom": 69.946110046000001, "row_index": 8, "col_index": 32, "tile_id": 1289 }, "geometry": { "type": "MultiPolygon", "coordinates": [ [ [ [ 19.991661655261268, 70.103671937156363 ], [ 19.991829717502522, 70.103803845062032 ], [ 19.992761479100576, 70.103946854004093 ], [ 19.993655905571099, 70.103743489283886 ], [ 19.992444354504048, 70.103476110423941 ], [ 19.991712631187649, 70.103538398970315 ], [ 19.991661655261268, 70.103671937156363 ] ] ] ] } },
{ "type": "Feature", "properties": { "fid": 127256, "navn": "Stuvikvatnet", "hoyde_moh": 162, "arealInnsjo_km2": 0.046, "magasinKategori": null, "fid_2": 1289, "id": 1289, "left": 19.986919847, "top": 70.446110046000001, "right": 20.486919847, "bottom": 69.946110046000001, "row_index": 8, "col_index": 32, "tile_id": 1289 }, "geometry": { "type": "MultiPolygon", "coordinates": [ [ [ [ 20.01409976824446, 70.10363456522397 ], [ 20.013937383787614, 70.103563761627626 ], [ 20.014021206807552, 70.103407256360668 ], [ 20.012696167016561, 70.103087797369881 ], [ 20.009571447216903, 70.103014022073168 ], [ 20.008221080287449, 70.103500793072513 ], [ 20.007230395209771, 70.103518521373687 ], [ 20.006273386776247, 70.103816346323171 ], [ 20.007321231956329, 70.104205145450067 ], [ 20.007518029886167, 70.104607119508699 ], [ 20.006868205815337, 70.10486718780713 ], [ 20.007466114623394, 70.105031091571419 ], [ 20.009488339141114, 70.104923794339982 ], [ 20.009543853975092, 70.104808377814024 ], [ 20.009341071957927, 70.104701560902313 ], [ 20.008511788706652, 70.104692460353078 ], [ 20.00867817778655, 70.104465560414781 ], [ 20.009413879507459, 70.104386991808212 ], [ 20.010649418396547, 70.104542788137806 ], [ 20.011974528685087, 70.104367166196766 ], [ 20.015041839682052, 70.104481010567142 ], [ 20.015226228232009, 70.104374470850502 ], [ 20.01517659217528, 70.104255711346667 ], [ 20.014672247781988, 70.104057455853862 ], [ 20.015819138315784, 70.103914871931153 ], [ 20.016122213661266, 70.103583302606637 ], [ 20.01409976824446, 70.10363456522397 ] ] ] ] } },
{ "type": "Feature", "properties": { "fid": 127262, "navn": "Vasslivatnet", "hoyde_moh": 32, "arealInnsjo_km2": 0.2145, "magasinKategori": null, "fid_2": 1289, "id": 1289, "left": 19.986919847, "top": 70.446110046000001, "right": 20.486919847, "bottom": 69.946110046000001, "row_index": 8, "col_index": 32, "tile_id": 1289 }, "geometry": { "type": "MultiPolygon", "coordinates": [ [ [ [ 19.99820929108273, 70.167751791931565 ], [ 19.998073358073661, 70.167389737423775 ], [ 19.996222274136475, 70.166028663745251 ], [ 19.994677782345374, 70.165415539752118 ], [ 19.992853062825112, 70.16535782986891 ], [ 19.992446205099167, 70.165143090568506 ], [ 19.991699245085741, 70.165082452514085 ], [ 19.992182487951219, 70.164755911372893 ], [ 19.991613103114744, 70.164519534978737 ], [ 19.989923068600064, 70.164464244990782 ], [ 19.987469848131166, 70.164712605362894 ], [ 19.986919847, 70.164828022858003 ], [ 19.986919847, 70.168757193290801 ], [ 19.987113984997656, 70.168815908406259 ], [ 19.98845911919091, 70.169015388262792 ], [ 19.991789401213055, 70.168869008405366 ], [ 19.993559926606299, 70.169288072918491 ], [ 19.99395064137024, 70.169235530234971 ], [ 19.993849834353174, 70.169030327190086 ], [ 19.994112663620786, 70.169003206769474 ], [ 19.994263909282619, 70.169311684723283 ], [ 19.994172392924845, 70.16956497367309 ], [ 19.993917343566462, 70.169650513572321 ], [ 19.99422580214776, 70.169817275676095 ], [ 19.994759614449851, 70.169822881881643 ], [ 19.994924963676436, 70.169409608124369 ], [ 19.99820929108273, 70.167751791931565 ] ] ] ] } },
{ "type": "Feature", "properties": { "fid": 127449, "navn": "Håskardvatnan", "hoyde_moh": 190, "arealInnsjo_km2": 0.0433, "magasinKategori": null, "fid_2": 1289, "id": 1289, "left": 19.986919847, "top": 70.446110046000001, "right": 20.486919847, "bottom": 69.946110046000001, "row_index": 8, "col_index": 32, "tile_id": 1289 }, "geometry": { "type": "MultiPolygon", "coordinates": [ [ [ [ 20.260297203426259, 70.253172090016676 ], [ 20.26039487835326, 70.252818194963226 ], [ 20.260167855956489, 70.252629988351899 ], [ 20.260200483886685, 70.252027454142478 ], [ 20.258062335988438, 70.252486823644674 ], [ 20.257000641286044, 70.252876864008059 ], [ 20.255691672771743, 70.252979870754373 ], [ 20.25341807714797, 70.253960693902158 ], [ 20.254376091087465, 70.254606742376751 ], [ 20.255033807186862, 70.254313559522657 ], [ 20.255782614395699, 70.254726336727529 ], [ 20.25645130405389, 70.254870851647681 ], [ 20.257755142527397, 70.254607140395152 ], [ 20.260297203426259, 70.253172090016676 ] ] ] ] } },
{ "type": "Feature", "properties": { "fid": 135641, "navn": null, "hoyde_moh": 151, "arealInnsjo_km2": 0.0034, "magasinKategori": null, "fid_2": 1289, "id": 1289, "left": 19.986919847, "top": 70.446110046000001, "right": 20.486919847, "bottom": 69.946110046000001, "row_index": 8, "col_index": 32, "tile_id": 1289 }, "geometry": { "type": "MultiPolygon", "coordinates": [ [ [ [ 20.465239806244856, 70.053048836669618 ], [ 20.464953817104341, 70.053102790966093 ], [ 20.464906181062872, 70.053273157103504 ], [ 20.467557613850655, 70.053535924875419 ], [ 20.467153046121943, 70.053182918420546 ], [ 20.465239806244856, 70.053048836669618 ] ] ] ] } },
{ "type": "Feature", "properties": { "fid": 135955, "navn": null, "hoyde_moh": 239, "arealInnsjo_km2": 0.0072, "magasinKategori": null, "fid_2": 1289, "id": 1289, "left": 19.986919847, "top": 70.446110046000001, "right": 20.486919847, "bottom": 69.946110046000001, "row_index": 8, "col_index": 32, "tile_id": 1289 }, "geometry": { "type": "MultiPolygon", "coordinates": [ [ [ [ 20.421509330096008, 70.102562210385628 ], [ 20.421208708607242, 70.102410012184563 ], [ 20.422449951620738, 70.102510311872038 ], [ 20.422908023894738, 70.102117115453552 ], [ 20.423959134788834, 70.101919408862841 ], [ 20.423755391516124, 70.101751851176317 ], [ 20.421108649260422, 70.101765911560065 ], [ 20.420385731282401, 70.102048736907449 ], [ 20.420658327033376, 70.102331990067398 ], [ 20.421509330096008, 70.102562210385628 ] ] ] ] } },
{ "type": "Feature", "properties": { "fid": 136018, "navn": null, "hoyde_moh": 224, "arealInnsjo_km2": 0.0034, "magasinKategori": null, "fid_2": 1289, "id": 1289, "left": 19.986919847, "top": 70.446110046000001, "right": 20.486919847, "bottom": 69.946110046000001, "row_index": 8, "col_index": 32, "tile_id": 1289 }, "geometry": { "type": "MultiPolygon", "coordinates": [ [ [ [ 20.210745121129904, 70.286853785143308 ], [ 20.210663814863405, 70.286676587736281 ], [ 20.20919019866832, 70.287044571106605 ], [ 20.20939250188119, 70.287465014340356 ], [ 20.210068944240614, 70.287530333896655 ], [ 20.210745121129904, 70.286853785143308 ] ] ] ] } },
{ "type": "Feature", "properties": { "fid": 136426, "navn": null, "hoyde_moh": 272, "arealInnsjo_km2": 0.003, "magasinKategori": null, "fid_2": 1289, "id": 1289, "left": 19.986919847, "top": 70.446110046000001, "right": 20.486919847, "bottom": 69.946110046000001, "row_index": 8, "col_index": 32, "tile_id": 1289 }, "geometry": { "type": "MultiPolygon", "coordinates": [ [ [ [ 20.47066635705464, 70.178466638539106 ], [ 20.471664487320169, 70.178461763825879 ], [ 20.471839565504471, 70.178304242423621 ], [ 20.470558076006014, 70.178160665919606 ], [ 20.468574966194456, 70.178229837075747 ], [ 20.47066635705464, 70.178466638539106 ] ] ] ] } },
{ "type": "Feature", "properties": { "fid": 136572, "navn": null, "hoyde_moh": 453, "arealInnsjo_km2": 0.003, "magasinKategori": null, "fid_2": 1289, "id": 1289, "left": 19.986919847, "top": 70.446110046000001, "right": 20.486919847, "bottom": 69.946110046000001, "row_index": 8, "col_index": 32, "tile_id": 1289 }, "geometry": { "type": "MultiPolygon", "coordinates": [ [ [ [ 20.478665884621083, 70.140408455535479 ], [ 20.478040093472387, 70.140426117257135 ], [ 20.477182104021871, 70.140184084226163 ], [ 20.47684846477059, 70.14029131990435 ], [ 20.476713293028915, 70.14072371304178 ], [ 20.477106642809837, 70.140813608811214 ], [ 20.477057850429443, 70.1406486284518 ], [ 20.477197451125704, 70.140590175932076 ], [ 20.477531010012481, 70.140602355242365 ], [ 20.477498024678599, 70.140762374141687 ], [ 20.478415360758525, 70.140651365732481 ], [ 20.478665884621083, 70.140408455535479 ] ] ] ] } },
{ "type": "Feature", "properties": { "fid": 136578, "navn": null, "hoyde_moh": 172, "arealInnsjo_km2": 0.0044, "magasinKategori": null, "fid_2": 1289, "id": 1289, "left": 19.986919847, "top": 70.446110046000001, "right": 20.486919847, "bottom": 69.946110046000001, "row_index": 8, "col_index": 32, "tile_id": 1289 }, "geometry": { "type": "MultiPolygon", "coordinates": [ [ [ [ 19.996923456553844, 70.101475170000299 ], [ 19.996440503580622, 70.10121133752007 ], [ 19.995803168044361, 70.101167667966664 ], [ 19.995467271183163, 70.101234180120613 ], [ 19.99451932466804, 70.10190248386337 ], [ 19.995560109664556, 70.101881533263821 ], [ 19.996728486639448, 70.101642061396376 ], [ 19.996923456553844, 70.101475170000299 ] ] ] ] } },
{ "type": "Feature", "properties": { "fid": 156801, "navn": null, "hoyde_moh": 104, "arealInnsjo_km2": 0.0026, "magasinKategori": null, "fid_2": 1289, "id": 1289, "left": 19.986919847, "top": 70.446110046000001, "right": 20.486919847, "bottom": 69.946110046000001, "row_index": 8, "col_index": 32, "tile_id": 1289 }, "geometry": { "type": "MultiPolygon", "coordinates": [ [ [ [ 19.988524034428092, 70.066765473747253 ], [ 19.988197723181134, 70.06688387815764 ], [ 19.98811669716352, 70.067070869289012 ], [ 19.988916804367481, 70.067187505541781 ], [ 19.989751308981198, 70.066980314366177 ], [ 19.989430713275787, 70.066731273306587 ], [ 19.988524034428092, 70.066765473747253 ] ] ] ] } },
{ "type": "Feature", "properties": { "fid": 189686, "navn": null, "hoyde_moh": 94, "arealInnsjo_km2": 0.0166, "magasinKategori": null, "fid_2": 1289, "id": 1289, "left": 19.986919847, "top": 70.446110046000001, "right": 20.486919847, "bottom": 69.946110046000001, "row_index": 8, "col_index": 32, "tile_id": 1289 }, "geometry": { "type": "MultiPolygon", "coordinates": [ [ [ [ 19.992425958862693, 70.112241728822781 ], [ 19.989829221129106, 70.111334776979561 ], [ 19.989531542112111, 70.111350202313659 ], [ 19.989408894988379, 70.111590874195088 ], [ 19.988873756061601, 70.111900001790715 ], [ 19.988110509546186, 70.111841559495886 ], [ 19.987618008418305, 70.11213699062597 ], [ 19.988973337658578, 70.112642764839435 ], [ 19.989926593324579, 70.112391379232349 ], [ 19.991054943391045, 70.112763007661684 ], [ 19.991886544766697, 70.112806756503332 ], [ 19.992203072186967, 70.112683240150105 ], [ 19.992425958862693, 70.112241728822781 ] ] ] ] } },
{ "type": "Feature", "properties": { "fid": 189692, "navn": null, "hoyde_moh": 289, "arealInnsjo_km2": 0.0273, "magasinKategori": null, "fid_2": 1289, "id": 1289, "left": 19.986919847, "top": 70.446110046000001, "right": 20.486919847, "bottom": 69.946110046000001, "row_index": 8, "col_index": 32, "tile_id": 1289 }, "geometry": { "type": "MultiPolygon", "coordinates": [ [ [ [ 20.274571258525299, 70.256544997308225 ], [ 20.274707157465684, 70.256259957707243 ], [ 20.274398523151312, 70.256096563277893 ], [ 20.274454291625275, 70.255765836975328 ], [ 20.272494463116985, 70.255502767405517 ], [ 20.27003364002077, 70.25572156374291 ], [ 20.267289100888252, 70.255494514364031 ], [ 20.268026112711425, 70.255914071307828 ], [ 20.269887402570564, 70.256530308881921 ], [ 20.2720799327119, 70.256928269007048 ], [ 20.273386589418458, 70.256855892779967 ], [ 20.274571258525299, 70.256544997308225 ] ] ] ] } },
{ "type": "Feature", "properties": { "fid": 190385, "navn": null, "hoyde_moh": 347, "arealInnsjo_km2": 0.0196, "magasinKategori": null, "fid_2": 1289, "id": 1289, "left": 19.986919847, "top": 70.446110046000001, "right": 20.486919847, "bottom": 69.946110046000001, "row_index": 8, "col_index": 32, "tile_id": 1289 }, "geometry": { "type": "MultiPolygon", "coordinates": [ [ [ [ 20.436568565179847, 70.084082028894073 ], [ 20.436092662145761, 70.083782326376493 ], [ 20.434293581685019, 70.083373783884483 ], [ 20.430069609585697, 70.083798122714342 ], [ 20.430197425110208, 70.084096387440127 ], [ 20.431276619374568, 70.084394996420372 ], [ 20.43640567401857, 70.084205594733717 ], [ 20.436568565179847, 70.084082028894073 ] ] ] ] } },
{ "type": "Feature", "properties": { "fid": 192700, "navn": "Trolldalsvannet", "hoyde_moh": 236, "arealInnsjo_km2": 0.0391, "magasinKategori": null, "fid_2": 1289, "id": 1289, "left": 19.986919847, "top": 70.446110046000001, "right": 20.486919847, "bottom": 69.946110046000001, "row_index": 8, "col_index": 32, "tile_id": 1289 }, "geometry": { "type": "MultiPolygon", "coordinates": [ [ [ [ 20.426306558793677, 70.103590586529293 ], [ 20.423396044125013, 70.10330883278904 ], [ 20.42230732530405, 70.102989297200139 ], [ 20.420859531483121, 70.102917498580879 ], [ 20.419513529156532, 70.103262535143543 ], [ 20.419294613545777, 70.103381932126339 ], [ 20.419359928814032, 70.103542542607855 ], [ 20.418838198518671, 70.103800980761676 ], [ 20.419902210048971, 70.104157370181269 ], [ 20.424257811872877, 70.104392095768844 ], [ 20.425147999336641, 70.104223123414414 ], [ 20.426472643175934, 70.104373950953118 ], [ 20.429292495051975, 70.103955031978032 ], [ 20.428432799058733, 70.10350294488029 ], [ 20.426306558793677, 70.103590586529293 ] ] ] ] } },
{ "type": "Feature", "properties": { "fid": 194431, "navn": "Skipparvikvatnet", "hoyde_moh": 137, "arealInnsjo_km2": 0.0463, "magasinKategori": null, "fid_2": 1289, "id": 1289, "left": 19.986919847, "top": 70.446110046000001, "right": 20.486919847, "bottom": 69.946110046000001, "row_index": 8, "col_index": 32, "tile_id": 1289 }, "geometry": { "type": "MultiPolygon", "coordinates": [ [ [ [ 20.040340779056987, 70.104171069059035 ], [ 20.039808339532311, 70.103838944262989 ], [ 20.037399854531262, 70.103079877208231 ], [ 20.033562641021749, 70.102535301008047 ], [ 20.032896521480453, 70.102647535831096 ], [ 20.032284715550269, 70.103003856365319 ], [ 20.032467965973975, 70.103539304511813 ], [ 20.032703555519976, 70.103685014997524 ], [ 20.035852845581488, 70.104700968121151 ], [ 20.038970326961447, 70.104657486497118 ], [ 20.040123116577657, 70.104453868074856 ], [ 20.040340779056987, 70.104171069059035 ] ] ] ] } },
{ "type": "Feature", "properties": { "fid": 196056, "navn": "Håskardvatnan", "hoyde_moh": 176, "arealInnsjo_km2": 0.0318, "magasinKategori": null, "fid_2": 1289, "id": 1289, "left": 19.986919847, "top": 70.446110046000001, "right": 20.486919847, "bottom": 69.946110046000001, "row_index": 8, "col_index": 32, "tile_id": 1289 }, "geometry": { "type": "MultiPolygon", "coordinates": [ [ [ [ 20.268102558004358, 70.249739091352467 ], [ 20.266243778100652, 70.248915323932422 ], [ 20.265278632329267, 70.248914039482898 ], [ 20.263796342970824, 70.249215616637287 ], [ 20.262980283142006, 70.249790746508069 ], [ 20.263018526694498, 70.25064553003125 ], [ 20.262778622369677, 70.250907247689469 ], [ 20.26600789397617, 70.250916094245696 ], [ 20.266885031026508, 70.25064242319533 ], [ 20.26732558614362, 70.250081531236319 ], [ 20.268102558004358, 70.249739091352467 ] ] ] ] } },
{ "type": "Feature", "properties": { "fid": 207977, "navn": "Dalbakkvannet", "hoyde_moh": 457, "arealInnsjo_km2": 0.0876, "magasinKategori": null, "fid_2": 1289, "id": 1289, "left": 19.986919847, "top": 70.446110046000001, "right": 20.486919847, "bottom": 69.946110046000001, "row_index": 8, "col_index": 32, "tile_id": 1289 }, "geometry": { "type": "MultiPolygon", "coordinates": [ [ [ [ 20.471827002073923, 70.13054109726275 ], [ 20.471334094120309, 70.131259175967557 ], [ 20.471320968038054, 70.131558243504429 ], [ 20.471621311286153, 70.131830158997133 ], [ 20.470940902363662, 70.132584665888814 ], [ 20.471075594147841, 70.132883434051493 ], [ 20.470975729424136, 70.133255618163076 ], [ 20.471342811774999, 70.13417798256117 ], [ 20.471782001268508, 70.134463462422019 ], [ 20.472637293299229, 70.134699476929143 ], [ 20.475705939921017, 70.135024758055167 ], [ 20.476665034761123, 70.13487656688612 ], [ 20.477574342073208, 70.134264303079732 ], [ 20.477694087555253, 70.133550450647419 ], [ 20.477214251644444, 70.132985200174488 ], [ 20.477181173023652, 70.132743699140249 ], [ 20.47620033423841, 70.132668764650774 ], [ 20.474978133126953, 70.132189264621957 ], [ 20.474918102452719, 70.13177608521849 ], [ 20.474489740901461, 70.131097128627673 ], [ 20.473382048713184, 70.130590983906103 ], [ 20.473271017969832, 70.130409554376897 ], [ 20.47267962395571, 70.130300259540718 ], [ 20.471827002073923, 70.13054109726275 ] ] ] ] } },
{ "type": "Feature", "properties": { "fid": 211036, "navn": "Keilevannet", "hoyde_moh": 343, "arealInnsjo_km2": 0.3656, "magasinKategori": null, "fid_2": 1289, "id": 1289, "left": 19.986919847, "top": 70.446110046000001, "right": 20.486919847, "bottom": 69.946110046000001, "row_index": 8, "col_index": 32, "tile_id": 1289 }, "geometry": { "type": "MultiPolygon", "coordinates": [ [ [ [ 20.463073701703813, 70.155575303884874 ], [ 20.461045778351178, 70.155825249026947 ], [ 20.45819058023919, 70.156489616846713 ], [ 20.457167577964775, 70.1572876107696 ], [ 20.457128745109063, 70.157668532385998 ], [ 20.457523459179608, 70.158387520473269 ], [ 20.457425434563291, 70.158895148242962 ], [ 20.457900668848129, 70.159430718717459 ], [ 20.457940257857512, 70.159674449230579 ], [ 20.457058676147184, 70.160077316603022 ], [ 20.458114185665906, 70.160678141190402 ], [ 20.460783813023927, 70.161044840610558 ], [ 20.461763269550168, 70.161340850401643 ], [ 20.463230430106172, 70.161528459380833 ], [ 20.466817753913414, 70.161266195148883 ], [ 20.466424162888135, 70.161410598388287 ], [ 20.469044198306655, 70.161726145221053 ], [ 20.47007925470318, 70.161608815168563 ], [ 20.471292903996673, 70.161199946712941 ], [ 20.473961362368915, 70.160981938931442 ], [ 20.474710815740654, 70.160355809553138 ], [ 20.474672261427834, 70.158599545781996 ], [ 20.473936402309139, 70.158026815903114 ], [ 20.472372047196654, 70.157092865235199 ], [ 20.470500165964911, 70.156578924231013 ], [ 20.469330977453048, 70.155876632900032 ], [ 20.46776662143909, 70.155520902617056 ], [ 20.463073701703813, 70.155575303884874 ] ] ] ] } },
{ "type": "Feature", "properties": { "fid": 212700, "navn": "Russelvfjellvatnet", "hoyde_moh": 514, "arealInnsjo_km2": 0.1563, "magasinKategori": null, "fid_2": 1289, "id": 1289, "left": 19.986919847, "top": 70.446110046000001, "right": 20.486919847, "bottom": 69.946110046000001, "row_index": 8, "col_index": 32, "tile_id": 1289 }, "geometry": { "type": "MultiPolygon", "coordinates": [ [ [ [ 20.276698442660408, 69.946302109928368 ], [ 20.277391943052592, 69.946110046 ], [ 20.275586742001028, 69.946110046 ], [ 20.276698442660408, 69.946302109928368 ] ] ] ] } },
{ "type": "Feature", "properties": { "fid": 224044, "navn": "Djupvikvatnan", "hoyde_moh": 158, "arealInnsjo_km2": 0.0532, "magasinKategori": null, "fid_2": 1289, "id": 1289, "left": 19.986919847, "top": 70.446110046000001, "right": 20.486919847, "bottom": 69.946110046000001, "row_index": 8, "col_index": 32, "tile_id": 1289 }, "geometry": { "type": "MultiPolygon", "coordinates": [ [ [ [ 20.038636644917762, 70.099575491818314 ], [ 20.038553132199802, 70.099332138416827 ], [ 20.039074214093041, 70.098821950448425 ], [ 20.038983992724415, 70.098330826199557 ], [ 20.039475583943602, 70.098003324916917 ], [ 20.038882081026522, 70.09768641723079 ], [ 20.038709216388817, 70.09749352495227 ], [ 20.038813860378387, 70.097396313802562 ], [ 20.038261789084633, 70.097214850964491 ], [ 20.037876406792769, 70.096778830576483 ], [ 20.035523743819589, 70.096654855619008 ], [ 20.032054228375717, 70.097278262434102 ], [ 20.031551936973351, 70.097498027413678 ], [ 20.031735434344178, 70.097791445306015 ], [ 20.032313397991189, 70.098043787431052 ], [ 20.034889178079421, 70.09829983622457 ], [ 20.036897619719536, 70.099267540436827 ], [ 20.037647638298846, 70.099328118455787 ], [ 20.038380512284952, 70.099627424536891 ], [ 20.038636644917762, 70.099575491818314 ] ] ] ] } },
{ "type": "Feature", "properties": { "fid": 225972, "navn": "Stempelvatnet", "hoyde_moh": 363, "arealInnsjo_km2": 0.05, "magasinKategori": null, "fid_2": 1289, "id": 1289, "left": 19.986919847, "top": 70.446110046000001, "right": 20.486919847, "bottom": 69.946110046000001, "row_index": 8, "col_index": 32, "tile_id": 1289 }, "geometry": { "type": "MultiPolygon", "coordinates": [ [ [ [ 20.185727467244803, 70.293612882187006 ], [ 20.182225523983778, 70.292822287896541 ], [ 20.179290973197297, 70.29301062620992 ], [ 20.178524224577906, 70.293252550614099 ], [ 20.178493763789405, 70.293467336388161 ], [ 20.178115445064588, 70.293696904847252 ], [ 20.178323237041194, 70.29400216040753 ], [ 20.179671715945304, 70.294458254698313 ], [ 20.182485026706761, 70.294803415589413 ], [ 20.185880377802654, 70.294634758691174 ], [ 20.186415268822735, 70.294531090794777 ], [ 20.186359480411685, 70.294339208262713 ], [ 20.186542460853811, 70.294164908126405 ], [ 20.185727467244803, 70.293612882187006 ] ] ] ] } }
]
}
