{
"type": "FeatureCollection",
"name": "innsjo_tile_id_2169",
"crs": { "type": "name", "properties": { "name": "urn:ogc:def:crs:OGC:1.3:CRS84" } },
"xy_coordinate_resolution": 1e-15,
"features": [
{ "type": "Feature", "properties": { "fid": 230025, "navn": null, "hoyde_moh": 45, "arealInnsjo_km2": 0.0137, "magasinKategori": null, "fid_2": 2169, "id": 2169, "left": 30.986919847, "top": 70.446110046000001, "right": 31.486919847, "bottom": 69.946110046000001, "row_index": 8, "col_index": 54, "tile_id": 2169 }, "geometry": { "type": "MultiPolygon", "coordinates": [ [ [ [ 31.030176214059292, 70.345648958582089 ], [ 31.030314393572748, 70.345406902634025 ], [ 31.030186900872192, 70.345146775187828 ], [ 31.029310613197314, 70.344871881490462 ], [ 31.028513010727419, 70.344861001913543 ], [ 31.026302325183511, 70.345325077158535 ], [ 31.027742282457559, 70.34591501017772 ], [ 31.029314898545337, 70.346055560129926 ], [ 31.030176214059292, 70.345648958582089 ] ] ] ] } },
{ "type": "Feature", "properties": { "fid": 230026, "navn": null, "hoyde_moh": 44, "arealInnsjo_km2": 0.0135, "magasinKategori": null, "fid_2": 2169, "id": 2169, "left": 30.986919847, "top": 70.446110046000001, "right": 31.486919847, "bottom": 69.946110046000001, "row_index": 8, "col_index": 54, "tile_id": 2169 }, "geometry": { "type": "MultiPolygon", "coordinates": [ [ [ [ 31.029050853336415, 70.346567681008821 ], [ 31.02588666588408, 70.346083881643395 ], [ 31.024630231039463, 70.346274855568339 ], [ 31.023773803538202, 70.346647678348774 ], [ 31.024245088754874, 70.346921272267764 ], [ 31.025008026982295, 70.347008954820225 ], [ 31.028742032679784, 70.346782080442097 ], [ 31.029050853336415, 70.346567681008821 ] ] ] ] } },
{ "type": "Feature", "properties": { "fid": 230027, "navn": null, "hoyde_moh": 54, "arealInnsjo_km2": 0.0088, "magasinKategori": null, "fid_2": 2169, "id": 2169, "left": 30.986919847, "top": 70.446110046000001, "right": 31.486919847, "bottom": 69.946110046000001, "row_index": 8, "col_index": 54, "tile_id": 2169 }, "geometry": { "type": "MultiPolygon", "coordinates": [ [ [ [ 30.994639785351076, 70.357409710847435 ], [ 30.994813829745191, 70.356736285347139 ], [ 30.992867248692502, 70.357282979582735 ], [ 30.991614793914525, 70.357895904121207 ], [ 30.992076974259504, 70.358213585802901 ], [ 30.992649412808795, 70.35818592915416 ], [ 30.994639785351076, 70.357409710847435 ] ] ] ] } },
{ "type": "Feature", "properties": { "fid": 230034, "navn": "Grønskhaugvatnet", "hoyde_moh": 84, "arealInnsjo_km2": 0.0142, "magasinKategori": null, "fid_2": 2169, "id": 2169, "left": 30.986919847, "top": 70.446110046000001, "right": 31.486919847, "bottom": 69.946110046000001, "row_index": 8, "col_index": 54, "tile_id": 2169 }, "geometry": { "type": "MultiPolygon", "coordinates": [ [ [ [ 30.997732455190853, 70.321530694111658 ], [ 31.000241620250144, 70.321426783575603 ], [ 31.001431276917732, 70.321240200453957 ], [ 31.001588326118206, 70.321037898886075 ], [ 31.00048267657494, 70.320866253123157 ], [ 30.996725742542466, 70.320858692157358 ], [ 30.995971893330069, 70.321213209268606 ], [ 30.996048792942421, 70.321476062198101 ], [ 30.996377454461697, 70.321667462814943 ], [ 30.997278395257734, 70.321700730933486 ], [ 30.997732455190853, 70.321530694111658 ] ] ] ] } },
{ "type": "Feature", "properties": { "fid": 230035, "navn": "Enkevatnet", "hoyde_moh": 107, "arealInnsjo_km2": 0.0323, "magasinKategori": null, "fid_2": 2169, "id": 2169, "left": 30.986919847, "top": 70.446110046000001, "right": 31.486919847, "bottom": 69.946110046000001, "row_index": 8, "col_index": 54, "tile_id": 2169 }, "geometry": { "type": "MultiPolygon", "coordinates": [ [ [ [ 31.021143211552808, 70.319737354462674 ], [ 31.021724447739341, 70.319465103879523 ], [ 31.01904678497915, 70.318837046614902 ], [ 31.01860029282296, 70.318610168218299 ], [ 31.018404675565282, 70.318022768886195 ], [ 31.017159446434899, 70.317701081403499 ], [ 31.016669737331103, 70.3176926107828 ], [ 31.015779094983436, 70.31800366538576 ], [ 31.015322976997425, 70.318397765040999 ], [ 31.01557422993443, 70.319018381473441 ], [ 31.016275103014891, 70.319417419602203 ], [ 31.017520591162071, 70.319728369178051 ], [ 31.017250174305531, 70.319804518432477 ], [ 31.021143211552808, 70.319737354462674 ] ] ] ] } },
{ "type": "Feature", "properties": { "fid": 230036, "navn": null, "hoyde_moh": 101, "arealInnsjo_km2": 0.0107, "magasinKategori": null, "fid_2": 2169, "id": 2169, "left": 30.986919847, "top": 70.446110046000001, "right": 31.486919847, "bottom": 69.946110046000001, "row_index": 8, "col_index": 54, "tile_id": 2169 }, "geometry": { "type": "MultiPolygon", "coordinates": [ [ [ [ 31.037037059338239, 70.31857506645494 ], [ 31.035793972958402, 70.317816728197172 ], [ 31.033886136911978, 70.317490095007543 ], [ 31.035125840478052, 70.318682161494877 ], [ 31.036394173451466, 70.319067959881565 ], [ 31.037358251521688, 70.319045777934278 ], [ 31.037037059338239, 70.31857506645494 ] ] ] ] } },
{ "type": "Feature", "properties": { "fid": 230053, "navn": null, "hoyde_moh": 108, "arealInnsjo_km2": 0.0087, "magasinKategori": null, "fid_2": 2169, "id": 2169, "left": 30.986919847, "top": 70.446110046000001, "right": 31.486919847, "bottom": 69.946110046000001, "row_index": 8, "col_index": 54, "tile_id": 2169 }, "geometry": { "type": "MultiPolygon", "coordinates": [ [ [ [ 31.037902802318417, 70.313043219698542 ], [ 31.037802628826118, 70.312750652217559 ], [ 31.036993813965871, 70.31261079959377 ], [ 31.034083493149733, 70.312431819588156 ], [ 31.033691280608043, 70.312648973900949 ], [ 31.033972569753264, 70.312840850092655 ], [ 31.03662140026562, 70.313185115148926 ], [ 31.037902802318417, 70.313043219698542 ] ] ] ] } },
{ "type": "Feature", "properties": { "fid": 230056, "navn": null, "hoyde_moh": 18, "arealInnsjo_km2": 0.0054, "magasinKategori": null, "fid_2": 2169, "id": 2169, "left": 30.986919847, "top": 70.446110046000001, "right": 31.486919847, "bottom": 69.946110046000001, "row_index": 8, "col_index": 54, "tile_id": 2169 }, "geometry": { "type": "MultiPolygon", "coordinates": [ [ [ [ 31.005758177735508, 70.38020121361852 ], [ 31.005735745844458, 70.379943645891757 ], [ 31.004805678927127, 70.379718638209241 ], [ 31.003799225644567, 70.379834706743438 ], [ 31.004331865327494, 70.380525945362848 ], [ 31.004948491153744, 70.380544227748018 ], [ 31.005758177735508, 70.38020121361852 ] ] ] ] } },
{ "type": "Feature", "properties": { "fid": 230058, "navn": null, "hoyde_moh": 17, "arealInnsjo_km2": 0.0074, "magasinKategori": null, "fid_2": 2169, "id": 2169, "left": 30.986919847, "top": 70.446110046000001, "right": 31.486919847, "bottom": 69.946110046000001, "row_index": 8, "col_index": 54, "tile_id": 2169 }, "geometry": { "type": "MultiPolygon", "coordinates": [ [ [ [ 31.007001661934233, 70.380859723486296 ], [ 31.005889381815852, 70.380750128227334 ], [ 31.00543810887654, 70.380938521420745 ], [ 31.005569461519375, 70.381748784557743 ], [ 31.007553813956186, 70.381657862583751 ], [ 31.007001661934233, 70.380859723486296 ] ] ] ] } },
{ "type": "Feature", "properties": { "fid": 230063, "navn": null, "hoyde_moh": 97, "arealInnsjo_km2": 0.0058, "magasinKategori": null, "fid_2": 2169, "id": 2169, "left": 30.986919847, "top": 70.446110046000001, "right": 31.486919847, "bottom": 69.946110046000001, "row_index": 8, "col_index": 54, "tile_id": 2169 }, "geometry": { "type": "MultiPolygon", "coordinates": [ [ [ [ 31.016444430532896, 70.332484722425193 ], [ 31.016454225967433, 70.332201657840557 ], [ 31.015112857497723, 70.332026071026689 ], [ 31.014116136307614, 70.332188946894462 ], [ 31.014159997127148, 70.332604278818749 ], [ 31.015119561312716, 70.332793362420574 ], [ 31.016444430532896, 70.332484722425193 ] ] ] ] } },
{ "type": "Feature", "properties": { "fid": 230071, "navn": null, "hoyde_moh": 111, "arealInnsjo_km2": 0.0204, "magasinKategori": null, "fid_2": 2169, "id": 2169, "left": 30.986919847, "top": 70.446110046000001, "right": 31.486919847, "bottom": 69.946110046000001, "row_index": 8, "col_index": 54, "tile_id": 2169 }, "geometry": { "type": "MultiPolygon", "coordinates": [ [ [ [ 31.033340310613717, 70.320634706157151 ], [ 31.033086935892303, 70.320485594479081 ], [ 31.032820058103617, 70.319941947339046 ], [ 31.031753297910146, 70.31957714411628 ], [ 31.031681948978001, 70.31939460064396 ], [ 31.031839608632964, 70.319150016119579 ], [ 31.031217317818498, 70.318743665035583 ], [ 31.029833605479986, 70.318294275803439 ], [ 31.029410090467746, 70.318369702522318 ], [ 31.029085561575997, 70.318745571065975 ], [ 31.029239576360791, 70.319128584359447 ], [ 31.030176173262536, 70.319947734920845 ], [ 31.032535195552263, 70.320781469990621 ], [ 31.033340310613717, 70.320634706157151 ] ] ] ] } },
{ "type": "Feature", "properties": { "fid": 230081, "navn": null, "hoyde_moh": 74, "arealInnsjo_km2": 0.0091, "magasinKategori": null, "fid_2": 2169, "id": 2169, "left": 30.986919847, "top": 70.446110046000001, "right": 31.486919847, "bottom": 69.946110046000001, "row_index": 8, "col_index": 54, "tile_id": 2169 }, "geometry": { "type": "MultiPolygon", "coordinates": [ [ [ [ 31.035839493370091, 70.292526303713288 ], [ 31.035670093656819, 70.292435687158346 ], [ 31.035762328421317, 70.292340509254942 ], [ 31.035470627286376, 70.292254586674218 ], [ 31.035663810738061, 70.292171833083273 ], [ 31.035324491953489, 70.291985838224804 ], [ 31.035369133168324, 70.291797800168453 ], [ 31.033943941365852, 70.291705687584553 ], [ 31.033274210789369, 70.292058548138755 ], [ 31.033330632146544, 70.292336782188357 ], [ 31.033725517500443, 70.292772605927183 ], [ 31.035206232442427, 70.292736645323998 ], [ 31.035839493370091, 70.292526303713288 ] ] ] ] } },
{ "type": "Feature", "properties": { "fid": 230091, "navn": null, "hoyde_moh": 86, "arealInnsjo_km2": 0.0027, "magasinKategori": null, "fid_2": 2169, "id": 2169, "left": 30.986919847, "top": 70.446110046000001, "right": 31.486919847, "bottom": 69.946110046000001, "row_index": 8, "col_index": 54, "tile_id": 2169 }, "geometry": { "type": "MultiPolygon", "coordinates": [ [ [ [ 31.023727586046544, 70.314473228419089 ], [ 31.022666596685816, 70.314076344299338 ], [ 31.022004795391489, 70.313941800934856 ], [ 31.021508454468073, 70.314088129343673 ], [ 31.023759663908731, 70.314745452419032 ], [ 31.023727586046544, 70.314473228419089 ] ] ] ] } },
{ "type": "Feature", "properties": { "fid": 230092, "navn": null, "hoyde_moh": 75, "arealInnsjo_km2": 0.016, "magasinKategori": null, "fid_2": 2169, "id": 2169, "left": 30.986919847, "top": 70.446110046000001, "right": 31.486919847, "bottom": 69.946110046000001, "row_index": 8, "col_index": 54, "tile_id": 2169 }, "geometry": { "type": "MultiPolygon", "coordinates": [ [ [ [ 31.028636973525842, 70.292460327787254 ], [ 31.024727374411086, 70.291451668115386 ], [ 31.022361380140939, 70.292399298056679 ], [ 31.023976459606029, 70.292603656570023 ], [ 31.025782067403515, 70.292441389034323 ], [ 31.027408583599197, 70.292673623937375 ], [ 31.028529048995786, 70.292606411885345 ], [ 31.028636973525842, 70.292460327787254 ] ] ] ] } },
{ "type": "Feature", "properties": { "fid": 230102, "navn": null, "hoyde_moh": 74, "arealInnsjo_km2": 0.0275, "magasinKategori": null, "fid_2": 2169, "id": 2169, "left": 30.986919847, "top": 70.446110046000001, "right": 31.486919847, "bottom": 69.946110046000001, "row_index": 8, "col_index": 54, "tile_id": 2169 }, "geometry": { "type": "MultiPolygon", "coordinates": [ [ [ [ 31.011116510696045, 70.340662510398445 ], [ 31.011090473441691, 70.340310758359834 ], [ 31.011573049962969, 70.339617335581863 ], [ 31.012291510092798, 70.339306138760094 ], [ 31.012102652278621, 70.339034218023656 ], [ 31.011401914622031, 70.338827094200553 ], [ 31.008460531624532, 70.338503278265634 ], [ 31.007683083116053, 70.338667041888158 ], [ 31.007680332049773, 70.33887482302724 ], [ 31.008037668815707, 70.339133266836299 ], [ 31.008167464208416, 70.339442559547223 ], [ 31.00769264886533, 70.339861324381161 ], [ 31.010306782729543, 70.340733774534499 ], [ 31.011116510696045, 70.340662510398445 ] ] ] ] } },
{ "type": "Feature", "properties": { "fid": 230103, "navn": null, "hoyde_moh": 24, "arealInnsjo_km2": 0.0026, "magasinKategori": null, "fid_2": 2169, "id": 2169, "left": 30.986919847, "top": 70.446110046000001, "right": 31.486919847, "bottom": 69.946110046000001, "row_index": 8, "col_index": 54, "tile_id": 2169 }, "geometry": { "type": "MultiPolygon", "coordinates": [ [ [ [ 31.01127694773384, 70.386333562553276 ], [ 31.011270949922832, 70.38608420701776 ], [ 31.01054247987037, 70.385943924558802 ], [ 31.009864122450445, 70.386239233404709 ], [ 31.009980363340492, 70.386402183924247 ], [ 31.010887658763497, 70.386476936483604 ], [ 31.01127694773384, 70.386333562553276 ] ] ] ] } },
{ "type": "Feature", "properties": { "fid": 230109, "navn": null, "hoyde_moh": 75, "arealInnsjo_km2": 0.0222, "magasinKategori": null, "fid_2": 2169, "id": 2169, "left": 30.986919847, "top": 70.446110046000001, "right": 31.486919847, "bottom": 69.946110046000001, "row_index": 8, "col_index": 54, "tile_id": 2169 }, "geometry": { "type": "MultiPolygon", "coordinates": [ [ [ [ 31.014588692959578, 70.310108220346009 ], [ 31.013351648652293, 70.309663913835749 ], [ 31.012645824210548, 70.309081217397576 ], [ 31.011757570550099, 70.308866019744713 ], [ 31.011670357420389, 70.308302612093129 ], [ 31.010788791586656, 70.307945769489862 ], [ 31.010078983926824, 70.307854975358893 ], [ 31.00877418149409, 70.30837437644881 ], [ 31.00896204133371, 70.308575333650424 ], [ 31.010108648182182, 70.308802241528454 ], [ 31.009525596248356, 70.309012112008716 ], [ 31.009556416854835, 70.309207029249919 ], [ 31.009755407315982, 70.309281845817409 ], [ 31.011000697431449, 70.30948431788012 ], [ 31.012793056844508, 70.310191464079594 ], [ 31.01343430765931, 70.310292755734991 ], [ 31.014588692959578, 70.310108220346009 ] ] ] ] } },
{ "type": "Feature", "properties": { "fid": 230122, "navn": null, "hoyde_moh": 47, "arealInnsjo_km2": 0.0034, "magasinKategori": null, "fid_2": 2169, "id": 2169, "left": 30.986919847, "top": 70.446110046000001, "right": 31.486919847, "bottom": 69.946110046000001, "row_index": 8, "col_index": 54, "tile_id": 2169 }, "geometry": { "type": "MultiPolygon", "coordinates": [ [ [ [ 31.000606645096891, 70.35900207256006 ], [ 31.000506927289035, 70.35868097340871 ], [ 30.999651912915773, 70.358805628335276 ], [ 30.999404189672838, 70.3591312845234 ], [ 30.999560779269007, 70.359296195478919 ], [ 30.999484348425504, 70.359617758777276 ], [ 30.999999748843269, 70.359616255311707 ], [ 31.000606645096891, 70.35900207256006 ] ] ] ] } },
{ "type": "Feature", "properties": { "fid": 230124, "navn": null, "hoyde_moh": 120, "arealInnsjo_km2": 0.0122, "magasinKategori": null, "fid_2": 2169, "id": 2169, "left": 30.986919847, "top": 70.446110046000001, "right": 31.486919847, "bottom": 69.946110046000001, "row_index": 8, "col_index": 54, "tile_id": 2169 }, "geometry": { "type": "MultiPolygon", "coordinates": [ [ [ [ 30.99189936221941, 70.342189753921588 ], [ 30.992026961289252, 70.341905537665411 ], [ 30.991241376399426, 70.341745539423329 ], [ 30.990925738031621, 70.341466917788239 ], [ 30.9920713938101, 70.341020748974657 ], [ 30.990201558167016, 70.341239563673028 ], [ 30.989757960020501, 70.341518177173413 ], [ 30.989864636962324, 70.341958659882565 ], [ 30.9896021581329, 70.342127416012261 ], [ 30.9896252479876, 70.342329968200957 ], [ 30.991730678308627, 70.342933614447034 ], [ 30.99211630244789, 70.342905790450075 ], [ 30.99189936221941, 70.342189753921588 ] ] ] ] } },
{ "type": "Feature", "properties": { "fid": 230151, "navn": null, "hoyde_moh": 75, "arealInnsjo_km2": 0.007, "magasinKategori": null, "fid_2": 2169, "id": 2169, "left": 30.986919847, "top": 70.446110046000001, "right": 31.486919847, "bottom": 69.946110046000001, "row_index": 8, "col_index": 54, "tile_id": 2169 }, "geometry": { "type": "MultiPolygon", "coordinates": [ [ [ [ 31.010833619569166, 70.30740815900846 ], [ 31.008193794321645, 70.306718942763396 ], [ 31.007438757005183, 70.306751007463731 ], [ 31.007554232145267, 70.307016727374474 ], [ 31.008634876850007, 70.307607175422049 ], [ 31.009711334109994, 70.307623695394099 ], [ 31.010833619569166, 70.30740815900846 ] ] ] ] } },
{ "type": "Feature", "properties": { "fid": 230157, "navn": null, "hoyde_moh": 88, "arealInnsjo_km2": 0.0279, "magasinKategori": null, "fid_2": 2169, "id": 2169, "left": 30.986919847, "top": 70.446110046000001, "right": 31.486919847, "bottom": 69.946110046000001, "row_index": 8, "col_index": 54, "tile_id": 2169 }, "geometry": { "type": "MultiPolygon", "coordinates": [ [ [ [ 31.002692537612631, 70.33075035611742 ], [ 31.002960116436409, 70.330353688590463 ], [ 31.003558414183818, 70.33011716426779 ], [ 31.003311951793883, 70.329909403035884 ], [ 31.003538964769863, 70.329735417306537 ], [ 31.002748434304355, 70.329432515132012 ], [ 31.00108537302037, 70.329194188186918 ], [ 31.000237907858406, 70.329405834160553 ], [ 31.000138371069816, 70.329793682810219 ], [ 31.000364269158606, 70.3303625058591 ], [ 31.000970123655765, 70.330860055376291 ], [ 31.000582107363915, 70.331368196077847 ], [ 31.000031339109544, 70.331516133386003 ], [ 30.999576923343675, 70.331986010699282 ], [ 30.999543894491772, 70.332628785344724 ], [ 30.999999807195557, 70.332681003725483 ], [ 31.002692537612631, 70.33075035611742 ] ] ] ] } },
{ "type": "Feature", "properties": { "fid": 230163, "navn": null, "hoyde_moh": 75, "arealInnsjo_km2": 0.0187, "magasinKategori": null, "fid_2": 2169, "id": 2169, "left": 30.986919847, "top": 70.446110046000001, "right": 31.486919847, "bottom": 69.946110046000001, "row_index": 8, "col_index": 54, "tile_id": 2169 }, "geometry": { "type": "MultiPolygon", "coordinates": [ [ [ [ 31.036619568967129, 70.290124969364754 ], [ 31.036149652142189, 70.289913447839623 ], [ 31.036773641893372, 70.289637996963705 ], [ 31.036665534995706, 70.28940471512648 ], [ 31.035127173072716, 70.289177383492174 ], [ 31.034363361078974, 70.288746495151671 ], [ 31.03315902831784, 70.288665392944495 ], [ 31.032285070452268, 70.288827604057758 ], [ 31.033192869219729, 70.289387597431713 ], [ 31.033776409269468, 70.289978865198108 ], [ 31.034999386207463, 70.290367181142287 ], [ 31.036718968823905, 70.290455051330227 ], [ 31.036619568967129, 70.290124969364754 ] ] ] ] } },
{ "type": "Feature", "properties": { "fid": 230168, "navn": null, "hoyde_moh": 121, "arealInnsjo_km2": 0.0167, "magasinKategori": null, "fid_2": 2169, "id": 2169, "left": 30.986919847, "top": 70.446110046000001, "right": 31.486919847, "bottom": 69.946110046000001, "row_index": 8, "col_index": 54, "tile_id": 2169 }, "geometry": { "type": "MultiPolygon", "coordinates": [ [ [ [ 30.99061260893804, 70.340055786589673 ], [ 30.9903548565213, 70.339737968594918 ], [ 30.990429514571989, 70.339505912716547 ], [ 30.989578252634267, 70.339184316960569 ], [ 30.986919847, 70.338851414616798 ], [ 30.986919847, 70.339882578609377 ], [ 30.987073237310394, 70.339876032520834 ], [ 30.987206858837464, 70.339702432494306 ], [ 30.987680226167868, 70.339613839491534 ], [ 30.989819274040538, 70.33961767760978 ], [ 30.989921542973519, 70.339701416557048 ], [ 30.98962854553417, 70.339906424014544 ], [ 30.989794545430549, 70.340088870762926 ], [ 30.99061260893804, 70.340055786589673 ] ] ] ] } },
{ "type": "Feature", "properties": { "fid": 230644, "navn": null, "hoyde_moh": 76, "arealInnsjo_km2": 0.0051, "magasinKategori": null, "fid_2": 2169, "id": 2169, "left": 30.986919847, "top": 70.446110046000001, "right": 31.486919847, "bottom": 69.946110046000001, "row_index": 8, "col_index": 54, "tile_id": 2169 }, "geometry": { "type": "MultiPolygon", "coordinates": [ [ [ [ 31.031687907584001, 70.285778701290923 ], [ 31.02965343286208, 70.285533854371096 ], [ 31.029307886182732, 70.285632920357074 ], [ 31.029397387939071, 70.285908775575422 ], [ 31.029846576511677, 70.286118586923266 ], [ 31.031176519017539, 70.286292739368946 ], [ 31.031687907584001, 70.285778701290923 ] ] ] ] } },
{ "type": "Feature", "properties": { "fid": 230653, "navn": null, "hoyde_moh": 76, "arealInnsjo_km2": 0.0025, "magasinKategori": null, "fid_2": 2169, "id": 2169, "left": 30.986919847, "top": 70.446110046000001, "right": 31.486919847, "bottom": 69.946110046000001, "row_index": 8, "col_index": 54, "tile_id": 2169 }, "geometry": { "type": "MultiPolygon", "coordinates": [ [ [ [ 31.033445060544771, 70.287985379364827 ], [ 31.03336086809907, 70.287672132872757 ], [ 31.032594327270253, 70.287465407965129 ], [ 31.032162648543764, 70.287592413375663 ], [ 31.032618038985312, 70.288078936555607 ], [ 31.033445060544771, 70.287985379364827 ] ] ] ] } },
{ "type": "Feature", "properties": { "fid": 230687, "navn": "Kibergsvatnet", "hoyde_moh": 40, "arealInnsjo_km2": 0.2847, "magasinKategori": null, "fid_2": 2169, "id": 2169, "left": 30.986919847, "top": 70.446110046000001, "right": 31.486919847, "bottom": 69.946110046000001, "row_index": 8, "col_index": 54, "tile_id": 2169 }, "geometry": { "type": "MultiPolygon", "coordinates": [ [ [ [ 30.996762978341, 70.314540225552037 ], [ 30.997681717185575, 70.313642727813729 ], [ 30.997891174778207, 70.313261987086491 ], [ 30.997863102366281, 70.312958349817535 ], [ 30.999254735053434, 70.311179299918081 ], [ 30.999088014874765, 70.310609000384773 ], [ 30.99815727439962, 70.309717438695586 ], [ 30.996494033484431, 70.308896343079027 ], [ 30.993154724094971, 70.307971248762726 ], [ 30.991333405177695, 70.307855858237176 ], [ 30.988271324295223, 70.306989814707677 ], [ 30.986919847, 70.307146510997484 ], [ 30.986919847, 70.307483716198888 ], [ 30.986995859225907, 70.307684541377213 ], [ 30.986919847, 70.307706556816598 ], [ 30.986919847, 70.308359726878507 ], [ 30.986949458785933, 70.308409865944071 ], [ 30.986954518499289, 70.308937611201017 ], [ 30.987318436019365, 70.309275973180078 ], [ 30.9871359482893, 70.31009616352604 ], [ 30.987324966378065, 70.310171998913333 ], [ 30.987682199878815, 70.310859502745771 ], [ 30.988146342392966, 70.311114309907794 ], [ 30.988093801293232, 70.311504888629329 ], [ 30.988394252389764, 70.311964711485686 ], [ 30.988307527834934, 70.312224128100695 ], [ 30.98859482947822, 70.312943427508486 ], [ 30.989278679689296, 70.31383602187212 ], [ 30.990305666099232, 70.314109177623052 ], [ 30.99084399332062, 70.31444795682556 ], [ 30.992238450727839, 70.31477469870751 ], [ 30.993783086305363, 70.314905870493362 ], [ 30.996762978341, 70.314540225552037 ] ] ] ] } },
{ "type": "Feature", "properties": { "fid": 230691, "navn": "Domsvatnet", "hoyde_moh": 120, "arealInnsjo_km2": 0.118, "magasinKategori": null, "fid_2": 2169, "id": 2169, "left": 30.986919847, "top": 70.446110046000001, "right": 31.486919847, "bottom": 69.946110046000001, "row_index": 8, "col_index": 54, "tile_id": 2169 }, "geometry": { "type": "MultiPolygon", "coordinates": [ [ [ [ 31.032043967066013, 70.32788402738943 ], [ 31.031872287244184, 70.327408089339798 ], [ 31.031919176157118, 70.326941084385595 ], [ 31.030973570085742, 70.326799387084151 ], [ 31.029974428089989, 70.3271619186051 ], [ 31.028066448552472, 70.326788186158922 ], [ 31.027023815522501, 70.326222280826954 ], [ 31.02621045731237, 70.325216970268656 ], [ 31.025396290191917, 70.324742988357386 ], [ 31.025403132544103, 70.32448580289244 ], [ 31.023417698241829, 70.32330438617339 ], [ 31.021266083821772, 70.323795835551294 ], [ 31.020604056487286, 70.324397195258598 ], [ 31.020683191568256, 70.32483207061594 ], [ 31.019707068606031, 70.325550730762174 ], [ 31.019624592352617, 70.325794822975666 ], [ 31.019872432721233, 70.32617483898197 ], [ 31.021132949530084, 70.32691606870813 ], [ 31.024078892729854, 70.32791106179458 ], [ 31.02515815628928, 70.327974766433513 ], [ 31.027516446893774, 70.327495445557886 ], [ 31.028817398817253, 70.327465302363748 ], [ 31.029078586642079, 70.327509200020785 ], [ 31.029794101130879, 70.328233387093277 ], [ 31.03081867397318, 70.328209092029027 ], [ 31.032043967066013, 70.32788402738943 ] ] ] ] } },
{ "type": "Feature", "properties": { "fid": 230702, "navn": "Skinnstakkvatna", "hoyde_moh": 82, "arealInnsjo_km2": 0.0745, "magasinKategori": null, "fid_2": 2169, "id": 2169, "left": 30.986919847, "top": 70.446110046000001, "right": 31.486919847, "bottom": 69.946110046000001, "row_index": 8, "col_index": 54, "tile_id": 2169 }, "geometry": { "type": "MultiPolygon", "coordinates": [ [ [ [ 30.999165403197555, 70.336465025040738 ], [ 31.000115981396483, 70.336127136964379 ], [ 31.000590700513172, 70.335625638428297 ], [ 31.000420646745628, 70.335202934047942 ], [ 30.999046122519889, 70.334421168269571 ], [ 30.999073434533795, 70.333782890836275 ], [ 30.998113030452245, 70.33336408787379 ], [ 30.994941262971277, 70.33247486420845 ], [ 30.993116642294304, 70.332070345796595 ], [ 30.992216082466239, 70.332196414782871 ], [ 30.992200254467054, 70.332597444442442 ], [ 30.993434471139008, 70.333537359637376 ], [ 30.994489832716042, 70.334241626682058 ], [ 30.995311817654478, 70.33456076268736 ], [ 30.996054601252883, 70.335259969161868 ], [ 30.996617888924742, 70.335541309981735 ], [ 30.997519937825317, 70.336811058249197 ], [ 30.998076263347325, 70.337126787617606 ], [ 30.998401421104944, 70.337050060342506 ], [ 30.999165403197555, 70.336465025040738 ] ] ] ] } },
{ "type": "Feature", "properties": { "fid": 230703, "navn": "Skinnstakkvatna", "hoyde_moh": 75, "arealInnsjo_km2": 0.0665, "magasinKategori": null, "fid_2": 2169, "id": 2169, "left": 30.986919847, "top": 70.446110046000001, "right": 31.486919847, "bottom": 69.946110046000001, "row_index": 8, "col_index": 54, "tile_id": 2169 }, "geometry": { "type": "MultiPolygon", "coordinates": [ [ [ [ 31.010444676676766, 70.337199269287183 ], [ 31.011923240143442, 70.336589265375054 ], [ 31.01266010079781, 70.336186489548723 ], [ 31.012827430881575, 70.335995633337831 ], [ 31.012762870395768, 70.335776587371072 ], [ 31.012059528095371, 70.335281347256711 ], [ 31.011456530224436, 70.335111673724455 ], [ 31.008328838796594, 70.334969473583442 ], [ 31.007235783564035, 70.334321298725172 ], [ 31.006067904828541, 70.334214474354084 ], [ 31.005687215396055, 70.334606364050316 ], [ 31.005946398689748, 70.335136287883898 ], [ 31.005547343575767, 70.335554261848955 ], [ 31.006753344644494, 70.336229906343405 ], [ 31.006611366375612, 70.336902959194745 ], [ 31.0063128133202, 70.337227817611435 ], [ 31.007005374116428, 70.337722391463188 ], [ 31.00846108590261, 70.337761515728488 ], [ 31.010444676676766, 70.337199269287183 ] ] ] ] } },
{ "type": "Feature", "properties": { "fid": 230730, "navn": null, "hoyde_moh": 107, "arealInnsjo_km2": 0.0027, "magasinKategori": null, "fid_2": 2169, "id": 2169, "left": 30.986919847, "top": 70.446110046000001, "right": 31.486919847, "bottom": 69.946110046000001, "row_index": 8, "col_index": 54, "tile_id": 2169 }, "geometry": { "type": "MultiPolygon", "coordinates": [ [ [ [ 30.99934402898463, 70.326251584450901 ], [ 30.998946236802738, 70.325878830158956 ], [ 30.99867410692832, 70.325909503278837 ], [ 30.998550974182471, 70.326071998584666 ], [ 30.998605218771448, 70.326501065430207 ], [ 30.999128361214296, 70.326895618662007 ], [ 30.99950260901316, 70.326895422454285 ], [ 30.99934402898463, 70.326251584450901 ] ] ] ] } },
{ "type": "Feature", "properties": { "fid": 230739, "navn": null, "hoyde_moh": 59, "arealInnsjo_km2": 0.0163, "magasinKategori": null, "fid_2": 2169, "id": 2169, "left": 30.986919847, "top": 70.446110046000001, "right": 31.486919847, "bottom": 69.946110046000001, "row_index": 8, "col_index": 54, "tile_id": 2169 }, "geometry": { "type": "MultiPolygon", "coordinates": [ [ [ [ 31.001154614866422, 70.400125609017195 ], [ 31.001311396018124, 70.399650817937783 ], [ 31.001601727459214, 70.399474476455609 ], [ 31.001506181571742, 70.399242775081973 ], [ 31.000617202782575, 70.398925071308099 ], [ 31.000780993738456, 70.398739028419229 ], [ 30.99986857217122, 70.398587978496423 ], [ 31.000142990952803, 70.398904726776777 ], [ 30.999746525524632, 70.398977582814624 ], [ 30.999658448283142, 70.399210490746427 ], [ 30.998951106607286, 70.399397545773041 ], [ 30.998328553913122, 70.399819769731707 ], [ 30.998401119094794, 70.400217434491992 ], [ 30.998610979253822, 70.400327604712402 ], [ 30.999535363973706, 70.400534182052382 ], [ 31.000797614311047, 70.40046013151705 ], [ 31.001154614866422, 70.400125609017195 ] ] ] ] } },
{ "type": "Feature", "properties": { "fid": 230768, "navn": null, "hoyde_moh": 10, "arealInnsjo_km2": 0.0092, "magasinKategori": null, "fid_2": 2169, "id": 2169, "left": 30.986919847, "top": 70.446110046000001, "right": 31.486919847, "bottom": 69.946110046000001, "row_index": 8, "col_index": 54, "tile_id": 2169 }, "geometry": { "type": "MultiPolygon", "coordinates": [ [ [ [ 31.0125658075251, 70.395286531794781 ], [ 31.011669805816698, 70.394848270105115 ], [ 31.011301369037071, 70.39426093708029 ], [ 31.010167519905938, 70.39421449112892 ], [ 31.009870383949906, 70.394384261532252 ], [ 31.010322014118984, 70.395482157569703 ], [ 31.010723414116146, 70.395342323210429 ], [ 31.012207585430517, 70.395455007711945 ], [ 31.0125658075251, 70.395286531794781 ] ] ] ] } }
]
}
