{
"type": "FeatureCollection",
"name": "innsjo_tile_id_1050",
"crs": { "type": "name", "properties": { "name": "urn:ogc:def:crs:OGC:1.3:CRS84" } },
"xy_coordinate_resolution": 1e-15,
"features": [
{ "type": "Feature", "properties": { "fid": 171703, "navn": null, "hoyde_moh": 36, "arealInnsjo_km2": 0.0028, "magasinKategori": null, "fid_2": 1050, "id": 1050, "left": 16.986919847, "top": 69.946110046000001, "right": 17.486919847, "bottom": 69.446110046000001, "row_index": 9, "col_index": 26, "tile_id": 1050 }, "geometry": { "type": "MultiPolygon", "coordinates": [ [ [ [ 17.418891134343454, 69.509952684711791 ], [ 17.418174534170792, 69.509599718928357 ], [ 17.418094385888622, 69.509348128936381 ], [ 17.41741648414342, 69.50952604925368 ], [ 17.417359972068635, 69.509694820679726 ], [ 17.417604971109665, 69.509950049592433 ], [ 17.418232619079273, 69.510111853370091 ], [ 17.418891134343454, 69.509952684711791 ] ] ] ] } },
{ "type": "Feature", "properties": { "fid": 186626, "navn": "Litjevatnet", "hoyde_moh": 31, "arealInnsjo_km2": 0.0071, "magasinKategori": null, "fid_2": 1050, "id": 1050, "left": 16.986919847, "top": 69.946110046000001, "right": 17.486919847, "bottom": 69.446110046000001, "row_index": 9, "col_index": 26, "tile_id": 1050 }, "geometry": { "type": "MultiPolygon", "coordinates": [ [ [ [ 17.428667278397107, 69.510189388263001 ], [ 17.429040518997169, 69.510006691027442 ], [ 17.428902402774149, 69.509769102922164 ], [ 17.42834089390573, 69.509472886085035 ], [ 17.427276033571498, 69.509286958988312 ], [ 17.427389192362167, 69.509532792280936 ], [ 17.42658023150587, 69.509991208419081 ], [ 17.427004806523534, 69.510198072000648 ], [ 17.426196298557237, 69.510314847545359 ], [ 17.428667278397107, 69.510189388263001 ] ] ] ] } },
{ "type": "Feature", "properties": { "fid": 188954, "navn": "Geitskarvatnet", "hoyde_moh": 372, "arealInnsjo_km2": 0.0121, "magasinKategori": null, "fid_2": 1050, "id": 1050, "left": 16.986919847, "top": 69.946110046000001, "right": 17.486919847, "bottom": 69.446110046000001, "row_index": 9, "col_index": 26, "tile_id": 1050 }, "geometry": { "type": "MultiPolygon", "coordinates": [ [ [ [ 17.469480826863382, 69.477498510437812 ], [ 17.469914929682453, 69.477243597701275 ], [ 17.467138531110479, 69.476653670194054 ], [ 17.465784877707055, 69.477172773120387 ], [ 17.46595167651347, 69.477337778164284 ], [ 17.468206292945791, 69.477798262586717 ], [ 17.469480826863382, 69.477498510437812 ] ] ] ] } },
{ "type": "Feature", "properties": { "fid": 188955, "navn": null, "hoyde_moh": 281, "arealInnsjo_km2": 0.0099, "magasinKategori": null, "fid_2": 1050, "id": 1050, "left": 16.986919847, "top": 69.946110046000001, "right": 17.486919847, "bottom": 69.446110046000001, "row_index": 9, "col_index": 26, "tile_id": 1050 }, "geometry": { "type": "MultiPolygon", "coordinates": [ [ [ [ 17.429558727339511, 69.497244910232226 ], [ 17.428908582853975, 69.497071797848349 ], [ 17.428939704561166, 69.496723000988311 ], [ 17.42868903045601, 69.496769925402234 ], [ 17.428454696353857, 69.496656080439806 ], [ 17.428373504177419, 69.496382343221129 ], [ 17.428025803619395, 69.496302651246566 ], [ 17.426697484067937, 69.496402083820755 ], [ 17.427194061422913, 69.496713653484434 ], [ 17.426186318406614, 69.497055937710414 ], [ 17.426223604387882, 69.497204384052367 ], [ 17.42671000353964, 69.497383015336766 ], [ 17.428597976296761, 69.497285662012246 ], [ 17.429629770640648, 69.49746961197495 ], [ 17.429558727339511, 69.497244910232226 ] ] ] ] } },
{ "type": "Feature", "properties": { "fid": 189141, "navn": null, "hoyde_moh": 452, "arealInnsjo_km2": 0.0046, "magasinKategori": null, "fid_2": 1050, "id": 1050, "left": 16.986919847, "top": 69.946110046000001, "right": 17.486919847, "bottom": 69.446110046000001, "row_index": 9, "col_index": 26, "tile_id": 1050 }, "geometry": { "type": "MultiPolygon", "coordinates": [ [ [ [ 17.479941018533847, 69.455974108804341 ], [ 17.479818078733253, 69.455655125381028 ], [ 17.480091736661095, 69.455469322194929 ], [ 17.479972702765906, 69.455374456416564 ], [ 17.480117259716696, 69.455207991574227 ], [ 17.480675059131887, 69.454947243921325 ], [ 17.48063155763499, 69.454628116203622 ], [ 17.480286226272408, 69.45456483314733 ], [ 17.479233050338795, 69.45574000628821 ], [ 17.479025747506295, 69.456210778050917 ], [ 17.478997576438445, 69.45648470975361 ], [ 17.479941018533847, 69.455974108804341 ] ] ] ] } },
{ "type": "Feature", "properties": { "fid": 189258, "navn": null, "hoyde_moh": 454, "arealInnsjo_km2": 0.0024, "magasinKategori": null, "fid_2": 1050, "id": 1050, "left": 16.986919847, "top": 69.946110046000001, "right": 17.486919847, "bottom": 69.446110046000001, "row_index": 9, "col_index": 26, "tile_id": 1050 }, "geometry": { "type": "MultiPolygon", "coordinates": [ [ [ [ 17.483743815186028, 69.448914785533859 ], [ 17.483773071003419, 69.448653041344116 ], [ 17.484410681528097, 69.448187516855384 ], [ 17.484384940836009, 69.44800687596981 ], [ 17.483825147285476, 69.4479568029505 ], [ 17.48348450437302, 69.448286796636282 ], [ 17.483616013112364, 69.448763779756007 ], [ 17.483324509497706, 69.449039496181342 ], [ 17.483743815186028, 69.448914785533859 ] ] ] ] } },
{ "type": "Feature", "properties": { "fid": 189262, "navn": null, "hoyde_moh": 22, "arealInnsjo_km2": 0.0036, "magasinKategori": null, "fid_2": 1050, "id": 1050, "left": 16.986919847, "top": 69.946110046000001, "right": 17.486919847, "bottom": 69.446110046000001, "row_index": 9, "col_index": 26, "tile_id": 1050 }, "geometry": { "type": "MultiPolygon", "coordinates": [ [ [ [ 17.477305068931518, 69.489159188208887 ], [ 17.476800492388652, 69.488889597355197 ], [ 17.476371949590941, 69.489030026843764 ], [ 17.475879030185357, 69.489554830921833 ], [ 17.476180912662858, 69.489722396716161 ], [ 17.477195584116352, 69.489697751895108 ], [ 17.477305068931518, 69.489159188208887 ] ] ] ] } },
{ "type": "Feature", "properties": { "fid": 189347, "navn": null, "hoyde_moh": 52, "arealInnsjo_km2": 0.0108, "magasinKategori": null, "fid_2": 1050, "id": 1050, "left": 16.986919847, "top": 69.946110046000001, "right": 17.486919847, "bottom": 69.446110046000001, "row_index": 9, "col_index": 26, "tile_id": 1050 }, "geometry": { "type": "MultiPolygon", "coordinates": [ [ [ [ 17.418236811583945, 69.515556794866896 ], [ 17.41805057024067, 69.515330185923361 ], [ 17.418153882458935, 69.515153766518097 ], [ 17.416787157366372, 69.515064384987681 ], [ 17.416943180728516, 69.514953103686807 ], [ 17.415921278636471, 69.514838300265936 ], [ 17.415598164661009, 69.514551844478561 ], [ 17.414973932990161, 69.514705229766349 ], [ 17.415017440927681, 69.515331711800911 ], [ 17.415655255958502, 69.51560510866689 ], [ 17.417747547978514, 69.515757406155387 ], [ 17.418236811583945, 69.515556794866896 ] ] ] ] } },
{ "type": "Feature", "properties": { "fid": 195116, "navn": "Storvatnet", "hoyde_moh": 34, "arealInnsjo_km2": 0.0292, "magasinKategori": null, "fid_2": 1050, "id": 1050, "left": 16.986919847, "top": 69.946110046000001, "right": 17.486919847, "bottom": 69.446110046000001, "row_index": 9, "col_index": 26, "tile_id": 1050 }, "geometry": { "type": "MultiPolygon", "coordinates": [ [ [ [ 17.424526756589714, 69.511281556737543 ], [ 17.424528327127234, 69.510967362930558 ], [ 17.424968107637259, 69.510550701346716 ], [ 17.423015106305872, 69.509932079212916 ], [ 17.422212860322801, 69.509864248541476 ], [ 17.420896590160282, 69.509839980224029 ], [ 17.419694865806019, 69.510348859666763 ], [ 17.41990310439758, 69.510602621285599 ], [ 17.419680021374884, 69.510702631453412 ], [ 17.420448835753273, 69.511172513463066 ], [ 17.421279475249985, 69.511284917322826 ], [ 17.421303200024528, 69.511404118635042 ], [ 17.422113905772562, 69.51160967375445 ], [ 17.423348604875443, 69.511634259391002 ], [ 17.424526756589714, 69.511281556737543 ] ] ] ] } },
{ "type": "Feature", "properties": { "fid": 203659, "navn": "Ersfjordvatnet", "hoyde_moh": 110, "arealInnsjo_km2": 0.4907, "magasinKategori": 2, "fid_2": 1050, "id": 1050, "left": 16.986919847, "top": 69.946110046000001, "right": 17.486919847, "bottom": 69.446110046000001, "row_index": 9, "col_index": 26, "tile_id": 1050 }, "geometry": { "type": "MultiPolygon", "coordinates": [ [ [ [ 17.438228549136667, 69.466454000459734 ], [ 17.438402195943091, 69.46633087086424 ], [ 17.438362887163418, 69.466137854426592 ], [ 17.440263549356608, 69.465126530783508 ], [ 17.441940876561382, 69.463789242492965 ], [ 17.442733054566165, 69.463466379901007 ], [ 17.442855236603517, 69.462617349432151 ], [ 17.443066199536055, 69.462532907012118 ], [ 17.44333056459584, 69.462019390158289 ], [ 17.442937102547582, 69.46177121746382 ], [ 17.443864783312449, 69.461375463998849 ], [ 17.444016447171617, 69.460866757836925 ], [ 17.444876856930449, 69.459941314222107 ], [ 17.444818084556847, 69.45967875470339 ], [ 17.445102527168416, 69.459488103276485 ], [ 17.44511282358344, 69.459253111052107 ], [ 17.445729479148721, 69.458883070863536 ], [ 17.446940147432411, 69.457565828506787 ], [ 17.446962721239686, 69.457362520813732 ], [ 17.44846361637536, 69.456221203914012 ], [ 17.448583668923366, 69.455974347384753 ], [ 17.449973749794857, 69.455242888512288 ], [ 17.450228321238964, 69.454827132211804 ], [ 17.450652466702152, 69.454719846407187 ], [ 17.452465268069673, 69.453324174166838 ], [ 17.453457586335688, 69.452874954402773 ], [ 17.453955219147737, 69.452358128752365 ], [ 17.455359907355341, 69.451898865827459 ], [ 17.455871287477123, 69.451453721553165 ], [ 17.455885430683537, 69.450924954155454 ], [ 17.457196901007499, 69.450513923863653 ], [ 17.457646084925049, 69.450220145371929 ], [ 17.45757551920094, 69.449889103783562 ], [ 17.457961260742959, 69.449623680404869 ], [ 17.457861693721668, 69.449110607008876 ], [ 17.457264328952814, 69.44872050609672 ], [ 17.457124697478974, 69.448310301667647 ], [ 17.456618654432678, 69.447950139203556 ], [ 17.457830246930897, 69.447897945790572 ], [ 17.457816007364997, 69.447447472578318 ], [ 17.45766939482985, 69.447469734408386 ], [ 17.457635493367508, 69.447780713495547 ], [ 17.457485167342824, 69.447864319984845 ], [ 17.456105091245256, 69.447877069833098 ], [ 17.455786413840382, 69.448163798513534 ], [ 17.45434174682504, 69.448809752235462 ], [ 17.448386521472713, 69.450786588519662 ], [ 17.445457725632252, 69.452212975030577 ], [ 17.44495604412829, 69.452747599215385 ], [ 17.444366163134369, 69.45266228476514 ], [ 17.442609228588299, 69.453497379987283 ], [ 17.442304967047026, 69.453863746248516 ], [ 17.440800743498553, 69.454374637960314 ], [ 17.440187302805725, 69.454336303635969 ], [ 17.43858520932994, 69.455160569288452 ], [ 17.438744133924757, 69.456269939865663 ], [ 17.43965512013898, 69.45693201477431 ], [ 17.439757455373382, 69.457268268747555 ], [ 17.439651004906779, 69.457669547565914 ], [ 17.440150625088911, 69.457964697820302 ], [ 17.440497771217068, 69.458874273351981 ], [ 17.440474657097656, 69.459190299213788 ], [ 17.440833250326815, 69.45983157369507 ], [ 17.440705562933744, 69.460090914452564 ], [ 17.440856631076482, 69.460396960877489 ], [ 17.441212646386266, 69.460606177481836 ], [ 17.441364904032966, 69.461082172682836 ], [ 17.440565227722196, 69.461576805755683 ], [ 17.43988639672347, 69.461556344982924 ], [ 17.439368337691256, 69.461886931895194 ], [ 17.439176230991627, 69.462094676160191 ], [ 17.439285199933785, 69.462493654799502 ], [ 17.438128226656087, 69.463187384600246 ], [ 17.437772031439732, 69.463771276126522 ], [ 17.43798202358164, 69.464164174851021 ], [ 17.437862162078783, 69.464630251199708 ], [ 17.437506056338947, 69.464931552901319 ], [ 17.437531470283719, 69.465207144138418 ], [ 17.437126658508873, 69.465601916421619 ], [ 17.437102297506538, 69.465810630788567 ], [ 17.436762597297037, 69.466065306076771 ], [ 17.437134572636431, 69.466351573382255 ], [ 17.436994563094867, 69.466559393119354 ], [ 17.438228549136667, 69.466454000459734 ] ] ] ] } },
{ "type": "Feature", "properties": { "fid": 222711, "navn": "Teigvatnet", "hoyde_moh": 349, "arealInnsjo_km2": 0.0144, "magasinKategori": null, "fid_2": 1050, "id": 1050, "left": 16.986919847, "top": 69.946110046000001, "right": 17.486919847, "bottom": 69.446110046000001, "row_index": 9, "col_index": 26, "tile_id": 1050 }, "geometry": { "type": "MultiPolygon", "coordinates": [ [ [ [ 17.38511910897336, 69.505956184333073 ], [ 17.385413324260281, 69.505677569997445 ], [ 17.385462661334685, 69.505366319479805 ], [ 17.384695255293288, 69.505028994716184 ], [ 17.383832245614645, 69.505049673127516 ], [ 17.383150884426694, 69.505264477056031 ], [ 17.381998610558114, 69.50614759908477 ], [ 17.382577309237391, 69.506347166090379 ], [ 17.384049706160297, 69.506409968138911 ], [ 17.38511910897336, 69.505956184333073 ] ] ] ] } },
{ "type": "Feature", "properties": { "fid": 240212, "navn": "Lutvatnet", "hoyde_moh": 103, "arealInnsjo_km2": 0.0376, "magasinKategori": null, "fid_2": 1050, "id": 1050, "left": 16.986919847, "top": 69.946110046000001, "right": 17.486919847, "bottom": 69.446110046000001, "row_index": 9, "col_index": 26, "tile_id": 1050 }, "geometry": { "type": "MultiPolygon", "coordinates": [ [ [ [ 17.414254912316583, 69.452040617059538 ], [ 17.415624956532021, 69.451786408451895 ], [ 17.416009679670921, 69.451579787412115 ], [ 17.415984374706497, 69.451954435249476 ], [ 17.4171631505364, 69.451962121508416 ], [ 17.417565814877637, 69.45176520868695 ], [ 17.417691487655077, 69.451499544033254 ], [ 17.418243292906215, 69.45126834212158 ], [ 17.418881975290478, 69.45043172504684 ], [ 17.418704803268696, 69.450162639690291 ], [ 17.4175740716245, 69.449670789649687 ], [ 17.41696813021672, 69.449579415808572 ], [ 17.41490403533091, 69.450318159676385 ], [ 17.413015863005917, 69.451439503378978 ], [ 17.413442798933335, 69.451697144585438 ], [ 17.415695555660573, 69.451323817258 ], [ 17.415813813922416, 69.45141909302869 ], [ 17.414300809713758, 69.451855748867331 ], [ 17.413113351529105, 69.451852560813933 ], [ 17.412810780578631, 69.45202214135999 ], [ 17.414254912316583, 69.452040617059538 ] ] ] ] } },
{ "type": "Feature", "properties": { "fid": 240477, "navn": "Strandbyvatnet", "hoyde_moh": 126, "arealInnsjo_km2": 0.0753, "magasinKategori": null, "fid_2": 1050, "id": 1050, "left": 16.986919847, "top": 69.946110046000001, "right": 17.486919847, "bottom": 69.446110046000001, "row_index": 9, "col_index": 26, "tile_id": 1050 }, "geometry": { "type": "MultiPolygon", "coordinates": [ [ [ [ 17.253484074818324, 69.482654031799768 ], [ 17.25395559348512, 69.482343212993982 ], [ 17.254394433262771, 69.481767843247454 ], [ 17.254478179680344, 69.481508427907542 ], [ 17.254314130661445, 69.481393183080755 ], [ 17.254795325162334, 69.481104220192435 ], [ 17.254731721222377, 69.480778964725388 ], [ 17.254891922659439, 69.480611879064767 ], [ 17.254378021096176, 69.479864257725126 ], [ 17.25359490023969, 69.479496981735323 ], [ 17.253422594696541, 69.479164158538495 ], [ 17.252874108588941, 69.479041051387441 ], [ 17.251458621614482, 69.479003261639818 ], [ 17.249597429627322, 69.479444178826114 ], [ 17.249962860894797, 69.479746067865989 ], [ 17.250018470445141, 69.480003143220458 ], [ 17.24911052910269, 69.480525512967873 ], [ 17.248916501449351, 69.481504812727422 ], [ 17.249295135658556, 69.481915285297802 ], [ 17.250760139417114, 69.482613314165704 ], [ 17.251534119719416, 69.482873404872336 ], [ 17.253484074818324, 69.482654031799768 ] ] ] ] } },
{ "type": "Feature", "properties": { "fid": 243204, "navn": "Trollvatnet", "hoyde_moh": 75, "arealInnsjo_km2": 0.0121, "magasinKategori": null, "fid_2": 1050, "id": 1050, "left": 16.986919847, "top": 69.946110046000001, "right": 17.486919847, "bottom": 69.446110046000001, "row_index": 9, "col_index": 26, "tile_id": 1050 }, "geometry": { "type": "MultiPolygon", "coordinates": [ [ [ [ 17.242167641200368, 69.487233393584447 ], [ 17.242312863349245, 69.487041569130412 ], [ 17.241801375083675, 69.48667406590863 ], [ 17.240872796930386, 69.486450195626858 ], [ 17.239385272394568, 69.486356609571047 ], [ 17.238827500186407, 69.486567009634925 ], [ 17.238990515462621, 69.487013382009977 ], [ 17.239434442724413, 69.487268433019267 ], [ 17.241388475911968, 69.487447905167599 ], [ 17.242167641200368, 69.487233393584447 ] ] ] ] } },
{ "type": "Feature", "properties": { "fid": 243979, "navn": null, "hoyde_moh": 272, "arealInnsjo_km2": 0.0084, "magasinKategori": null, "fid_2": 1050, "id": 1050, "left": 16.986919847, "top": 69.946110046000001, "right": 17.486919847, "bottom": 69.446110046000001, "row_index": 9, "col_index": 26, "tile_id": 1050 }, "geometry": { "type": "MultiPolygon", "coordinates": [ [ [ [ 17.254508197418506, 69.474288644208826 ], [ 17.255102719054367, 69.473853298338298 ], [ 17.254920235635534, 69.47367889197939 ], [ 17.253291172774468, 69.473756405940989 ], [ 17.252895962126775, 69.473589234893979 ], [ 17.252102924749064, 69.473777959054473 ], [ 17.252465310664732, 69.474433865748708 ], [ 17.253545172055798, 69.474487739444641 ], [ 17.254508197418506, 69.474288644208826 ] ] ] ] } },
{ "type": "Feature", "properties": { "fid": 243980, "navn": null, "hoyde_moh": 394, "arealInnsjo_km2": 0.0043, "magasinKategori": null, "fid_2": 1050, "id": 1050, "left": 16.986919847, "top": 69.946110046000001, "right": 17.486919847, "bottom": 69.446110046000001, "row_index": 9, "col_index": 26, "tile_id": 1050 }, "geometry": { "type": "MultiPolygon", "coordinates": [ [ [ [ 17.353722976724509, 69.47755879059126 ], [ 17.354533287411357, 69.476942045854386 ], [ 17.352441753667154, 69.477314783704855 ], [ 17.352171192844047, 69.477566910699551 ], [ 17.352430032586113, 69.477788650451259 ], [ 17.353722976724509, 69.47755879059126 ] ] ] ] } },
{ "type": "Feature", "properties": { "fid": 244930, "navn": "Fuglevatnet", "hoyde_moh": 368, "arealInnsjo_km2": 0.0333, "magasinKategori": null, "fid_2": 1050, "id": 1050, "left": 16.986919847, "top": 69.946110046000001, "right": 17.486919847, "bottom": 69.446110046000001, "row_index": 9, "col_index": 26, "tile_id": 1050 }, "geometry": { "type": "MultiPolygon", "coordinates": [ [ [ [ 17.378607674802122, 69.449636264366831 ], [ 17.37885300447649, 69.44978501443893 ], [ 17.379443353083762, 69.449700221369469 ], [ 17.379869157511056, 69.449442062416225 ], [ 17.379850253430462, 69.44917454834939 ], [ 17.379490459461774, 69.448838649462971 ], [ 17.378915021463566, 69.448928713098425 ], [ 17.378770909174648, 69.448842831006161 ], [ 17.378839648376996, 69.448707018306422 ], [ 17.37820709810104, 69.448509538277563 ], [ 17.376541057252439, 69.448435647806733 ], [ 17.374192306670697, 69.449152115670501 ], [ 17.373343919788073, 69.449601685575431 ], [ 17.373550549467282, 69.449922993837333 ], [ 17.374717275707805, 69.450146586037647 ], [ 17.375576725742928, 69.450025830156534 ], [ 17.37657528318044, 69.450137471282218 ], [ 17.37715813056446, 69.449862368883259 ], [ 17.377413815168918, 69.449922410076312 ], [ 17.377304737932882, 69.45016008485446 ], [ 17.378607674802122, 69.449636264366831 ] ] ] ] } },
{ "type": "Feature", "properties": { "fid": 269093, "navn": "Roaldsvatnet", "hoyde_moh": 436, "arealInnsjo_km2": 0.8172, "magasinKategori": 1, "fid_2": 1050, "id": 1050, "left": 16.986919847, "top": 69.946110046000001, "right": 17.486919847, "bottom": 69.446110046000001, "row_index": 9, "col_index": 26, "tile_id": 1050 }, "geometry": { "type": "MultiPolygon", "coordinates": [ [ [ [ 17.482813237329943, 69.463974790039657 ], [ 17.485650108295598, 69.463872044345237 ], [ 17.486224154414419, 69.464026102765132 ], [ 17.486919847, 69.463985080335348 ], [ 17.486919847, 69.462738323441201 ], [ 17.486833532162958, 69.46265144947094 ], [ 17.486691417950123, 69.462157119360413 ], [ 17.486372498535694, 69.461835373483652 ], [ 17.485811329779807, 69.461604403588737 ], [ 17.485389154774936, 69.461200760402647 ], [ 17.486919847, 69.460072768478582 ], [ 17.486919847, 69.448861234145824 ], [ 17.486668279668137, 69.449089485662014 ], [ 17.485751863586415, 69.449397017257212 ], [ 17.48584261584082, 69.449554384013268 ], [ 17.485621278438156, 69.449716656420961 ], [ 17.485754279258455, 69.449965404847362 ], [ 17.484916468845132, 69.451116364766349 ], [ 17.484619499318409, 69.451810983950338 ], [ 17.483850085281265, 69.452774657796226 ], [ 17.483488085255683, 69.453011175508337 ], [ 17.483219913219187, 69.454085883351851 ], [ 17.483516073800303, 69.45445749508383 ], [ 17.483920742374906, 69.454611820302972 ], [ 17.483299132352947, 69.455034036226166 ], [ 17.48346917653878, 69.455368858271356 ], [ 17.482771388383121, 69.455835234294227 ], [ 17.481826503284008, 69.456085084261858 ], [ 17.480848439014501, 69.457080880907242 ], [ 17.480015256253111, 69.457612710177742 ], [ 17.480023698887628, 69.45782078915731 ], [ 17.477553916540476, 69.458695386117739 ], [ 17.475572568379057, 69.460033333802116 ], [ 17.475100884580709, 69.460193675061532 ], [ 17.475097257240883, 69.460483679060886 ], [ 17.474811273927504, 69.460827322675286 ], [ 17.475077732101465, 69.461114654707188 ], [ 17.474749227053337, 69.461608320784634 ], [ 17.475352324542552, 69.461776179566257 ], [ 17.475352759150002, 69.462316412840821 ], [ 17.475836192370615, 69.462747386012865 ], [ 17.477210265939867, 69.463068592157541 ], [ 17.478790727713903, 69.463124806997712 ], [ 17.478782684665031, 69.463411554031126 ], [ 17.479292355740093, 69.463725840986569 ], [ 17.481437849854601, 69.463913266020469 ], [ 17.481330019800847, 69.464132514165442 ], [ 17.481677755175056, 69.464208595735585 ], [ 17.482813237329943, 69.463974790039657 ] ] ] ] } }
]
}
