{
"type": "FeatureCollection",
"name": "innsjo_tile_id_1647",
"crs": { "type": "name", "properties": { "name": "urn:ogc:def:crs:OGC:1.3:CRS84" } },
"xy_coordinate_resolution": 1e-15,
"features": [
{ "type": "Feature", "properties": { "fid": 185468, "navn": null, "hoyde_moh": 18, "arealInnsjo_km2": 0.0032, "magasinKategori": null, "fid_2": 1647, "id": 1647, "left": 24.486919847, "top": 71.446110046000001, "right": 24.986919847, "bottom": 70.946110046000001, "row_index": 6, "col_index": 41, "tile_id": 1647 }, "geometry": { "type": "MultiPolygon", "coordinates": [ [ [ [ 24.760974161608576, 71.053970576578294 ], [ 24.761348529297322, 71.053927111542151 ], [ 24.760247852698836, 71.053660763902002 ], [ 24.759091594060973, 71.05367362886021 ], [ 24.75957908239328, 71.053788632033303 ], [ 24.759296854932693, 71.053953118387938 ], [ 24.7596997241887, 71.054281573157255 ], [ 24.760974161608576, 71.053970576578294 ] ] ] ] } },
{ "type": "Feature", "properties": { "fid": 185954, "navn": null, "hoyde_moh": 161, "arealInnsjo_km2": 0.0223, "magasinKategori": null, "fid_2": 1647, "id": 1647, "left": 24.486919847, "top": 71.446110046000001, "right": 24.986919847, "bottom": 70.946110046000001, "row_index": 6, "col_index": 41, "tile_id": 1647 }, "geometry": { "type": "MultiPolygon", "coordinates": [ [ [ [ 24.616478716014452, 70.952358836448823 ], [ 24.617196894730391, 70.952125513287328 ], [ 24.61635098345754, 70.951820952887317 ], [ 24.613724694984143, 70.951519100420995 ], [ 24.610286496490179, 70.951271625875236 ], [ 24.608831005746019, 70.951485247615963 ], [ 24.612410504642021, 70.952332483808007 ], [ 24.616652242611128, 70.95252303069023 ], [ 24.616478716014452, 70.952358836448823 ] ] ] ] } },
{ "type": "Feature", "properties": { "fid": 186127, "navn": null, "hoyde_moh": 130, "arealInnsjo_km2": 0.0272, "magasinKategori": null, "fid_2": 1647, "id": 1647, "left": 24.486919847, "top": 71.446110046000001, "right": 24.986919847, "bottom": 70.946110046000001, "row_index": 6, "col_index": 41, "tile_id": 1647 }, "geometry": { "type": "MultiPolygon", "coordinates": [ [ [ [ 24.585632145380568, 70.950213933222457 ], [ 24.582910368150817, 70.949597246861913 ], [ 24.57978547183119, 70.949498817853652 ], [ 24.577615255084265, 70.949235735512687 ], [ 24.577327595982748, 70.949327602697167 ], [ 24.578525454504806, 70.94951895876504 ], [ 24.576600169777858, 70.949734761558844 ], [ 24.580975634925782, 70.950596007619154 ], [ 24.583243913891273, 70.950678152357341 ], [ 24.585632145380568, 70.950213933222457 ] ] ] ] } },
{ "type": "Feature", "properties": { "fid": 186203, "navn": null, "hoyde_moh": 184, "arealInnsjo_km2": 0.0052, "magasinKategori": null, "fid_2": 1647, "id": 1647, "left": 24.486919847, "top": 71.446110046000001, "right": 24.986919847, "bottom": 70.946110046000001, "row_index": 6, "col_index": 41, "tile_id": 1647 }, "geometry": { "type": "MultiPolygon", "coordinates": [ [ [ [ 24.607537871709425, 70.95378526181085 ], [ 24.60764185179978, 70.953542459020241 ], [ 24.607102709671402, 70.953302252557521 ], [ 24.605923466396202, 70.953250983898783 ], [ 24.605400464073657, 70.953260173684455 ], [ 24.605381541313925, 70.953442588492592 ], [ 24.605083959468772, 70.953531665829885 ], [ 24.605405071086629, 70.953805753156473 ], [ 24.607537871709425, 70.95378526181085 ] ] ] ] } },
{ "type": "Feature", "properties": { "fid": 186405, "navn": null, "hoyde_moh": 152, "arealInnsjo_km2": 0.0062, "magasinKategori": null, "fid_2": 1647, "id": 1647, "left": 24.486919847, "top": 71.446110046000001, "right": 24.986919847, "bottom": 70.946110046000001, "row_index": 6, "col_index": 41, "tile_id": 1647 }, "geometry": { "type": "MultiPolygon", "coordinates": [ [ [ [ 24.594373565616536, 70.946396979785149 ], [ 24.595334449951959, 70.946507209539391 ], [ 24.59578508652039, 70.946252306247388 ], [ 24.595611385594616, 70.946110046 ], [ 24.593205309445491, 70.946110046 ], [ 24.592819299734614, 70.946370662426503 ], [ 24.593680210906989, 70.946587481392086 ], [ 24.594373565616536, 70.946396979785149 ] ] ] ] } },
{ "type": "Feature", "properties": { "fid": 186408, "navn": null, "hoyde_moh": 150, "arealInnsjo_km2": 0.0091, "magasinKategori": null, "fid_2": 1647, "id": 1647, "left": 24.486919847, "top": 71.446110046000001, "right": 24.986919847, "bottom": 70.946110046000001, "row_index": 6, "col_index": 41, "tile_id": 1647 }, "geometry": { "type": "MultiPolygon", "coordinates": [ [ [ [ 24.591935269221807, 70.946817715956271 ], [ 24.592704890014211, 70.946594138515024 ], [ 24.592387578019288, 70.946453756808921 ], [ 24.592309408942437, 70.94618094549007 ], [ 24.592093989798247, 70.946110046 ], [ 24.591535196119896, 70.946110046 ], [ 24.590532398622138, 70.946515836082497 ], [ 24.588031063268222, 70.947072355947768 ], [ 24.590011841006362, 70.947118351873115 ], [ 24.591935269221807, 70.946817715956271 ] ] ] ] } },
{ "type": "Feature", "properties": { "fid": 186617, "navn": null, "hoyde_moh": 2, "arealInnsjo_km2": 0.0037, "magasinKategori": null, "fid_2": 1647, "id": 1647, "left": 24.486919847, "top": 71.446110046000001, "right": 24.986919847, "bottom": 70.946110046000001, "row_index": 6, "col_index": 41, "tile_id": 1647 }, "geometry": { "type": "MultiPolygon", "coordinates": [ [ [ [ 24.596680670225677, 70.963049201698283 ], [ 24.596400058211096, 70.962945250002662 ], [ 24.593444404892061, 70.963175125540204 ], [ 24.5934703845783, 70.963304238196969 ], [ 24.593930418517015, 70.963421230667322 ], [ 24.596527251102586, 70.963290670780907 ], [ 24.596680670225677, 70.963049201698283 ] ] ] ] } },
{ "type": "Feature", "properties": { "fid": 188331, "navn": null, "hoyde_moh": 136, "arealInnsjo_km2": 0.0038, "magasinKategori": null, "fid_2": 1647, "id": 1647, "left": 24.486919847, "top": 71.446110046000001, "right": 24.986919847, "bottom": 70.946110046000001, "row_index": 6, "col_index": 41, "tile_id": 1647 }, "geometry": { "type": "MultiPolygon", "coordinates": [ [ [ [ 24.695344649323371, 70.965930368319931 ], [ 24.695428514387309, 70.965702857173355 ], [ 24.694802037919299, 70.965482408271953 ], [ 24.69290341212745, 70.965665541081492 ], [ 24.693033381505352, 70.965822653497725 ], [ 24.695344649323371, 70.965930368319931 ] ] ] ] } },
{ "type": "Feature", "properties": { "fid": 188333, "navn": null, "hoyde_moh": 226, "arealInnsjo_km2": 0.0059, "magasinKategori": null, "fid_2": 1647, "id": 1647, "left": 24.486919847, "top": 71.446110046000001, "right": 24.986919847, "bottom": 70.946110046000001, "row_index": 6, "col_index": 41, "tile_id": 1647 }, "geometry": { "type": "MultiPolygon", "coordinates": [ [ [ [ 24.980081405866059, 70.950716982478838 ], [ 24.976545690068658, 70.95003830317475 ], [ 24.97583318359175, 70.949942508691365 ], [ 24.975684233649606, 70.950046699388764 ], [ 24.976444124166679, 70.950349640050632 ], [ 24.979192192778957, 70.950916475659511 ], [ 24.97977211945393, 70.950899673583734 ], [ 24.980081405866059, 70.950716982478838 ] ] ] ] } },
{ "type": "Feature", "properties": { "fid": 188388, "navn": null, "hoyde_moh": 22, "arealInnsjo_km2": 0.0022, "magasinKategori": null, "fid_2": 1647, "id": 1647, "left": 24.486919847, "top": 71.446110046000001, "right": 24.986919847, "bottom": 70.946110046000001, "row_index": 6, "col_index": 41, "tile_id": 1647 }, "geometry": { "type": "MultiPolygon", "coordinates": [ [ [ [ 24.759462999684668, 70.954566485991791 ], [ 24.759278347537627, 70.954447766670881 ], [ 24.758603573326205, 70.954331485730521 ], [ 24.758400973959265, 70.954110864263583 ], [ 24.757758724380903, 70.95412963055368 ], [ 24.757900321364847, 70.954395666412353 ], [ 24.758565428355009, 70.95442502768438 ], [ 24.758604139357764, 70.954621062679649 ], [ 24.758891213930553, 70.95472681689786 ], [ 24.759426690904419, 70.954709453433424 ], [ 24.759462999684668, 70.954566485991791 ] ] ] ] } },
{ "type": "Feature", "properties": { "fid": 188389, "navn": null, "hoyde_moh": 234, "arealInnsjo_km2": 0.0028, "magasinKategori": null, "fid_2": 1647, "id": 1647, "left": 24.486919847, "top": 71.446110046000001, "right": 24.986919847, "bottom": 70.946110046000001, "row_index": 6, "col_index": 41, "tile_id": 1647 }, "geometry": { "type": "MultiPolygon", "coordinates": [ [ [ [ 24.733164664279734, 70.958842528833031 ], [ 24.732873676243749, 70.958644799068665 ], [ 24.730852971915251, 70.95828440542607 ], [ 24.731441679944822, 70.95865883400171 ], [ 24.732793571727694, 70.959031682131695 ], [ 24.733164664279734, 70.958842528833031 ] ] ] ] } },
{ "type": "Feature", "properties": { "fid": 188390, "navn": null, "hoyde_moh": 79, "arealInnsjo_km2": 0.0061, "magasinKategori": null, "fid_2": 1647, "id": 1647, "left": 24.486919847, "top": 71.446110046000001, "right": 24.986919847, "bottom": 70.946110046000001, "row_index": 6, "col_index": 41, "tile_id": 1647 }, "geometry": { "type": "MultiPolygon", "coordinates": [ [ [ [ 24.764686528515039, 70.95901872913835 ], [ 24.762507478361432, 70.958708422969494 ], [ 24.761481515710795, 70.95884897414642 ], [ 24.761633054280196, 70.959004281388445 ], [ 24.761244830644184, 70.959070425514113 ], [ 24.761657243753223, 70.959275373180546 ], [ 24.76357888867113, 70.959313197082636 ], [ 24.764686528515039, 70.95901872913835 ] ] ] ] } },
{ "type": "Feature", "properties": { "fid": 188391, "navn": null, "hoyde_moh": 227, "arealInnsjo_km2": 0.0032, "magasinKategori": null, "fid_2": 1647, "id": 1647, "left": 24.486919847, "top": 71.446110046000001, "right": 24.986919847, "bottom": 70.946110046000001, "row_index": 6, "col_index": 41, "tile_id": 1647 }, "geometry": { "type": "MultiPolygon", "coordinates": [ [ [ [ 24.982981025088833, 70.951234607931468 ], [ 24.980819192280943, 70.950860666153133 ], [ 24.980472170755682, 70.951115467012485 ], [ 24.981821872762492, 70.951424008130786 ], [ 24.982640009082978, 70.951395887876203 ], [ 24.982981025088833, 70.951234607931468 ] ] ] ] } },
{ "type": "Feature", "properties": { "fid": 188414, "navn": null, "hoyde_moh": 10, "arealInnsjo_km2": 0.0036, "magasinKategori": null, "fid_2": 1647, "id": 1647, "left": 24.486919847, "top": 71.446110046000001, "right": 24.986919847, "bottom": 70.946110046000001, "row_index": 6, "col_index": 41, "tile_id": 1647 }, "geometry": { "type": "MultiPolygon", "coordinates": [ [ [ [ 24.773117328077067, 70.951494231999391 ], [ 24.773161688087328, 70.951029465752015 ], [ 24.773597862342466, 70.950556289260575 ], [ 24.773294324109365, 70.950501682541599 ], [ 24.772298396756476, 70.950828566966877 ], [ 24.77214719600661, 70.951322505116096 ], [ 24.772916051175986, 70.951562894598752 ], [ 24.773117328077067, 70.951494231999391 ] ] ] ] } },
{ "type": "Feature", "properties": { "fid": 188431, "navn": null, "hoyde_moh": 96, "arealInnsjo_km2": 0.0026, "magasinKategori": null, "fid_2": 1647, "id": 1647, "left": 24.486919847, "top": 71.446110046000001, "right": 24.986919847, "bottom": 70.946110046000001, "row_index": 6, "col_index": 41, "tile_id": 1647 }, "geometry": { "type": "MultiPolygon", "coordinates": [ [ [ [ 24.677063348667762, 70.956744138070931 ], [ 24.676642966837601, 70.95646528566725 ], [ 24.676027003263084, 70.956316245798916 ], [ 24.675614450197148, 70.956435259041783 ], [ 24.675629772343402, 70.956581086837787 ], [ 24.675951998854263, 70.956676304638108 ], [ 24.675977948239236, 70.956877978040552 ], [ 24.676778753403994, 70.956971586754506 ], [ 24.677063348667762, 70.956744138070931 ] ] ] ] } },
{ "type": "Feature", "properties": { "fid": 188433, "navn": null, "hoyde_moh": 29, "arealInnsjo_km2": 0.0113, "magasinKategori": null, "fid_2": 1647, "id": 1647, "left": 24.486919847, "top": 71.446110046000001, "right": 24.986919847, "bottom": 70.946110046000001, "row_index": 6, "col_index": 41, "tile_id": 1647 }, "geometry": { "type": "MultiPolygon", "coordinates": [ [ [ [ 24.751518972018701, 70.953305067030826 ], [ 24.750777073326919, 70.952996685060228 ], [ 24.749613145778092, 70.952812995315369 ], [ 24.747686749333841, 70.952732317995611 ], [ 24.746967690395689, 70.952797024164724 ], [ 24.746739337067215, 70.952962231332592 ], [ 24.747026163800363, 70.95320732524749 ], [ 24.747874049624411, 70.953467017675024 ], [ 24.751001866718862, 70.953558612120332 ], [ 24.751518972018701, 70.953305067030826 ] ] ] ] } },
{ "type": "Feature", "properties": { "fid": 188435, "navn": null, "hoyde_moh": 18, "arealInnsjo_km2": 0.0031, "magasinKategori": null, "fid_2": 1647, "id": 1647, "left": 24.486919847, "top": 71.446110046000001, "right": 24.986919847, "bottom": 70.946110046000001, "row_index": 6, "col_index": 41, "tile_id": 1647 }, "geometry": { "type": "MultiPolygon", "coordinates": [ [ [ [ 24.770344562114875, 70.954780254285538 ], [ 24.770359600394116, 70.954587527121603 ], [ 24.769267864559453, 70.954343149682302 ], [ 24.768606291197855, 70.954430735839097 ], [ 24.769190113353233, 70.954598438249832 ], [ 24.768888881115689, 70.954708506351125 ], [ 24.768988683266048, 70.954927147667249 ], [ 24.770344562114875, 70.954780254285538 ] ] ] ] } },
{ "type": "Feature", "properties": { "fid": 188509, "navn": null, "hoyde_moh": 84, "arealInnsjo_km2": 0.0091, "magasinKategori": null, "fid_2": 1647, "id": 1647, "left": 24.486919847, "top": 71.446110046000001, "right": 24.986919847, "bottom": 70.946110046000001, "row_index": 6, "col_index": 41, "tile_id": 1647 }, "geometry": { "type": "MultiPolygon", "coordinates": [ [ [ [ 24.977202209253669, 70.998605566063503 ], [ 24.977140784100559, 70.998511974866531 ], [ 24.97764929497577, 70.998456192536167 ], [ 24.977612113426609, 70.998096390368772 ], [ 24.975646983243198, 70.997930639605045 ], [ 24.975313949228799, 70.998072103966422 ], [ 24.975437308916909, 70.998229765646258 ], [ 24.973749246294503, 70.998247811285538 ], [ 24.973446030158641, 70.998405170390456 ], [ 24.973682336480767, 70.998491647218373 ], [ 24.973486659602994, 70.998537186126299 ], [ 24.974843932970536, 70.998683535508903 ], [ 24.976812333883984, 70.998721890638308 ], [ 24.977202209253669, 70.998605566063503 ] ] ] ] } },
{ "type": "Feature", "properties": { "fid": 188694, "navn": null, "hoyde_moh": 78, "arealInnsjo_km2": 0.0051, "magasinKategori": null, "fid_2": 1647, "id": 1647, "left": 24.486919847, "top": 71.446110046000001, "right": 24.986919847, "bottom": 70.946110046000001, "row_index": 6, "col_index": 41, "tile_id": 1647 }, "geometry": { "type": "MultiPolygon", "coordinates": [ [ [ [ 24.986756335102662, 70.969549962851445 ], [ 24.986703124335474, 70.969759129531312 ], [ 24.986919847, 70.969858887396043 ], [ 24.986919847, 70.969519944736106 ], [ 24.986756335102662, 70.969549962851445 ] ] ] ] } },
{ "type": "Feature", "properties": { "fid": 188753, "navn": null, "hoyde_moh": 95, "arealInnsjo_km2": 0.0085, "magasinKategori": null, "fid_2": 1647, "id": 1647, "left": 24.486919847, "top": 71.446110046000001, "right": 24.986919847, "bottom": 70.946110046000001, "row_index": 6, "col_index": 41, "tile_id": 1647 }, "geometry": { "type": "MultiPolygon", "coordinates": [ [ [ [ 24.732894255994037, 70.977025741930973 ], [ 24.733415504858268, 70.976747579123014 ], [ 24.731790167414641, 70.97645697904683 ], [ 24.730376480552785, 70.976605565762739 ], [ 24.730229302550377, 70.976999799323394 ], [ 24.730522401048447, 70.977124061595433 ], [ 24.730522502353598, 70.977296013877549 ], [ 24.73138089813202, 70.977444889899417 ], [ 24.732894255994037, 70.977025741930973 ] ] ] ] } },
{ "type": "Feature", "properties": { "fid": 188754, "navn": null, "hoyde_moh": 27, "arealInnsjo_km2": 0.0107, "magasinKategori": null, "fid_2": 1647, "id": 1647, "left": 24.486919847, "top": 71.446110046000001, "right": 24.986919847, "bottom": 70.946110046000001, "row_index": 6, "col_index": 41, "tile_id": 1647 }, "geometry": { "type": "MultiPolygon", "coordinates": [ [ [ [ 24.67651568100786, 70.990558205416335 ], [ 24.676553277981682, 70.990395719757885 ], [ 24.67628378269178, 70.990227698008439 ], [ 24.676249644548374, 70.990402244044589 ], [ 24.674329397329384, 70.99037563695714 ], [ 24.675212396223746, 70.990148875736551 ], [ 24.675010672090497, 70.990108873376911 ], [ 24.675163054401736, 70.990007463164105 ], [ 24.673528862708199, 70.989941516410013 ], [ 24.67195792327616, 70.98954876852568 ], [ 24.671601951072898, 70.989793809422892 ], [ 24.671962457951313, 70.9902552199908 ], [ 24.672236216634339, 70.990354284935847 ], [ 24.672135436440435, 70.99050439862512 ], [ 24.675666399612727, 70.990752459423206 ], [ 24.67651568100786, 70.990558205416335 ] ] ] ] } },
{ "type": "Feature", "properties": { "fid": 188816, "navn": null, "hoyde_moh": 152, "arealInnsjo_km2": 0.0037, "magasinKategori": null, "fid_2": 1647, "id": 1647, "left": 24.486919847, "top": 71.446110046000001, "right": 24.986919847, "bottom": 70.946110046000001, "row_index": 6, "col_index": 41, "tile_id": 1647 }, "geometry": { "type": "MultiPolygon", "coordinates": [ [ [ [ 24.746161050343407, 70.977110337002486 ], [ 24.745010677008676, 70.976739359505203 ], [ 24.743212884620569, 70.976708310857617 ], [ 24.744730459787792, 70.977224378182498 ], [ 24.746028824319762, 70.977270348441309 ], [ 24.746161050343407, 70.977110337002486 ] ] ] ] } },
{ "type": "Feature", "properties": { "fid": 188817, "navn": null, "hoyde_moh": 65, "arealInnsjo_km2": 0.0035, "magasinKategori": null, "fid_2": 1647, "id": 1647, "left": 24.486919847, "top": 71.446110046000001, "right": 24.986919847, "bottom": 70.946110046000001, "row_index": 6, "col_index": 41, "tile_id": 1647 }, "geometry": { "type": "MultiPolygon", "coordinates": [ [ [ [ 24.977055614620831, 70.96897457075481 ], [ 24.977693505876712, 70.968939500186579 ], [ 24.977487392709826, 70.968608200264569 ], [ 24.976475880790215, 70.968586227243804 ], [ 24.976950427451193, 70.96890459450178 ], [ 24.975791674680195, 70.968626983267654 ], [ 24.975557662964739, 70.96869549065849 ], [ 24.975900545792342, 70.968938876507821 ], [ 24.975598874174612, 70.968973938926553 ], [ 24.975851197182905, 70.969063610596422 ], [ 24.97741919190377, 70.969287978871577 ], [ 24.977055614620831, 70.96897457075481 ] ] ] ] } },
{ "type": "Feature", "properties": { "fid": 188818, "navn": "Kvalvikvannet", "hoyde_moh": 152, "arealInnsjo_km2": 0.0143, "magasinKategori": null, "fid_2": 1647, "id": 1647, "left": 24.486919847, "top": 71.446110046000001, "right": 24.986919847, "bottom": 70.946110046000001, "row_index": 6, "col_index": 41, "tile_id": 1647 }, "geometry": { "type": "MultiPolygon", "coordinates": [ [ [ [ 24.652466826730667, 70.98695558138256 ], [ 24.652560236508062, 70.986788007382046 ], [ 24.653299075709388, 70.986632025041317 ], [ 24.650163136947572, 70.98636079509825 ], [ 24.646401008595017, 70.986865513968112 ], [ 24.64774082126673, 70.987109875449349 ], [ 24.651003647066176, 70.987207924167009 ], [ 24.652466826730667, 70.98695558138256 ] ] ] ] } },
{ "type": "Feature", "properties": { "fid": 188867, "navn": null, "hoyde_moh": 38, "arealInnsjo_km2": 0.0036, "magasinKategori": null, "fid_2": 1647, "id": 1647, "left": 24.486919847, "top": 71.446110046000001, "right": 24.986919847, "bottom": 70.946110046000001, "row_index": 6, "col_index": 41, "tile_id": 1647 }, "geometry": { "type": "MultiPolygon", "coordinates": [ [ [ [ 24.748919936828017, 70.967132617297295 ], [ 24.748329199883838, 70.96693183042197 ], [ 24.747369203689072, 70.967272400160454 ], [ 24.747246058534383, 70.96750748621433 ], [ 24.748810638850234, 70.967668000391242 ], [ 24.748919936828017, 70.967132617297295 ] ] ] ] } },
{ "type": "Feature", "properties": { "fid": 194720, "navn": null, "hoyde_moh": 276, "arealInnsjo_km2": 0.0478, "magasinKategori": null, "fid_2": 1647, "id": 1647, "left": 24.486919847, "top": 71.446110046000001, "right": 24.986919847, "bottom": 70.946110046000001, "row_index": 6, "col_index": 41, "tile_id": 1647 }, "geometry": { "type": "MultiPolygon", "coordinates": [ [ [ [ 24.616241503375999, 70.946110046 ], [ 24.612881432274133, 70.946110046 ], [ 24.613285465851451, 70.946243620857899 ], [ 24.61557133119647, 70.946209733990301 ], [ 24.616241503375999, 70.946110046 ] ] ] ] } },
{ "type": "Feature", "properties": { "fid": 194722, "navn": "Sommarbuktvannet", "hoyde_moh": 132, "arealInnsjo_km2": 0.0504, "magasinKategori": null, "fid_2": 1647, "id": 1647, "left": 24.486919847, "top": 71.446110046000001, "right": 24.986919847, "bottom": 70.946110046000001, "row_index": 6, "col_index": 41, "tile_id": 1647 }, "geometry": { "type": "MultiPolygon", "coordinates": [ [ [ [ 24.601736999204416, 70.95083659488462 ], [ 24.597877346520018, 70.9500000039707 ], [ 24.596443248460133, 70.94997368605371 ], [ 24.593629896127034, 70.95026522187456 ], [ 24.589133757922347, 70.950023076252577 ], [ 24.586734686150976, 70.950271859019637 ], [ 24.587443160715679, 70.950408898055613 ], [ 24.587274990594022, 70.950546410610769 ], [ 24.587374658440137, 70.950603227261027 ], [ 24.591148829116459, 70.950675554658261 ], [ 24.590883045748537, 70.951047092210715 ], [ 24.591328638335739, 70.951132916358077 ], [ 24.59991149171379, 70.951264128908676 ], [ 24.601736999204416, 70.95083659488462 ] ] ] ] } },
{ "type": "Feature", "properties": { "fid": 201560, "navn": null, "hoyde_moh": 164, "arealInnsjo_km2": 0.018, "magasinKategori": null, "fid_2": 1647, "id": 1647, "left": 24.486919847, "top": 71.446110046000001, "right": 24.986919847, "bottom": 70.946110046000001, "row_index": 6, "col_index": 41, "tile_id": 1647 }, "geometry": { "type": "MultiPolygon", "coordinates": [ [ [ [ 24.713331541417425, 70.973582587806618 ], [ 24.7129235584888, 70.973424194521968 ], [ 24.713663308481529, 70.97327404449517 ], [ 24.709698104464653, 70.972464435537631 ], [ 24.707007509532609, 70.97219504154846 ], [ 24.706534183241669, 70.972244500065315 ], [ 24.706311477321588, 70.972438444928045 ], [ 24.707550444079246, 70.972882120185091 ], [ 24.710042893486566, 70.973140202554532 ], [ 24.712199764453775, 70.973717516046932 ], [ 24.713331541417425, 70.973582587806618 ] ] ] ] } },
{ "type": "Feature", "properties": { "fid": 202429, "navn": null, "hoyde_moh": 258, "arealInnsjo_km2": 0.0247, "magasinKategori": null, "fid_2": 1647, "id": 1647, "left": 24.486919847, "top": 71.446110046000001, "right": 24.986919847, "bottom": 70.946110046000001, "row_index": 6, "col_index": 41, "tile_id": 1647 }, "geometry": { "type": "MultiPolygon", "coordinates": [ [ [ [ 24.715791540932329, 70.958381120559679 ], [ 24.715071197358018, 70.957824520506861 ], [ 24.714109068219116, 70.957550591137235 ], [ 24.709471969369886, 70.957247578938308 ], [ 24.709297957332762, 70.957190111143717 ], [ 24.709902654018943, 70.957028671403918 ], [ 24.707736250518355, 70.956762446155338 ], [ 24.708051854156817, 70.956877009801559 ], [ 24.707929753904821, 70.956979860131497 ], [ 24.708987183104888, 70.957264201224362 ], [ 24.709025532007619, 70.957467226185216 ], [ 24.708811026366007, 70.957621843420455 ], [ 24.709035216578158, 70.957679110721756 ], [ 24.708724281234552, 70.957837005956733 ], [ 24.709271544872966, 70.958030026018093 ], [ 24.716872425179524, 70.958627183740774 ], [ 24.715791540932329, 70.958381120559679 ] ] ] ] } },
{ "type": "Feature", "properties": { "fid": 211328, "navn": "Svartvannet", "hoyde_moh": 137, "arealInnsjo_km2": 0.033, "magasinKategori": null, "fid_2": 1647, "id": 1647, "left": 24.486919847, "top": 71.446110046000001, "right": 24.986919847, "bottom": 70.946110046000001, "row_index": 6, "col_index": 41, "tile_id": 1647 }, "geometry": { "type": "MultiPolygon", "coordinates": [ [ [ [ 24.697333116755477, 70.968508265738478 ], [ 24.698140334492034, 70.967307355259805 ], [ 24.697788960576617, 70.966987705752857 ], [ 24.697022135283142, 70.966753893174527 ], [ 24.69632285698669, 70.966292701021047 ], [ 24.69484480119478, 70.966265685847361 ], [ 24.69344927955698, 70.966725015832594 ], [ 24.693393816775362, 70.967251473507474 ], [ 24.693696594340793, 70.967361300557712 ], [ 24.694395629269437, 70.968275224154581 ], [ 24.695452475105728, 70.968660356184415 ], [ 24.697333116755477, 70.968508265738478 ] ] ] ] } },
{ "type": "Feature", "properties": { "fid": 217071, "navn": "Guriholvatnet", "hoyde_moh": 30, "arealInnsjo_km2": 0.0885, "magasinKategori": 2, "fid_2": 1647, "id": 1647, "left": 24.486919847, "top": 71.446110046000001, "right": 24.986919847, "bottom": 70.946110046000001, "row_index": 6, "col_index": 41, "tile_id": 1647 }, "geometry": { "type": "MultiPolygon", "coordinates": [ [ [ [ 24.66186269609365, 70.982593705710187 ], [ 24.662447878239156, 70.981838998170076 ], [ 24.662700795422239, 70.98177113245184 ], [ 24.657465470466597, 70.979538404921456 ], [ 24.656210852883522, 70.979211225695764 ], [ 24.652935775132498, 70.979070536921199 ], [ 24.651553919073894, 70.979399803025075 ], [ 24.651895122494846, 70.979891703769539 ], [ 24.653796709040765, 70.980552682241537 ], [ 24.654038386608367, 70.980754643328609 ], [ 24.654094896474128, 70.981175964915536 ], [ 24.65525675363298, 70.981714050768645 ], [ 24.657397726531599, 70.982497199326843 ], [ 24.660434177621312, 70.982737956699751 ], [ 24.66186269609365, 70.982593705710187 ] ] ] ] } },
{ "type": "Feature", "properties": { "fid": 217072, "navn": "Storvannet", "hoyde_moh": 27, "arealInnsjo_km2": 0.0663, "magasinKategori": 2, "fid_2": 1647, "id": 1647, "left": 24.486919847, "top": 71.446110046000001, "right": 24.986919847, "bottom": 70.946110046000001, "row_index": 6, "col_index": 41, "tile_id": 1647 }, "geometry": { "type": "MultiPolygon", "coordinates": [ [ [ [ 24.648305511568029, 70.999590443553402 ], [ 24.647992744076063, 70.999481688078546 ], [ 24.648106447403013, 70.999438555586053 ], [ 24.64852386691944, 70.999548449492039 ], [ 24.64898826651028, 70.999456844162694 ], [ 24.64903568295794, 70.999263574434991 ], [ 24.649292204604169, 70.999150030245588 ], [ 24.648542565721367, 70.998867114810494 ], [ 24.649153800210673, 70.998323496177136 ], [ 24.645903647703374, 70.997713156025895 ], [ 24.642193681409523, 70.997456082785973 ], [ 24.639549712868703, 70.997650854803553 ], [ 24.638837343545479, 70.997969405652469 ], [ 24.637020033056174, 70.997911604055389 ], [ 24.636469998833231, 70.997730010512754 ], [ 24.635582133099973, 70.997966960699458 ], [ 24.636904601468917, 70.998366938550319 ], [ 24.637701139430398, 70.998334880724769 ], [ 24.644618490616931, 70.999175872310857 ], [ 24.645615432593143, 70.99941520495571 ], [ 24.645555361545448, 70.999520815239791 ], [ 24.645829339878969, 70.999600049476271 ], [ 24.645898213899475, 70.999846893891402 ], [ 24.648305511568029, 70.999590443553402 ] ] ] ] } },
{ "type": "Feature", "properties": { "fid": 218308, "navn": null, "hoyde_moh": 292, "arealInnsjo_km2": 0.0309, "magasinKategori": null, "fid_2": 1647, "id": 1647, "left": 24.486919847, "top": 71.446110046000001, "right": 24.986919847, "bottom": 70.946110046000001, "row_index": 6, "col_index": 41, "tile_id": 1647 }, "geometry": { "type": "MultiPolygon", "coordinates": [ [ [ [ 24.630088361137467, 70.950393354131521 ], [ 24.630120011966078, 70.95011577817283 ], [ 24.630409977375297, 70.949830019378581 ], [ 24.629721056875105, 70.949405037828015 ], [ 24.627235364398313, 70.948434381780359 ], [ 24.62566191206259, 70.948126983952108 ], [ 24.624999262782545, 70.948310656945992 ], [ 24.625367652696749, 70.948646166271999 ], [ 24.624826189805159, 70.948782689706846 ], [ 24.624856451237733, 70.949044597612527 ], [ 24.625483766872275, 70.949580173272835 ], [ 24.626427834550309, 70.950005406700981 ], [ 24.629176902333402, 70.950614283905267 ], [ 24.630088361137467, 70.950393354131521 ] ] ] ] } },
{ "type": "Feature", "properties": { "fid": 233155, "navn": "Heastajávri", "hoyde_moh": 46, "arealInnsjo_km2": 0.5663, "magasinKategori": null, "fid_2": 1647, "id": 1647, "left": 24.486919847, "top": 71.446110046000001, "right": 24.986919847, "bottom": 70.946110046000001, "row_index": 6, "col_index": 41, "tile_id": 1647 }, "geometry": { "type": "MultiPolygon", "coordinates": [ [ [ [ 24.66086729344973, 70.95551561621734 ], [ 24.66308318898005, 70.955318646392257 ], [ 24.666063419162416, 70.955488622118253 ], [ 24.668521154538809, 70.955238698079654 ], [ 24.673402530795155, 70.954242872587443 ], [ 24.674503343575406, 70.953797824588236 ], [ 24.675068657155386, 70.953414503239188 ], [ 24.674882417103596, 70.952960553747516 ], [ 24.672028009063634, 70.952897104776554 ], [ 24.671721595805025, 70.95274201808094 ], [ 24.671921060641868, 70.952338055028079 ], [ 24.671276803139687, 70.951987187103754 ], [ 24.667586844631042, 70.952094404703615 ], [ 24.666545125332046, 70.951896820238829 ], [ 24.664359936343285, 70.952136125965964 ], [ 24.663865194146144, 70.951661851757166 ], [ 24.663129151994625, 70.951438750384426 ], [ 24.664698570187909, 70.951092637380327 ], [ 24.666862702569841, 70.95101529726324 ], [ 24.667435970852232, 70.950795535545993 ], [ 24.66756383646441, 70.950558753208881 ], [ 24.67111247361203, 70.949814845772579 ], [ 24.673039324887149, 70.94902427142577 ], [ 24.673579969787653, 70.94833619569242 ], [ 24.673365926574032, 70.947893233916488 ], [ 24.674401170901167, 70.947693018168835 ], [ 24.674625740232937, 70.947446511144335 ], [ 24.672780464393615, 70.947378775375398 ], [ 24.67198851774317, 70.947061352861994 ], [ 24.673686066620444, 70.946701323953008 ], [ 24.674776509374137, 70.946264236922801 ], [ 24.674761918488439, 70.946110046 ], [ 24.661393200720035, 70.946110046 ], [ 24.661410141757148, 70.946145363019923 ], [ 24.66087890746709, 70.946479059848016 ], [ 24.661058779485778, 70.946832413508048 ], [ 24.661019995286875, 70.947236071804198 ], [ 24.661219666151503, 70.947386713736265 ], [ 24.660720892649437, 70.947824706511554 ], [ 24.66072066750132, 70.948042349078293 ], [ 24.659904914469443, 70.948420737153398 ], [ 24.659635619855592, 70.948939791885223 ], [ 24.659262734035032, 70.949246296528003 ], [ 24.657397962531359, 70.950160026445687 ], [ 24.656270680132661, 70.950491282913077 ], [ 24.655597508383327, 70.951301128008964 ], [ 24.655030609857903, 70.951565669412147 ], [ 24.654978370616767, 70.951839631891104 ], [ 24.655713264576725, 70.951987287351869 ], [ 24.654874291853496, 70.952653404446608 ], [ 24.65548831531671, 70.953629682114268 ], [ 24.656343306796703, 70.953683888853661 ], [ 24.657081302759529, 70.953421058102052 ], [ 24.657399713483844, 70.953663311198284 ], [ 24.658979551822302, 70.953625293522109 ], [ 24.660520169916143, 70.953986136565661 ], [ 24.659933005479541, 70.954215213719905 ], [ 24.659749108600007, 70.954411766104329 ], [ 24.659834933306986, 70.954560595685294 ], [ 24.659636990912741, 70.954611982636493 ], [ 24.657417849353099, 70.95441100333089 ], [ 24.656762730607756, 70.954485856551386 ], [ 24.657503517503908, 70.955205021837372 ], [ 24.657462563938026, 70.955490000476559 ], [ 24.657620109167315, 70.955731455134327 ], [ 24.658159205840484, 70.955898460706393 ], [ 24.66086729344973, 70.95551561621734 ] ] ] ] } },
{ "type": "Feature", "properties": { "fid": 241153, "navn": null, "hoyde_moh": 157, "arealInnsjo_km2": 0.0032, "magasinKategori": null, "fid_2": 1647, "id": 1647, "left": 24.486919847, "top": 71.446110046000001, "right": 24.986919847, "bottom": 70.946110046000001, "row_index": 6, "col_index": 41, "tile_id": 1647 }, "geometry": { "type": "MultiPolygon", "coordinates": [ [ [ [ 24.983288220387593, 71.027206442254297 ], [ 24.982785315548629, 71.027126319998743 ], [ 24.982677514161928, 71.026928694488433 ], [ 24.982241746185466, 71.026778051937029 ], [ 24.980949266663142, 71.02676999507753 ], [ 24.980650618723082, 71.026980099578509 ], [ 24.981299363480716, 71.027161049362633 ], [ 24.983288220387593, 71.027206442254297 ] ] ] ] } },
{ "type": "Feature", "properties": { "fid": 241156, "navn": "Elvevikvannet", "hoyde_moh": 15, "arealInnsjo_km2": 0.0887, "magasinKategori": null, "fid_2": 1647, "id": 1647, "left": 24.486919847, "top": 71.446110046000001, "right": 24.986919847, "bottom": 70.946110046000001, "row_index": 6, "col_index": 41, "tile_id": 1647 }, "geometry": { "type": "MultiPolygon", "coordinates": [ [ [ [ 24.771492571823156, 71.059945343386261 ], [ 24.770636777365812, 71.059623718701673 ], [ 24.76824527322805, 71.059247178516557 ], [ 24.765664107608835, 71.058608438384169 ], [ 24.765514246907614, 71.058442574175814 ], [ 24.766608230164209, 71.058024080978981 ], [ 24.765896853811199, 71.057613079857774 ], [ 24.766079231354411, 71.057259938498234 ], [ 24.76595376359348, 71.057093147770303 ], [ 24.766143290670819, 71.056990515524305 ], [ 24.765975525560965, 71.056853535896977 ], [ 24.75974067767973, 71.055862532964767 ], [ 24.757541819502123, 71.056341637903856 ], [ 24.758325577465349, 71.056913279148958 ], [ 24.759326269113764, 71.057245609870122 ], [ 24.759527092622886, 71.057429735135571 ], [ 24.759213869603421, 71.057745969911807 ], [ 24.759382640951188, 71.058201720481279 ], [ 24.760444172854115, 71.05878244381779 ], [ 24.764549606849457, 71.059017849593275 ], [ 24.767501338331417, 71.059748483729948 ], [ 24.771134948424834, 71.060182773589389 ], [ 24.771492571823156, 71.059945343386261 ] ] ] ] } },
{ "type": "Feature", "properties": { "fid": 241157, "navn": null, "hoyde_moh": 13, "arealInnsjo_km2": 0.0483, "magasinKategori": null, "fid_2": 1647, "id": 1647, "left": 24.486919847, "top": 71.446110046000001, "right": 24.986919847, "bottom": 70.946110046000001, "row_index": 6, "col_index": 41, "tile_id": 1647 }, "geometry": { "type": "MultiPolygon", "coordinates": [ [ [ [ 24.796585664728479, 71.078424627284605 ], [ 24.797124215672643, 71.078100634748196 ], [ 24.794072010743267, 71.077109649238224 ], [ 24.793427839927684, 71.076697671079287 ], [ 24.792075561289696, 71.07640929568548 ], [ 24.790194603280405, 71.076475655634283 ], [ 24.788982684557496, 71.077071498700647 ], [ 24.789003066909235, 71.077353795388035 ], [ 24.789687951822653, 71.077979699330157 ], [ 24.791677827777651, 71.078182341778273 ], [ 24.792929248402057, 71.078802263748372 ], [ 24.79486108272593, 71.078843766347759 ], [ 24.796585664728479, 71.078424627284605 ] ] ] ] } },
{ "type": "Feature", "properties": { "fid": 241158, "navn": null, "hoyde_moh": 65, "arealInnsjo_km2": 0.014, "magasinKategori": null, "fid_2": 1647, "id": 1647, "left": 24.486919847, "top": 71.446110046000001, "right": 24.986919847, "bottom": 70.946110046000001, "row_index": 6, "col_index": 41, "tile_id": 1647 }, "geometry": { "type": "MultiPolygon", "coordinates": [ [ [ [ 24.745640520054842, 71.093472870963552 ], [ 24.74579519324023, 71.093289760616983 ], [ 24.745284565997544, 71.092891461313357 ], [ 24.743537820936002, 71.092778773164625 ], [ 24.741134820952304, 71.092885930600943 ], [ 24.740794085126915, 71.093130441464254 ], [ 24.742572162051147, 71.093650742760076 ], [ 24.745640520054842, 71.093472870963552 ] ] ] ] } },
{ "type": "Feature", "properties": { "fid": 241895, "navn": null, "hoyde_moh": 18, "arealInnsjo_km2": 0.0029, "magasinKategori": null, "fid_2": 1647, "id": 1647, "left": 24.486919847, "top": 71.446110046000001, "right": 24.986919847, "bottom": 70.946110046000001, "row_index": 6, "col_index": 41, "tile_id": 1647 }, "geometry": { "type": "MultiPolygon", "coordinates": [ [ [ [ 24.768435703143588, 70.955773857217565 ], [ 24.768399284544493, 70.955404274112169 ], [ 24.768196551076919, 70.955265569339716 ], [ 24.767800039405085, 70.955304870638102 ], [ 24.767499126394906, 70.955646935734379 ], [ 24.768018582898559, 70.955893890593245 ], [ 24.767877920886843, 70.956011840725679 ], [ 24.768008327013028, 70.956138062888527 ], [ 24.768534303534885, 70.956345668585953 ], [ 24.768808767283677, 70.956268226569634 ], [ 24.768435703143588, 70.955773857217565 ] ] ] ] } },
{ "type": "Feature", "properties": { "fid": 241917, "navn": null, "hoyde_moh": 55, "arealInnsjo_km2": 0.0142, "magasinKategori": null, "fid_2": 1647, "id": 1647, "left": 24.486919847, "top": 71.446110046000001, "right": 24.986919847, "bottom": 70.946110046000001, "row_index": 6, "col_index": 41, "tile_id": 1647 }, "geometry": { "type": "MultiPolygon", "coordinates": [ [ [ [ 24.649769683632638, 70.957024285714823 ], [ 24.649090160028532, 70.956699956799199 ], [ 24.649274883842462, 70.956410614717001 ], [ 24.64902122510199, 70.956302055887477 ], [ 24.644899978312903, 70.955921354571046 ], [ 24.645362770189021, 70.956162669435216 ], [ 24.645261363991988, 70.956314975140614 ], [ 24.645442434564149, 70.956486013519964 ], [ 24.645924466623086, 70.956643349694374 ], [ 24.648264413149676, 70.95713138415131 ], [ 24.649489290698885, 70.957169484760712 ], [ 24.649769683632638, 70.957024285714823 ] ] ] ] } },
{ "type": "Feature", "properties": { "fid": 242105, "navn": "Skolevannet", "hoyde_moh": 166, "arealInnsjo_km2": 0.0121, "magasinKategori": null, "fid_2": 1647, "id": 1647, "left": 24.486919847, "top": 71.446110046000001, "right": 24.986919847, "bottom": 70.946110046000001, "row_index": 6, "col_index": 41, "tile_id": 1647 }, "geometry": { "type": "MultiPolygon", "coordinates": [ [ [ [ 24.752759245432284, 71.074644222377032 ], [ 24.753808230290655, 71.074568183166392 ], [ 24.753788231527469, 71.074426746204153 ], [ 24.754296784184938, 71.07405795946481 ], [ 24.752732270841399, 71.07341664045228 ], [ 24.751740629713602, 71.073602029216445 ], [ 24.75088261174416, 71.074014642474665 ], [ 24.751012652336446, 71.074199523390561 ], [ 24.751587755352855, 71.074286001785623 ], [ 24.751309392808565, 71.074579414312552 ], [ 24.752122701526112, 71.074844612220886 ], [ 24.752759245432284, 71.074644222377032 ] ] ] ] } },
{ "type": "Feature", "properties": { "fid": 242977, "navn": null, "hoyde_moh": 214, "arealInnsjo_km2": 0.0167, "magasinKategori": null, "fid_2": 1647, "id": 1647, "left": 24.486919847, "top": 71.446110046000001, "right": 24.986919847, "bottom": 70.946110046000001, "row_index": 6, "col_index": 41, "tile_id": 1647 }, "geometry": { "type": "MultiPolygon", "coordinates": [ [ [ [ 24.591544054426443, 71.01347070413091 ], [ 24.59175936839436, 71.013189952484254 ], [ 24.590717960405545, 71.01286496638707 ], [ 24.589490839030969, 71.012815195227489 ], [ 24.587943381410373, 71.012909369914951 ], [ 24.585787174559556, 71.012789482098327 ], [ 24.585584669876528, 71.013048250874363 ], [ 24.587850428822076, 71.013637167602838 ], [ 24.591544054426443, 71.01347070413091 ] ] ] ] } },
{ "type": "Feature", "properties": { "fid": 243160, "navn": null, "hoyde_moh": 296, "arealInnsjo_km2": 0.0026, "magasinKategori": null, "fid_2": 1647, "id": 1647, "left": 24.486919847, "top": 71.446110046000001, "right": 24.986919847, "bottom": 70.946110046000001, "row_index": 6, "col_index": 41, "tile_id": 1647 }, "geometry": { "type": "MultiPolygon", "coordinates": [ [ [ [ 24.676270714605291, 71.066700488535517 ], [ 24.676172349655285, 71.066428234625491 ], [ 24.675372331870243, 71.06613160218474 ], [ 24.674383156224355, 71.066378005870774 ], [ 24.674716357736425, 71.066415151803184 ], [ 24.67463959172418, 71.066533887216224 ], [ 24.674846076683547, 71.06659761841793 ], [ 24.675665502214347, 71.066594793800718 ], [ 24.675622011890599, 71.066722034766826 ], [ 24.676270714605291, 71.066700488535517 ] ] ] ] } },
{ "type": "Feature", "properties": { "fid": 243675, "navn": null, "hoyde_moh": 118, "arealInnsjo_km2": 0.0081, "magasinKategori": null, "fid_2": 1647, "id": 1647, "left": 24.486919847, "top": 71.446110046000001, "right": 24.986919847, "bottom": 70.946110046000001, "row_index": 6, "col_index": 41, "tile_id": 1647 }, "geometry": { "type": "MultiPolygon", "coordinates": [ [ [ [ 24.724862844284598, 71.056082543164223 ], [ 24.722191959805826, 71.055394589209726 ], [ 24.721426591227466, 71.055598495437877 ], [ 24.721878297072671, 71.056021658127122 ], [ 24.722704402493445, 71.056328428948021 ], [ 24.723834559970928, 71.0563895483359 ], [ 24.724862844284598, 71.056082543164223 ] ] ] ] } },
{ "type": "Feature", "properties": { "fid": 243846, "navn": "Ledningsvatna", "hoyde_moh": 62, "arealInnsjo_km2": 0.0161, "magasinKategori": null, "fid_2": 1647, "id": 1647, "left": 24.486919847, "top": 71.446110046000001, "right": 24.986919847, "bottom": 70.946110046000001, "row_index": 6, "col_index": 41, "tile_id": 1647 }, "geometry": { "type": "MultiPolygon", "coordinates": [ [ [ [ 24.736487125779682, 71.095138514911397 ], [ 24.736845550292184, 71.094926371275875 ], [ 24.736341019947101, 71.09444329268301 ], [ 24.735167255948141, 71.094449379615554 ], [ 24.734013880540804, 71.094779537961088 ], [ 24.733781227607551, 71.094997663979726 ], [ 24.732547914829318, 71.095027907921818 ], [ 24.731187693249183, 71.095446291981304 ], [ 24.731790462559641, 71.095788256750353 ], [ 24.732949789441218, 71.095871112608123 ], [ 24.736487125779682, 71.095138514911397 ] ] ] ] } },
{ "type": "Feature", "properties": { "fid": 243950, "navn": null, "hoyde_moh": 137, "arealInnsjo_km2": 0.0217, "magasinKategori": null, "fid_2": 1647, "id": 1647, "left": 24.486919847, "top": 71.446110046000001, "right": 24.986919847, "bottom": 70.946110046000001, "row_index": 6, "col_index": 41, "tile_id": 1647 }, "geometry": { "type": "MultiPolygon", "coordinates": [ [ [ [ 24.712218758349536, 71.055384927558094 ], [ 24.712733166819199, 71.055081713750567 ], [ 24.712761969107586, 71.054784903949411 ], [ 24.711989135686601, 71.054506132806679 ], [ 24.71073231975404, 71.05445768499105 ], [ 24.709434712110362, 71.054683177136141 ], [ 24.709826697742056, 71.054408175599747 ], [ 24.706785440910181, 71.054369360706033 ], [ 24.707210440863975, 71.05470543204784 ], [ 24.707959271192955, 71.054817884292063 ], [ 24.707645218153505, 71.055021309092865 ], [ 24.707519282300332, 71.055337912570025 ], [ 24.709147526731947, 71.055296933213469 ], [ 24.708938759435735, 71.05552566011994 ], [ 24.709126738251893, 71.055634039175658 ], [ 24.70907763179952, 71.055755699234751 ], [ 24.712218758349536, 71.055384927558094 ] ] ] ] } },
{ "type": "Feature", "properties": { "fid": 243951, "navn": "Rorvannet", "hoyde_moh": 130, "arealInnsjo_km2": 0.0842, "magasinKategori": null, "fid_2": 1647, "id": 1647, "left": 24.486919847, "top": 71.446110046000001, "right": 24.986919847, "bottom": 70.946110046000001, "row_index": 6, "col_index": 41, "tile_id": 1647 }, "geometry": { "type": "MultiPolygon", "coordinates": [ [ [ [ 24.972924651706393, 71.041981698067289 ], [ 24.973461699868704, 71.041993135425386 ], [ 24.9739958171951, 71.041688377623885 ], [ 24.973946851564257, 71.041023019762946 ], [ 24.974527754010591, 71.041151326156509 ], [ 24.975563491794684, 71.041100395777747 ], [ 24.977834348500178, 71.040620193293904 ], [ 24.978097478271774, 71.040396416543928 ], [ 24.977414128831249, 71.040076100374449 ], [ 24.973230805759428, 71.039334509800639 ], [ 24.970187456501669, 71.039134603889721 ], [ 24.968765295198374, 71.038822530451611 ], [ 24.966260185670869, 71.038704547974675 ], [ 24.963835298919978, 71.03931479973464 ], [ 24.964120332972985, 71.039595146127283 ], [ 24.96395431002777, 71.039682066811395 ], [ 24.964262332843628, 71.03985281939778 ], [ 24.965430845087315, 71.039886516339209 ], [ 24.966054267642708, 71.040098213339505 ], [ 24.968755828394411, 71.039759925569115 ], [ 24.969432587184837, 71.040054577861824 ], [ 24.969366371923648, 71.04015652797338 ], [ 24.969690189637859, 71.040192657398038 ], [ 24.96892367165464, 71.040345345039597 ], [ 24.968808206367832, 71.040480901730476 ], [ 24.96894730841661, 71.040582644463981 ], [ 24.968477678361314, 71.04082745488482 ], [ 24.970212773566836, 71.040844024907045 ], [ 24.971997368202022, 71.041198029417473 ], [ 24.972157365648833, 71.041334577695679 ], [ 24.97135550554118, 71.041302514795603 ], [ 24.971318375161726, 71.041659440237055 ], [ 24.971661870017652, 71.041732346128597 ], [ 24.971603893325081, 71.041840022906769 ], [ 24.971818887360204, 71.041982582704236 ], [ 24.971611134101646, 71.042076304317689 ], [ 24.971721585809391, 71.042157452308288 ], [ 24.972278652566597, 71.042204201437045 ], [ 24.972924651706393, 71.041981698067289 ] ] ] ] } },
{ "type": "Feature", "properties": { "fid": 244121, "navn": "Akkarfjordvatna", "hoyde_moh": 30, "arealInnsjo_km2": 0.059, "magasinKategori": null, "fid_2": 1647, "id": 1647, "left": 24.486919847, "top": 71.446110046000001, "right": 24.986919847, "bottom": 70.946110046000001, "row_index": 6, "col_index": 41, "tile_id": 1647 }, "geometry": { "type": "MultiPolygon", "coordinates": [ [ [ [ 24.741080563377167, 71.067394722871811 ], [ 24.741828423543687, 71.066548704812774 ], [ 24.741961310965415, 71.065692936047 ], [ 24.741305396884677, 71.065314661696789 ], [ 24.739271897063126, 71.06488820699218 ], [ 24.738502814215281, 71.064826443608879 ], [ 24.737007914576644, 71.065021335420909 ], [ 24.736089910605294, 71.065536176845541 ], [ 24.735572845769646, 71.066249734917889 ], [ 24.735032522118825, 71.06653007417674 ], [ 24.734872361176318, 71.066796457121882 ], [ 24.735820474068824, 71.067193365210883 ], [ 24.737225728709753, 71.067473122300441 ], [ 24.740483761227917, 71.067590533710984 ], [ 24.741080563377167, 71.067394722871811 ] ] ] ] } },
{ "type": "Feature", "properties": { "fid": 244122, "navn": null, "hoyde_moh": 31, "arealInnsjo_km2": 0.0095, "magasinKategori": null, "fid_2": 1647, "id": 1647, "left": 24.486919847, "top": 71.446110046000001, "right": 24.986919847, "bottom": 70.946110046000001, "row_index": 6, "col_index": 41, "tile_id": 1647 }, "geometry": { "type": "MultiPolygon", "coordinates": [ [ [ [ 24.741682486668424, 71.068397680372357 ], [ 24.741677296991416, 71.068077332993184 ], [ 24.740913113751471, 71.067793284278636 ], [ 24.740218304363271, 71.067741755543025 ], [ 24.739932152174063, 71.068077279023527 ], [ 24.738948428726207, 71.06864239657142 ], [ 24.739035310062743, 71.068889323909374 ], [ 24.739294585999112, 71.069011161102836 ], [ 24.740278830112324, 71.06905034018655 ], [ 24.741682486668424, 71.068397680372357 ] ] ] ] } },
{ "type": "Feature", "properties": { "fid": 244271, "navn": null, "hoyde_moh": 26, "arealInnsjo_km2": 0.0035, "magasinKategori": null, "fid_2": 1647, "id": 1647, "left": 24.486919847, "top": 71.446110046000001, "right": 24.986919847, "bottom": 70.946110046000001, "row_index": 6, "col_index": 41, "tile_id": 1647 }, "geometry": { "type": "MultiPolygon", "coordinates": [ [ [ [ 24.772143388709612, 70.953185212754292 ], [ 24.770456014675826, 70.952929246920789 ], [ 24.769598546426963, 70.952942989229939 ], [ 24.769335326473712, 70.953177206572761 ], [ 24.770187569502685, 70.953350229242218 ], [ 24.772143388709612, 70.953185212754292 ] ] ] ] } },
{ "type": "Feature", "properties": { "fid": 244388, "navn": null, "hoyde_moh": 44, "arealInnsjo_km2": 0.0142, "magasinKategori": null, "fid_2": 1647, "id": 1647, "left": 24.486919847, "top": 71.446110046000001, "right": 24.986919847, "bottom": 70.946110046000001, "row_index": 6, "col_index": 41, "tile_id": 1647 }, "geometry": { "type": "MultiPolygon", "coordinates": [ [ [ [ 24.662745368704382, 70.958356318912436 ], [ 24.662688453309965, 70.957781677620446 ], [ 24.660022851842523, 70.957080769942962 ], [ 24.659784293223151, 70.957225059830023 ], [ 24.659868634209339, 70.957481876558631 ], [ 24.659734035354958, 70.957724986065642 ], [ 24.658421509676479, 70.957997868896584 ], [ 24.658193254137935, 70.958222863018321 ], [ 24.659418013315538, 70.95836419179507 ], [ 24.659942251761301, 70.958047748304168 ], [ 24.659896282202105, 70.95787669337993 ], [ 24.660650540281441, 70.957990951617163 ], [ 24.660618569216251, 70.95813853480189 ], [ 24.660193431628201, 70.958294803195656 ], [ 24.660387933865213, 70.958395849011168 ], [ 24.661932429112078, 70.958511296911226 ], [ 24.662745368704382, 70.958356318912436 ] ] ] ] } },
{ "type": "Feature", "properties": { "fid": 244853, "navn": null, "hoyde_moh": 78, "arealInnsjo_km2": 0.0032, "magasinKategori": null, "fid_2": 1647, "id": 1647, "left": 24.486919847, "top": 71.446110046000001, "right": 24.986919847, "bottom": 70.946110046000001, "row_index": 6, "col_index": 41, "tile_id": 1647 }, "geometry": { "type": "MultiPolygon", "coordinates": [ [ [ [ 24.9691074457285, 70.999451620581439 ], [ 24.969535763201414, 70.999149560528949 ], [ 24.968880189784009, 70.999232157111948 ], [ 24.967951075984487, 70.998905136874242 ], [ 24.967421972666386, 70.999111738114038 ], [ 24.967905788794766, 70.999476573386346 ], [ 24.9691074457285, 70.999451620581439 ] ] ] ] } },
{ "type": "Feature", "properties": { "fid": 244895, "navn": null, "hoyde_moh": 77, "arealInnsjo_km2": 0.0028, "magasinKategori": null, "fid_2": 1647, "id": 1647, "left": 24.486919847, "top": 71.446110046000001, "right": 24.986919847, "bottom": 70.946110046000001, "row_index": 6, "col_index": 41, "tile_id": 1647 }, "geometry": { "type": "MultiPolygon", "coordinates": [ [ [ [ 24.646617282683277, 71.006144332314108 ], [ 24.647055142407115, 71.005945587550627 ], [ 24.64668426418184, 71.005879493497048 ], [ 24.646849618415249, 71.005609776935444 ], [ 24.646336059109817, 71.005626323259008 ], [ 24.645814463353506, 71.005857921968456 ], [ 24.645471682199126, 71.006213273737927 ], [ 24.646586646633196, 71.006322031676376 ], [ 24.646617282683277, 71.006144332314108 ] ] ] ] } },
{ "type": "Feature", "properties": { "fid": 244901, "navn": null, "hoyde_moh": 247, "arealInnsjo_km2": 0.0232, "magasinKategori": null, "fid_2": 1647, "id": 1647, "left": 24.486919847, "top": 71.446110046000001, "right": 24.986919847, "bottom": 70.946110046000001, "row_index": 6, "col_index": 41, "tile_id": 1647 }, "geometry": { "type": "MultiPolygon", "coordinates": [ [ [ [ 24.580653968757264, 71.016373144174366 ], [ 24.581017679810721, 71.016197579245585 ], [ 24.575215922053676, 71.015766392443837 ], [ 24.572907322281488, 71.016087893514907 ], [ 24.572550389792323, 71.016369524462235 ], [ 24.573813909964574, 71.016701933708532 ], [ 24.57766226221035, 71.016667004062555 ], [ 24.580653968757264, 71.016373144174366 ] ] ] ] } },
{ "type": "Feature", "properties": { "fid": 244911, "navn": null, "hoyde_moh": 72, "arealInnsjo_km2": 0.0041, "magasinKategori": null, "fid_2": 1647, "id": 1647, "left": 24.486919847, "top": 71.446110046000001, "right": 24.986919847, "bottom": 70.946110046000001, "row_index": 6, "col_index": 41, "tile_id": 1647 }, "geometry": { "type": "MultiPolygon", "coordinates": [ [ [ [ 24.944301999702589, 71.027583134017178 ], [ 24.944055323879073, 71.027360146855102 ], [ 24.943485361489703, 71.027224106242912 ], [ 24.941962700733367, 71.02736566599674 ], [ 24.942290106272598, 71.027804078195345 ], [ 24.943483176733398, 71.02777920396187 ], [ 24.944301999702589, 71.027583134017178 ] ] ] ] } },
{ "type": "Feature", "properties": { "fid": 245051, "navn": "Rundvannet", "hoyde_moh": 22, "arealInnsjo_km2": 0.0199, "magasinKategori": null, "fid_2": 1647, "id": 1647, "left": 24.486919847, "top": 71.446110046000001, "right": 24.986919847, "bottom": 70.946110046000001, "row_index": 6, "col_index": 41, "tile_id": 1647 }, "geometry": { "type": "MultiPolygon", "coordinates": [ [ [ [ 24.776794868934623, 71.058226208998136 ], [ 24.778150717248899, 71.057603831634026 ], [ 24.778324472688883, 71.057182187324784 ], [ 24.778594947438403, 71.057079062515243 ], [ 24.775799610874834, 71.05670378481085 ], [ 24.775034663051883, 71.056859839676534 ], [ 24.773814529731418, 71.0574394521784 ], [ 24.774110775205685, 71.05773670731422 ], [ 24.775179328435428, 71.058019931421299 ], [ 24.775165164979999, 71.058213794383121 ], [ 24.775434355342323, 71.058424768232911 ], [ 24.776794868934623, 71.058226208998136 ] ] ] ] } },
{ "type": "Feature", "properties": { "fid": 245052, "navn": null, "hoyde_moh": 63, "arealInnsjo_km2": 0.0065, "magasinKategori": null, "fid_2": 1647, "id": 1647, "left": 24.486919847, "top": 71.446110046000001, "right": 24.986919847, "bottom": 70.946110046000001, "row_index": 6, "col_index": 41, "tile_id": 1647 }, "geometry": { "type": "MultiPolygon", "coordinates": [ [ [ [ 24.739355963685608, 71.094293105399984 ], [ 24.739518580137268, 71.093783340738682 ], [ 24.738905527094968, 71.093515405303364 ], [ 24.737893970893033, 71.093604577463537 ], [ 24.737681425404297, 71.094338725260172 ], [ 24.737774859202073, 71.094568897644095 ], [ 24.739355963685608, 71.094293105399984 ] ] ] ] } },
{ "type": "Feature", "properties": { "fid": 245053, "navn": null, "hoyde_moh": 50, "arealInnsjo_km2": 0.0045, "magasinKategori": null, "fid_2": 1647, "id": 1647, "left": 24.486919847, "top": 71.446110046000001, "right": 24.986919847, "bottom": 70.946110046000001, "row_index": 6, "col_index": 41, "tile_id": 1647 }, "geometry": { "type": "MultiPolygon", "coordinates": [ [ [ [ 24.741647073163112, 71.098060478206676 ], [ 24.741746817046231, 71.097679367251857 ], [ 24.740806040771169, 71.097621513977472 ], [ 24.739619234080195, 71.097239479920461 ], [ 24.73931269227365, 71.09730332524974 ], [ 24.739710826223291, 71.097746835928149 ], [ 24.741195298747975, 71.098130431502426 ], [ 24.741647073163112, 71.098060478206676 ] ] ] ] } }
]
}
