{
"type": "FeatureCollection",
"name": "innsjo_tile_id_670",
"crs": { "type": "name", "properties": { "name": "urn:ogc:def:crs:OGC:1.3:CRS84" } },
"xy_coordinate_resolution": 1e-15,
"features": [
{ "type": "Feature", "properties": { "fid": 2361, "navn": "Østre Morttjenn", "hoyde_moh": 218, "arealInnsjo_km2": 0.0293, "magasinKategori": null, "fid_2": 670, "id": 670, "left": 11.986919847, "top": 59.946110046000001, "right": 12.486919847, "bottom": 59.446110046000001, "row_index": 29, "col_index": 16, "tile_id": 670 }, "geometry": { "type": "MultiPolygon", "coordinates": [ [ [ [ 12.017088687944222, 59.903757321164875 ], [ 12.01708250717841, 59.904278606799892 ], [ 12.017944580334513, 59.905301171252525 ], [ 12.017964958564974, 59.906316089162523 ], [ 12.017736980657148, 59.906563958127187 ], [ 12.018496705098356, 59.906654387053166 ], [ 12.018770198553483, 59.906513305578827 ], [ 12.018929749187684, 59.905709934071474 ], [ 12.019590694847604, 59.90471537624078 ], [ 12.018963292210817, 59.903912077545812 ], [ 12.017878916218484, 59.903200055652619 ], [ 12.017088687944222, 59.903757321164875 ] ] ] ] } },
{ "type": "Feature", "properties": { "fid": 12693, "navn": null, "hoyde_moh": null, "arealInnsjo_km2": 0.0272, "magasinKategori": null, "fid_2": 670, "id": 670, "left": 11.986919847, "top": 59.946110046000001, "right": 12.486919847, "bottom": 59.446110046000001, "row_index": 29, "col_index": 16, "tile_id": 670 }, "geometry": { "type": "MultiPolygon", "coordinates": [ [ [ [ 12.223367780884349, 59.940756116014484 ], [ 12.223174236197787, 59.940608106230016 ], [ 12.223283616652655, 59.940443655866282 ], [ 12.22278888351598, 59.940329911827497 ], [ 12.21915102587665, 59.941784744011933 ], [ 12.218162704574013, 59.941925886284245 ], [ 12.217219789684158, 59.942371120844051 ], [ 12.218180873220145, 59.943048628175518 ], [ 12.220799368897429, 59.9417894037948 ], [ 12.223367780884349, 59.940756116014484 ] ] ] ] } },
{ "type": "Feature", "properties": { "fid": 28262, "navn": "Vanga", "hoyde_moh": null, "arealInnsjo_km2": 0.0105, "magasinKategori": null, "fid_2": 670, "id": 670, "left": 11.986919847, "top": 59.946110046000001, "right": 12.486919847, "bottom": 59.446110046000001, "row_index": 29, "col_index": 16, "tile_id": 670 }, "geometry": { "type": "MultiPolygon", "coordinates": [ [ [ [ 12.225791003424815, 59.937366120934783 ], [ 12.22587508852625, 59.937026296142193 ], [ 12.225567293607581, 59.936872201639851 ], [ 12.22557661091119, 59.936666470787493 ], [ 12.225328309537996, 59.936672475452028 ], [ 12.225289625899212, 59.937026013740613 ], [ 12.225448465947466, 59.937154242867251 ], [ 12.224633681955666, 59.937504651413057 ], [ 12.224437801696373, 59.93789863497144 ], [ 12.223961901516946, 59.937969026441024 ], [ 12.223232595109783, 59.937693202934042 ], [ 12.223138155928975, 59.937174059799958 ], [ 12.223314838656659, 59.937037531773541 ], [ 12.223085573301875, 59.936785985191783 ], [ 12.222853958235129, 59.936960618393094 ], [ 12.222946470157217, 59.937611884761324 ], [ 12.222520517895354, 59.938048277931053 ], [ 12.224140467221035, 59.9383024315608 ], [ 12.225791003424815, 59.937366120934783 ] ] ] ] } },
{ "type": "Feature", "properties": { "fid": 34226, "navn": "Purketjenn", "hoyde_moh": null, "arealInnsjo_km2": 0.0044, "magasinKategori": null, "fid_2": 670, "id": 670, "left": 11.986919847, "top": 59.946110046000001, "right": 12.486919847, "bottom": 59.446110046000001, "row_index": 29, "col_index": 16, "tile_id": 670 }, "geometry": { "type": "MultiPolygon", "coordinates": [ [ [ [ 12.104646296792145, 59.929309270557653 ], [ 12.104075208334052, 59.930095676118945 ], [ 12.104174503796099, 59.930389872728874 ], [ 12.104532495226637, 59.930390459994875 ], [ 12.104879231130555, 59.93007668098884 ], [ 12.104917091720157, 59.929716402662507 ], [ 12.105178624041496, 59.929449630133945 ], [ 12.104995976394999, 59.929220272680702 ], [ 12.104646296792145, 59.929309270557653 ] ] ] ] } },
{ "type": "Feature", "properties": { "fid": 44143, "navn": null, "hoyde_moh": null, "arealInnsjo_km2": 0.0029, "magasinKategori": null, "fid_2": 670, "id": 670, "left": 11.986919847, "top": 59.946110046000001, "right": 12.486919847, "bottom": 59.446110046000001, "row_index": 29, "col_index": 16, "tile_id": 670 }, "geometry": { "type": "MultiPolygon", "coordinates": [ [ [ [ 12.180676148624048, 59.929239472998482 ], [ 12.180103561121211, 59.929398922780614 ], [ 12.180440807202123, 59.929586641893394 ], [ 12.182114686932662, 59.929492340047744 ], [ 12.182350189219568, 59.929286502276476 ], [ 12.180676148624048, 59.929239472998482 ] ] ] ] } },
{ "type": "Feature", "properties": { "fid": 46117, "navn": "Vestre Morttjenn", "hoyde_moh": null, "arealInnsjo_km2": 0.0237, "magasinKategori": null, "fid_2": 670, "id": 670, "left": 11.986919847, "top": 59.946110046000001, "right": 12.486919847, "bottom": 59.446110046000001, "row_index": 29, "col_index": 16, "tile_id": 670 }, "geometry": { "type": "MultiPolygon", "coordinates": [ [ [ [ 12.009944507137556, 59.89973347215048 ], [ 12.009416187142005, 59.899826427687813 ], [ 12.010378200011946, 59.902742849690391 ], [ 12.010865798413203, 59.903387571620605 ], [ 12.011098732265072, 59.903391240044868 ], [ 12.011265685326011, 59.902668552800357 ], [ 12.011027966645534, 59.902018001505205 ], [ 12.011666443282392, 59.901167726683909 ], [ 12.011695562188439, 59.900897565151503 ], [ 12.011564095800493, 59.900630948544809 ], [ 12.010615671869759, 59.900625689899918 ], [ 12.010220792116751, 59.900410240629554 ], [ 12.010183283367146, 59.900000010686895 ], [ 12.009944507137556, 59.89973347215048 ] ] ] ] } },
{ "type": "Feature", "properties": { "fid": 74157, "navn": "Igletjenn", "hoyde_moh": null, "arealInnsjo_km2": 0.0096, "magasinKategori": null, "fid_2": 670, "id": 670, "left": 11.986919847, "top": 59.946110046000001, "right": 12.486919847, "bottom": 59.446110046000001, "row_index": 29, "col_index": 16, "tile_id": 670 }, "geometry": { "type": "MultiPolygon", "coordinates": [ [ [ [ 12.096550016827894, 59.937326647277494 ], [ 12.096546323426937, 59.937479402406723 ], [ 12.096950002019272, 59.937775367161237 ], [ 12.096379191575105, 59.938184285658558 ], [ 12.096341438424776, 59.938355878037861 ], [ 12.096555645605484, 59.938539579432408 ], [ 12.097242253959358, 59.938604298538642 ], [ 12.097876012829053, 59.938104125986001 ], [ 12.09779960497222, 59.937476901754799 ], [ 12.097267373287327, 59.937148008766556 ], [ 12.096550016827894, 59.937326647277494 ] ] ] ] } },
{ "type": "Feature", "properties": { "fid": 79071, "navn": "Åbbortjenn", "hoyde_moh": null, "arealInnsjo_km2": 0.0179, "magasinKategori": null, "fid_2": 670, "id": 670, "left": 11.986919847, "top": 59.946110046000001, "right": 12.486919847, "bottom": 59.446110046000001, "row_index": 29, "col_index": 16, "tile_id": 670 }, "geometry": { "type": "MultiPolygon", "coordinates": [ [ [ [ 12.145726595475638, 59.902769677846436 ], [ 12.144279130847876, 59.902597512294122 ], [ 12.142784073111327, 59.902866807091101 ], [ 12.141775073528231, 59.903546912195466 ], [ 12.141990815750594, 59.903748453404916 ], [ 12.144001111429393, 59.903628616998176 ], [ 12.146402302567489, 59.902726633966623 ], [ 12.146720254277168, 59.902494162636202 ], [ 12.146622402929502, 59.902406776059856 ], [ 12.145726595475638, 59.902769677846436 ] ] ] ] } },
{ "type": "Feature", "properties": { "fid": 109207, "navn": null, "hoyde_moh": null, "arealInnsjo_km2": 0.004, "magasinKategori": null, "fid_2": 670, "id": 670, "left": 11.986919847, "top": 59.946110046000001, "right": 12.486919847, "bottom": 59.446110046000001, "row_index": 29, "col_index": 16, "tile_id": 670 }, "geometry": { "type": "MultiPolygon", "coordinates": [ [ [ [ 11.997055755818783, 59.914691736086127 ], [ 11.997289358728612, 59.914506747108319 ], [ 11.996512862304995, 59.913832475245449 ], [ 11.99624323245132, 59.914216030236112 ], [ 11.996217513968283, 59.914668673681895 ], [ 11.997055755818783, 59.914691736086127 ] ] ] ] } },
{ "type": "Feature", "properties": { "fid": 109983, "navn": "Jerpsettjenn", "hoyde_moh": 144, "arealInnsjo_km2": 0.1714, "magasinKategori": null, "fid_2": 670, "id": 670, "left": 11.986919847, "top": 59.946110046000001, "right": 12.486919847, "bottom": 59.446110046000001, "row_index": 29, "col_index": 16, "tile_id": 670 }, "geometry": { "type": "MultiPolygon", "coordinates": [ [ [ [ 11.996581970509444, 59.945936031723093 ], [ 11.996006621443824, 59.946110046 ], [ 11.997380752697385, 59.946110046 ], [ 11.996581970509444, 59.945936031723093 ] ] ] ] } },
{ "type": "Feature", "properties": { "fid": 119675, "navn": "Gauptjennet", "hoyde_moh": 160, "arealInnsjo_km2": 0.0443, "magasinKategori": null, "fid_2": 670, "id": 670, "left": 11.986919847, "top": 59.946110046000001, "right": 12.486919847, "bottom": 59.446110046000001, "row_index": 29, "col_index": 16, "tile_id": 670 }, "geometry": { "type": "MultiPolygon", "coordinates": [ [ [ [ 12.16930989772875, 59.907137641634058 ], [ 12.169710000328239, 59.906642817248844 ], [ 12.169503757894605, 59.905794080537518 ], [ 12.169723829139908, 59.905474276247489 ], [ 12.169816855602049, 59.904762069677965 ], [ 12.170204107125958, 59.904510187747263 ], [ 12.1700689697355, 59.904217074378643 ], [ 12.169299546132368, 59.903839981377033 ], [ 12.167791754249125, 59.903975140501871 ], [ 12.167437456531477, 59.904388013879661 ], [ 12.167436186884444, 59.905124924156311 ], [ 12.167999262221006, 59.907277131145996 ], [ 12.168592744026771, 59.90749644922257 ], [ 12.16930989772875, 59.907137641634058 ] ] ] ] } },
{ "type": "Feature", "properties": { "fid": 137823, "navn": null, "hoyde_moh": null, "arealInnsjo_km2": 0.0033, "magasinKategori": null, "fid_2": 670, "id": 670, "left": 11.986919847, "top": 59.946110046000001, "right": 12.486919847, "bottom": 59.446110046000001, "row_index": 29, "col_index": 16, "tile_id": 670 }, "geometry": { "type": "MultiPolygon", "coordinates": [ [ [ [ 12.195868093117463, 59.925618821110803 ], [ 12.195312051744562, 59.926351193723349 ], [ 12.194749142289448, 59.926454756935001 ], [ 12.19512094707529, 59.926598429436908 ], [ 12.196054267611524, 59.92625234152225 ], [ 12.196202074497396, 59.925699511612919 ], [ 12.195868093117463, 59.925618821110803 ] ] ] ] } },
{ "type": "Feature", "properties": { "fid": 158293, "navn": "Svarttjenn", "hoyde_moh": null, "arealInnsjo_km2": 0.0035, "magasinKategori": null, "fid_2": 670, "id": 670, "left": 11.986919847, "top": 59.946110046000001, "right": 12.486919847, "bottom": 59.446110046000001, "row_index": 29, "col_index": 16, "tile_id": 670 }, "geometry": { "type": "MultiPolygon", "coordinates": [ [ [ [ 12.004904473635669, 59.899183699393369 ], [ 12.004534447274132, 59.899048319113248 ], [ 12.004347986422221, 59.899160440537216 ], [ 12.004273120167705, 59.899719253553179 ], [ 12.003866931748943, 59.899971132992235 ], [ 12.004365548277564, 59.900148436847203 ], [ 12.004601258913267, 59.899999965843683 ], [ 12.004904473635669, 59.899183699393369 ] ] ] ] } },
{ "type": "Feature", "properties": { "fid": 158370, "navn": "Åbbortjenn", "hoyde_moh": null, "arealInnsjo_km2": 0.0062, "magasinKategori": null, "fid_2": 670, "id": 670, "left": 11.986919847, "top": 59.946110046000001, "right": 12.486919847, "bottom": 59.446110046000001, "row_index": 29, "col_index": 16, "tile_id": 670 }, "geometry": { "type": "MultiPolygon", "coordinates": [ [ [ [ 12.181447111147124, 59.902720383561672 ], [ 12.182620400828794, 59.902269647580134 ], [ 12.181780476940974, 59.902092200767775 ], [ 12.181381739458537, 59.901850244418554 ], [ 12.180797131638487, 59.902098023925269 ], [ 12.180674262017622, 59.902496475912542 ], [ 12.181447111147124, 59.902720383561672 ] ] ] ] } },
{ "type": "Feature", "properties": { "fid": 175087, "navn": "Kroktjenn", "hoyde_moh": 248, "arealInnsjo_km2": 0.0279, "magasinKategori": null, "fid_2": 670, "id": 670, "left": 11.986919847, "top": 59.946110046000001, "right": 12.486919847, "bottom": 59.446110046000001, "row_index": 29, "col_index": 16, "tile_id": 670 }, "geometry": { "type": "MultiPolygon", "coordinates": [ [ [ [ 12.108752819632834, 59.935602701061271 ], [ 12.108830014072579, 59.935366020905818 ], [ 12.108053675336448, 59.934153349329804 ], [ 12.107248258792584, 59.934154364537363 ], [ 12.10829438100847, 59.935001338371656 ], [ 12.10830321492902, 59.935477470357426 ], [ 12.107943830110525, 59.935656654472467 ], [ 12.107343093949254, 59.935763782430421 ], [ 12.106256990163867, 59.935393928552507 ], [ 12.106488655888711, 59.93464858211712 ], [ 12.106263113079434, 59.93453706795232 ], [ 12.105529092170945, 59.934536405560841 ], [ 12.105252075183255, 59.934830423255683 ], [ 12.104397137304506, 59.934877595157779 ], [ 12.104006657308689, 59.935072348634037 ], [ 12.104314358592092, 59.935543277310614 ], [ 12.105098975318054, 59.935368500847929 ], [ 12.106086568112103, 59.93551678656106 ], [ 12.106576137963774, 59.936267992692244 ], [ 12.107245338032135, 59.936548548227556 ], [ 12.108547148211439, 59.936467403313671 ], [ 12.108909143959197, 59.936028067756048 ], [ 12.108752819632834, 59.935602701061271 ] ] ] ] } },
{ "type": "Feature", "properties": { "fid": 191856, "navn": "Harstadsjøen", "hoyde_moh": 135, "arealInnsjo_km2": 0.6988, "magasinKategori": null, "fid_2": 670, "id": 670, "left": 11.986919847, "top": 59.946110046000001, "right": 12.486919847, "bottom": 59.446110046000001, "row_index": 29, "col_index": 16, "tile_id": 670 }, "geometry": { "type": "MultiPolygon", "coordinates": [ [ [ [ 11.99884952098013, 59.936144341516986 ], [ 11.999506618234811, 59.935491320463129 ], [ 11.999732498525711, 59.935018883694632 ], [ 12.002348676221239, 59.934249500338829 ], [ 12.003271299107618, 59.934156545278476 ], [ 12.011006548786106, 59.933962172497466 ], [ 12.01134468942171, 59.934134094360004 ], [ 12.011572867228175, 59.934479367157529 ], [ 12.011751649551478, 59.935265962627739 ], [ 12.012615030166982, 59.935506935422623 ], [ 12.012928524723831, 59.935409809442106 ], [ 12.013195652563555, 59.935197157615519 ], [ 12.012909554428344, 59.934412894780756 ], [ 12.012995807509371, 59.933979684916821 ], [ 12.013581187438689, 59.93332811788467 ], [ 12.012844162764027, 59.931916336617775 ], [ 12.013837392278178, 59.931417509649812 ], [ 12.014895468569101, 59.931240475015919 ], [ 12.015095992186025, 59.931083099249925 ], [ 12.014991148532209, 59.930321725335048 ], [ 12.01519895495217, 59.930047434280425 ], [ 12.016272496903012, 59.929843154335273 ], [ 12.017392898406456, 59.92936820718608 ], [ 12.015194507980127, 59.928816509206996 ], [ 12.013768408234254, 59.928687429005834 ], [ 12.011923643305638, 59.929070985397871 ], [ 12.011839171280828, 59.929522206088613 ], [ 12.010554452499189, 59.929767216324812 ], [ 12.010113580641834, 59.930235600481382 ], [ 12.008179253784164, 59.930423527645296 ], [ 12.007103253926486, 59.930205459922071 ], [ 12.005945910538609, 59.929486033016829 ], [ 12.004479425932905, 59.929106138443792 ], [ 12.004239597760941, 59.929228460397503 ], [ 12.004279549764219, 59.929470179323047 ], [ 12.00514929791232, 59.930178144291325 ], [ 12.00478048372802, 59.930456129698001 ], [ 12.004791164942111, 59.930770324857747 ], [ 12.004618094945094, 59.930837196928856 ], [ 12.002007402056453, 59.93027671428014 ], [ 12.000136242053234, 59.930373230711382 ], [ 11.999553253427846, 59.930062988581369 ], [ 11.999923662756222, 59.92960534364849 ], [ 11.999808379520893, 59.92951807588954 ], [ 11.994202383031396, 59.927111606466717 ], [ 11.993677938199067, 59.927447023581593 ], [ 11.992908220738054, 59.927446534342614 ], [ 11.99296253025712, 59.929440133640291 ], [ 11.992580468174875, 59.930365280842985 ], [ 11.992584080364471, 59.931398518616341 ], [ 11.99281781343751, 59.932004264529645 ], [ 11.994107070452509, 59.933734363839037 ], [ 11.995429536180753, 59.934517503823812 ], [ 11.99507170827725, 59.934732007069272 ], [ 11.995307632136122, 59.934796061035094 ], [ 11.995845054984343, 59.935790247554536 ], [ 11.997011975769004, 59.936419676627679 ], [ 11.99884952098013, 59.936144341516986 ] ], [ [ 12.000500858140862, 59.930643456797853 ], [ 12.000899122230818, 59.930933676433447 ], [ 12.000626610175818, 59.931044915101474 ], [ 12.000232694711819, 59.930847254312738 ], [ 12.000234614979163, 59.930667498347006 ], [ 12.000500858140862, 59.930643456797853 ] ], [ [ 11.997920695340014, 59.933990841170505 ], [ 11.998302410945337, 59.933856396247549 ], [ 11.998803460676863, 59.934051649795677 ], [ 11.998392443509502, 59.934258660646073 ], [ 11.997920695340014, 59.933990841170505 ] ] ] ] } },
{ "type": "Feature", "properties": { "fid": 193395, "navn": "Lomtjenn", "hoyde_moh": 174, "arealInnsjo_km2": 0.0731, "magasinKategori": null, "fid_2": 670, "id": 670, "left": 11.986919847, "top": 59.946110046000001, "right": 12.486919847, "bottom": 59.446110046000001, "row_index": 29, "col_index": 16, "tile_id": 670 }, "geometry": { "type": "MultiPolygon", "coordinates": [ [ [ [ 12.059719184827888, 59.925139487651755 ], [ 12.059296428746002, 59.924825813672747 ], [ 12.059089864466864, 59.924138683736324 ], [ 12.057053455002464, 59.923601727017413 ], [ 12.055798049822577, 59.923379422645972 ], [ 12.055486425372454, 59.923494569684316 ], [ 12.055798370038127, 59.924161148508546 ], [ 12.056841170778709, 59.925376967444151 ], [ 12.0577720129229, 59.927709661113362 ], [ 12.05830187875463, 59.928020878392253 ], [ 12.059079976280044, 59.928110575595561 ], [ 12.059599050976912, 59.92772114609604 ], [ 12.059992693405375, 59.927136901688712 ], [ 12.059719184827888, 59.925139487651755 ] ] ] ] } },
{ "type": "Feature", "properties": { "fid": 193465, "navn": "Svenbytjennet", "hoyde_moh": 185, "arealInnsjo_km2": 0.0344, "magasinKategori": null, "fid_2": 670, "id": 670, "left": 11.986919847, "top": 59.946110046000001, "right": 12.486919847, "bottom": 59.446110046000001, "row_index": 29, "col_index": 16, "tile_id": 670 }, "geometry": { "type": "MultiPolygon", "coordinates": [ [ [ [ 12.024689351721257, 59.920440004051756 ], [ 12.023844194894529, 59.920198798202669 ], [ 12.023928111308457, 59.919747649458877 ], [ 12.026468326593136, 59.919338836981176 ], [ 12.027534750628822, 59.918667429666407 ], [ 12.027547426942931, 59.918217817061986 ], [ 12.025038143684545, 59.91837431839847 ], [ 12.024229912604197, 59.918734262885636 ], [ 12.023919042073807, 59.919055927793067 ], [ 12.023521820647121, 59.91999958809933 ], [ 12.023566754099022, 59.920492733814328 ], [ 12.02286227999598, 59.921209848305445 ], [ 12.023411269006358, 59.921340948154118 ], [ 12.024257875769564, 59.921204712353187 ], [ 12.024900021176251, 59.920983255914294 ], [ 12.025086038727078, 59.920714838754058 ], [ 12.024689351721257, 59.920440004051756 ] ] ] ] } },
{ "type": "Feature", "properties": { "fid": 194717, "navn": "Asbjørntjenn", "hoyde_moh": 198, "arealInnsjo_km2": 0.0285, "magasinKategori": null, "fid_2": 670, "id": 670, "left": 11.986919847, "top": 59.946110046000001, "right": 12.486919847, "bottom": 59.446110046000001, "row_index": 29, "col_index": 16, "tile_id": 670 }, "geometry": { "type": "MultiPolygon", "coordinates": [ [ [ [ 12.049882937707638, 59.941218245733708 ], [ 12.049980627670772, 59.941305881937616 ], [ 12.04951809163434, 59.942072846741958 ], [ 12.050919333808441, 59.942362438357172 ], [ 12.053021684414107, 59.941073703710906 ], [ 12.053112320195165, 59.940891981212225 ], [ 12.052565639131799, 59.940401383316612 ], [ 12.051710155529207, 59.940250438490807 ], [ 12.050378521334785, 59.940568827960526 ], [ 12.049882937707638, 59.941218245733708 ] ] ] ] } },
{ "type": "Feature", "properties": { "fid": 196724, "navn": "Lystjennet", "hoyde_moh": 175, "arealInnsjo_km2": 0.1064, "magasinKategori": null, "fid_2": 670, "id": 670, "left": 11.986919847, "top": 59.946110046000001, "right": 12.486919847, "bottom": 59.446110046000001, "row_index": 29, "col_index": 16, "tile_id": 670 }, "geometry": { "type": "MultiPolygon", "coordinates": [ [ [ [ 12.184464733602175, 59.908820983638023 ], [ 12.185404666307679, 59.907800809579051 ], [ 12.184042679464044, 59.906845283752084 ], [ 12.183059094249426, 59.906662350224977 ], [ 12.179442940671539, 59.90757645166363 ], [ 12.179179895572528, 59.908005145164509 ], [ 12.179240810387121, 59.908452994127032 ], [ 12.179010526649929, 59.908853906985911 ], [ 12.179256009874253, 59.909549016187739 ], [ 12.178847345261383, 59.909954195909265 ], [ 12.179356350642426, 59.910409212925494 ], [ 12.180878833250736, 59.910426344916694 ], [ 12.181895174673585, 59.910015380429222 ], [ 12.183201037459774, 59.910010781100645 ], [ 12.183812018248402, 59.909852232976213 ], [ 12.184464733602175, 59.908820983638023 ] ] ] ] } },
{ "type": "Feature", "properties": { "fid": 197537, "navn": "Furuvatnet", "hoyde_moh": 172, "arealInnsjo_km2": 0.0765, "magasinKategori": null, "fid_2": 670, "id": 670, "left": 11.986919847, "top": 59.946110046000001, "right": 12.486919847, "bottom": 59.446110046000001, "row_index": 29, "col_index": 16, "tile_id": 670 }, "geometry": { "type": "MultiPolygon", "coordinates": [ [ [ [ 12.069573758941122, 59.910910394268157 ], [ 12.069852725588145, 59.911218412969539 ], [ 12.072720460793189, 59.913011637700933 ], [ 12.073128254332193, 59.913163832080535 ], [ 12.073531461577138, 59.91307359209457 ], [ 12.073628180968797, 59.912765750600428 ], [ 12.072943541957383, 59.912134785017805 ], [ 12.072894257733207, 59.911794498147515 ], [ 12.072390220918466, 59.910988466199193 ], [ 12.072691090668068, 59.909984045134046 ], [ 12.073766303743904, 59.909419939575564 ], [ 12.073779329459315, 59.908790545009367 ], [ 12.072956647369596, 59.908405402255298 ], [ 12.071694747573185, 59.908497670514755 ], [ 12.071182800714263, 59.908186183241277 ], [ 12.070702340777228, 59.907631265302328 ], [ 12.069573758941122, 59.910910394268157 ] ] ] ] } },
{ "type": "Feature", "properties": { "fid": 203500, "navn": "Vesle Holmsjøen", "hoyde_moh": 210, "arealInnsjo_km2": 0.0147, "magasinKategori": null, "fid_2": 670, "id": 670, "left": 11.986919847, "top": 59.946110046000001, "right": 12.486919847, "bottom": 59.446110046000001, "row_index": 29, "col_index": 16, "tile_id": 670 }, "geometry": { "type": "MultiPolygon", "coordinates": [ [ [ [ 12.109814836741199, 59.919312009450984 ], [ 12.108644223392135, 59.91904301277944 ], [ 12.108513464803602, 59.919558312341962 ], [ 12.108025790895111, 59.919893355627664 ], [ 12.107936846662223, 59.920281804768656 ], [ 12.108485004783144, 59.920592408082072 ], [ 12.108305235042435, 59.920776340974676 ], [ 12.108411337647942, 59.920953428833123 ], [ 12.108912327933211, 59.920950764118992 ], [ 12.10968991688153, 59.919889974010601 ], [ 12.109995500579117, 59.919712033440575 ], [ 12.109814836741199, 59.919312009450984 ] ] ] ] } },
{ "type": "Feature", "properties": { "fid": 205847, "navn": "Klanderudtjennet", "hoyde_moh": 129, "arealInnsjo_km2": 0.1767, "magasinKategori": null, "fid_2": 670, "id": 670, "left": 11.986919847, "top": 59.946110046000001, "right": 12.486919847, "bottom": 59.446110046000001, "row_index": 29, "col_index": 16, "tile_id": 670 }, "geometry": { "type": "MultiPolygon", "coordinates": [ [ [ [ 11.990282887559944, 59.917181813116223 ], [ 11.989769566668176, 59.916645419977719 ], [ 11.988990924077422, 59.91694158273117 ], [ 11.988717783634149, 59.917486963292021 ], [ 11.988964886768665, 59.917840800718693 ], [ 11.988909457750347, 59.918821385008783 ], [ 11.989084060773704, 59.918970222157178 ], [ 11.988468207573957, 59.919684965425283 ], [ 11.989004415873653, 59.920472582853243 ], [ 11.988757130004164, 59.92130492393278 ], [ 11.989086416500808, 59.922177936506486 ], [ 11.990773127589307, 59.922624949957644 ], [ 11.991171656814668, 59.923074252050377 ], [ 11.991232076919642, 59.923944353201215 ], [ 11.991590173983363, 59.923945161040031 ], [ 11.991986342723729, 59.924169857877409 ], [ 11.993207400424193, 59.924213989401842 ], [ 11.993747516562628, 59.923851256853375 ], [ 11.994753595567563, 59.923693596740158 ], [ 11.995730664948764, 59.922817774163413 ], [ 11.995596364348343, 59.92212004170505 ], [ 11.996167100630823, 59.921307284701172 ], [ 11.996085122172763, 59.920994696633365 ], [ 11.99557965329012, 59.92054791361857 ], [ 11.994893621108069, 59.920284987597739 ], [ 11.992855125098894, 59.920304343876182 ], [ 11.992049882492758, 59.920107061813958 ], [ 11.99142730501209, 59.919752565421085 ], [ 11.991148190037089, 59.919435561846477 ], [ 11.990928523320532, 59.918586892966168 ], [ 11.99034238558508, 59.917647006066048 ], [ 11.990282887559944, 59.917181813116223 ] ] ] ] } },
{ "type": "Feature", "properties": { "fid": 219150, "navn": "Åtjennet", "hoyde_moh": 149, "arealInnsjo_km2": 0.1819, "magasinKategori": null, "fid_2": 670, "id": 670, "left": 11.986919847, "top": 59.946110046000001, "right": 12.486919847, "bottom": 59.446110046000001, "row_index": 29, "col_index": 16, "tile_id": 670 }, "geometry": { "type": "MultiPolygon", "coordinates": [ [ [ [ 12.160281952159229, 59.897433841044929 ], [ 12.16115283685766, 59.896433458556466 ], [ 12.162101885539986, 59.896069177658383 ], [ 12.162538465138269, 59.895582438500895 ], [ 12.163861328783346, 59.895011459592432 ], [ 12.164139850435786, 59.89474413689824 ], [ 12.164087961890592, 59.894385960696489 ], [ 12.164526169386415, 59.893728538015296 ], [ 12.164339070983722, 59.893643196743916 ], [ 12.162833594312879, 59.893984815347814 ], [ 12.163030336777981, 59.892856778647236 ], [ 12.163481393991049, 59.892522462861287 ], [ 12.161288304875312, 59.892593093033568 ], [ 12.160397147534702, 59.893000844095454 ], [ 12.16023503639842, 59.893364291778916 ], [ 12.159867091799514, 59.893633631576407 ], [ 12.158488982767087, 59.893999241875903 ], [ 12.158329364664649, 59.894578019483276 ], [ 12.158026088610963, 59.894962857965979 ], [ 12.156673368678337, 59.895597377183144 ], [ 12.156058135266807, 59.895710961098182 ], [ 12.156059063783612, 59.896097332078917 ], [ 12.155715835780994, 59.89662676872576 ], [ 12.155358154276538, 59.896815005078381 ], [ 12.154642625888187, 59.896436828872211 ], [ 12.154011128285131, 59.896568830647162 ], [ 12.153659393699872, 59.897197182231444 ], [ 12.153667085544775, 59.897466626299973 ], [ 12.154171952028985, 59.898074582719801 ], [ 12.154569115948243, 59.898298711089296 ], [ 12.156254967016473, 59.898348147129425 ], [ 12.160281952159229, 59.897433841044929 ] ] ] ] } },
{ "type": "Feature", "properties": { "fid": 223970, "navn": "Store Stæringen", "hoyde_moh": 225, "arealInnsjo_km2": 0.0156, "magasinKategori": null, "fid_2": 670, "id": 670, "left": 11.986919847, "top": 59.946110046000001, "right": 12.486919847, "bottom": 59.446110046000001, "row_index": 29, "col_index": 16, "tile_id": 670 }, "geometry": { "type": "MultiPolygon", "coordinates": [ [ [ [ 12.034741094862017, 59.934073727348476 ], [ 12.033400502804762, 59.933511537498667 ], [ 12.032733232502565, 59.934048037891003 ], [ 12.033851927669314, 59.935316251634418 ], [ 12.035225887847794, 59.934515480479874 ], [ 12.034741094862017, 59.934073727348476 ] ] ] ] } },
{ "type": "Feature", "properties": { "fid": 225248, "navn": "Ingelsrudsjøen", "hoyde_moh": 159, "arealInnsjo_km2": 0.4668, "magasinKategori": null, "fid_2": 670, "id": 670, "left": 11.986919847, "top": 59.946110046000001, "right": 12.486919847, "bottom": 59.446110046000001, "row_index": 29, "col_index": 16, "tile_id": 670 }, "geometry": { "type": "MultiPolygon", "coordinates": [ [ [ [ 12.081345180085956, 59.93615532831992 ], [ 12.08210367101713, 59.935256893186121 ], [ 12.081852741189421, 59.934292442095789 ], [ 12.08359127490198, 59.930648446090125 ], [ 12.083429470300914, 59.93025679673044 ], [ 12.083765863329859, 59.930024336852718 ], [ 12.083634169704695, 59.929569110107558 ], [ 12.082733945634628, 59.929706966137573 ], [ 12.082468874463089, 59.929551495632332 ], [ 12.082448642183067, 59.928563488758016 ], [ 12.081970873364851, 59.928430892726702 ], [ 12.082271978432432, 59.927624132494195 ], [ 12.082841111681597, 59.927197536850997 ], [ 12.082513023309199, 59.925785354069298 ], [ 12.081930973581528, 59.925493477760725 ], [ 12.081569991416275, 59.924881860492768 ], [ 12.081658204627336, 59.924098061056476 ], [ 12.082063938966034, 59.92364826301214 ], [ 12.08209104999251, 59.923360080034492 ], [ 12.081603650429196, 59.92331756917504 ], [ 12.079287237025088, 59.924396044987184 ], [ 12.078786358609554, 59.924398780001823 ], [ 12.077626492488957, 59.923859830047057 ], [ 12.077446713553176, 59.924043723316878 ], [ 12.077497703966923, 59.924401925411694 ], [ 12.078334351178876, 59.925316928663754 ], [ 12.078673758875221, 59.926468176404747 ], [ 12.078279305717746, 59.926845794605846 ], [ 12.077436874787409, 59.927027215190364 ], [ 12.076600167994014, 59.928044200023415 ], [ 12.075698625073937, 59.928361772182804 ], [ 12.075346380006971, 59.92881031351542 ], [ 12.07361258215839, 59.930000911448936 ], [ 12.073261161807674, 59.930071998026001 ], [ 12.07271892890126, 59.929824004367454 ], [ 12.072585977147201, 59.929934983635142 ], [ 12.072595470911391, 59.930231346661373 ], [ 12.072996853263032, 59.930698236926794 ], [ 12.073047803726002, 59.931056440144445 ], [ 12.074446495653246, 59.932623333204504 ], [ 12.075829876251218, 59.932869586807108 ], [ 12.07634881186279, 59.933252815801097 ], [ 12.075719244316554, 59.933995401698837 ], [ 12.07565455015064, 59.934841538589652 ], [ 12.07580821874844, 59.934954836620506 ], [ 12.077189751014956, 59.934599026531011 ], [ 12.078002599953862, 59.93409483058705 ], [ 12.080460153086577, 59.933758883534338 ], [ 12.080330718892625, 59.934292071330667 ], [ 12.080748373131273, 59.934740606736376 ], [ 12.080366003863878, 59.935252737888945 ], [ 12.080187486154879, 59.935256870169994 ], [ 12.079413322009072, 59.935984858579587 ], [ 12.078545319036047, 59.936086024334379 ], [ 12.078209654035438, 59.936327383621588 ], [ 12.077950004574623, 59.937582516848536 ], [ 12.078406152321818, 59.937868472478804 ], [ 12.081345180085956, 59.93615532831992 ] ], [ [ 12.078835611788556, 59.929178009341079 ], [ 12.079168100877601, 59.929287270333006 ], [ 12.078893370175418, 59.929608062049212 ], [ 12.079157281432266, 59.929943397441349 ], [ 12.07904476186701, 59.930080802880887 ], [ 12.078628842736299, 59.930036631967312 ], [ 12.078571079305824, 59.929606668864551 ], [ 12.078835611788556, 59.929178009341079 ] ] ] ] } },
{ "type": "Feature", "properties": { "fid": 229345, "navn": "Possevatnet", "hoyde_moh": 168, "arealInnsjo_km2": 0.2169, "magasinKategori": null, "fid_2": 670, "id": 670, "left": 11.986919847, "top": 59.946110046000001, "right": 12.486919847, "bottom": 59.446110046000001, "row_index": 29, "col_index": 16, "tile_id": 670 }, "geometry": { "type": "MultiPolygon", "coordinates": [ [ [ [ 12.066085284309391, 59.900639975330741 ], [ 12.06662027319633, 59.900816231105622 ], [ 12.068050229043211, 59.900612206176156 ], [ 12.069377721738345, 59.900653160103815 ], [ 12.069870123762676, 59.900174419273469 ], [ 12.06941658710868, 59.899289256407847 ], [ 12.06972857616304, 59.898807670117407 ], [ 12.069776220059712, 59.898421376285945 ], [ 12.069819173211954, 59.897686530371182 ], [ 12.069628382728659, 59.897556222672506 ], [ 12.069614983099225, 59.897215204094636 ], [ 12.07139836790218, 59.896580438888307 ], [ 12.072388101619227, 59.896647189222342 ], [ 12.072949780688496, 59.895951187683067 ], [ 12.074108170914482, 59.895519758672357 ], [ 12.074559857368913, 59.894601708393495 ], [ 12.074421656581119, 59.894461074670154 ], [ 12.073830348490704, 59.89444793812055 ], [ 12.071986639210326, 59.89501211675087 ], [ 12.070359040079484, 59.894430068151408 ], [ 12.070092240288261, 59.894831703692425 ], [ 12.069155607617301, 59.894952381123844 ], [ 12.068645083042719, 59.894461027003842 ], [ 12.068640621636503, 59.893832139829321 ], [ 12.069886766695946, 59.893380777364541 ], [ 12.07012245732326, 59.89322248951003 ], [ 12.070155188915304, 59.89299714889588 ], [ 12.069891837586782, 59.892661710994183 ], [ 12.06931046360995, 59.892369872501561 ], [ 12.068267390990849, 59.89250192138811 ], [ 12.068119642878065, 59.893224371214423 ], [ 12.066353495278129, 59.895404040631277 ], [ 12.066132826859608, 59.896307714537144 ], [ 12.065719113262075, 59.89686555775868 ], [ 12.065767233694293, 59.896999162404178 ], [ 12.066708274522082, 59.897309718825596 ], [ 12.06656432271256, 59.897690542605197 ], [ 12.066911725732151, 59.89854504989421 ], [ 12.065617230739809, 59.89886268781148 ], [ 12.065481362675433, 59.89913550820539 ], [ 12.065666729477522, 59.899787115661887 ], [ 12.064336678801862, 59.900105656923834 ], [ 12.063132040978921, 59.901202949112943 ], [ 12.065154749111732, 59.901605197208674 ], [ 12.065422098516388, 59.901401258188606 ], [ 12.065225788705401, 59.901019413749147 ], [ 12.065503045153573, 59.900725483385543 ], [ 12.066085284309391, 59.900639975330741 ] ] ] ] } },
{ "type": "Feature", "properties": { "fid": 229347, "navn": "Perkerudtjennet", "hoyde_moh": 162, "arealInnsjo_km2": 0.1204, "magasinKategori": null, "fid_2": 670, "id": 670, "left": 11.986919847, "top": 59.946110046000001, "right": 12.486919847, "bottom": 59.446110046000001, "row_index": 29, "col_index": 16, "tile_id": 670 }, "geometry": { "type": "MultiPolygon", "coordinates": [ [ [ [ 12.094472620154406, 59.897756747972174 ], [ 12.095310052941404, 59.89656869408622 ], [ 12.095465374093045, 59.894588199873205 ], [ 12.095288117637253, 59.894412584472661 ], [ 12.094749555023188, 59.894389294156944 ], [ 12.093627550686525, 59.895017759283519 ], [ 12.093414205593159, 59.895606879773226 ], [ 12.093610451767155, 59.896950177555851 ], [ 12.093032255876773, 59.897269238992962 ], [ 12.092881987345468, 59.897578515740989 ], [ 12.09277827842666, 59.89819179934797 ], [ 12.092921095498811, 59.899149893341779 ], [ 12.092664826747539, 59.900818260194683 ], [ 12.092368540479558, 59.901669891782305 ], [ 12.091926314281215, 59.902300321251595 ], [ 12.091843184227258, 59.902751607072815 ], [ 12.09209364561724, 59.903329759960101 ], [ 12.092025785993966, 59.903753708689763 ], [ 12.091240664621736, 59.904544947889967 ], [ 12.091414894351104, 59.904882233921875 ], [ 12.092474915662102, 59.905504404930944 ], [ 12.092921487736589, 59.905305266313327 ], [ 12.092942751796288, 59.904765638607891 ], [ 12.093565381289283, 59.904535251273977 ], [ 12.093910281963614, 59.90420367158395 ], [ 12.093860613708468, 59.903863386767121 ], [ 12.093446872023765, 59.903261957609111 ], [ 12.093728893853894, 59.90283311959314 ], [ 12.093771999119575, 59.901951460057035 ], [ 12.094285301687311, 59.90150804621269 ], [ 12.09445886852833, 59.900875008105196 ], [ 12.094762924021456, 59.900490411915243 ], [ 12.094472620154406, 59.897756747972174 ] ] ] ] } },
{ "type": "Feature", "properties": { "fid": 269341, "navn": "Blekeren", "hoyde_moh": null, "arealInnsjo_km2": 0.0058, "magasinKategori": null, "fid_2": 670, "id": 670, "left": 11.986919847, "top": 59.946110046000001, "right": 12.486919847, "bottom": 59.446110046000001, "row_index": 29, "col_index": 16, "tile_id": 670 }, "geometry": { "type": "MultiPolygon", "coordinates": [ [ [ [ 12.05293782286854, 59.885821651295608 ], [ 12.052569693567609, 59.885932564213668 ], [ 12.052730583772998, 59.886047717349484 ], [ 12.052762211570974, 59.886455460376837 ], [ 12.053473262150549, 59.886798438940311 ], [ 12.053543923064504, 59.887476075450422 ], [ 12.053930897792352, 59.887695349561135 ], [ 12.053781916934687, 59.886656458505072 ], [ 12.05293782286854, 59.885821651295608 ] ] ] ] } },
{ "type": "Feature", "properties": { "fid": 269437, "navn": "Holmsjøen", "hoyde_moh": 173, "arealInnsjo_km2": 1.1052, "magasinKategori": null, "fid_2": 670, "id": 670, "left": 11.986919847, "top": 59.946110046000001, "right": 12.486919847, "bottom": 59.446110046000001, "row_index": 29, "col_index": 16, "tile_id": 670 }, "geometry": { "type": "MultiPolygon", "coordinates": [ [ [ [ 12.103010162806745, 59.910845889552682 ], [ 12.10398764237808, 59.910391529282215 ], [ 12.104400859892237, 59.910408788378135 ], [ 12.105563681760858, 59.911172106153685 ], [ 12.105739912968074, 59.911527474336047 ], [ 12.106416874119805, 59.912068600451924 ], [ 12.107281348781134, 59.912129094873919 ], [ 12.108108775846649, 59.911408596205838 ], [ 12.110205038990303, 59.910864902660684 ], [ 12.112342377793459, 59.909421594145748 ], [ 12.1125111985261, 59.908932373898672 ], [ 12.112419841854875, 59.908530176845943 ], [ 12.1121411490857, 59.908231244751214 ], [ 12.111430208960488, 59.907897676871734 ], [ 12.1114338422882, 59.907744740839412 ], [ 12.112278217315911, 59.907401244042333 ], [ 12.112175757131403, 59.907071312730899 ], [ 12.111558093650032, 59.906780402358464 ], [ 12.110567979475512, 59.906713853928672 ], [ 12.110671805143653, 59.906486742268434 ], [ 12.11056159821686, 59.906264640055468 ], [ 12.109886913604912, 59.906127822638219 ], [ 12.109522120580156, 59.90548035102735 ], [ 12.110103594867544, 59.904810691972187 ], [ 12.111697995848179, 59.904260911723114 ], [ 12.111475077862933, 59.903789968195127 ], [ 12.111652194030844, 59.903390332326076 ], [ 12.112035897740444, 59.90309370201286 ], [ 12.111244112308333, 59.902851893445217 ], [ 12.111316405056325, 59.902670452871341 ], [ 12.11235637023546, 59.902124769430948 ], [ 12.112479291625059, 59.901906071940402 ], [ 12.112340179623367, 59.901567879265535 ], [ 12.111661845858295, 59.901008870845622 ], [ 12.110989589208167, 59.900898796424364 ], [ 12.11107397888682, 59.90065427651848 ], [ 12.11352498194494, 59.898556535409554 ], [ 12.113597824260395, 59.89799773296523 ], [ 12.114537999642211, 59.897723892293911 ], [ 12.114425685751661, 59.89709750874804 ], [ 12.114739623847896, 59.896820548033915 ], [ 12.11482187689279, 59.896171561544435 ], [ 12.115040562157045, 59.895833930996304 ], [ 12.115484384581992, 59.895607704079936 ], [ 12.115930223971919, 59.895022117408367 ], [ 12.11704063463293, 59.894276947902569 ], [ 12.117577514965866, 59.893707096214847 ], [ 12.118748562989047, 59.893023089919417 ], [ 12.12059975104723, 59.89161805250265 ], [ 12.120903148107603, 59.891096077288545 ], [ 12.12184141592347, 59.890429329102062 ], [ 12.12179643066565, 59.889873788975223 ], [ 12.120892357300177, 59.889916311229079 ], [ 12.120637534627916, 59.889685987917744 ], [ 12.120835981647941, 59.889179850100668 ], [ 12.119911416478557, 59.889072909224602 ], [ 12.119660930250443, 59.888868636470001 ], [ 12.118972696725097, 59.889494521536058 ], [ 12.118649285834701, 59.889281319609609 ], [ 12.117704475216806, 59.889496097564816 ], [ 12.11616581988442, 59.889358266375581 ], [ 12.116018080174003, 59.889494110875852 ], [ 12.116063695982019, 59.88973385207715 ], [ 12.114204102660844, 59.890527999489983 ], [ 12.113523930904133, 59.890597148533359 ], [ 12.112045727614619, 59.890236973932744 ], [ 12.110183004680941, 59.890355390788336 ], [ 12.109806791630938, 59.890590208449488 ], [ 12.109216558793719, 59.891834384983831 ], [ 12.109736963930377, 59.892481672869209 ], [ 12.111095909260994, 59.893626717996376 ], [ 12.111640456870459, 59.894476520437678 ], [ 12.112132990429062, 59.894770440954041 ], [ 12.112318416146513, 59.895413076050779 ], [ 12.111842364671134, 59.895487187266596 ], [ 12.111323592603425, 59.895104097424579 ], [ 12.110658266520867, 59.895065872456421 ], [ 12.110122520342799, 59.89526715456946 ], [ 12.109818869487723, 59.895651792046543 ], [ 12.109654239824666, 59.896185757031702 ], [ 12.109652068528989, 59.897309204511636 ], [ 12.110105774503511, 59.897379360189412 ], [ 12.109891186657313, 59.897761729133272 ], [ 12.1100627260781, 59.897874571950219 ], [ 12.110601668342637, 59.897709030408365 ], [ 12.110828153817291, 59.898027218563492 ], [ 12.11055861893316, 59.898204332040478 ], [ 12.110518854097984, 59.898546599933098 ], [ 12.110348173678105, 59.898631628126402 ], [ 12.109976069633062, 59.898478444871778 ], [ 12.109600030074708, 59.898856012919509 ], [ 12.109602079266535, 59.8992602968002 ], [ 12.109813447696158, 59.899417052374233 ], [ 12.109566802077763, 59.899647498567752 ], [ 12.109337962223435, 59.900452661646753 ], [ 12.108793814890205, 59.900564353644427 ], [ 12.107445986627328, 59.899922338495998 ], [ 12.107412966614019, 59.899761229482003 ], [ 12.107680036314829, 59.899557292345953 ], [ 12.107519563003576, 59.898797223752787 ], [ 12.107623553830104, 59.898570207825493 ], [ 12.108049542098637, 59.898344421803166 ], [ 12.108046546143189, 59.898119818608613 ], [ 12.107337021236269, 59.897992822870755 ], [ 12.106584726618815, 59.898172353688338 ], [ 12.106438910025085, 59.897951082065212 ], [ 12.105598009179538, 59.897566552812194 ], [ 12.105140003759965, 59.897640318200075 ], [ 12.10479859033501, 59.898582898752863 ], [ 12.104189110970854, 59.898758996266736 ], [ 12.103863116778196, 59.899099192922918 ], [ 12.102858295229272, 59.899257516223543 ], [ 12.102847617215264, 59.900291197909795 ], [ 12.102229278936905, 59.900566377552224 ], [ 12.102374073961565, 59.900967423596875 ], [ 12.101614531339282, 59.90126384390593 ], [ 12.101574949949567, 59.902181341306502 ], [ 12.101365551656594, 59.902428855827708 ], [ 12.102179376587589, 59.903865420640855 ], [ 12.102462029155276, 59.90478434539007 ], [ 12.102453341723704, 59.905458486477244 ], [ 12.102111173391041, 59.905817013014968 ], [ 12.102154305471021, 59.906085538291137 ], [ 12.10233000890956, 59.906243138402289 ], [ 12.102710356544623, 59.907636108442439 ], [ 12.103021153440658, 59.907898210091879 ], [ 12.102948916493572, 59.908466187077046 ], [ 12.103429644339393, 59.908823133254522 ], [ 12.102368425211051, 59.908955957176538 ], [ 12.101737198581516, 59.908710346069633 ], [ 12.10120337118474, 59.908740830908073 ], [ 12.100800753643446, 59.909028839147531 ], [ 12.099638653421389, 59.909038212048813 ], [ 12.098528645055827, 59.9098012255117 ], [ 12.098385999424423, 59.910379600598873 ], [ 12.096509840038882, 59.911367242022322 ], [ 12.096428600094997, 59.911647854016664 ], [ 12.098027619872711, 59.912293084341613 ], [ 12.09865034954549, 59.912062763670384 ], [ 12.099577356184261, 59.911259240100499 ], [ 12.10028520746377, 59.910981907061753 ], [ 12.103010162806745, 59.910845889552682 ] ], [ [ 12.11031919784071, 59.900043087684516 ], [ 12.110484944939831, 59.900093086803672 ], [ 12.110516982305107, 59.90024509833362 ], [ 12.110188384242672, 59.900360715595632 ], [ 12.11031919784071, 59.900043087684516 ] ], [ [ 12.108588290158863, 59.903911997550615 ], [ 12.108919960575889, 59.903823226708717 ], [ 12.108886143997722, 59.904228430496993 ], [ 12.10857717499473, 59.904140513776852 ], [ 12.108588290158863, 59.903911997550615 ] ], [ [ 12.108350241798941, 59.904752448249212 ], [ 12.108619213998741, 59.904432463327261 ], [ 12.108801720625205, 59.904473038378882 ], [ 12.108680476171559, 59.904898246839586 ], [ 12.108350241798941, 59.904752448249212 ] ], [ [ 12.109445847471305, 59.907342451880538 ], [ 12.109904026632353, 59.907457360149863 ], [ 12.109681575945295, 59.907947826942845 ], [ 12.109321631014145, 59.907886108763151 ], [ 12.109445847471305, 59.907342451880538 ] ], [ [ 12.107130950230692, 59.908223751225947 ], [ 12.106925021512902, 59.908318424417189 ], [ 12.10601699751753, 59.908366767292762 ], [ 12.105749497662991, 59.90818442359479 ], [ 12.105888710989355, 59.907758893215913 ], [ 12.105202066580901, 59.907496357350581 ], [ 12.106737950180657, 59.907082820210142 ], [ 12.106823582721306, 59.907233493912393 ], [ 12.106685057490385, 59.907412938693369 ], [ 12.107135404827249, 59.90789104152843 ], [ 12.107130950230692, 59.908223751225947 ] ], [ [ 12.104950420387343, 59.908686653435041 ], [ 12.104830535138214, 59.908879893876311 ], [ 12.104514406092015, 59.908752635784879 ], [ 12.104596558704543, 59.90848120466601 ], [ 12.104950420387343, 59.908686653435041 ] ], [ [ 12.1073339496958, 59.909054656638602 ], [ 12.107452418250096, 59.908791209529006 ], [ 12.108488036297718, 59.908578085461379 ], [ 12.108605148737347, 59.908108040746761 ], [ 12.108842280903268, 59.908156373436178 ], [ 12.109400550091163, 59.908772241341602 ], [ 12.107866986605249, 59.909590279491553 ], [ 12.107426492896428, 59.909479526528855 ], [ 12.1073339496958, 59.909054656638602 ] ], [ [ 12.118457510022427, 59.89136271711417 ], [ 12.118724458875104, 59.890995345487958 ], [ 12.119448648484919, 59.89070987383041 ], [ 12.12008271965848, 59.890787023057413 ], [ 12.120069374533212, 59.890954122721837 ], [ 12.119128600149701, 59.891439926016886 ], [ 12.118457510022427, 59.89136271711417 ] ], [ [ 12.114089028639579, 59.892032193863351 ], [ 12.114288454089273, 59.892038234983659 ], [ 12.114255761580052, 59.892097431095472 ], [ 12.114089028639579, 59.892032193863351 ] ], [ [ 12.114228061162152, 59.892182550700923 ], [ 12.114452771267, 59.892340876498103 ], [ 12.114311757675587, 59.892469858346018 ], [ 12.114592434242896, 59.892812678630996 ], [ 12.114114468753623, 59.893393513593509 ], [ 12.114097314279871, 59.894355528679988 ], [ 12.113505949611064, 59.894917703813157 ], [ 12.112804964821628, 59.894880325474354 ], [ 12.11221238219383, 59.894471990289539 ], [ 12.112249571726345, 59.893150202147027 ], [ 12.112677694227409, 59.892565046155234 ], [ 12.114228061162152, 59.892182550700923 ] ], [ [ 12.1139688517352, 59.895275121100951 ], [ 12.114480275073829, 59.895388846389643 ], [ 12.114273611662398, 59.895474618435273 ], [ 12.1139688517352, 59.895275121100951 ] ], [ [ 12.111205976852395, 59.9039759882466 ], [ 12.111266691421465, 59.903857818235728 ], [ 12.111511291249442, 59.903986636824563 ], [ 12.111205976852395, 59.9039759882466 ] ], [ [ 12.110949796889074, 59.908690676980861 ], [ 12.110902617069195, 59.90837732134095 ], [ 12.11106852982309, 59.908238636257416 ], [ 12.111349654404792, 59.908375713174259 ], [ 12.111351352607805, 59.908619605130191 ], [ 12.110949796889074, 59.908690676980861 ] ] ] ] } },
{ "type": "Feature", "properties": { "fid": 269438, "navn": "Helgesjøen", "hoyde_moh": 164, "arealInnsjo_km2": 4.0013, "magasinKategori": null, "fid_2": 670, "id": 670, "left": 11.986919847, "top": 59.946110046000001, "right": 12.486919847, "bottom": 59.446110046000001, "row_index": 29, "col_index": 16, "tile_id": 670 }, "geometry": { "type": "MultiPolygon", "coordinates": [ [ [ [ 12.036631409544601, 59.912850972915045 ], [ 12.036623044277549, 59.912563612618172 ], [ 12.037944204250582, 59.912335533174712 ], [ 12.038165318151048, 59.911818185632058 ], [ 12.038524633246361, 59.911639188103479 ], [ 12.040012433097894, 59.911470094350761 ], [ 12.041204024049218, 59.911784033048654 ], [ 12.041693330513505, 59.912437742762279 ], [ 12.042594764245022, 59.912902216114659 ], [ 12.043177482738241, 59.913598540246682 ], [ 12.044479153415635, 59.914134519503605 ], [ 12.04497286756312, 59.914248925170057 ], [ 12.04546301769917, 59.914129810299194 ], [ 12.046272405970349, 59.91358988024858 ], [ 12.047122970182938, 59.913498337307573 ], [ 12.044869064205278, 59.91155558120127 ], [ 12.044521270580931, 59.911078475600299 ], [ 12.044295100694523, 59.90997844897872 ], [ 12.04251474118251, 59.908707680829828 ], [ 12.042232691189652, 59.908166001761771 ], [ 12.042245152466561, 59.907716475272906 ], [ 12.043302325764541, 59.907539205268371 ], [ 12.043702974432405, 59.907224545205253 ], [ 12.043828006031958, 59.906637553503366 ], [ 12.04405172924643, 59.906344799819124 ], [ 12.045477991213257, 59.906096184737066 ], [ 12.045214953126695, 59.905760882546346 ], [ 12.045383739210834, 59.905649206935777 ], [ 12.046246266061498, 59.905889769092809 ], [ 12.046828612950382, 59.906388482656226 ], [ 12.047192196879346, 59.907036028784987 ], [ 12.047543604402311, 59.906965014081202 ], [ 12.047629629527245, 59.906343091149182 ], [ 12.047131025588794, 59.905393038695152 ], [ 12.047309092351004, 59.904993589093202 ], [ 12.046864247952113, 59.90424008113353 ], [ 12.046932197156252, 59.904004841077438 ], [ 12.047489671796086, 59.903641571372461 ], [ 12.046383960244063, 59.902903347396283 ], [ 12.046891058886354, 59.902774725804882 ], [ 12.046485488462123, 59.902254007719648 ], [ 12.046478523247369, 59.901786883835122 ], [ 12.04718511541247, 59.90168969046033 ], [ 12.048671419649766, 59.902293300104468 ], [ 12.050326197340068, 59.902587436803451 ], [ 12.050440067101546, 59.902854334669236 ], [ 12.052249405312041, 59.903854738143892 ], [ 12.052388824730109, 59.903815627093422 ], [ 12.052391732158229, 59.903456100183774 ], [ 12.051707334340954, 59.902627343278098 ], [ 12.051662358814344, 59.90233179810172 ], [ 12.052063616946274, 59.90163956545338 ], [ 12.052452077804048, 59.901387954504663 ], [ 12.054424137956897, 59.901629836579112 ], [ 12.054821553231376, 59.901476808176703 ], [ 12.055159285168676, 59.90106465608558 ], [ 12.055267156519024, 59.900487066780244 ], [ 12.055253911889801, 59.900145958301252 ], [ 12.054991476097774, 59.900017261694927 ], [ 12.053786516099548, 59.899946286318446 ], [ 12.052251694305909, 59.899595483300352 ], [ 12.05129183039171, 59.898880870652711 ], [ 12.050492900231639, 59.897776027839015 ], [ 12.050128012957618, 59.89672430060282 ], [ 12.050081526306105, 59.895242747631656 ], [ 12.051224638459034, 59.896007029895841 ], [ 12.053049837163893, 59.897573139161985 ], [ 12.053989150179557, 59.898063545313597 ], [ 12.055351121186346, 59.898481268747759 ], [ 12.057718099280253, 59.900879416469557 ], [ 12.058004798150296, 59.901663766537737 ], [ 12.056797847158643, 59.902931583499957 ], [ 12.057114745390244, 59.903265728406559 ], [ 12.058324523029951, 59.903192744904366 ], [ 12.058956752979631, 59.902872520264644 ], [ 12.06023167168482, 59.901369170100153 ], [ 12.059376942161123, 59.900634323391692 ], [ 12.059323557846165, 59.900249100596433 ], [ 12.059504718225346, 59.899885467346344 ], [ 12.060878182108118, 59.899260466917134 ], [ 12.059321864280109, 59.898478962013534 ], [ 12.058542867266061, 59.89856894130844 ], [ 12.056538347057627, 59.89816618535955 ], [ 12.05563445920928, 59.897477296000723 ], [ 12.055726634714118, 59.896729353610986 ], [ 12.056379799481087, 59.895860518993082 ], [ 12.056366454598663, 59.893767185046222 ], [ 12.056262159508687, 59.893410114162855 ], [ 12.055500995352094, 59.893301987099875 ], [ 12.054705924059116, 59.893796730216195 ], [ 12.053955900956424, 59.894002790179051 ], [ 12.053460103486978, 59.894445636352998 ], [ 12.052582349431971, 59.894430038574363 ], [ 12.052255882858018, 59.894770014333382 ], [ 12.051459557650821, 59.895058138452242 ], [ 12.050151363447251, 59.894639060417227 ], [ 12.049977590334976, 59.894499399801568 ], [ 12.049793221142542, 59.893658915638923 ], [ 12.049263315864639, 59.893536434479039 ], [ 12.048806380371017, 59.894014278944312 ], [ 12.048728050463858, 59.894330604349939 ], [ 12.049541001576154, 59.895201347346578 ], [ 12.049552436685826, 59.895713317855787 ], [ 12.049293182026188, 59.896006810904602 ], [ 12.049741082702131, 59.897380278133802 ], [ 12.049623374581603, 59.898631992539435 ], [ 12.049889720087386, 59.899191903628925 ], [ 12.050344461338719, 59.899666629269248 ], [ 12.050303253529297, 59.899802462983381 ], [ 12.049716588377287, 59.899842786037411 ], [ 12.049255962005534, 59.89930547829708 ], [ 12.048239819509298, 59.899535646623974 ], [ 12.047109810666228, 59.899112536820397 ], [ 12.045263373692615, 59.897115468237942 ], [ 12.04522518415688, 59.89630763786883 ], [ 12.042721962768324, 59.892995880350185 ], [ 12.041726578624818, 59.890323202347034 ], [ 12.040467100085266, 59.889651460656104 ], [ 12.040233880623253, 59.889252300395334 ], [ 12.039477419586051, 59.888604882022264 ], [ 12.040050510920512, 59.888618573852327 ], [ 12.040639369569936, 59.887542485528591 ], [ 12.041255596771791, 59.887074537692939 ], [ 12.041059821123985, 59.886851848022111 ], [ 12.041813146168998, 59.886761353796551 ], [ 12.041451206318381, 59.886326165630479 ], [ 12.041974553603071, 59.886021261030443 ], [ 12.040466214298958, 59.88557843506652 ], [ 12.040416504006707, 59.885090903564659 ], [ 12.039926871697778, 59.884629685072419 ], [ 12.037689562368117, 59.88339680323103 ], [ 12.036926250689946, 59.883415290860931 ], [ 12.036835210340852, 59.883950190954941 ], [ 12.03705492630719, 59.884251832879329 ], [ 12.035240806757381, 59.883619677907561 ], [ 12.034537695790007, 59.882953022802617 ], [ 12.034264773310232, 59.88309749791452 ], [ 12.03428204481021, 59.88340224041778 ], [ 12.033997330995293, 59.88361413647538 ], [ 12.033559654886407, 59.883512095309264 ], [ 12.033154450763409, 59.883166489150753 ], [ 12.032917159846475, 59.883291412510069 ], [ 12.032789710248073, 59.883188829371655 ], [ 12.032870237450972, 59.883044846878512 ], [ 12.031925592714259, 59.882737864745351 ], [ 12.031364000897916, 59.882335470637905 ], [ 12.030956024941498, 59.881915377406557 ], [ 12.030679904427481, 59.881222044755532 ], [ 12.030432435600625, 59.881211521490485 ], [ 12.031008787928291, 59.881102713232934 ], [ 12.030824109365382, 59.880791283282733 ], [ 12.029986414705112, 59.880419954082491 ], [ 12.029616897742176, 59.880056666803306 ], [ 12.030266110233182, 59.880074223461307 ], [ 12.033139849481625, 59.881491055885611 ], [ 12.033704585479496, 59.88134567309158 ], [ 12.033628935098438, 59.881089457114342 ], [ 12.03285528724547, 59.880637570940976 ], [ 12.032342283417565, 59.880090747824603 ], [ 12.032451587773968, 59.879957747490792 ], [ 12.0323050956672, 59.879769615614556 ], [ 12.033027834903649, 59.880021358418283 ], [ 12.033683118015942, 59.879835317882545 ], [ 12.034289849858764, 59.879895440879856 ], [ 12.034388493376818, 59.879755405951862 ], [ 12.034283045016108, 59.87937705443241 ], [ 12.034516088797149, 59.87928776833472 ], [ 12.033999103565041, 59.878786930187651 ], [ 12.03450249067879, 59.878758320618829 ], [ 12.034542507174775, 59.878549026417716 ], [ 12.033675553064295, 59.87816322379701 ], [ 12.0335989748688, 59.87788661677407 ], [ 12.03330095742985, 59.877847697845922 ], [ 12.032992525126396, 59.87750827803891 ], [ 12.031969863010769, 59.877003437702598 ], [ 12.031789187079447, 59.876729226738341 ], [ 12.031915264534026, 59.876571194342802 ], [ 12.031499124714619, 59.876358885021681 ], [ 12.033001060378277, 59.876667570655783 ], [ 12.033385361015061, 59.876509848208833 ], [ 12.031865551819735, 59.875757216779377 ], [ 12.031425621845383, 59.874907591943305 ], [ 12.031759536888963, 59.874601691829611 ], [ 12.032229400502528, 59.874545083220802 ], [ 12.032556015930219, 59.873939335069991 ], [ 12.033219960638709, 59.873701728741466 ], [ 12.033088704670361, 59.873620579532052 ], [ 12.033017568085182, 59.873056606076716 ], [ 12.032614253187612, 59.87265920156748 ], [ 12.030964901502067, 59.8717788377323 ], [ 12.030541750140504, 59.871288941073928 ], [ 12.02916162410105, 59.870523744821107 ], [ 12.028514570718309, 59.869709948220773 ], [ 12.027832037021108, 59.869645963483471 ], [ 12.027617443366054, 59.869453798413808 ], [ 12.027701533771301, 59.869314598871497 ], [ 12.027204370730102, 59.869226636008584 ], [ 12.026344208364652, 59.869672410422815 ], [ 12.025544736410209, 59.868996010374069 ], [ 12.025440269079903, 59.868556759094517 ], [ 12.024883070460374, 59.868041331304823 ], [ 12.024557727424664, 59.867427881391507 ], [ 12.024676194543344, 59.867034938728594 ], [ 12.024571042478458, 59.866538972691167 ], [ 12.024793678738765, 59.865665057047266 ], [ 12.024112289439508, 59.865176963824759 ], [ 12.023229419215877, 59.865125334571978 ], [ 12.023159589563361, 59.865392088137817 ], [ 12.022286519391573, 59.86493225784178 ], [ 12.021976468284731, 59.865028468002059 ], [ 12.021520376889754, 59.864782890051323 ], [ 12.021421496990682, 59.864108197704994 ], [ 12.022124480271437, 59.86385912339189 ], [ 12.022134447605755, 59.863660024250763 ], [ 12.021774618735368, 59.863132099911944 ], [ 12.021080827531621, 59.862680028054747 ], [ 12.02085988264999, 59.862356114512863 ], [ 12.020811728456929, 59.861777411142235 ], [ 12.020416915491573, 59.861543207449692 ], [ 12.020480552617975, 59.862216528245796 ], [ 12.021126291909141, 59.863375104063834 ], [ 12.020851099949917, 59.863574840307663 ], [ 12.020995601477145, 59.863746400004601 ], [ 12.020395665933407, 59.863628228654093 ], [ 12.020042249014388, 59.863818348041598 ], [ 12.020008071766643, 59.864440420536859 ], [ 12.019717441627849, 59.865143081675924 ], [ 12.020095272058084, 59.866300869735262 ], [ 12.018660977163218, 59.868659443670033 ], [ 12.018422844434147, 59.869366580306767 ], [ 12.018536892256604, 59.869796225357625 ], [ 12.018207375610912, 59.871200433864999 ], [ 12.018313441565887, 59.872326326478394 ], [ 12.018196621050969, 59.872603488088586 ], [ 12.018476434711822, 59.873806080130542 ], [ 12.018129592294455, 59.87436084063571 ], [ 12.01748536842919, 59.874774224903561 ], [ 12.017450491741181, 59.875307863926707 ], [ 12.017126600788266, 59.875720677425768 ], [ 12.017267329472801, 59.875854928166042 ], [ 12.016591725229139, 59.875865749008362 ], [ 12.015893885811481, 59.876215947212373 ], [ 12.015912791874378, 59.876554975658635 ], [ 12.016229237583559, 59.876902482195057 ], [ 12.016526387918651, 59.877082133156904 ], [ 12.016922288214795, 59.877017872864961 ], [ 12.017490603538761, 59.877323037661178 ], [ 12.017599423482245, 59.877715427517487 ], [ 12.018055901665766, 59.878031111912655 ], [ 12.017671932921031, 59.879011786809457 ], [ 12.018409494963022, 59.880351476746867 ], [ 12.018079850967903, 59.88062781713802 ], [ 12.018088169061123, 59.881070863314328 ], [ 12.017800311283317, 59.881187471355851 ], [ 12.017244916633834, 59.880912694125854 ], [ 12.016760907322075, 59.8799584240044 ], [ 12.01630524324832, 59.879956975958706 ], [ 12.015212970571987, 59.880967030617263 ], [ 12.014924797181152, 59.882067544427279 ], [ 12.01527979953814, 59.882622745289304 ], [ 12.015809448843921, 59.882897683869835 ], [ 12.015881409071003, 59.883139945842174 ], [ 12.016870130844682, 59.883989157818725 ], [ 12.017926390445533, 59.884489242352991 ], [ 12.016743739584964, 59.886045098856322 ], [ 12.016838806347616, 59.886247763407724 ], [ 12.018620929931995, 59.88661401102253 ], [ 12.019783486980367, 59.886500730281085 ], [ 12.020395491491485, 59.886356238732176 ], [ 12.020406900699253, 59.8860598601334 ], [ 12.019461924914221, 59.885341687030575 ], [ 12.019017762095427, 59.884681498209424 ], [ 12.018832518102922, 59.884174954011087 ], [ 12.01885839793294, 59.883246326366894 ], [ 12.018576086620133, 59.883141516305564 ], [ 12.017930689559547, 59.883452255246219 ], [ 12.017060745683755, 59.882901912474964 ], [ 12.016745542578903, 59.881902990579917 ], [ 12.016826802225808, 59.881740622251108 ], [ 12.017023265168037, 59.881668472360388 ], [ 12.018345151062395, 59.882113390465108 ], [ 12.019089829113096, 59.882096817420539 ], [ 12.019300823079453, 59.881947259929305 ], [ 12.01947115765279, 59.881619606369163 ], [ 12.019542642586531, 59.880732993720443 ], [ 12.01985752614504, 59.880391620408155 ], [ 12.018968293754849, 59.879588873312471 ], [ 12.019438213011355, 59.878132716335742 ], [ 12.019611565970358, 59.877997986136471 ], [ 12.020397808816371, 59.87821999550949 ], [ 12.021555741372405, 59.879049065387136 ], [ 12.021553387520481, 59.879583278341684 ], [ 12.021876623127527, 59.879942559629107 ], [ 12.02195134649334, 59.880445116986479 ], [ 12.02275866020554, 59.880647415361196 ], [ 12.023713820188197, 59.880516635806678 ], [ 12.023926060616965, 59.880645118161176 ], [ 12.023597042891774, 59.880964894563292 ], [ 12.024054781330632, 59.88131276187368 ], [ 12.024400275445009, 59.881923098375445 ], [ 12.024323976298014, 59.882397323844273 ], [ 12.024801665467288, 59.882477270869813 ], [ 12.024741941824683, 59.88267709630189 ], [ 12.025227313966774, 59.883063582780558 ], [ 12.024578290728885, 59.88359385760392 ], [ 12.024797398058318, 59.883805114443632 ], [ 12.024286066140515, 59.884798598705949 ], [ 12.024403238299042, 59.885080783683371 ], [ 12.024992609299645, 59.885482209215539 ], [ 12.024947854635906, 59.88621198347829 ], [ 12.025385854313988, 59.887015562141229 ], [ 12.025192706636744, 59.887363319900771 ], [ 12.026664215366623, 59.888096034766214 ], [ 12.027027140154365, 59.889076083586858 ], [ 12.027914069873555, 59.88986828461335 ], [ 12.028672835073847, 59.890911586894589 ], [ 12.029042047961632, 59.892214894798578 ], [ 12.02886889035836, 59.892865934973571 ], [ 12.029509946945948, 59.893228580939663 ], [ 12.029780984184114, 59.893653683757115 ], [ 12.030332301474035, 59.895581895001008 ], [ 12.03011545638021, 59.896341663145243 ], [ 12.030485367763088, 59.898633464116173 ], [ 12.030051720243142, 59.89937127171595 ], [ 12.030234500848401, 59.900786819689401 ], [ 12.031097952617749, 59.901036490987835 ], [ 12.031777803621946, 59.902018282084263 ], [ 12.031730914806223, 59.902288943682841 ], [ 12.030994497941267, 59.90264721709444 ], [ 12.030850291790902, 59.903028002294988 ], [ 12.031698772350557, 59.903700363348769 ], [ 12.031621345648645, 59.904421043894899 ], [ 12.031981959933466, 59.904843935304761 ], [ 12.032598864033789, 59.905135392449914 ], [ 12.032824894183829, 59.905651303128508 ], [ 12.033285689469382, 59.90540721580274 ], [ 12.033727331833953, 59.905738388961637 ], [ 12.03358800462879, 59.906172929343107 ], [ 12.034269590503268, 59.906974856170045 ], [ 12.033290219894356, 59.907222095216795 ], [ 12.033122610672956, 59.907540446286994 ], [ 12.033212762890544, 59.907745007131354 ], [ 12.034725766455264, 59.908051689413739 ], [ 12.035316816769013, 59.908451363348838 ], [ 12.03531967718188, 59.908675972129252 ], [ 12.034785690584586, 59.908903863208359 ], [ 12.034633789370821, 59.90978801909548 ], [ 12.034755026915091, 59.910135606591624 ], [ 12.034484246052738, 59.910501326146502 ], [ 12.034573289578583, 59.911083336228629 ], [ 12.036020123295108, 59.911840745007567 ], [ 12.035346046073174, 59.91229659076776 ], [ 12.035937434107314, 59.912893946086371 ], [ 12.03599300038583, 59.913306007019479 ], [ 12.035514346246416, 59.913550691490606 ], [ 12.034689710578439, 59.913533751022726 ], [ 12.033399968517587, 59.914695637208169 ], [ 12.033317389409317, 59.914967112795686 ], [ 12.033901430281073, 59.915286124445458 ], [ 12.034610603224655, 59.915215828354157 ], [ 12.034873314112495, 59.914760522169914 ], [ 12.035242515775545, 59.914491362648278 ], [ 12.03684508769026, 59.914014171523583 ], [ 12.037249938204472, 59.913744280974676 ], [ 12.037282692729763, 59.913533502237151 ], [ 12.036631409544601, 59.912850972915045 ] ], [ [ 12.024813413079801, 59.870632994365948 ], [ 12.024979106244338, 59.870591847944588 ], [ 12.025780908279726, 59.871038914084721 ], [ 12.026820597355801, 59.871225720556318 ], [ 12.027747781815116, 59.871079781506744 ], [ 12.027945900414579, 59.87121882068449 ], [ 12.027974710277222, 59.871352266930614 ], [ 12.027566727228844, 59.871589633440927 ], [ 12.028166454098585, 59.872115433985996 ], [ 12.028112422701634, 59.872449487751858 ], [ 12.027774945783753, 59.872821143723272 ], [ 12.027909460494708, 59.873013701611185 ], [ 12.027763117551693, 59.873203674238745 ], [ 12.028041028523161, 59.873474390083707 ], [ 12.027737698610402, 59.873609897985617 ], [ 12.026452865129464, 59.873001339210809 ], [ 12.025108149383447, 59.871659171708657 ], [ 12.025018308155966, 59.871337960196136 ], [ 12.02537074257685, 59.870922898852633 ], [ 12.024868811231546, 59.870777726141441 ], [ 12.024813413079801, 59.870632994365948 ] ], [ [ 12.027706510045018, 59.873757174946206 ], [ 12.027678631859642, 59.87372573443276 ], [ 12.027751908389265, 59.87367230818294 ], [ 12.027706510045018, 59.873757174946206 ] ], [ [ 12.032193714978943, 59.877854847316712 ], [ 12.032267868677881, 59.877932274932 ], [ 12.03218979040212, 59.877889424573986 ], [ 12.032193714978943, 59.877854847316712 ] ], [ [ 12.032527311617418, 59.878317289458018 ], [ 12.032394870860458, 59.877931426771852 ], [ 12.03281508691091, 59.878210343711054 ], [ 12.032856839134343, 59.878359085725947 ], [ 12.032527311617418, 59.878317289458018 ] ], [ [ 12.024406113661424, 59.880546867250459 ], [ 12.024440590222079, 59.880532946252259 ], [ 12.024477285283556, 59.880554576867169 ], [ 12.024399179109517, 59.880656566548907 ], [ 12.024406113661424, 59.880546867250459 ] ], [ [ 12.016807061694738, 59.881462407060191 ], [ 12.016734131025842, 59.881539287611176 ], [ 12.016483291864271, 59.881247847681216 ], [ 12.016634789912041, 59.881069899850893 ], [ 12.016807061694738, 59.881462407060191 ] ], [ [ 12.033416655156461, 59.888906700200415 ], [ 12.033274769460402, 59.888937442436337 ], [ 12.033416633066862, 59.888906546950992 ], [ 12.033783924232297, 59.888852220504816 ], [ 12.033416655156461, 59.888906700200415 ] ], [ [ 12.032974055517901, 59.889167907820053 ], [ 12.033070685398753, 59.888981885814751 ], [ 12.032682040484319, 59.888835166895305 ], [ 12.032538207054431, 59.888533448618702 ], [ 12.033096419244263, 59.888714691733192 ], [ 12.033161213702511, 59.888962046016424 ], [ 12.033830477990307, 59.889272742475683 ], [ 12.03352094384614, 59.889401269662741 ], [ 12.032974055517901, 59.889167907820053 ] ], [ [ 12.034575580864894, 59.896901675781343 ], [ 12.034074955723732, 59.896904060632131 ], [ 12.033583880249454, 59.896619036358167 ], [ 12.03336642713294, 59.896390312298713 ], [ 12.033263931250747, 59.895071823340864 ], [ 12.033702683174846, 59.894980890123158 ], [ 12.03473106420954, 59.895469311954706 ], [ 12.035231022016454, 59.895853191558984 ], [ 12.035506879079504, 59.896488018507782 ], [ 12.034575580864894, 59.896901675781343 ] ], [ [ 12.036140443457155, 59.906500483444503 ], [ 12.035814956346377, 59.905285885256426 ], [ 12.035950349680336, 59.905201953494789 ], [ 12.038054311671988, 59.905908175785648 ], [ 12.038240696295054, 59.906380144461693 ], [ 12.038108725390183, 59.906895362981857 ], [ 12.038192147265423, 59.907414615690861 ], [ 12.037944583139815, 59.907645004911949 ], [ 12.037455401653395, 59.907575420026284 ], [ 12.036140443457155, 59.906500483444503 ] ], [ [ 12.034671696497764, 59.906480367992877 ], [ 12.034630909667934, 59.906229746260884 ], [ 12.034801998879798, 59.906144822064377 ], [ 12.035561831662717, 59.906432922446527 ], [ 12.037073967634974, 59.907709978222684 ], [ 12.036160538006174, 59.908090447215244 ], [ 12.035208801696657, 59.907267805335152 ], [ 12.034671696497764, 59.906480367992877 ] ], [ [ 12.037119562890579, 59.910557386896983 ], [ 12.037083800322689, 59.910360521996118 ], [ 12.037801147898556, 59.91037988838103 ], [ 12.037521491747494, 59.910646844746303 ], [ 12.037119562890579, 59.910557386896983 ] ], [ [ 12.036075675308746, 59.911075633074923 ], [ 12.03677860784037, 59.911329018733852 ], [ 12.036632101874575, 59.911485123687974 ], [ 12.035975199320166, 59.911347516017642 ], [ 12.036075675308746, 59.911075633074923 ] ], [ [ 12.040669440254634, 59.897536172116418 ], [ 12.040313148247888, 59.897355647104234 ], [ 12.038204894568736, 59.895813806682106 ], [ 12.038331767571876, 59.895244830793473 ], [ 12.037876808345999, 59.894572376830439 ], [ 12.03788004178142, 59.89362880550771 ], [ 12.037656716581065, 59.893337418312242 ], [ 12.036336167611031, 59.892586091221702 ], [ 12.03493073634891, 59.890902311876168 ], [ 12.034937697127408, 59.890587620540117 ], [ 12.035503964318298, 59.890718347484444 ], [ 12.035652785197211, 59.891173123423926 ], [ 12.03699181005415, 59.891933050957725 ], [ 12.037837789905199, 59.891796725339695 ], [ 12.038332034621982, 59.891138341279344 ], [ 12.039827338675494, 59.891651960361266 ], [ 12.04110479692617, 59.892323302375587 ], [ 12.040664632008093, 59.893178163425539 ], [ 12.040673779093568, 59.893672114727572 ], [ 12.040975120466058, 59.89403362789902 ], [ 12.040817384301194, 59.894459673909523 ], [ 12.040907669280937, 59.894861820696605 ], [ 12.041764561454139, 59.89582147858534 ], [ 12.041636520881829, 59.895986179445238 ], [ 12.040703418696356, 59.895756126939858 ], [ 12.040245130768632, 59.895829572124711 ], [ 12.040519223064248, 59.896479263185618 ], [ 12.040260053537773, 59.896772831463373 ], [ 12.040311948938172, 59.896951278873253 ], [ 12.040923506857965, 59.897446635733075 ], [ 12.040669440254634, 59.897536172116418 ] ], [ [ 12.053157173139983, 59.895234418020742 ], [ 12.053278908660666, 59.894809261278859 ], [ 12.053831476341145, 59.894985156173952 ], [ 12.05431962279634, 59.895432042320095 ], [ 12.054032703691435, 59.895618449402761 ], [ 12.053653097690262, 59.895573297612977 ], [ 12.053157173139983, 59.895234418020742 ] ], [ [ 12.055099404591914, 59.897300992387599 ], [ 12.054646199488511, 59.897428243450122 ], [ 12.053348624588748, 59.897125976225709 ], [ 12.052537158861075, 59.896470850024102 ], [ 12.052497066512394, 59.896229146372654 ], [ 12.05308450010781, 59.896197544856079 ], [ 12.055102474383023, 59.897139145880907 ], [ 12.055099404591914, 59.897300992387599 ] ], [ [ 12.039773981724661, 59.897718489085662 ], [ 12.03963185332319, 59.897533071361231 ], [ 12.039955631170923, 59.897552478779417 ], [ 12.039773981724661, 59.897718489085662 ] ], [ [ 12.0557528169919, 59.897986622895196 ], [ 12.055636049984782, 59.89807925677642 ], [ 12.055017794112622, 59.897967853774638 ], [ 12.055014977874535, 59.897743248109187 ], [ 12.055440042025779, 59.897697492246053 ], [ 12.0557528169919, 59.897986622895196 ] ], [ [ 12.040409301454703, 59.89860794103425 ], [ 12.040355560097497, 59.898406000471098 ], [ 12.04049758888851, 59.89839373712887 ], [ 12.040591322023209, 59.898590466170511 ], [ 12.040409301454703, 59.89860794103425 ] ], [ [ 12.040770610274613, 59.898836739790028 ], [ 12.040813472029635, 59.898718916358931 ], [ 12.041118680558291, 59.898814458763965 ], [ 12.040770610274613, 59.898836739790028 ] ], [ [ 12.040076163349037, 59.900631865018653 ], [ 12.039853055176566, 59.9005381655722 ], [ 12.039937439751156, 59.900482375996091 ], [ 12.040210905174828, 59.900538839422467 ], [ 12.040076163349037, 59.900631865018653 ] ], [ [ 12.041326696571504, 59.901591473027096 ], [ 12.040918266457069, 59.901232588074521 ], [ 12.04120705128979, 59.901261718578304 ], [ 12.041607294580738, 59.901475484974867 ], [ 12.041326696571504, 59.901591473027096 ] ], [ [ 12.039914146541239, 59.902378841522278 ], [ 12.039730190694106, 59.901933795832363 ], [ 12.039897454272676, 59.902001890031116 ], [ 12.040218077004171, 59.902252059061631 ], [ 12.039914146541239, 59.902378841522278 ] ], [ [ 12.045506080044222, 59.903669427012318 ], [ 12.04523977033698, 59.903495877009867 ], [ 12.045855827962939, 59.903580499225804 ], [ 12.046308318548787, 59.904028232068931 ], [ 12.046327372334035, 59.904234513238883 ], [ 12.045966866367799, 59.90420693090401 ], [ 12.045506080044222, 59.903669427012318 ] ], [ [ 12.0421645464302, 59.90507656814885 ], [ 12.042079859600479, 59.90493467482748 ], [ 12.04221703972885, 59.90486865783798 ], [ 12.04245923231484, 59.904975450525129 ], [ 12.0421645464302, 59.90507656814885 ] ] ] ] } },
{ "type": "Feature", "properties": { "fid": 269439, "navn": "Leirsjøen", "hoyde_moh": 146, "arealInnsjo_km2": 0.3691, "magasinKategori": null, "fid_2": 670, "id": 670, "left": 11.986919847, "top": 59.946110046000001, "right": 12.486919847, "bottom": 59.446110046000001, "row_index": 29, "col_index": 16, "tile_id": 670 }, "geometry": { "type": "MultiPolygon", "coordinates": [ [ [ [ 12.169824167769855, 59.889647012210574 ], [ 12.169339455984819, 59.890188894067428 ], [ 12.169439917789193, 59.890680728167325 ], [ 12.170119482121207, 59.891805590789168 ], [ 12.170143029463162, 59.892991288923568 ], [ 12.169964178283417, 59.893552683114422 ], [ 12.170650926240068, 59.894003472692042 ], [ 12.17118044827315, 59.894116555386468 ], [ 12.171677446346731, 59.893888861016961 ], [ 12.173145446153846, 59.891094733966618 ], [ 12.174098338630246, 59.890397744247167 ], [ 12.174251862699926, 59.890133379984768 ], [ 12.174163603226091, 59.889789836718769 ], [ 12.174666180538409, 59.889608866129073 ], [ 12.175032798151971, 59.889190678775776 ], [ 12.176911834206694, 59.88841681177135 ], [ 12.177498744763858, 59.887786716067559 ], [ 12.178330745395433, 59.887372815517381 ], [ 12.179449039838575, 59.887087559278797 ], [ 12.180381801018152, 59.886451085049153 ], [ 12.181083444746493, 59.886240039319425 ], [ 12.183499236249855, 59.886000541192011 ], [ 12.184198462309793, 59.885590045689156 ], [ 12.185102705835911, 59.884422835467475 ], [ 12.187547917706695, 59.883376080077696 ], [ 12.187593020416324, 59.883043896089013 ], [ 12.186914608045514, 59.882753454634639 ], [ 12.186126542877332, 59.882866195434985 ], [ 12.185997243842865, 59.883081772059811 ], [ 12.183679574217948, 59.883536863660694 ], [ 12.181575899163194, 59.884397811640952 ], [ 12.179680359795611, 59.88466086955976 ], [ 12.178371051943804, 59.885317779498159 ], [ 12.177098668956932, 59.885572274187147 ], [ 12.177114491030229, 59.885011519387668 ], [ 12.177515280407469, 59.884646386269019 ], [ 12.177518479197479, 59.884222298763561 ], [ 12.177873034264655, 59.883872867534045 ], [ 12.178110034361591, 59.883329269804157 ], [ 12.178020855391962, 59.883176853715582 ], [ 12.179456551193795, 59.882246973988337 ], [ 12.179055435146939, 59.882115702491483 ], [ 12.178112873650203, 59.882377863695751 ], [ 12.178183618525214, 59.880797419880579 ], [ 12.177865008473505, 59.880688371015523 ], [ 12.177072534235574, 59.881907580625104 ], [ 12.176331158462677, 59.882566643786959 ], [ 12.175931142008945, 59.883284992917424 ], [ 12.175040126749355, 59.884067966722156 ], [ 12.174913234051333, 59.884825559938974 ], [ 12.17395221896288, 59.8852766705566 ], [ 12.17325728717606, 59.885835033260264 ], [ 12.172721453850901, 59.886569748890388 ], [ 12.172996519368709, 59.886807705861159 ], [ 12.172786981054314, 59.887478293130179 ], [ 12.171025974714384, 59.889284149131228 ], [ 12.169824167769855, 59.889647012210574 ] ] ] ] } },
{ "type": "Feature", "properties": { "fid": 269440, "navn": "Åretjern", "hoyde_moh": null, "arealInnsjo_km2": 0.0496, "magasinKategori": null, "fid_2": 670, "id": 670, "left": 11.986919847, "top": 59.946110046000001, "right": 12.486919847, "bottom": 59.446110046000001, "row_index": 29, "col_index": 16, "tile_id": 670 }, "geometry": { "type": "MultiPolygon", "coordinates": [ [ [ [ 12.127562617102383, 59.893766843886482 ], [ 12.128764215243322, 59.893612536258857 ], [ 12.128726472205416, 59.89332068880816 ], [ 12.128090011235145, 59.892914759351655 ], [ 12.128224229105932, 59.891737522007404 ], [ 12.125986616750289, 59.891763213834558 ], [ 12.124525560454966, 59.892261815616173 ], [ 12.124187122575176, 59.892853709557613 ], [ 12.124306170649671, 59.893151341554542 ], [ 12.123864631592694, 59.893660711281321 ], [ 12.124837258115614, 59.89407414454039 ], [ 12.125748581433761, 59.893721022730233 ], [ 12.127562617102383, 59.893766843886482 ] ] ] ] } }
]
}
