{
"type": "FeatureCollection",
"name": "innsjo_tile_id_1094",
"crs": { "type": "name", "properties": { "name": "urn:ogc:def:crs:OGC:1.3:CRS84" } },
"xy_coordinate_resolution": 1e-15,
"features": [
{ "type": "Feature", "properties": { "fid": 269586, "navn": "Sijdasjávrre", "hoyde_moh": 614, "arealInnsjo_km2": 73.3683, "magasinKategori": null, "fid_2": 1094, "id": 1094, "left": 17.486919847, "top": 67.946110046000001, "right": 17.986919847, "bottom": 67.446110046000001, "row_index": 13, "col_index": 27, "tile_id": 1094 }, "geometry": { "type": "MultiPolygon", "coordinates": [ [ [ [ 17.591955895386008, 67.945774736591389 ], [ 17.592742207314423, 67.945138324827511 ], [ 17.592336346674621, 67.944514881655422 ], [ 17.592618233810054, 67.943525410766554 ], [ 17.591738955462091, 67.942951890168985 ], [ 17.589531350249146, 67.942168617665814 ], [ 17.589585270765223, 67.941315948271978 ], [ 17.588968630751488, 67.941053601933945 ], [ 17.588951296404694, 67.940829565518371 ], [ 17.589540619186753, 67.940733482882194 ], [ 17.589523279620781, 67.940509446532673 ], [ 17.589029221796917, 67.940290587490296 ], [ 17.589015451721746, 67.940111374767071 ], [ 17.587333061354922, 67.939950183689277 ], [ 17.58560283561587, 67.939161770566372 ], [ 17.585435496281363, 67.938535727592082 ], [ 17.585057435594774, 67.938270781094843 ], [ 17.586078590540065, 67.937587082097181 ], [ 17.586054648028078, 67.937273390114996 ], [ 17.584937338133511, 67.936702506933386 ], [ 17.583486806004711, 67.936449129577142 ], [ 17.583353847496227, 67.936271072764001 ], [ 17.583816768177055, 67.936086788368371 ], [ 17.583905220842841, 67.935682287569207 ], [ 17.581940308258858, 67.934941154880036 ], [ 17.581636638194542, 67.934092404520754 ], [ 17.580996649340943, 67.933516330660652 ], [ 17.579284105606742, 67.932951800536898 ], [ 17.57972644874657, 67.932498662053561 ], [ 17.579586701338851, 67.932231039856731 ], [ 17.58078803650977, 67.930783113965802 ], [ 17.581356340400689, 67.930418199416366 ], [ 17.581427554510601, 67.929789572342088 ], [ 17.582795588597669, 67.928967594290313 ], [ 17.583656311978146, 67.927747601085301 ], [ 17.584813013705297, 67.927286529693305 ], [ 17.585238085816933, 67.926609245975186 ], [ 17.585918528229435, 67.926153506629248 ], [ 17.587544895147733, 67.925597683125702 ], [ 17.587514069417928, 67.925194339561131 ], [ 17.58911638391503, 67.924324987772906 ], [ 17.59062240684948, 67.922200947168804 ], [ 17.592091473657355, 67.921153605130542 ], [ 17.592193262381901, 67.920928226699388 ], [ 17.594968850627453, 67.919821810499926 ], [ 17.595648895470603, 67.919365941932057 ], [ 17.59612160950109, 67.919315922901419 ], [ 17.597811338962739, 67.918041890648936 ], [ 17.601112426432341, 67.916032673396188 ], [ 17.601617728292698, 67.914861191221746 ], [ 17.602423531995498, 67.914493597121947 ], [ 17.604452167173996, 67.912991507625833 ], [ 17.605310919000644, 67.911771227981987 ], [ 17.605581587247219, 67.910647255956889 ], [ 17.607447926228371, 67.910133452193207 ], [ 17.607770445662212, 67.909681499114882 ], [ 17.608572377727985, 67.909269052000113 ], [ 17.608894625588913, 67.908817100541924 ], [ 17.608807861154339, 67.907696915793096 ], [ 17.608188546727227, 67.907389811685576 ], [ 17.60840225234929, 67.907073598740581 ], [ 17.608126022938883, 67.906583315419738 ], [ 17.608455423595409, 67.906220921906879 ], [ 17.609873161472198, 67.906070834327352 ], [ 17.610090420599931, 67.905799352957402 ], [ 17.609596913413188, 67.905580553476796 ], [ 17.609922679368527, 67.90517333373981 ], [ 17.609436380844794, 67.905044180390789 ], [ 17.60929983154794, 67.904821499866415 ], [ 17.610686285919229, 67.904268066063267 ], [ 17.611474075103853, 67.903676483532209 ], [ 17.611625299154543, 67.902553677999052 ], [ 17.613795613430167, 67.901363808195313 ], [ 17.613876452619728, 67.900869641179256 ], [ 17.614807346876862, 67.900590284173674 ], [ 17.618118477854132, 67.898759942507837 ], [ 17.617726740506875, 67.898315858710433 ], [ 17.617796889982234, 67.897687216572237 ], [ 17.619088044172408, 67.897448760849059 ], [ 17.620823653775179, 67.896801781609028 ], [ 17.621100389087047, 67.89576725537664 ], [ 17.620610764998542, 67.894068526671205 ], [ 17.621670928335522, 67.893922331927584 ], [ 17.62212931654544, 67.893693025336347 ], [ 17.623441201007854, 67.893723306505905 ], [ 17.624116310596175, 67.89322249926677 ], [ 17.623934533605578, 67.892417369988792 ], [ 17.624724727764022, 67.891870466086019 ], [ 17.624658535255133, 67.891019145541591 ], [ 17.623787483037049, 67.890535439772847 ], [ 17.623773719842845, 67.890356225822615 ], [ 17.624480133213186, 67.890258753894358 ], [ 17.62446274195521, 67.890034716992275 ], [ 17.623486756994687, 67.889731584458531 ], [ 17.623444991099376, 67.889193860453361 ], [ 17.623203430170349, 67.889151765566496 ], [ 17.623277029147498, 67.888567943975914 ], [ 17.623791260238956, 67.887530777990946 ], [ 17.624927796885981, 67.88684548215079 ], [ 17.627267659619569, 67.886326265237884 ], [ 17.629519932548416, 67.88621154014055 ], [ 17.63028081993507, 67.885465084023139 ], [ 17.63038364787792, 67.884551180515842 ], [ 17.629488050906559, 67.884283598768022 ], [ 17.628718679593156, 67.883574603069761 ], [ 17.630264271538309, 67.883557451481494 ], [ 17.630491501552957, 67.883420330350077 ], [ 17.630428295732411, 67.882613931959042 ], [ 17.631361889061647, 67.882379216270991 ], [ 17.632194235853071, 67.882369987644182 ], [ 17.633344581184186, 67.881863840041277 ], [ 17.634883010391281, 67.881756995804309 ], [ 17.634987871282075, 67.881576503852727 ], [ 17.635568221368192, 67.881390614527362 ], [ 17.637456360989994, 67.881190157204344 ], [ 17.638812290092705, 67.880278076052534 ], [ 17.638878424531626, 67.87960468843049 ], [ 17.639458694515856, 67.879418785514886 ], [ 17.63944116932133, 67.87919475029895 ], [ 17.638350178708585, 67.878937903383587 ], [ 17.637636884591451, 67.87894587823628 ], [ 17.637427235363266, 67.879306954991648 ], [ 17.636231194416197, 67.879230680867522 ], [ 17.634626415600735, 67.878486130899901 ], [ 17.634241743455618, 67.878131645300357 ], [ 17.6347657097565, 67.877228921739615 ], [ 17.637482027646811, 67.876974396739769 ], [ 17.639089398329354, 67.876238867384259 ], [ 17.641492981264591, 67.873521274344952 ], [ 17.641321003773829, 67.872850553619742 ], [ 17.640209114823886, 67.872324860314862 ], [ 17.639166782632486, 67.871170507973503 ], [ 17.637936138081919, 67.87064608449478 ], [ 17.637908186009987, 67.870287662523879 ], [ 17.63811069627247, 67.869836935698103 ], [ 17.636880146274819, 67.869312503967336 ], [ 17.636942668520888, 67.868594293453313 ], [ 17.636442658874959, 67.868285922943031 ], [ 17.635373328840622, 67.868297913227764 ], [ 17.634904887159649, 67.868392783409817 ], [ 17.634807122827212, 67.868662924936871 ], [ 17.634342557095955, 67.868802702167329 ], [ 17.633039085914799, 67.868862064392999 ], [ 17.630732341725192, 67.868259904447086 ], [ 17.629998555078735, 67.867998981768523 ], [ 17.629987914784909, 67.867864598597791 ], [ 17.630214995220882, 67.867727478012981 ], [ 17.633049128189018, 67.867471749720494 ], [ 17.633954215316347, 67.866878687055689 ], [ 17.635253934030469, 67.866774494994985 ], [ 17.636067983147562, 67.866541036712349 ], [ 17.636543191085941, 67.866535816574185 ], [ 17.636462958284621, 67.867030174203975 ], [ 17.636861789674171, 67.86756377125333 ], [ 17.637941543529205, 67.867686247313827 ], [ 17.63863698661396, 67.867454236407539 ], [ 17.638860375900503, 67.867272370837796 ], [ 17.63855943558714, 67.866468452088512 ], [ 17.639705226455188, 67.865917528292897 ], [ 17.639799512914479, 67.865602557388854 ], [ 17.641651035194826, 67.864953987754461 ], [ 17.643183620767989, 67.863277545561033 ], [ 17.644429947577205, 67.862501183639253 ], [ 17.643884388414087, 67.861610379511902 ], [ 17.64288133496354, 67.860948937742123 ], [ 17.642151058745998, 67.860732895496696 ], [ 17.641078429273993, 67.860700099366554 ], [ 17.637351384513163, 67.861683518506396 ], [ 17.635360048480965, 67.862064463271508 ], [ 17.634291002928315, 67.862076445749025 ], [ 17.633798202917845, 67.861857716116319 ], [ 17.634004358342388, 67.861451816843626 ], [ 17.633822260615503, 67.860646610174214 ], [ 17.630552148090576, 67.859875836797812 ], [ 17.630485607857658, 67.859024430141318 ], [ 17.630667970758562, 67.859044302111542 ], [ 17.627201829357364, 67.858074378701843 ], [ 17.626251535391724, 67.858084945570695 ], [ 17.625322476369661, 67.858364453535756 ], [ 17.624375766086025, 67.858419653530802 ], [ 17.623820223769496, 67.858919011289544 ], [ 17.621703115097809, 67.8592116832057 ], [ 17.619030747298901, 67.860003572518792 ], [ 17.616777345949956, 67.860073324057808 ], [ 17.616937966116389, 67.860609778802313 ], [ 17.615889847951166, 67.860890413617554 ], [ 17.614003158535112, 67.861090619326617 ], [ 17.613325142183587, 67.861546471785999 ], [ 17.61303477944104, 67.862401772983219 ], [ 17.61259243284022, 67.862563574687186 ], [ 17.613018632808974, 67.863805632776334 ], [ 17.612496104777609, 67.864120768364643 ], [ 17.610788821573756, 67.863260593024691 ], [ 17.608498212267499, 67.863698391783828 ], [ 17.609686724590006, 67.864923114836301 ], [ 17.609019480602793, 67.865136688714415 ], [ 17.608144142126125, 67.864424272155361 ], [ 17.605476967914072, 67.863067857399628 ], [ 17.602978871168098, 67.863050466614965 ], [ 17.601007564030759, 67.863699859996743 ], [ 17.599410067130211, 67.864569407371562 ], [ 17.598092716456296, 67.864449281923271 ], [ 17.598035893471021, 67.865257042830422 ], [ 17.598800388361344, 67.865921360190157 ], [ 17.598852469676295, 67.866593471543567 ], [ 17.59981645953901, 67.866762372897099 ], [ 17.599494363992729, 67.867214311343147 ], [ 17.601087236134664, 67.867824728198116 ], [ 17.601254453071341, 67.86845076033957 ], [ 17.602449592913686, 67.868527295089905 ], [ 17.603379351110281, 67.86824809451457 ], [ 17.604214539412599, 67.868283746993342 ], [ 17.604235295993462, 67.868552610800776 ], [ 17.603668842125703, 67.868917602064414 ], [ 17.604066729924806, 67.869451373970151 ], [ 17.603619124668239, 67.869815015178091 ], [ 17.604198177998342, 67.871154028456871 ], [ 17.602694631030513, 67.871708664088231 ], [ 17.594027627178267, 67.873462625628562 ], [ 17.593471328083368, 67.873961968133614 ], [ 17.590992431914668, 67.874213177303048 ], [ 17.589858818303412, 67.874943067738911 ], [ 17.588701234710609, 67.875359256651379 ], [ 17.587791354493302, 67.875907244863384 ], [ 17.587808380275728, 67.876131286912965 ], [ 17.588535566257338, 67.876302739298552 ], [ 17.588433691422324, 67.876528119911796 ], [ 17.586936271353785, 67.877172174884436 ], [ 17.586719240399606, 67.877443622716768 ], [ 17.586611386280186, 67.879148881735588 ], [ 17.585770062322446, 67.880593016212742 ], [ 17.584551033783217, 67.881772202204232 ], [ 17.584836852082635, 67.882396915067446 ], [ 17.584493720033876, 67.882580047791009 ], [ 17.582248398308931, 67.882783717040624 ], [ 17.580960972062435, 67.883066710178269 ], [ 17.578875486049714, 67.883806823710387 ], [ 17.577852677605328, 67.884445655920288 ], [ 17.577870091143904, 67.884669691544602 ], [ 17.578872339488807, 67.88533153120504 ], [ 17.57888952585764, 67.885555570410901 ], [ 17.578223774089157, 67.88619058458012 ], [ 17.577418557276591, 67.886558059537819 ], [ 17.577442308979773, 67.886871665363685 ], [ 17.578692946396906, 67.887665410149054 ], [ 17.576603438309007, 67.888360581811114 ], [ 17.57562503487457, 67.889581956001649 ], [ 17.575047527707209, 67.889812459143386 ], [ 17.574099188659343, 67.889867465522457 ], [ 17.573528461419556, 67.890187526237909 ], [ 17.573844614030698, 67.891215516996979 ], [ 17.573416550086222, 67.891847944961768 ], [ 17.572845527527289, 67.892168007113 ], [ 17.572872520933171, 67.892526531272054 ], [ 17.573504826996114, 67.893012982865528 ], [ 17.573436761055994, 67.893686258208277 ], [ 17.572077263340734, 67.894597899192135 ], [ 17.571764582989321, 67.895184261047277 ], [ 17.570724443058261, 67.89559900247319 ], [ 17.571152776288812, 67.896536198479282 ], [ 17.570462823502339, 67.896857485543904 ], [ 17.570041130010598, 67.897579561121248 ], [ 17.567702366152563, 67.89814279183129 ], [ 17.566236915995923, 67.899234835320712 ], [ 17.565699750053327, 67.900002864402154 ], [ 17.565471243372819, 67.901709431859373 ], [ 17.564335503329495, 67.902439149138431 ], [ 17.564263887823365, 67.903067682051997 ], [ 17.563451330361595, 67.903345433288834 ], [ 17.563382958647761, 67.904018794115714 ], [ 17.562141514701608, 67.90492894383091 ], [ 17.562209213969805, 67.905825114584388 ], [ 17.562868523935308, 67.906670131775741 ], [ 17.563075412463419, 67.907833854030784 ], [ 17.563626008193605, 67.908814486572865 ], [ 17.563693540598369, 67.909710659870129 ], [ 17.565057497010798, 67.910413616549135 ], [ 17.565077599844194, 67.910682399201818 ], [ 17.562301673529856, 67.911788401846735 ], [ 17.561821670210438, 67.911780095275759 ], [ 17.560814724753964, 67.912333458726323 ], [ 17.560401603432823, 67.912185427721184 ], [ 17.561257622621326, 67.911530481130711 ], [ 17.561058927336408, 67.910949611770874 ], [ 17.560689985188866, 67.910953571820002 ], [ 17.559662479540275, 67.911547550613875 ], [ 17.557788203724545, 67.911971161028504 ], [ 17.557451174199823, 67.912243801713558 ], [ 17.557937576078338, 67.91237310553376 ], [ 17.55786577182721, 67.913001725089188 ], [ 17.556848109835972, 67.913730078395062 ], [ 17.555176917996533, 67.915272560803388 ], [ 17.555200416138746, 67.915586259134358 ], [ 17.555958617554062, 67.916161118167352 ], [ 17.555774377281544, 67.916880615793858 ], [ 17.55487584061434, 67.917607637930828 ], [ 17.55334467084603, 67.917848309720739 ], [ 17.551969489358882, 67.918580301623862 ], [ 17.551920956651898, 67.919522527757664 ], [ 17.551352452265505, 67.919887341423362 ], [ 17.551174769111043, 67.920696397734602 ], [ 17.548975790442192, 67.92157175393757 ], [ 17.546152747543335, 67.923664534155165 ], [ 17.54369834154463, 67.924318391511449 ], [ 17.543047403347234, 67.925177218510612 ], [ 17.542117646083121, 67.925500915178418 ], [ 17.541783709416713, 67.925818349281897 ], [ 17.541318581252519, 67.927572225757956 ], [ 17.539502655461224, 67.928802159878856 ], [ 17.539185480247308, 67.929343631895165 ], [ 17.539183244971653, 67.93091316239483 ], [ 17.539560663376317, 67.931178216176946 ], [ 17.540288988091447, 67.931349881577461 ], [ 17.540305606486879, 67.931573928192421 ], [ 17.539236534680818, 67.931630127727402 ], [ 17.537618717816319, 67.932319776335859 ], [ 17.536539696925736, 67.932241475754608 ], [ 17.535397131535763, 67.933197163017681 ], [ 17.535795556559354, 67.933460106006407 ], [ 17.538348002905629, 67.934105809102903 ], [ 17.541234437113367, 67.934434133094555 ], [ 17.543611027851657, 67.934319359401755 ], [ 17.545186924902982, 67.93466143557923 ], [ 17.547197708565044, 67.936030315268312 ], [ 17.549025676966345, 67.936549041591363 ], [ 17.550039598008624, 67.937345527911418 ], [ 17.552851325658061, 67.938257343187189 ], [ 17.555319328845012, 67.939352268887887 ], [ 17.557198344550052, 67.940543032618947 ], [ 17.558355527025792, 67.941651756596471 ], [ 17.559457555480467, 67.943613137861405 ], [ 17.560230588309942, 67.944367274338617 ], [ 17.561354441195071, 67.945027888473888 ], [ 17.561752694021671, 67.945561757611159 ], [ 17.561570373574618, 67.946110046 ], [ 17.591981711333617, 67.946110046 ], [ 17.591955895386008, 67.945774736591389 ] ], [ [ 17.627317657722084, 67.859938771133599 ], [ 17.627809154501943, 67.859686556524096 ], [ 17.628697867777987, 67.859842581122351 ], [ 17.628676297882656, 67.860210594123018 ], [ 17.628204613592196, 67.860260707614017 ], [ 17.627317657722084, 67.859938771133599 ] ], [ [ 17.576923736008993, 67.889168861559185 ], [ 17.577510115184939, 67.889014507579375 ], [ 17.577869799795888, 67.889360443748075 ], [ 17.577018740943039, 67.889558002615559 ], [ 17.576923736008993, 67.889168861559185 ] ], [ [ 17.576346832567797, 67.890780489668344 ], [ 17.57660058205855, 67.891064722132739 ], [ 17.575490690461329, 67.891300984328353 ], [ 17.575138582372173, 67.891053659531408 ], [ 17.576346832567797, 67.890780489668344 ] ], [ [ 17.545132895130951, 67.930908611256498 ], [ 17.543960426423578, 67.930817895179544 ], [ 17.544968471742976, 67.930623305902827 ], [ 17.545393133127387, 67.930802704551979 ], [ 17.545132895130951, 67.930908611256498 ] ] ] ] } }
]
}
