{
"type": "FeatureCollection",
"name": "innsjo_tile_id_1567",
"crs": { "type": "name", "properties": { "name": "urn:ogc:def:crs:OGC:1.3:CRS84" } },
"xy_coordinate_resolution": 1e-15,
"features": [
{ "type": "Feature", "properties": { "fid": 96636, "navn": "Kallvatnet", "hoyde_moh": 27, "arealInnsjo_km2": 0.0282, "magasinKategori": null, "fid_2": 1567, "id": 1567, "left": 23.486919847, "top": 71.446110046000001, "right": 23.986919847, "bottom": 70.946110046000001, "row_index": 6, "col_index": 39, "tile_id": 1567 }, "geometry": { "type": "MultiPolygon", "coordinates": [ [ [ [ 23.982804499922487, 70.996170215200877 ], [ 23.982263123034301, 70.996400750909686 ], [ 23.982407394919964, 70.996569916968753 ], [ 23.984205365052922, 70.996773977699107 ], [ 23.986919847, 70.996704627615884 ], [ 23.986919847, 70.995627366248996 ], [ 23.982804499922487, 70.996170215200877 ] ] ] ] } },
{ "type": "Feature", "properties": { "fid": 96796, "navn": "Storvannet", "hoyde_moh": 7, "arealInnsjo_km2": 0.1193, "magasinKategori": null, "fid_2": 1567, "id": 1567, "left": 23.486919847, "top": 71.446110046000001, "right": 23.986919847, "bottom": 70.946110046000001, "row_index": 6, "col_index": 39, "tile_id": 1567 }, "geometry": { "type": "MultiPolygon", "coordinates": [ [ [ [ 23.925169370303525, 70.99770063154547 ], [ 23.928434626607135, 70.996944576472842 ], [ 23.929661584704181, 70.997295739063247 ], [ 23.932558564073268, 70.997272623218848 ], [ 23.935246788411529, 70.9969752146704 ], [ 23.937672844528738, 70.99702398645789 ], [ 23.938140222137143, 70.996859747724557 ], [ 23.938224070339899, 70.996644111428594 ], [ 23.937314660926255, 70.99619034223069 ], [ 23.934108692101983, 70.995745884226309 ], [ 23.932523310146497, 70.995705882941863 ], [ 23.930416214209604, 70.995890114570599 ], [ 23.928863743182841, 70.995720569236866 ], [ 23.927515739041052, 70.995842308700617 ], [ 23.927054901338966, 70.995663817624461 ], [ 23.925394189413932, 70.99554375271839 ], [ 23.920032714276132, 70.995964339902457 ], [ 23.918818436641409, 70.996432334440939 ], [ 23.91886390522335, 70.996895813011946 ], [ 23.919464910346107, 70.997307173565176 ], [ 23.921763178959345, 70.997842859609989 ], [ 23.923341924850199, 70.997964394602434 ], [ 23.925169370303525, 70.99770063154547 ] ] ] ] } },
{ "type": "Feature", "properties": { "fid": 176036, "navn": "Badevannet", "hoyde_moh": 10, "arealInnsjo_km2": 0.0951, "magasinKategori": null, "fid_2": 1567, "id": 1567, "left": 23.486919847, "top": 71.446110046000001, "right": 23.986919847, "bottom": 70.946110046000001, "row_index": 6, "col_index": 39, "tile_id": 1567 }, "geometry": { "type": "MultiPolygon", "coordinates": [ [ [ [ 23.951164588970087, 70.995363099304797 ], [ 23.951573121534953, 70.994998063675254 ], [ 23.951699781091989, 70.994628419723526 ], [ 23.951401417258587, 70.994470975717888 ], [ 23.950229634330086, 70.99441929333976 ], [ 23.948754095470399, 70.994093086129141 ], [ 23.944009962866559, 70.99377811288619 ], [ 23.941493693952314, 70.994034835296901 ], [ 23.935127158144812, 70.994161862484546 ], [ 23.93459339140394, 70.994329673390666 ], [ 23.934419042381251, 70.994717263949951 ], [ 23.934607929389436, 70.994890806142138 ], [ 23.935184985930679, 70.994978641498548 ], [ 23.936879396843988, 70.994852188443559 ], [ 23.936338757500984, 70.995336202028511 ], [ 23.936978471332651, 70.995596628524467 ], [ 23.940376621600741, 70.995483278125079 ], [ 23.942222728355748, 70.995057998472589 ], [ 23.94379570984842, 70.99516940396046 ], [ 23.944941885034098, 70.995612116089305 ], [ 23.948496303984076, 70.995677807692346 ], [ 23.951164588970087, 70.995363099304797 ] ] ] ] } },
{ "type": "Feature", "properties": { "fid": 176043, "navn": "Skardvatnet", "hoyde_moh": 27, "arealInnsjo_km2": 0.0331, "magasinKategori": null, "fid_2": 1567, "id": 1567, "left": 23.486919847, "top": 71.446110046000001, "right": 23.986919847, "bottom": 70.946110046000001, "row_index": 6, "col_index": 39, "tile_id": 1567 }, "geometry": { "type": "MultiPolygon", "coordinates": [ [ [ [ 23.970618342059939, 70.996471327579101 ], [ 23.971148818884327, 70.996040819311474 ], [ 23.970578038396525, 70.995858622744578 ], [ 23.965127195597752, 70.995464089846308 ], [ 23.962598185087678, 70.995599587153748 ], [ 23.960795426484172, 70.995350747825682 ], [ 23.960482873731706, 70.995569368026764 ], [ 23.96262578290154, 70.996159574242824 ], [ 23.965091219326389, 70.996580624260787 ], [ 23.967777060496662, 70.996662368353597 ], [ 23.970618342059939, 70.996471327579101 ] ] ] ] } },
{ "type": "Feature", "properties": { "fid": 185956, "navn": null, "hoyde_moh": 34, "arealInnsjo_km2": 0.0181, "magasinKategori": null, "fid_2": 1567, "id": 1567, "left": 23.486919847, "top": 71.446110046000001, "right": 23.986919847, "bottom": 70.946110046000001, "row_index": 6, "col_index": 39, "tile_id": 1567 }, "geometry": { "type": "MultiPolygon", "coordinates": [ [ [ [ 23.986412325775849, 70.965250351555454 ], [ 23.986035175259296, 70.964659502451724 ], [ 23.985231416992885, 70.964303686790274 ], [ 23.984640607552617, 70.963066207250577 ], [ 23.983916649895821, 70.962642756040665 ], [ 23.983016271568065, 70.962767529700102 ], [ 23.983381308903951, 70.963191651449833 ], [ 23.982323115439225, 70.963251686275555 ], [ 23.981968415130059, 70.963539067105941 ], [ 23.982307112999973, 70.964026857469847 ], [ 23.983781785013271, 70.964188705270999 ], [ 23.984594345066846, 70.964678911645066 ], [ 23.98554006725174, 70.964920694434781 ], [ 23.985977107082576, 70.965448503034821 ], [ 23.986370401864452, 70.965485268711973 ], [ 23.986412325775849, 70.965250351555454 ] ] ] ] } },
{ "type": "Feature", "properties": { "fid": 186003, "navn": null, "hoyde_moh": 36, "arealInnsjo_km2": 0.0266, "magasinKategori": null, "fid_2": 1567, "id": 1567, "left": 23.486919847, "top": 71.446110046000001, "right": 23.986919847, "bottom": 70.946110046000001, "row_index": 6, "col_index": 39, "tile_id": 1567 }, "geometry": { "type": "MultiPolygon", "coordinates": [ [ [ [ 23.984206470808584, 70.966251419655237 ], [ 23.984188361237241, 70.965707248279443 ], [ 23.984783209678465, 70.965597740979021 ], [ 23.98486538985896, 70.965329534096014 ], [ 23.983829267241973, 70.964829770320819 ], [ 23.982272975033176, 70.964612144851529 ], [ 23.981188502004589, 70.964164073176747 ], [ 23.980799292259434, 70.964228865736445 ], [ 23.980593633569249, 70.96443165354799 ], [ 23.981060179316771, 70.964568525724687 ], [ 23.981058079876725, 70.96471847181833 ], [ 23.980692717189925, 70.964725694436154 ], [ 23.98034744272509, 70.96442953367513 ], [ 23.979362517449221, 70.964565560138084 ], [ 23.979539566543476, 70.964748148078996 ], [ 23.980249365851794, 70.964760712004221 ], [ 23.980345317983389, 70.964992161494663 ], [ 23.980703214265169, 70.965118307028206 ], [ 23.980763209536192, 70.965334216725765 ], [ 23.980571369502481, 70.965429040430152 ], [ 23.980687757447384, 70.965602091324854 ], [ 23.980540485334586, 70.965739740132776 ], [ 23.980850795645377, 70.965915830239965 ], [ 23.981533958217529, 70.966055540635878 ], [ 23.981846361800873, 70.96628404091264 ], [ 23.982765853499441, 70.966187320897902 ], [ 23.982928528213471, 70.966337199232782 ], [ 23.984206470808584, 70.966251419655237 ] ] ] ] } },
{ "type": "Feature", "properties": { "fid": 186004, "navn": null, "hoyde_moh": 34, "arealInnsjo_km2": 0.0158, "magasinKategori": null, "fid_2": 1567, "id": 1567, "left": 23.486919847, "top": 71.446110046000001, "right": 23.986919847, "bottom": 70.946110046000001, "row_index": 6, "col_index": 39, "tile_id": 1567 }, "geometry": { "type": "MultiPolygon", "coordinates": [ [ [ [ 23.978254330010873, 70.966567270255695 ], [ 23.977913400226644, 70.966298779411474 ], [ 23.978225974817988, 70.965919122202536 ], [ 23.978082421938403, 70.965519959671852 ], [ 23.979062605131229, 70.965583179727972 ], [ 23.979192872618853, 70.965720515566034 ], [ 23.979052455502785, 70.965965299063654 ], [ 23.979720428088701, 70.96604518508309 ], [ 23.980038305619342, 70.965704468358041 ], [ 23.979904196086533, 70.965079944483847 ], [ 23.97905820748073, 70.964901359127509 ], [ 23.977060687832005, 70.96517129779825 ], [ 23.97598607382637, 70.965649838305666 ], [ 23.976039525070021, 70.965877021530503 ], [ 23.977055223302099, 70.966596832804527 ], [ 23.978254330010873, 70.966567270255695 ] ] ] ] } },
{ "type": "Feature", "properties": { "fid": 186066, "navn": null, "hoyde_moh": 183, "arealInnsjo_km2": 0.0069, "magasinKategori": null, "fid_2": 1567, "id": 1567, "left": 23.486919847, "top": 71.446110046000001, "right": 23.986919847, "bottom": 70.946110046000001, "row_index": 6, "col_index": 39, "tile_id": 1567 }, "geometry": { "type": "MultiPolygon", "coordinates": [ [ [ [ 23.93985063344439, 70.969823268796645 ], [ 23.940400761571627, 70.96944268344906 ], [ 23.939930534039807, 70.969281450710056 ], [ 23.939000405229301, 70.96926348314814 ], [ 23.93700763857326, 70.969689968871407 ], [ 23.937371499444261, 70.970033085830067 ], [ 23.93985063344439, 70.969823268796645 ] ] ] ] } },
{ "type": "Feature", "properties": { "fid": 186211, "navn": null, "hoyde_moh": 103, "arealInnsjo_km2": 0.0046, "magasinKategori": null, "fid_2": 1567, "id": 1567, "left": 23.486919847, "top": 71.446110046000001, "right": 23.986919847, "bottom": 70.946110046000001, "row_index": 6, "col_index": 39, "tile_id": 1567 }, "geometry": { "type": "MultiPolygon", "coordinates": [ [ [ [ 23.894445525286635, 70.989292376481998 ], [ 23.894007182396276, 70.989041224280683 ], [ 23.893476941762852, 70.989024432265637 ], [ 23.892215941801204, 70.989183550218996 ], [ 23.891714559901327, 70.989401716428929 ], [ 23.892125954016642, 70.989586189941704 ], [ 23.893106868679499, 70.989594922657631 ], [ 23.894445525286635, 70.989292376481998 ] ] ] ] } },
{ "type": "Feature", "properties": { "fid": 186494, "navn": null, "hoyde_moh": 159, "arealInnsjo_km2": 0.0066, "magasinKategori": null, "fid_2": 1567, "id": 1567, "left": 23.486919847, "top": 71.446110046000001, "right": 23.986919847, "bottom": 70.946110046000001, "row_index": 6, "col_index": 39, "tile_id": 1567 }, "geometry": { "type": "MultiPolygon", "coordinates": [ [ [ [ 23.934680652524925, 70.971060398951892 ], [ 23.93587336371607, 70.971194754187835 ], [ 23.936227610187608, 70.970930875360239 ], [ 23.934302689861273, 70.970530924877963 ], [ 23.933920404637824, 70.970797245165016 ], [ 23.934183392385361, 70.971005478595771 ], [ 23.933033117887071, 70.971134220127084 ], [ 23.933343099002268, 70.97144564439941 ], [ 23.934750203557915, 70.971439066868015 ], [ 23.934680652524925, 70.971060398951892 ] ] ] ] } },
{ "type": "Feature", "properties": { "fid": 186548, "navn": null, "hoyde_moh": 12, "arealInnsjo_km2": 0.0133, "magasinKategori": null, "fid_2": 1567, "id": 1567, "left": 23.486919847, "top": 71.446110046000001, "right": 23.986919847, "bottom": 70.946110046000001, "row_index": 6, "col_index": 39, "tile_id": 1567 }, "geometry": { "type": "MultiPolygon", "coordinates": [ [ [ [ 23.948911304284493, 70.997129123806729 ], [ 23.950536440229264, 70.997105498567933 ], [ 23.951055721669373, 70.9968671817862 ], [ 23.951086065997085, 70.99668980063899 ], [ 23.947722331293512, 70.99639245890647 ], [ 23.946108977340451, 70.996497694826573 ], [ 23.945833994151634, 70.996816582179349 ], [ 23.94703201352166, 70.997046463306873 ], [ 23.946312292090763, 70.997114326202222 ], [ 23.947220885516945, 70.997188040706632 ], [ 23.947329843270531, 70.997055555601207 ], [ 23.948170685754651, 70.997036314235572 ], [ 23.948379215754343, 70.997084683012886 ], [ 23.947603897568897, 70.997207214615955 ], [ 23.948129294510004, 70.997358631328026 ], [ 23.948931795307459, 70.997329024889666 ], [ 23.948911304284493, 70.997129123806729 ] ] ] ] } },
{ "type": "Feature", "properties": { "fid": 186701, "navn": null, "hoyde_moh": 8, "arealInnsjo_km2": 0.0252, "magasinKategori": null, "fid_2": 1567, "id": 1567, "left": 23.486919847, "top": 71.446110046000001, "right": 23.986919847, "bottom": 70.946110046000001, "row_index": 6, "col_index": 39, "tile_id": 1567 }, "geometry": { "type": "MultiPolygon", "coordinates": [ [ [ [ 23.943623474508275, 70.997110908174704 ], [ 23.9436943126743, 70.996801200072952 ], [ 23.943430481852349, 70.996695575089859 ], [ 23.943468192092677, 70.99634130157348 ], [ 23.943327483375231, 70.996154836095059 ], [ 23.940102119703916, 70.995772345063017 ], [ 23.939226614251591, 70.996033866223385 ], [ 23.939024883041817, 70.996406948386579 ], [ 23.938517375846644, 70.996555662082898 ], [ 23.938518094236514, 70.996795265631576 ], [ 23.938729904666847, 70.996916635131811 ], [ 23.939928580224983, 70.997172509949209 ], [ 23.942627166407373, 70.997398762495465 ], [ 23.943623474508275, 70.997110908174704 ] ] ] ] } },
{ "type": "Feature", "properties": { "fid": 187306, "navn": null, "hoyde_moh": 63, "arealInnsjo_km2": 0.0141, "magasinKategori": null, "fid_2": 1567, "id": 1567, "left": 23.486919847, "top": 71.446110046000001, "right": 23.986919847, "bottom": 70.946110046000001, "row_index": 6, "col_index": 39, "tile_id": 1567 }, "geometry": { "type": "MultiPolygon", "coordinates": [ [ [ [ 23.986919847, 70.947568969226694 ], [ 23.986919847, 70.946310694848037 ], [ 23.986502009870343, 70.946275923625308 ], [ 23.985596855057185, 70.946454032520734 ], [ 23.986917129878023, 70.947568947580748 ], [ 23.986919847, 70.947568969226694 ] ] ] ] } },
{ "type": "Feature", "properties": { "fid": 198615, "navn": null, "hoyde_moh": 30, "arealInnsjo_km2": 0.0463, "magasinKategori": null, "fid_2": 1567, "id": 1567, "left": 23.486919847, "top": 71.446110046000001, "right": 23.986919847, "bottom": 70.946110046000001, "row_index": 6, "col_index": 39, "tile_id": 1567 }, "geometry": { "type": "MultiPolygon", "coordinates": [ [ [ [ 23.97673826071534, 70.963079985483105 ], [ 23.976745493060587, 70.962809011485902 ], [ 23.976929723264327, 70.962738193148098 ], [ 23.979715700115804, 70.962847370793114 ], [ 23.980918350654569, 70.962581208358216 ], [ 23.980917989260764, 70.962337401889769 ], [ 23.9805318475936, 70.962159127279278 ], [ 23.979461923560024, 70.962162498697396 ], [ 23.978984759887595, 70.961917405150757 ], [ 23.978911709864885, 70.961607428431734 ], [ 23.97945851008555, 70.961364648623913 ], [ 23.978397737880485, 70.960696853340224 ], [ 23.978534775717126, 70.960397457672812 ], [ 23.979643302907757, 70.960218640498738 ], [ 23.980121454740853, 70.95971926474904 ], [ 23.980110531431173, 70.959502049357596 ], [ 23.97783171573926, 70.959036435166453 ], [ 23.977768044218948, 70.959207037294277 ], [ 23.978311978980372, 70.959974727539404 ], [ 23.978107515012706, 70.96020615598583 ], [ 23.978294315953455, 70.960312576407262 ], [ 23.976352254181531, 70.960518437390164 ], [ 23.97542275093403, 70.960875922567439 ], [ 23.976437860683678, 70.961402271347737 ], [ 23.976346104365703, 70.961674015190113 ], [ 23.975595312393281, 70.961834738709427 ], [ 23.975506853799267, 70.962047017875747 ], [ 23.975005803815229, 70.962090993785949 ], [ 23.975325918991967, 70.962157782944587 ], [ 23.975572289523043, 70.962563612437663 ], [ 23.975249727757671, 70.962814100157345 ], [ 23.975913521075306, 70.963139196776126 ], [ 23.976148004681047, 70.963432884860552 ], [ 23.976910225382206, 70.963554086629671 ], [ 23.97673826071534, 70.963079985483105 ] ] ] ] } },
{ "type": "Feature", "properties": { "fid": 203250, "navn": null, "hoyde_moh": 166, "arealInnsjo_km2": 0.027, "magasinKategori": null, "fid_2": 1567, "id": 1567, "left": 23.486919847, "top": 71.446110046000001, "right": 23.986919847, "bottom": 70.946110046000001, "row_index": 6, "col_index": 39, "tile_id": 1567 }, "geometry": { "type": "MultiPolygon", "coordinates": [ [ [ [ 23.942332720743767, 70.96495375101162 ], [ 23.944622237701594, 70.964087267833762 ], [ 23.943292918448027, 70.963886105880306 ], [ 23.940175450626995, 70.963899209116079 ], [ 23.936890377331554, 70.964432799136617 ], [ 23.937287834478962, 70.964721411351348 ], [ 23.938441480894834, 70.965046025954493 ], [ 23.941162632082445, 70.965102081477184 ], [ 23.942332720743767, 70.96495375101162 ] ] ] ] } },
{ "type": "Feature", "properties": { "fid": 209276, "navn": "Stoppelfjordvatna", "hoyde_moh": 27, "arealInnsjo_km2": 0.0883, "magasinKategori": null, "fid_2": 1567, "id": 1567, "left": 23.486919847, "top": 71.446110046000001, "right": 23.986919847, "bottom": 70.946110046000001, "row_index": 6, "col_index": 39, "tile_id": 1567 }, "geometry": { "type": "MultiPolygon", "coordinates": [ [ [ [ 23.971713645775218, 70.960874322689875 ], [ 23.971825347068762, 70.96065032154597 ], [ 23.971167620238379, 70.960289611501111 ], [ 23.971175440666123, 70.960138665818036 ], [ 23.972582306938364, 70.960211359721796 ], [ 23.973670032992658, 70.960001543216222 ], [ 23.974050687043885, 70.959807800494971 ], [ 23.974056046322303, 70.959536285792609 ], [ 23.972972039987436, 70.958819445767517 ], [ 23.972409953481961, 70.958639956173926 ], [ 23.969214978937618, 70.958605213050802 ], [ 23.969330490572233, 70.958258440637422 ], [ 23.968578954413797, 70.957695780686407 ], [ 23.967189083025495, 70.957666509666424 ], [ 23.965737822603664, 70.957122799353144 ], [ 23.963936850904844, 70.957018369873282 ], [ 23.963379888136149, 70.957169791335247 ], [ 23.964093709982222, 70.957740729360395 ], [ 23.963968032222716, 70.95806725669182 ], [ 23.963706296888276, 70.958202132311001 ], [ 23.963851034383065, 70.958579775928825 ], [ 23.965515279852241, 70.958920018460091 ], [ 23.965054772600091, 70.959128492922019 ], [ 23.965208297765152, 70.959274568629056 ], [ 23.965943300324106, 70.959264494306538 ], [ 23.965237212412358, 70.959613488729673 ], [ 23.965497239040939, 70.959947765973652 ], [ 23.967051664678827, 70.96014504776403 ], [ 23.967292668294174, 70.960345349978311 ], [ 23.968955956660263, 70.960842609304123 ], [ 23.970000156673624, 70.960618731224329 ], [ 23.971334812027422, 70.960976888805902 ], [ 23.971713645775218, 70.960874322689875 ] ] ] ] } },
{ "type": "Feature", "properties": { "fid": 209277, "navn": "Elvedalsvannet", "hoyde_moh": 98, "arealInnsjo_km2": 0.0218, "magasinKategori": null, "fid_2": 1567, "id": 1567, "left": 23.486919847, "top": 71.446110046000001, "right": 23.986919847, "bottom": 70.946110046000001, "row_index": 6, "col_index": 39, "tile_id": 1567 }, "geometry": { "type": "MultiPolygon", "coordinates": [ [ [ [ 23.965215346164673, 70.979512401851778 ], [ 23.966071122937773, 70.979202691118786 ], [ 23.966067741434404, 70.979073296819294 ], [ 23.965397077202905, 70.97892095538792 ], [ 23.965309003448546, 70.978513477064709 ], [ 23.962861996740653, 70.978361521394646 ], [ 23.961471308055266, 70.978654856252504 ], [ 23.961019694482172, 70.979361812484854 ], [ 23.960728766997402, 70.97952335023794 ], [ 23.961538857480416, 70.979771234807657 ], [ 23.96412037808485, 70.979722833430557 ], [ 23.965215346164673, 70.979512401851778 ] ] ] ] } },
{ "type": "Feature", "properties": { "fid": 226824, "navn": "Storvannet", "hoyde_moh": 26, "arealInnsjo_km2": 0.2289, "magasinKategori": null, "fid_2": 1567, "id": 1567, "left": 23.486919847, "top": 71.446110046000001, "right": 23.986919847, "bottom": 70.946110046000001, "row_index": 6, "col_index": 39, "tile_id": 1567 }, "geometry": { "type": "MultiPolygon", "coordinates": [ [ [ [ 23.977589420601156, 70.957682826470759 ], [ 23.977610895690798, 70.957227181894467 ], [ 23.976816896718482, 70.95675887692606 ], [ 23.977058964621669, 70.956187723691428 ], [ 23.978400121396568, 70.95608819122819 ], [ 23.979005364259859, 70.955806793435315 ], [ 23.978465305927017, 70.953918586467083 ], [ 23.977556067691797, 70.952859709957437 ], [ 23.975470710280032, 70.951435187994917 ], [ 23.97164555357584, 70.950308140604236 ], [ 23.969303634069348, 70.950534089598335 ], [ 23.968269480773618, 70.950841334044441 ], [ 23.968212656343809, 70.951425804718539 ], [ 23.968464629071971, 70.952064853832582 ], [ 23.967917831615981, 70.952658166091439 ], [ 23.968691881012592, 70.953262093901046 ], [ 23.968925454525806, 70.953773386885004 ], [ 23.970215271849057, 70.954486541389983 ], [ 23.970380481656374, 70.954852955588692 ], [ 23.969720082369033, 70.955581185998724 ], [ 23.969898689228295, 70.956148032191294 ], [ 23.969696352806167, 70.956547473414318 ], [ 23.968749100381512, 70.957470384028596 ], [ 23.969273939644395, 70.957591579347522 ], [ 23.969965852446972, 70.957275575963067 ], [ 23.97300405687184, 70.956964203883544 ], [ 23.974528224044928, 70.957479503965857 ], [ 23.977143328114316, 70.957848534223217 ], [ 23.977589420601156, 70.957682826470759 ] ] ] ] } },
{ "type": "Feature", "properties": { "fid": 241527, "navn": null, "hoyde_moh": 36, "arealInnsjo_km2": 0.0027, "magasinKategori": null, "fid_2": 1567, "id": 1567, "left": 23.486919847, "top": 71.446110046000001, "right": 23.986919847, "bottom": 70.946110046000001, "row_index": 6, "col_index": 39, "tile_id": 1567 }, "geometry": { "type": "MultiPolygon", "coordinates": [ [ [ [ 23.98339810173238, 70.962260167056442 ], [ 23.983097341091181, 70.96203336708372 ], [ 23.982901054761392, 70.961290732741944 ], [ 23.982727435087167, 70.961165926616374 ], [ 23.982425176076102, 70.961232097378755 ], [ 23.982419641185174, 70.961868955765794 ], [ 23.982668994276192, 70.961962272414482 ], [ 23.982899764363008, 70.962383979703702 ], [ 23.983274723846147, 70.962419017762571 ], [ 23.98339810173238, 70.962260167056442 ] ] ] ] } },
{ "type": "Feature", "properties": { "fid": 242100, "navn": null, "hoyde_moh": 110, "arealInnsjo_km2": 0.0028, "magasinKategori": null, "fid_2": 1567, "id": 1567, "left": 23.486919847, "top": 71.446110046000001, "right": 23.986919847, "bottom": 70.946110046000001, "row_index": 6, "col_index": 39, "tile_id": 1567 }, "geometry": { "type": "MultiPolygon", "coordinates": [ [ [ [ 23.957029435338384, 71.004891362488621 ], [ 23.956276302912269, 71.004573292043531 ], [ 23.955676711318695, 71.004472929151817 ], [ 23.954896543100926, 71.004640712409582 ], [ 23.956542055303434, 71.005150504184272 ], [ 23.957029435338384, 71.004891362488621 ] ] ] ] } },
{ "type": "Feature", "properties": { "fid": 243306, "navn": null, "hoyde_moh": 32, "arealInnsjo_km2": 0.0028, "magasinKategori": null, "fid_2": 1567, "id": 1567, "left": 23.486919847, "top": 71.446110046000001, "right": 23.986919847, "bottom": 70.946110046000001, "row_index": 6, "col_index": 39, "tile_id": 1567 }, "geometry": { "type": "MultiPolygon", "coordinates": [ [ [ [ 23.984885778245928, 70.971138272181562 ], [ 23.983531901751743, 70.970733031964031 ], [ 23.982963457607447, 70.971016255612597 ], [ 23.983450318218278, 70.971341278033151 ], [ 23.984885778245928, 70.971138272181562 ] ] ] ] } },
{ "type": "Feature", "properties": { "fid": 244899, "navn": null, "hoyde_moh": 26, "arealInnsjo_km2": 0.0068, "magasinKategori": null, "fid_2": 1567, "id": 1567, "left": 23.486919847, "top": 71.446110046000001, "right": 23.986919847, "bottom": 70.946110046000001, "row_index": 6, "col_index": 39, "tile_id": 1567 }, "geometry": { "type": "MultiPolygon", "coordinates": [ [ [ [ 23.908945690937575, 71.007286449034183 ], [ 23.909142146111158, 71.007108586279884 ], [ 23.908547063330843, 71.006670106360659 ], [ 23.905862931467151, 71.006962239387832 ], [ 23.906321047034769, 71.007116294959303 ], [ 23.906200236210065, 71.007255198123104 ], [ 23.906520858972321, 71.0074479348213 ], [ 23.908945690937575, 71.007286449034183 ] ] ] ] } },
{ "type": "Feature", "properties": { "fid": 244900, "navn": "Fjordbotnvannet", "hoyde_moh": 115, "arealInnsjo_km2": 0.0262, "magasinKategori": null, "fid_2": 1567, "id": 1567, "left": 23.486919847, "top": 71.446110046000001, "right": 23.986919847, "bottom": 70.946110046000001, "row_index": 6, "col_index": 39, "tile_id": 1567 }, "geometry": { "type": "MultiPolygon", "coordinates": [ [ [ [ 23.966926216083053, 71.006323549515912 ], [ 23.967769339610125, 71.005856957404873 ], [ 23.967825012638404, 71.005653257391003 ], [ 23.967387241082072, 71.005294726552862 ], [ 23.966640831059294, 71.005163505180235 ], [ 23.962285171679458, 71.005208529300376 ], [ 23.961670892021441, 71.005280826368633 ], [ 23.961629214730316, 71.005417478667155 ], [ 23.963511968958425, 71.006325196065035 ], [ 23.965806545175887, 71.006560932284998 ], [ 23.966926216083053, 71.006323549515912 ] ] ] ] } }
]
}
