{
"type": "FeatureCollection",
"name": "innsjo_tile_id_694",
"crs": { "type": "name", "properties": { "name": "urn:ogc:def:crs:OGC:1.3:CRS84" } },
"xy_coordinate_resolution": 1e-15,
"features": [
{ "type": "Feature", "properties": { "fid": 41420, "navn": null, "hoyde_moh": null, "arealInnsjo_km2": 0.01, "magasinKategori": null, "fid_2": 694, "id": 694, "left": 12.486919847, "top": 67.946110046000001, "right": 12.986919847, "bottom": 67.446110046000001, "row_index": 13, "col_index": 17, "tile_id": 694 }, "geometry": { "type": "MultiPolygon", "coordinates": [ [ [ [ 12.673384174072442, 67.686956882947257 ], [ 12.673683476255404, 67.686557196133634 ], [ 12.67233165558376, 67.68637642341659 ], [ 12.670857662098582, 67.686714259766276 ], [ 12.670623233866841, 67.686935281011756 ], [ 12.670669124553898, 67.687187325672468 ], [ 12.671034028844208, 67.687318193063575 ], [ 12.672865885145921, 67.687182827078828 ], [ 12.673384174072442, 67.686956882947257 ] ] ] ] } },
{ "type": "Feature", "properties": { "fid": 41421, "navn": null, "hoyde_moh": null, "arealInnsjo_km2": 0.0027, "magasinKategori": null, "fid_2": 694, "id": 694, "left": 12.486919847, "top": 67.946110046000001, "right": 12.986919847, "bottom": 67.446110046000001, "row_index": 13, "col_index": 17, "tile_id": 694 }, "geometry": { "type": "MultiPolygon", "coordinates": [ [ [ [ 12.691185083581258, 67.690441761456498 ], [ 12.690797930183349, 67.690329024206576 ], [ 12.690283255748293, 67.690336356505497 ], [ 12.690128186817276, 67.690739282870112 ], [ 12.690549469357364, 67.690896572067061 ], [ 12.691495452106539, 67.690812244374186 ], [ 12.691185083581258, 67.690441761456498 ] ] ] ] } },
{ "type": "Feature", "properties": { "fid": 71395, "navn": null, "hoyde_moh": null, "arealInnsjo_km2": 0.0033, "magasinKategori": null, "fid_2": 694, "id": 694, "left": 12.486919847, "top": 67.946110046000001, "right": 12.986919847, "bottom": 67.446110046000001, "row_index": 13, "col_index": 17, "tile_id": 694 }, "geometry": { "type": "MultiPolygon", "coordinates": [ [ [ [ 12.706803258742351, 67.691774617655 ], [ 12.706623293492811, 67.69168233639796 ], [ 12.705032437275523, 67.69152522117254 ], [ 12.703309600522658, 67.691752325368569 ], [ 12.706672209037709, 67.691907394615399 ], [ 12.706803258742351, 67.691774617655 ] ] ] ] } },
{ "type": "Feature", "properties": { "fid": 71399, "navn": null, "hoyde_moh": null, "arealInnsjo_km2": 0.0036, "magasinKategori": null, "fid_2": 694, "id": 694, "left": 12.486919847, "top": 67.946110046000001, "right": 12.986919847, "bottom": 67.446110046000001, "row_index": 13, "col_index": 17, "tile_id": 694 }, "geometry": { "type": "MultiPolygon", "coordinates": [ [ [ [ 12.688899750443197, 67.690525130358694 ], [ 12.689447397904452, 67.690290398309699 ], [ 12.689468950852728, 67.690116681431377 ], [ 12.688311590861911, 67.689698815416605 ], [ 12.688561449671326, 67.689867319119287 ], [ 12.688082574502886, 67.690320305833012 ], [ 12.688442943391877, 67.690611718211258 ], [ 12.688335845908083, 67.690692049241648 ], [ 12.689133460454524, 67.690817257026083 ], [ 12.688899750443197, 67.690525130358694 ] ] ] ] } },
{ "type": "Feature", "properties": { "fid": 82357, "navn": null, "hoyde_moh": null, "arealInnsjo_km2": 0.0111, "magasinKategori": null, "fid_2": 694, "id": 694, "left": 12.486919847, "top": 67.946110046000001, "right": 12.986919847, "bottom": 67.446110046000001, "row_index": 13, "col_index": 17, "tile_id": 694 }, "geometry": { "type": "MultiPolygon", "coordinates": [ [ [ [ 12.686843504489568, 67.689616676239055 ], [ 12.686736153710912, 67.689507453270352 ], [ 12.685067337884099, 67.688945252606899 ], [ 12.683952670361831, 67.688992231702244 ], [ 12.683477203034727, 67.689263602429278 ], [ 12.683429776461647, 67.68950533974953 ], [ 12.685606254708482, 67.689949032637728 ], [ 12.686310306466938, 67.689994933694095 ], [ 12.686677300953301, 67.689865702258061 ], [ 12.686843504489568, 67.689616676239055 ] ] ] ] } },
{ "type": "Feature", "properties": { "fid": 144007, "navn": "Ågvatnet", "hoyde_moh": null, "arealInnsjo_km2": 0.9217, "magasinKategori": null, "fid_2": 694, "id": 694, "left": 12.486919847, "top": 67.946110046000001, "right": 12.986919847, "bottom": 67.446110046000001, "row_index": 13, "col_index": 17, "tile_id": 694 }, "geometry": { "type": "MultiPolygon", "coordinates": [ [ [ [ 12.93686112282542, 67.884617408844548 ], [ 12.93786310454815, 67.8845941125536 ], [ 12.940137374161159, 67.884999576364379 ], [ 12.941852518189268, 67.88580180625172 ], [ 12.941506860518182, 67.886479463188238 ], [ 12.939885260438777, 67.886773274711487 ], [ 12.939705266750543, 67.886923476046803 ], [ 12.939951092664355, 67.887106035059588 ], [ 12.943116668512385, 67.887127805344562 ], [ 12.949362036814728, 67.886793200440067 ], [ 12.950650705303072, 67.88649522779906 ], [ 12.95190655177063, 67.886564751554062 ], [ 12.955842724435362, 67.887574100878652 ], [ 12.956619155518057, 67.887682391935954 ], [ 12.9583438381487, 67.887569259772846 ], [ 12.959046545957749, 67.887703632127128 ], [ 12.96006614130898, 67.887483090380073 ], [ 12.961019559300023, 67.887476905119641 ], [ 12.96165982735633, 67.88723360236358 ], [ 12.961671336142825, 67.886829936973953 ], [ 12.961180921769865, 67.886446955433982 ], [ 12.961792118504306, 67.886266105804864 ], [ 12.962131435959776, 67.886198532811605 ], [ 12.962966659886252, 67.886451280006284 ], [ 12.963808405335362, 67.886084751931051 ], [ 12.963690986055949, 67.885796142170975 ], [ 12.964410428741004, 67.885733282314575 ], [ 12.965051872211394, 67.885481008216743 ], [ 12.965595867084872, 67.885523649018012 ], [ 12.966002921293997, 67.885770980825569 ], [ 12.966673691324836, 67.885725454665831 ], [ 12.966903441292242, 67.885548742280818 ], [ 12.965535160385317, 67.885128061959406 ], [ 12.965958336379781, 67.884917945183147 ], [ 12.968194033738987, 67.884676444727774 ], [ 12.970053706289601, 67.88492380367083 ], [ 12.970051789499786, 67.884672522285186 ], [ 12.969333135145236, 67.884448264430006 ], [ 12.972193475553469, 67.883595271015494 ], [ 12.973267369491181, 67.883841852517207 ], [ 12.975212414182597, 67.883928685410154 ], [ 12.975630807885112, 67.883772326559338 ], [ 12.975387852485216, 67.883553965035759 ], [ 12.975574608411442, 67.883322959668462 ], [ 12.977057812733348, 67.882695167480009 ], [ 12.978894278389374, 67.882385786523059 ], [ 12.978021222536412, 67.882294355991078 ], [ 12.978181831525315, 67.882089856339832 ], [ 12.979556223425519, 67.881891427558216 ], [ 12.978726872046321, 67.881845316467718 ], [ 12.975453230055749, 67.882253618962409 ], [ 12.974382120917017, 67.882249459118825 ], [ 12.973381447258857, 67.881985752175993 ], [ 12.973201069346759, 67.881866868345313 ], [ 12.973182352041604, 67.881534618364853 ], [ 12.97295620802794, 67.881397221753573 ], [ 12.97164808693614, 67.881381051369573 ], [ 12.970160204413459, 67.881515195501848 ], [ 12.969260225328989, 67.882006571871628 ], [ 12.96783347955626, 67.882258107786853 ], [ 12.966643456023551, 67.8822523344639 ], [ 12.965809899195161, 67.881981768120539 ], [ 12.965166934285923, 67.881982767036206 ], [ 12.963195215810602, 67.8827479659505 ], [ 12.962002554640133, 67.882499841356477 ], [ 12.958216252515895, 67.882775804363092 ], [ 12.955080641605866, 67.882452015091232 ], [ 12.95480928476892, 67.882526971197635 ], [ 12.95516230790807, 67.882845446461005 ], [ 12.95499187709604, 67.882888189624396 ], [ 12.952374560215439, 67.88259530671229 ], [ 12.950592397430341, 67.882824310924036 ], [ 12.949755063736827, 67.882598481966639 ], [ 12.949533118354269, 67.882685353804845 ], [ 12.950003412917727, 67.883023343586061 ], [ 12.95000747987393, 67.883247733657271 ], [ 12.949634918385906, 67.883422548856473 ], [ 12.948634338496307, 67.883427986776042 ], [ 12.948402111275144, 67.883631474850475 ], [ 12.947610857680715, 67.883693365873839 ], [ 12.947257226940849, 67.883653046841957 ], [ 12.947139786788583, 67.883364422638863 ], [ 12.946908249711933, 67.883289736322368 ], [ 12.944044491948846, 67.883361552697536 ], [ 12.941613320390223, 67.882846490026338 ], [ 12.938406320923621, 67.882492140187153 ], [ 12.934293581195137, 67.88161491560345 ], [ 12.933350988152885, 67.88150424273033 ], [ 12.933033849909071, 67.881589983151045 ], [ 12.932870471057921, 67.881821238976073 ], [ 12.93084884403204, 67.881795750084336 ], [ 12.928287623454617, 67.881144239608957 ], [ 12.927396485629576, 67.881258613214001 ], [ 12.926689876436425, 67.881707340215272 ], [ 12.926154022264996, 67.881574934955381 ], [ 12.926495322199592, 67.882288169281907 ], [ 12.927925443843348, 67.882539466080104 ], [ 12.927106394283703, 67.882645865331398 ], [ 12.925199797878458, 67.882397419317115 ], [ 12.924409324862696, 67.882450234848051 ], [ 12.925733271272364, 67.882556718440313 ], [ 12.925905991741407, 67.882756323115728 ], [ 12.92681037157611, 67.882758781937 ], [ 12.927031148355374, 67.882958992657819 ], [ 12.926925401783805, 67.883074313921597 ], [ 12.92709414846567, 67.883318735279275 ], [ 12.928046358868734, 67.883321791458698 ], [ 12.92935443074065, 67.883069098485905 ], [ 12.929715538920187, 67.882759578471166 ], [ 12.930417935157209, 67.882894072828094 ], [ 12.930421813509238, 67.883118462985792 ], [ 12.933168244613286, 67.883027458787041 ], [ 12.93475941183506, 67.883343628914702 ], [ 12.934888617017531, 67.883497807240616 ], [ 12.934183732453933, 67.883659431061275 ], [ 12.933475521881832, 67.884395322735301 ], [ 12.930486845631844, 67.884528146176748 ], [ 12.925192267741799, 67.884353584123218 ], [ 12.925069336146837, 67.884396987367538 ], [ 12.92512872791465, 67.884532253866297 ], [ 12.925557524236272, 67.884797913044736 ], [ 12.925310866903915, 67.884893593912352 ], [ 12.924906489743583, 67.884888479390824 ], [ 12.924664245228684, 67.884669957193367 ], [ 12.922471640558102, 67.884687072904669 ], [ 12.922104447043649, 67.884799080180514 ], [ 12.922215195728871, 67.885159340400364 ], [ 12.921460546674178, 67.885607528287863 ], [ 12.922460068012155, 67.886418936129942 ], [ 12.923122767018635, 67.886732342010646 ], [ 12.925911173994077, 67.887512431274018 ], [ 12.928477255727282, 67.887580835439607 ], [ 12.933361977243491, 67.888091029592445 ], [ 12.933941690481124, 67.887999620760979 ], [ 12.934473088996914, 67.887647276731556 ], [ 12.935602370839858, 67.887266740243078 ], [ 12.935427945275666, 67.887085072892006 ], [ 12.935430374557935, 67.886788973836815 ], [ 12.935850796349161, 67.885807165283012 ], [ 12.93686112282542, 67.884617408844548 ] ] ] ] } },
{ "type": "Feature", "properties": { "fid": 144327, "navn": null, "hoyde_moh": null, "arealInnsjo_km2": 0.0072, "magasinKategori": null, "fid_2": 694, "id": 694, "left": 12.486919847, "top": 67.946110046000001, "right": 12.986919847, "bottom": 67.446110046000001, "row_index": 13, "col_index": 17, "tile_id": 694 }, "geometry": { "type": "MultiPolygon", "coordinates": [ [ [ [ 12.982563996698385, 67.906273361098911 ], [ 12.981189857522052, 67.905628330379145 ], [ 12.980357323973379, 67.905609117518935 ], [ 12.979827768099506, 67.905943592547189 ], [ 12.9804164684816, 67.906300798928356 ], [ 12.981729592921607, 67.906550255355754 ], [ 12.982329510756157, 67.906503698734483 ], [ 12.982563996698385, 67.906273361098911 ] ], [ [ 12.982017153607615, 67.906257667201643 ], [ 12.982035521929177, 67.906320706909156 ], [ 12.981673712754553, 67.906370099996124 ], [ 12.981782945059974, 67.9062099212113 ], [ 12.982017153607615, 67.906257667201643 ] ] ] ] } },
{ "type": "Feature", "properties": { "fid": 152329, "navn": "Kringeldalsvatn", "hoyde_moh": 358, "arealInnsjo_km2": 0.0822, "magasinKategori": null, "fid_2": 694, "id": 694, "left": 12.486919847, "top": 67.946110046000001, "right": 12.986919847, "bottom": 67.446110046000001, "row_index": 13, "col_index": 17, "tile_id": 694 }, "geometry": { "type": "MultiPolygon", "coordinates": [ [ [ [ 12.956772543496548, 67.945922384090139 ], [ 12.957788603393325, 67.944956898729089 ], [ 12.957669164961347, 67.944686120939934 ], [ 12.957416282517025, 67.944575387284118 ], [ 12.956637958323922, 67.944467007166637 ], [ 12.956470831745875, 67.944195725340734 ], [ 12.956637577985189, 67.943928593371481 ], [ 12.95633702122284, 67.943817175617312 ], [ 12.955691185286931, 67.944105271099815 ], [ 12.955090013010922, 67.944151635502806 ], [ 12.954865290072378, 67.944534700284649 ], [ 12.953432875966538, 67.945073232163523 ], [ 12.952356991332138, 67.94509572993617 ], [ 12.951275109980077, 67.945719370788424 ], [ 12.950434838942719, 67.945771712633615 ], [ 12.949235707594971, 67.946110046 ], [ 12.951510696706267, 67.946110046 ], [ 12.951508201466391, 67.946054294787444 ], [ 12.951706906350655, 67.945967035377748 ], [ 12.951734977467979, 67.946110046 ], [ 12.956720243754299, 67.946110046 ], [ 12.956772543496548, 67.945922384090139 ] ] ] ] } },
{ "type": "Feature", "properties": { "fid": 179240, "navn": "Stokkvikvatnet", "hoyde_moh": 45, "arealInnsjo_km2": 0.2395, "magasinKategori": null, "fid_2": 694, "id": 694, "left": 12.486919847, "top": 67.946110046000001, "right": 12.986919847, "bottom": 67.446110046000001, "row_index": 13, "col_index": 17, "tile_id": 694 }, "geometry": { "type": "MultiPolygon", "coordinates": [ [ [ [ 12.8810550062695, 67.894423410959234 ], [ 12.884388357665975, 67.89365877365951 ], [ 12.886178918461303, 67.892829335314033 ], [ 12.886471572550063, 67.8924920997854 ], [ 12.887248434870981, 67.892331601492089 ], [ 12.888007778152648, 67.891838843020039 ], [ 12.888024036767092, 67.89165957599522 ], [ 12.888668441123368, 67.891120466332751 ], [ 12.888541126291578, 67.890948325632166 ], [ 12.887412697486935, 67.890521005268383 ], [ 12.886652978490671, 67.890493274266589 ], [ 12.88588206421834, 67.890851269929527 ], [ 12.885282363089701, 67.890897474700481 ], [ 12.883557745600745, 67.890740541324348 ], [ 12.880214995178051, 67.891612722523789 ], [ 12.878201678945885, 67.891748230151038 ], [ 12.875576994614715, 67.892315518602715 ], [ 12.872001668893384, 67.892601224673058 ], [ 12.868785389407462, 67.892604352811546 ], [ 12.867889415071428, 67.893023460567349 ], [ 12.867068905702373, 67.893138521807103 ], [ 12.866700480848152, 67.893519520581961 ], [ 12.866952370514957, 67.893630481816672 ], [ 12.866935948140387, 67.893809746354307 ], [ 12.868012224774658, 67.894281401641265 ], [ 12.870566020420357, 67.894754280653927 ], [ 12.873601289072516, 67.894910298731887 ], [ 12.8810550062695, 67.894423410959234 ] ] ] ] } },
{ "type": "Feature", "properties": { "fid": 179390, "navn": "Mengelsdalsvatnet", "hoyde_moh": 373, "arealInnsjo_km2": 0.2081, "magasinKategori": null, "fid_2": 694, "id": 694, "left": 12.486919847, "top": 67.946110046000001, "right": 12.986919847, "bottom": 67.446110046000001, "row_index": 13, "col_index": 17, "tile_id": 694 }, "geometry": { "type": "MultiPolygon", "coordinates": [ [ [ [ 12.920039667189007, 67.911388839597009 ], [ 12.919930444223247, 67.911010562143488 ], [ 12.918908478497944, 67.909642499256577 ], [ 12.91903258054389, 67.909321109749413 ], [ 12.917969835474619, 67.908410180024049 ], [ 12.917950278660735, 67.908095943118738 ], [ 12.917132939887606, 67.907107445346242 ], [ 12.915764560964014, 67.907215711404319 ], [ 12.915388948156489, 67.907417337478435 ], [ 12.911587610267503, 67.906480631564065 ], [ 12.910156096763568, 67.906498400302397 ], [ 12.909561113330534, 67.906750883700823 ], [ 12.908902695522983, 67.907711749723219 ], [ 12.909087182918684, 67.908046126661986 ], [ 12.909035180072596, 67.908359544320788 ], [ 12.909435583903118, 67.908678722915653 ], [ 12.909811500681078, 67.910334671110718 ], [ 12.910216541542315, 67.910600064056183 ], [ 12.910461705320072, 67.911321080360494 ], [ 12.911710957653124, 67.911480551701857 ], [ 12.912117895109557, 67.911727926473347 ], [ 12.912972783471474, 67.911765804858206 ], [ 12.914154594421163, 67.912148742189203 ], [ 12.914742771229264, 67.911967854664439 ], [ 12.91577398759626, 67.912169304157857 ], [ 12.920039667189007, 67.911388839597009 ] ] ] ] } },
{ "type": "Feature", "properties": { "fid": 191503, "navn": "Tuvvatnet", "hoyde_moh": 4, "arealInnsjo_km2": 0.0354, "magasinKategori": null, "fid_2": 694, "id": 694, "left": 12.486919847, "top": 67.946110046000001, "right": 12.986919847, "bottom": 67.446110046000001, "row_index": 13, "col_index": 17, "tile_id": 694 }, "geometry": { "type": "MultiPolygon", "coordinates": [ [ [ [ 12.881789667034541, 67.843129325017998 ], [ 12.88160804635381, 67.841987292497862 ], [ 12.882149084896703, 67.841787889575642 ], [ 12.881963866805869, 67.841471408542446 ], [ 12.880192031693953, 67.841089531062892 ], [ 12.878458897119142, 67.841067091177976 ], [ 12.877699279366105, 67.841317493442233 ], [ 12.877165654842432, 67.841696456207131 ], [ 12.877691464331845, 67.84218786096983 ], [ 12.879425756169431, 67.842721835202482 ], [ 12.880261266514324, 67.843468419244033 ], [ 12.881089044746895, 67.843515114511646 ], [ 12.881789667034541, 67.843129325017998 ] ] ] ] } },
{ "type": "Feature", "properties": { "fid": 191504, "navn": "Fjerddalsvatnet", "hoyde_moh": 222, "arealInnsjo_km2": 0.506, "magasinKategori": null, "fid_2": 694, "id": 694, "left": 12.486919847, "top": 67.946110046000001, "right": 12.986919847, "bottom": 67.446110046000001, "row_index": 13, "col_index": 17, "tile_id": 694 }, "geometry": { "type": "MultiPolygon", "coordinates": [ [ [ [ 12.986354873599172, 67.915625313194795 ], [ 12.986224673484143, 67.91602751953171 ], [ 12.986539525101303, 67.916246741138906 ], [ 12.986347176520679, 67.916540504938851 ], [ 12.986762510851044, 67.916698144196573 ], [ 12.986919847, 67.916859216333762 ], [ 12.986919847, 67.915264010788007 ], [ 12.986354873599172, 67.915625313194795 ] ] ] ] } },
{ "type": "Feature", "properties": { "fid": 194861, "navn": "Litlforsvatnet", "hoyde_moh": 313, "arealInnsjo_km2": 0.1981, "magasinKategori": null, "fid_2": 694, "id": 694, "left": 12.486919847, "top": 67.946110046000001, "right": 12.986919847, "bottom": 67.446110046000001, "row_index": 13, "col_index": 17, "tile_id": 694 }, "geometry": { "type": "MultiPolygon", "coordinates": [ [ [ [ 12.961946274488334, 67.942469000876017 ], [ 12.965455437081236, 67.940834432489055 ], [ 12.967236429583846, 67.940667933708639 ], [ 12.968150816978875, 67.940311417109129 ], [ 12.967786568095322, 67.940109408869574 ], [ 12.96669860393734, 67.939997336652254 ], [ 12.964791855260561, 67.939417385583567 ], [ 12.961767981809949, 67.938787668798696 ], [ 12.958351985712747, 67.9385478577274 ], [ 12.955266630313387, 67.938617187265663 ], [ 12.954730493353253, 67.938745209138958 ], [ 12.954491453813846, 67.939020323298507 ], [ 12.953170779304898, 67.939380770170331 ], [ 12.952753744552917, 67.939779384327068 ], [ 12.952507695645595, 67.940404465052623 ], [ 12.953834756637351, 67.941327312704786 ], [ 12.953954141536958, 67.94159800361976 ], [ 12.956509319636353, 67.942401506570945 ], [ 12.958667725987736, 67.94283212906987 ], [ 12.961946274488334, 67.942469000876017 ] ] ] ] } },
{ "type": "Feature", "properties": { "fid": 205935, "navn": "Ånstadvatnet", "hoyde_moh": 6, "arealInnsjo_km2": 0.2199, "magasinKategori": null, "fid_2": 694, "id": 694, "left": 12.486919847, "top": 67.946110046000001, "right": 12.986919847, "bottom": 67.446110046000001, "row_index": 13, "col_index": 17, "tile_id": 694 }, "geometry": { "type": "MultiPolygon", "coordinates": [ [ [ [ 12.891347444307181, 67.858373562780045 ], [ 12.891475129140126, 67.858016252249186 ], [ 12.892829687208414, 67.857764458914801 ], [ 12.892899065930044, 67.857523057600531 ], [ 12.893123425137677, 67.857409192564376 ], [ 12.894673376908314, 67.857366383974423 ], [ 12.895381778956645, 67.857160111161988 ], [ 12.896102922679077, 67.857339873001408 ], [ 12.896402327104409, 67.857182277457028 ], [ 12.896523469914861, 67.85689658063815 ], [ 12.896817454532878, 67.856801641797531 ], [ 12.898071774631941, 67.856871577073434 ], [ 12.897358204476376, 67.855552247198389 ], [ 12.897827489225925, 67.854831389260951 ], [ 12.8964541824138, 67.854499682937458 ], [ 12.896403611275248, 67.854005473898354 ], [ 12.895444782507745, 67.853822659775091 ], [ 12.8927261782946, 67.853644140302563 ], [ 12.888909237309832, 67.853774487276226 ], [ 12.887840502017408, 67.854020956806622 ], [ 12.886646891104386, 67.854858083639002 ], [ 12.885936858124895, 67.855082245500753 ], [ 12.886174620872472, 67.85534555448551 ], [ 12.886114925750057, 67.855479392316312 ], [ 12.885828433099688, 67.855753796337666 ], [ 12.88481295734902, 67.856198449185641 ], [ 12.88415724590708, 67.856871998250128 ], [ 12.884164743727675, 67.857051572325773 ], [ 12.885410532352736, 67.857480448943505 ], [ 12.886289763002216, 67.858012274654072 ], [ 12.887902345909177, 67.858329201431943 ], [ 12.891347444307181, 67.858373562780045 ] ] ] ] } },
{ "type": "Feature", "properties": { "fid": 205936, "navn": null, "hoyde_moh": 280, "arealInnsjo_km2": 0.0052, "magasinKategori": null, "fid_2": 694, "id": 694, "left": 12.486919847, "top": 67.946110046000001, "right": 12.986919847, "bottom": 67.446110046000001, "row_index": 13, "col_index": 17, "tile_id": 694 }, "geometry": { "type": "MultiPolygon", "coordinates": [ [ [ [ 12.895106108290266, 67.870231414859688 ], [ 12.894909971893155, 67.870031473053771 ], [ 12.894863451703223, 67.869492447341869 ], [ 12.894685864802465, 67.869429773383843 ], [ 12.894145629787902, 67.869619631189664 ], [ 12.893489121708773, 67.870479862840369 ], [ 12.893835971425936, 67.870592094078603 ], [ 12.895106108290266, 67.870231414859688 ] ] ] ] } },
{ "type": "Feature", "properties": { "fid": 224488, "navn": "Trolldalsvatnet", "hoyde_moh": 152, "arealInnsjo_km2": 1.2513, "magasinKategori": null, "fid_2": 694, "id": 694, "left": 12.486919847, "top": 67.946110046000001, "right": 12.986919847, "bottom": 67.446110046000001, "row_index": 13, "col_index": 17, "tile_id": 694 }, "geometry": { "type": "MultiPolygon", "coordinates": [ [ [ [ 12.935603631242879, 67.916807879534929 ], [ 12.936684300828668, 67.916453542123946 ], [ 12.94106775995451, 67.914615128667279 ], [ 12.941727229051351, 67.914165742952761 ], [ 12.943404923894139, 67.913800898054845 ], [ 12.945830785664446, 67.912790327075598 ], [ 12.948274066588739, 67.91158252191353 ], [ 12.948992791808122, 67.910999246405538 ], [ 12.949054397346584, 67.910838581764892 ], [ 12.948806119124521, 67.910682930228091 ], [ 12.948986256012724, 67.910532540306477 ], [ 12.948882993841936, 67.910351779495215 ], [ 12.949649643649998, 67.910038306608513 ], [ 12.949949259600068, 67.909611317470024 ], [ 12.950011219809815, 67.909181360906771 ], [ 12.950954361952013, 67.907945900832289 ], [ 12.950593685272002, 67.907707997366813 ], [ 12.950601691995466, 67.907349155547806 ], [ 12.950893599890945, 67.907011804324114 ], [ 12.95088531764573, 67.906293817459641 ], [ 12.950532010099591, 67.905975243605596 ], [ 12.950647915495335, 67.904388462529283 ], [ 12.950820750722359, 67.904049625237562 ], [ 12.951599138211671, 67.90387089514293 ], [ 12.951880732617406, 67.903650070006975 ], [ 12.952017620201589, 67.902906973759627 ], [ 12.952614827884149, 67.902349090162289 ], [ 12.953921416508573, 67.901853889512196 ], [ 12.953797960799989, 67.90108960000596 ], [ 12.95349780708799, 67.9007089695057 ], [ 12.95360484171035, 67.900575700857658 ], [ 12.956539151407531, 67.899723877461909 ], [ 12.957666679859459, 67.89882261134386 ], [ 12.958548125829026, 67.898824603312107 ], [ 12.960569209712125, 67.898329264658187 ], [ 12.961573567729561, 67.898287900230187 ], [ 12.965510044593383, 67.89741247196649 ], [ 12.968245967187096, 67.897186132150594 ], [ 12.969970088126797, 67.897360015503367 ], [ 12.970392666685594, 67.897158851769717 ], [ 12.971519855188824, 67.897074168460051 ], [ 12.971995082788883, 67.897088925002478 ], [ 12.971526480833571, 67.897271576960776 ], [ 12.971509667834511, 67.897737989607933 ], [ 12.972123397240191, 67.898077591891237 ], [ 12.974675199285739, 67.898324463033447 ], [ 12.976168874595846, 67.898683878613724 ], [ 12.976404907658624, 67.89843553220706 ], [ 12.977107613678196, 67.898300619171309 ], [ 12.977710779965451, 67.897940050943021 ], [ 12.976759081538638, 67.897650234929344 ], [ 12.977156256586309, 67.89746659834357 ], [ 12.976470716838339, 67.897404307072165 ], [ 12.976509664141098, 67.896956204457553 ], [ 12.978183448560419, 67.896887097489611 ], [ 12.978366064342465, 67.896979081426295 ], [ 12.978190569681832, 67.897353804296202 ], [ 12.979136041385404, 67.897715412544642 ], [ 12.980499212330404, 67.89738222712586 ], [ 12.980808918886527, 67.897107861164443 ], [ 12.981764035494717, 67.897083715152718 ], [ 12.982757984385726, 67.896611369583482 ], [ 12.981989973353345, 67.896126336382736 ], [ 12.981271816583853, 67.896440547988888 ], [ 12.980205736891147, 67.896642794056461 ], [ 12.978539545745063, 67.896353077206911 ], [ 12.978131510222708, 67.896662121552268 ], [ 12.974428123310611, 67.896508775415754 ], [ 12.97317572406287, 67.896663809524171 ], [ 12.972585417032661, 67.89660267771076 ], [ 12.972473987500486, 67.89651156650703 ], [ 12.9726533105906, 67.896370206260073 ], [ 12.972515978868067, 67.896305695509469 ], [ 12.967277490126012, 67.895998613365691 ], [ 12.9667476450292, 67.896063927672685 ], [ 12.966522655170033, 67.897003266949824 ], [ 12.957355443539351, 67.897481682960432 ], [ 12.955747636103574, 67.89788342110019 ], [ 12.953196402843233, 67.898174672772953 ], [ 12.944910633762909, 67.898376236486257 ], [ 12.941826895290721, 67.899028562192669 ], [ 12.940982773144174, 67.899682020832884 ], [ 12.940867741417728, 67.899904917557592 ], [ 12.941044682658026, 67.90005968821221 ], [ 12.940881257990673, 67.900560248941602 ], [ 12.939453867680307, 67.90134089692549 ], [ 12.939213451190348, 67.901633917735225 ], [ 12.939386418620886, 67.901833597947515 ], [ 12.93914598816824, 67.902126708265939 ], [ 12.937374779247746, 67.903558185597873 ], [ 12.937360434973719, 67.904257856499626 ], [ 12.937080187645215, 67.905268441792401 ], [ 12.937138103646996, 67.905421720741117 ], [ 12.938209449629076, 67.905704386819508 ], [ 12.938210970314863, 67.906763290151574 ], [ 12.939166517678935, 67.907008600563984 ], [ 12.939822080630679, 67.907411665834061 ], [ 12.940122095168254, 67.907792320750289 ], [ 12.940046707808536, 67.908643865584381 ], [ 12.940223153762094, 67.908807603711423 ], [ 12.939945118646564, 67.909252794831303 ], [ 12.940050687396955, 67.909406670244806 ], [ 12.939160103711952, 67.909772385558199 ], [ 12.938748926492167, 67.910108220784366 ], [ 12.935532599776337, 67.911431801210512 ], [ 12.930231523788907, 67.912863663660474 ], [ 12.929936849260134, 67.9132278678413 ], [ 12.928860092180155, 67.913806550475641 ], [ 12.927263090435233, 67.91620919217867 ], [ 12.928523068698061, 67.916790517012984 ], [ 12.930118867688137, 67.917079844926292 ], [ 12.935603631242879, 67.916807879534929 ] ] ] ] } },
{ "type": "Feature", "properties": { "fid": 268531, "navn": "Tennesvatnet", "hoyde_moh": 239, "arealInnsjo_km2": 0.8735, "magasinKategori": 1, "fid_2": 694, "id": 694, "left": 12.486919847, "top": 67.946110046000001, "right": 12.986919847, "bottom": 67.446110046000001, "row_index": 13, "col_index": 17, "tile_id": 694 }, "geometry": { "type": "MultiPolygon", "coordinates": [ [ [ [ 12.986269718657692, 67.927074312845775 ], [ 12.984737287148047, 67.927414459537729 ], [ 12.983479903667174, 67.927883595741307 ], [ 12.982773438977562, 67.928601768982617 ], [ 12.981519065163193, 67.929035034535829 ], [ 12.981098810695693, 67.92947854156732 ], [ 12.981272349909021, 67.929678088485858 ], [ 12.981278755124952, 67.930153757375166 ], [ 12.981991634905832, 67.930736811069735 ], [ 12.982111295340463, 67.93100748239857 ], [ 12.983673746561452, 67.931699665626454 ], [ 12.986061295156457, 67.933335088285858 ], [ 12.98618489212704, 67.933561027039104 ], [ 12.986054051676035, 67.933694024356953 ], [ 12.986297624742472, 67.933912370083135 ], [ 12.986423861621581, 67.934658706966445 ], [ 12.986919847, 67.935009754211123 ], [ 12.986919847, 67.927042643131756 ], [ 12.986269718657692, 67.927074312845775 ] ] ] ] } },
{ "type": "Feature", "properties": { "fid": 268879, "navn": "Krokvatnet", "hoyde_moh": 348, "arealInnsjo_km2": 1.5048, "magasinKategori": 1, "fid_2": 694, "id": 694, "left": 12.486919847, "top": 67.946110046000001, "right": 12.986919847, "bottom": 67.446110046000001, "row_index": 13, "col_index": 17, "tile_id": 694 }, "geometry": { "type": "MultiPolygon", "coordinates": [ [ [ [ 12.93802547083135, 67.933870242781964 ], [ 12.942181744369543, 67.932208300259177 ], [ 12.942949183433319, 67.931625564507996 ], [ 12.943738925758094, 67.93025361175394 ], [ 12.944382093008368, 67.929723246104047 ], [ 12.945223321143029, 67.929383799567717 ], [ 12.951243543311294, 67.92794244773448 ], [ 12.951179820359469, 67.92758271226505 ], [ 12.952835208681227, 67.927477716828975 ], [ 12.954157904473954, 67.927628794450641 ], [ 12.954871430882777, 67.927924829610802 ], [ 12.954627935194868, 67.928523023663004 ], [ 12.953447220416908, 67.929468487367529 ], [ 12.953566855627194, 67.9302775933334 ], [ 12.954104148492554, 67.930679118197887 ], [ 12.954223483639803, 67.930949809143286 ], [ 12.954174400441852, 67.931236350291996 ], [ 12.953380905060117, 67.931576436410964 ], [ 12.953395577085281, 67.932222711813409 ], [ 12.954471675412394, 67.932738626351693 ], [ 12.954477365208986, 67.932945087767706 ], [ 12.95387136113346, 67.933323314643928 ], [ 12.953877037773236, 67.933529865693018 ], [ 12.955490431517335, 67.934178090354976 ], [ 12.955960282605821, 67.93453381147512 ], [ 12.961390129633765, 67.934933363241271 ], [ 12.972303633549773, 67.934574834647051 ], [ 12.9728417750191, 67.934150748689433 ], [ 12.972535415545062, 67.933832899445989 ], [ 12.971685500085858, 67.933454501193424 ], [ 12.972818378644231, 67.932777615020498 ], [ 12.972934843080559, 67.932536679274875 ], [ 12.972714085976138, 67.932058364220396 ], [ 12.973245907482717, 67.931705986976425 ], [ 12.972528932169828, 67.930898507081181 ], [ 12.97394689907196, 67.93078139461123 ], [ 12.974300114379997, 67.930561413547011 ], [ 12.974302061207563, 67.930265314449372 ], [ 12.975085062751248, 67.930041566365048 ], [ 12.975090115284031, 67.929709701652186 ], [ 12.974180535112575, 67.92919588857049 ], [ 12.974187943876784, 67.928837132486564 ], [ 12.975386978831825, 67.928492884237983 ], [ 12.975435794410897, 67.92820633613735 ], [ 12.974413739632384, 67.927888732712958 ], [ 12.972282564807706, 67.927979100427123 ], [ 12.969834607351755, 67.927598907600199 ], [ 12.967431404953848, 67.926707744026089 ], [ 12.965181270284967, 67.925432580023184 ], [ 12.966433399200167, 67.925026330495868 ], [ 12.963731590360096, 67.92455316528428 ], [ 12.962850739308617, 67.924533271678342 ], [ 12.959333195940687, 67.923843525151142 ], [ 12.955802832093855, 67.923844501660895 ], [ 12.953911020684997, 67.923928632776864 ], [ 12.951836097610279, 67.924737314798691 ], [ 12.948061186988463, 67.925345188239419 ], [ 12.94396038348841, 67.925859342886611 ], [ 12.942588611293699, 67.92572551395287 ], [ 12.939661628753438, 67.925913172971391 ], [ 12.936514487432278, 67.926699245405587 ], [ 12.936511256728535, 67.927004396363245 ], [ 12.936152972689488, 67.927277987533259 ], [ 12.936210935275158, 67.927431266521978 ], [ 12.93663192112146, 67.927526379497735 ], [ 12.936572570962566, 67.927660148133313 ], [ 12.935623877276271, 67.92759438960401 ], [ 12.934910489758373, 67.927836685214842 ], [ 12.934673711467354, 67.928084969541786 ], [ 12.932756685901689, 67.92871593386522 ], [ 12.931204333373204, 67.929001408515276 ], [ 12.929008580597582, 67.929009731925305 ], [ 12.927871552531901, 67.929453051166718 ], [ 12.927220880798545, 67.929525606943116 ], [ 12.926932987991835, 67.930078339337697 ], [ 12.92704530710337, 67.930959170827904 ], [ 12.926040592091065, 67.931790013447724 ], [ 12.926461792668098, 67.93295292552699 ], [ 12.92710186851588, 67.933535311941156 ], [ 12.929440691833507, 67.934336526278202 ], [ 12.932783374705441, 67.934854117288054 ], [ 12.933839417901231, 67.934786724720936 ], [ 12.93802547083135, 67.933870242781964 ] ] ] ] } }
]
}
