{
"type": "FeatureCollection",
"name": "innsjo_tile_id_579",
"crs": { "type": "name", "properties": { "name": "urn:ogc:def:crs:OGC:1.3:CRS84" } },
"xy_coordinate_resolution": 1e-15,
"features": [
{ "type": "Feature", "properties": { "fid": 446, "navn": null, "hoyde_moh": 12, "arealInnsjo_km2": 0.0027, "magasinKategori": null, "fid_2": 579, "id": 579, "left": 10.986919847, "top": 65.446110046000001, "right": 11.486919847, "bottom": 64.946110046000001, "row_index": 18, "col_index": 14, "tile_id": 579 }, "geometry": { "type": "MultiPolygon", "coordinates": [ [ [ [ 11.081725667683267, 64.975083519886169 ], [ 11.081760095361727, 64.974957178438501 ], [ 11.08149512995406, 64.974788908914874 ], [ 11.081211186024994, 64.974844259012258 ], [ 11.081167502318968, 64.974990306705763 ], [ 11.08089986299016, 64.974879388426174 ], [ 11.080425946177849, 64.974977190214901 ], [ 11.080405996997676, 64.975191439100726 ], [ 11.080757535392722, 64.975382835084204 ], [ 11.081725667683267, 64.975083519886169 ] ] ] ] } },
{ "type": "Feature", "properties": { "fid": 537, "navn": null, "hoyde_moh": 8, "arealInnsjo_km2": 0.0033, "magasinKategori": null, "fid_2": 579, "id": 579, "left": 10.986919847, "top": 65.446110046000001, "right": 11.486919847, "bottom": 64.946110046000001, "row_index": 18, "col_index": 14, "tile_id": 579 }, "geometry": { "type": "MultiPolygon", "coordinates": [ [ [ [ 11.061956358959499, 64.970891675496816 ], [ 11.062543085388571, 64.970988773713344 ], [ 11.06279297188429, 64.970718052732337 ], [ 11.061125043453348, 64.970402681426066 ], [ 11.061016025080113, 64.970547987235136 ], [ 11.061511456537296, 64.970723285588974 ], [ 11.061263914870027, 64.970820987213045 ], [ 11.061242967775822, 64.971022269809595 ], [ 11.061956358959499, 64.970891675496816 ] ] ] ] } },
{ "type": "Feature", "properties": { "fid": 540, "navn": null, "hoyde_moh": 24, "arealInnsjo_km2": 0.0042, "magasinKategori": null, "fid_2": 579, "id": 579, "left": 10.986919847, "top": 65.446110046000001, "right": 11.486919847, "bottom": 64.946110046000001, "row_index": 18, "col_index": 14, "tile_id": 579 }, "geometry": { "type": "MultiPolygon", "coordinates": [ [ [ [ 11.121717654262568, 64.975743646437508 ], [ 11.121837347155285, 64.97535874261051 ], [ 11.122678364559292, 64.975135210616813 ], [ 11.121655887838026, 64.975079677604271 ], [ 11.121438147985272, 64.975233604890306 ], [ 11.120825919305913, 64.975254787048641 ], [ 11.121016623884552, 64.975355990138098 ], [ 11.120724719413127, 64.975639362843992 ], [ 11.120752075793913, 64.975861760782394 ], [ 11.121231843053721, 64.975930317582296 ], [ 11.121717654262568, 64.975743646437508 ] ] ] ] } },
{ "type": "Feature", "properties": { "fid": 582, "navn": null, "hoyde_moh": 4, "arealInnsjo_km2": 0.0185, "magasinKategori": null, "fid_2": 579, "id": 579, "left": 10.986919847, "top": 65.446110046000001, "right": 11.486919847, "bottom": 64.946110046000001, "row_index": 18, "col_index": 14, "tile_id": 579 }, "geometry": { "type": "MultiPolygon", "coordinates": [ [ [ [ 11.074855801230788, 64.963984423738367 ], [ 11.074056010845004, 64.963680822923905 ], [ 11.071274928526476, 64.96335680618752 ], [ 11.069839129066388, 64.963448888274172 ], [ 11.069624376576277, 64.963586827120153 ], [ 11.069679399743645, 64.963834506234022 ], [ 11.070215046111509, 64.964020003936071 ], [ 11.073059473714149, 64.964454713530955 ], [ 11.074855801230788, 64.963984423738367 ] ] ] ] } },
{ "type": "Feature", "properties": { "fid": 10280, "navn": null, "hoyde_moh": 1, "arealInnsjo_km2": 0.0067, "magasinKategori": null, "fid_2": 579, "id": 579, "left": 10.986919847, "top": 65.446110046000001, "right": 11.486919847, "bottom": 64.946110046000001, "row_index": 18, "col_index": 14, "tile_id": 579 }, "geometry": { "type": "MultiPolygon", "coordinates": [ [ [ [ 11.406690580913512, 64.953426566518232 ], [ 11.406360768351897, 64.953207124900487 ], [ 11.406628828649389, 64.952921782930005 ], [ 11.406614144861351, 64.952720093071278 ], [ 11.405705542444487, 64.952486151606067 ], [ 11.40498250258255, 64.952718739042709 ], [ 11.404984454034167, 64.953135114074271 ], [ 11.406021986523658, 64.953460304339472 ], [ 11.406690580913512, 64.953426566518232 ] ] ] ] } },
{ "type": "Feature", "properties": { "fid": 15726, "navn": null, "hoyde_moh": 2, "arealInnsjo_km2": 0.0023, "magasinKategori": null, "fid_2": 579, "id": 579, "left": 10.986919847, "top": 65.446110046000001, "right": 11.486919847, "bottom": 64.946110046000001, "row_index": 18, "col_index": 14, "tile_id": 579 }, "geometry": { "type": "MultiPolygon", "coordinates": [ [ [ [ 11.040318666747485, 64.984533236020852 ], [ 11.040877984904293, 64.984538922265799 ], [ 11.040653474687872, 64.984476884270038 ], [ 11.040763081543226, 64.984338794939134 ], [ 11.040644133138287, 64.984246219617773 ], [ 11.04013615734117, 64.984391163527917 ], [ 11.040059369445647, 64.984266187339259 ], [ 11.040237402532703, 64.984078871703716 ], [ 11.039728864137704, 64.983858044111102 ], [ 11.039916941111795, 64.984512591835326 ], [ 11.039652179599603, 64.984667768060945 ], [ 11.040318666747485, 64.984533236020852 ] ] ] ] } },
{ "type": "Feature", "properties": { "fid": 15738, "navn": null, "hoyde_moh": 7, "arealInnsjo_km2": 0.0026, "magasinKategori": null, "fid_2": 579, "id": 579, "left": 10.986919847, "top": 65.446110046000001, "right": 11.486919847, "bottom": 64.946110046000001, "row_index": 18, "col_index": 14, "tile_id": 579 }, "geometry": { "type": "MultiPolygon", "coordinates": [ [ [ [ 11.046995942896388, 64.989375515187476 ], [ 11.04687941752457, 64.989254792219427 ], [ 11.047051472982274, 64.989172363227269 ], [ 11.04568872146381, 64.989082044439641 ], [ 11.045790320566116, 64.989474306209672 ], [ 11.046434664516712, 64.989561755037514 ], [ 11.046995942896388, 64.989375515187476 ] ] ] ] } },
{ "type": "Feature", "properties": { "fid": 28631, "navn": "Hasfjordvatnet", "hoyde_moh": 5, "arealInnsjo_km2": 0.6509, "magasinKategori": null, "fid_2": 579, "id": 579, "left": 10.986919847, "top": 65.446110046000001, "right": 11.486919847, "bottom": 64.946110046000001, "row_index": 18, "col_index": 14, "tile_id": 579 }, "geometry": { "type": "MultiPolygon", "coordinates": [ [ [ [ 11.029475538633928, 64.953154333127827 ], [ 11.029049780943343, 64.95284588375138 ], [ 11.029055980338274, 64.952648341439641 ], [ 11.029462170001274, 64.952418415002967 ], [ 11.027930380899539, 64.9520442602267 ], [ 11.027139091888515, 64.951103546800908 ], [ 11.027717888694378, 64.950916152810848 ], [ 11.029046145337963, 64.951018429562581 ], [ 11.029244318652227, 64.950940136094516 ], [ 11.029140611573316, 64.950690326879752 ], [ 11.0302107296956, 64.950559067029133 ], [ 11.033057534640704, 64.950960048610796 ], [ 11.033858609135308, 64.950913261451007 ], [ 11.036870611758262, 64.951536403172071 ], [ 11.036192098585854, 64.950987417558196 ], [ 11.033854489905362, 64.950302956500494 ], [ 11.03168743994086, 64.950485003762466 ], [ 11.029726362838039, 64.950314390156692 ], [ 11.027758683307949, 64.949775568004981 ], [ 11.026488280658494, 64.949218295981794 ], [ 11.024743580108685, 64.949107396663848 ], [ 11.023532685434564, 64.948773748234444 ], [ 11.022258880705268, 64.948728142309349 ], [ 11.020198856252993, 64.94837016842115 ], [ 11.01986724590745, 64.947898757986962 ], [ 11.018653997723018, 64.947251006322901 ], [ 11.016380882964313, 64.946868856783226 ], [ 11.015054341400583, 64.946402092483766 ], [ 11.01372257673229, 64.946429091178501 ], [ 11.013359760672476, 64.946676313009647 ], [ 11.014682319178634, 64.947367656448421 ], [ 11.014690266359223, 64.94747517163465 ], [ 11.014062403272204, 64.94757340108049 ], [ 11.013888379396466, 64.947791167422722 ], [ 11.014007505515139, 64.947969149163868 ], [ 11.013793716132037, 64.948223326263573 ], [ 11.013264244416154, 64.948221556546628 ], [ 11.011402826265149, 64.947681128598177 ], [ 11.010970316171777, 64.947839576248697 ], [ 11.009924312095261, 64.947727979822801 ], [ 11.009620522246722, 64.947911620276514 ], [ 11.009677125137733, 64.948386563848075 ], [ 11.008723977239768, 64.948381424933629 ], [ 11.007283999637623, 64.948095691167325 ], [ 11.006287244172364, 64.94750764727155 ], [ 11.005966634107603, 64.947467146445717 ], [ 11.005895622109424, 64.947647585768806 ], [ 11.005591998910024, 64.947552899496486 ], [ 11.004646223925171, 64.947080973165455 ], [ 11.005110817497213, 64.947065666230998 ], [ 11.005118530599081, 64.946886135531329 ], [ 11.004535859924346, 64.946454143021768 ], [ 11.004838327699254, 64.946252503308699 ], [ 11.004320686206261, 64.946124842442671 ], [ 11.003882341616047, 64.946211487840259 ], [ 11.003643816084621, 64.946110046 ], [ 11.001292459671637, 64.946110046 ], [ 11.001383488572154, 64.946200136415385 ], [ 11.000721993442852, 64.946415495045699 ], [ 10.999754206393701, 64.946110046 ], [ 10.987704933478618, 64.946110046 ], [ 10.987597887890619, 64.946447403548362 ], [ 10.986974521784859, 64.946608370840835 ], [ 10.986919847, 64.946775097760906 ], [ 10.986919847, 64.947004946899753 ], [ 10.987015819929683, 64.947164341459754 ], [ 10.987928002773206, 64.947188018567132 ], [ 10.990343512331961, 64.946356887462784 ], [ 10.991097446535628, 64.946248130742106 ], [ 10.991666116119196, 64.946491886029037 ], [ 10.992620534879517, 64.94651505386625 ], [ 10.992633957418089, 64.946694435429606 ], [ 10.992891023669053, 64.946735862129572 ], [ 10.994163852088736, 64.946485485941793 ], [ 10.996863815627133, 64.947203344947795 ], [ 10.99898189818604, 64.947498054569849 ], [ 10.999037632529083, 64.947676863773253 ], [ 11.000732219958294, 64.948255480020308 ], [ 11.002387165097218, 64.949349847894723 ], [ 11.003010108742737, 64.949553493494122 ], [ 11.003114919529242, 64.949821239647903 ], [ 11.003004638875431, 64.950047266321576 ], [ 11.003692613818597, 64.950514082249526 ], [ 11.00487050609642, 64.950363336481274 ], [ 11.004868212230479, 64.950049183529259 ], [ 11.004588922350475, 64.949711783652035 ], [ 11.004762483496211, 64.949484937198733 ], [ 11.005855030979145, 64.949371617410378 ], [ 11.007029829215162, 64.949508352553011 ], [ 11.00898155761511, 64.949275599063682 ], [ 11.011208075427984, 64.949882989927602 ], [ 11.012174809302046, 64.949928197333932 ], [ 11.01236697230796, 64.950370101791194 ], [ 11.013175901293318, 64.950709170366594 ], [ 11.014806130109573, 64.950705165745205 ], [ 11.015755487854561, 64.951221960976241 ], [ 11.017407579691268, 64.951226510269365 ], [ 11.017976356384297, 64.950904622161275 ], [ 11.018719169051334, 64.950930499315433 ], [ 11.019191404031323, 64.951013846557998 ], [ 11.019207360229769, 64.951220160067081 ], [ 11.019885065677572, 64.951507154313958 ], [ 11.021223656412813, 64.951848016056431 ], [ 11.022384770393218, 64.952361884062114 ], [ 11.024341834868213, 64.952757243451885 ], [ 11.024815468349388, 64.952580263353553 ], [ 11.026554923707391, 64.952619482829306 ], [ 11.027138073396685, 64.952485857180577 ], [ 11.028956922117622, 64.953295978987384 ], [ 11.029475538633928, 64.953154333127827 ] ], [ [ 11.015387919583141, 64.949431573085675 ], [ 11.015550428190922, 64.949339581872536 ], [ 11.016143912409298, 64.94962784684887 ], [ 11.015387919583141, 64.949431573085675 ] ], [ [ 11.017299625949232, 64.950635528255617 ], [ 11.017300478034025, 64.950366216895702 ], [ 11.016767182027436, 64.950032296175266 ], [ 11.017034107873302, 64.949920988172323 ], [ 11.017868457518853, 64.950035321431301 ], [ 11.018290550647132, 64.950298864438608 ], [ 11.017923265973986, 64.950483430043079 ], [ 11.017873350139878, 64.950663628690023 ], [ 11.017299625949232, 64.950635528255617 ] ], [ [ 11.03342048419476, 64.950443544115842 ], [ 11.034496170951153, 64.950662253513414 ], [ 11.033426642664894, 64.950802546187873 ], [ 11.032532021649461, 64.95073387672862 ], [ 11.03342048419476, 64.950443544115842 ] ] ] ] } },
{ "type": "Feature", "properties": { "fid": 28653, "navn": "Lyngsnesvatnet", "hoyde_moh": 4, "arealInnsjo_km2": 0.1326, "magasinKategori": null, "fid_2": 579, "id": 579, "left": 10.986919847, "top": 65.446110046000001, "right": 11.486919847, "bottom": 64.946110046000001, "row_index": 18, "col_index": 14, "tile_id": 579 }, "geometry": { "type": "MultiPolygon", "coordinates": [ [ [ [ 11.094563575492925, 64.96991490328692 ], [ 11.094266057546196, 64.96957713225099 ], [ 11.094466968980338, 64.969402672189531 ], [ 11.096534994850957, 64.969804255936921 ], [ 11.096985671468607, 64.969588437289545 ], [ 11.096306489346368, 64.96915773276136 ], [ 11.095455081481774, 64.968930454337197 ], [ 11.090773446681995, 64.968284102261777 ], [ 11.087260342864717, 64.967433559495589 ], [ 11.085714285540552, 64.967469254906419 ], [ 11.084806196881818, 64.966989616014118 ], [ 11.084876741604315, 64.966678655795022 ], [ 11.08521461699342, 64.966329517085924 ], [ 11.084834761579954, 64.965935103903632 ], [ 11.079931409593064, 64.965549015035421 ], [ 11.079471264203031, 64.965695788926311 ], [ 11.079385340921966, 64.965881163422182 ], [ 11.079558065568776, 64.966306178621991 ], [ 11.080267305438042, 64.966750967091556 ], [ 11.084150767893707, 64.967976257137906 ], [ 11.084618634429885, 64.96826371024359 ], [ 11.084852448089272, 64.968656084214871 ], [ 11.084693563047406, 64.968731439180587 ], [ 11.085717823139401, 64.96906414718309 ], [ 11.086426634350385, 64.969118706306418 ], [ 11.086443781988866, 64.968762310660352 ], [ 11.087447495936996, 64.96875128031941 ], [ 11.08830081035984, 64.96909269201231 ], [ 11.08827231501709, 64.969283172288101 ], [ 11.087818375006645, 64.969391763705161 ], [ 11.087877682910481, 64.969564958558948 ], [ 11.088245758838097, 64.969689554040727 ], [ 11.090422789626336, 64.970050321750463 ], [ 11.093905153654873, 64.970199227640407 ], [ 11.094563575492925, 64.96991490328692 ] ], [ [ 11.090015725620967, 64.9692781467933 ], [ 11.091068224471607, 64.969213555292058 ], [ 11.091955108930705, 64.969453381861825 ], [ 11.091459605286317, 64.96971437966333 ], [ 11.090723677853862, 64.969707300185348 ], [ 11.090015725620967, 64.9692781467933 ] ] ] ] } },
{ "type": "Feature", "properties": { "fid": 62131, "navn": null, "hoyde_moh": 13, "arealInnsjo_km2": 0.0042, "magasinKategori": null, "fid_2": 579, "id": 579, "left": 10.986919847, "top": 65.446110046000001, "right": 11.486919847, "bottom": 64.946110046000001, "row_index": 18, "col_index": 14, "tile_id": 579 }, "geometry": { "type": "MultiPolygon", "coordinates": [ [ [ [ 11.070096702536324, 64.958213005826337 ], [ 11.069579151019989, 64.958069679554342 ], [ 11.069926896300046, 64.957962927950319 ], [ 11.06976124802504, 64.957839038983337 ], [ 11.068816170699135, 64.957801434684839 ], [ 11.068256465389668, 64.958113951282201 ], [ 11.068327277254198, 64.958304534976762 ], [ 11.069657525815375, 64.958486021114396 ], [ 11.070096702536324, 64.958213005826337 ] ] ] ] } },
{ "type": "Feature", "properties": { "fid": 62134, "navn": null, "hoyde_moh": 11, "arealInnsjo_km2": 0.0026, "magasinKategori": null, "fid_2": 579, "id": 579, "left": 10.986919847, "top": 65.446110046000001, "right": 11.486919847, "bottom": 64.946110046000001, "row_index": 18, "col_index": 14, "tile_id": 579 }, "geometry": { "type": "MultiPolygon", "coordinates": [ [ [ [ 11.049559051041314, 64.985995119911209 ], [ 11.049398811284796, 64.985878632591607 ], [ 11.049079098770587, 64.986110012537665 ], [ 11.049346062977104, 64.986712174896752 ], [ 11.049963022198163, 64.986952913389857 ], [ 11.049559051041314, 64.985995119911209 ] ] ] ] } },
{ "type": "Feature", "properties": { "fid": 62136, "navn": null, "hoyde_moh": null, "arealInnsjo_km2": 0.0058, "magasinKategori": null, "fid_2": 579, "id": 579, "left": 10.986919847, "top": 65.446110046000001, "right": 11.486919847, "bottom": 64.946110046000001, "row_index": 18, "col_index": 14, "tile_id": 579 }, "geometry": { "type": "MultiPolygon", "coordinates": [ [ [ [ 11.072228931043817, 65.019352109246029 ], [ 11.071818522704964, 65.018989762078775 ], [ 11.071663958152717, 65.018363567865066 ], [ 11.071488640323704, 65.018294161735497 ], [ 11.071329494132154, 65.018431058810719 ], [ 11.071338885575168, 65.019373437100001 ], [ 11.07160204487808, 65.019755724093315 ], [ 11.073036173286186, 65.019906420452273 ], [ 11.073040677879241, 65.019690956231955 ], [ 11.072228931043817, 65.019352109246029 ] ] ] ] } },
{ "type": "Feature", "properties": { "fid": 62254, "navn": null, "hoyde_moh": null, "arealInnsjo_km2": 0.0039, "magasinKategori": null, "fid_2": 579, "id": 579, "left": 10.986919847, "top": 65.446110046000001, "right": 11.486919847, "bottom": 64.946110046000001, "row_index": 18, "col_index": 14, "tile_id": 579 }, "geometry": { "type": "MultiPolygon", "coordinates": [ [ [ [ 11.052311058485985, 65.023998543272157 ], [ 11.052421816439916, 65.023781572629019 ], [ 11.052163110809307, 65.02373132620211 ], [ 11.051782270514027, 65.02402373952205 ], [ 11.050677178885433, 65.024290253085979 ], [ 11.052474824429293, 65.024472059104653 ], [ 11.052311058485985, 65.023998543272157 ] ] ] ] } },
{ "type": "Feature", "properties": { "fid": 76304, "navn": null, "hoyde_moh": null, "arealInnsjo_km2": 0.0044, "magasinKategori": null, "fid_2": 579, "id": 579, "left": 10.986919847, "top": 65.446110046000001, "right": 11.486919847, "bottom": 64.946110046000001, "row_index": 18, "col_index": 14, "tile_id": 579 }, "geometry": { "type": "MultiPolygon", "coordinates": [ [ [ [ 11.058169270025523, 65.021763580651566 ], [ 11.058162314612707, 65.021673981694391 ], [ 11.057201778612788, 65.021606376550224 ], [ 11.05598404080275, 65.021784758977901 ], [ 11.055731592989448, 65.022093423982653 ], [ 11.056402389105223, 65.022254751280343 ], [ 11.058169270025523, 65.021763580651566 ] ] ] ] } },
{ "type": "Feature", "properties": { "fid": 83655, "navn": null, "hoyde_moh": 3, "arealInnsjo_km2": 0.0025, "magasinKategori": null, "fid_2": 579, "id": 579, "left": 10.986919847, "top": 65.446110046000001, "right": 11.486919847, "bottom": 64.946110046000001, "row_index": 18, "col_index": 14, "tile_id": 579 }, "geometry": { "type": "MultiPolygon", "coordinates": [ [ [ [ 11.026803513857033, 64.979243954990082 ], [ 11.025832857985835, 64.978972385376125 ], [ 11.025140436741376, 64.978987714906381 ], [ 11.024937193420614, 64.979197078264448 ], [ 11.026390781735911, 64.979399298371888 ], [ 11.026803513857033, 64.979243954990082 ] ] ] ] } },
{ "type": "Feature", "properties": { "fid": 83787, "navn": null, "hoyde_moh": null, "arealInnsjo_km2": 0.0051, "magasinKategori": null, "fid_2": 579, "id": 579, "left": 10.986919847, "top": 65.446110046000001, "right": 11.486919847, "bottom": 64.946110046000001, "row_index": 18, "col_index": 14, "tile_id": 579 }, "geometry": { "type": "MultiPolygon", "coordinates": [ [ [ [ 11.096527192093376, 65.007316651492587 ], [ 11.096631852720332, 65.007027966913199 ], [ 11.095774114194988, 65.006914225645716 ], [ 11.095253969466532, 65.007047179555087 ], [ 11.094883082524879, 65.006917776670036 ], [ 11.094504142263444, 65.007228306951035 ], [ 11.094502050940571, 65.007470610505663 ], [ 11.095715350397207, 65.007516561278138 ], [ 11.096527192093376, 65.007316651492587 ] ] ] ] } },
{ "type": "Feature", "properties": { "fid": 90904, "navn": null, "hoyde_moh": 1, "arealInnsjo_km2": 0.0037, "magasinKategori": null, "fid_2": 579, "id": 579, "left": 10.986919847, "top": 65.446110046000001, "right": 11.486919847, "bottom": 64.946110046000001, "row_index": 18, "col_index": 14, "tile_id": 579 }, "geometry": { "type": "MultiPolygon", "coordinates": [ [ [ [ 11.478232206796893, 65.206536746593784 ], [ 11.478500247255631, 65.205665700316473 ], [ 11.478454271694584, 65.205437158386786 ], [ 11.478244321946006, 65.205439150874525 ], [ 11.478066463244833, 65.205518345942949 ], [ 11.478321988740039, 65.205580666993257 ], [ 11.478262392441556, 65.205694078808506 ], [ 11.477784107277577, 65.205630304789921 ], [ 11.477814096980442, 65.20605287611285 ], [ 11.4780186985609, 65.206296908037174 ], [ 11.477890174370181, 65.206677400868756 ], [ 11.47808431222308, 65.206739629520612 ], [ 11.478078777862052, 65.206880900812038 ], [ 11.477532081143927, 65.206863134409318 ], [ 11.477427028192537, 65.206994883983626 ], [ 11.478464531544905, 65.207104746029145 ], [ 11.478232206796893, 65.206536746593784 ] ] ] ] } },
{ "type": "Feature", "properties": { "fid": 105742, "navn": null, "hoyde_moh": null, "arealInnsjo_km2": 0.0036, "magasinKategori": null, "fid_2": 579, "id": 579, "left": 10.986919847, "top": 65.446110046000001, "right": 11.486919847, "bottom": 64.946110046000001, "row_index": 18, "col_index": 14, "tile_id": 579 }, "geometry": { "type": "MultiPolygon", "coordinates": [ [ [ [ 11.034041753560579, 64.982615629255321 ], [ 11.03277869017651, 64.982175019899685 ], [ 11.031829580368257, 64.982241875113502 ], [ 11.032719077562414, 64.982508007113466 ], [ 11.03315220459346, 64.982906047977551 ], [ 11.034041753560579, 64.982615629255321 ] ] ] ] } },
{ "type": "Feature", "properties": { "fid": 105825, "navn": null, "hoyde_moh": 4, "arealInnsjo_km2": 0.0172, "magasinKategori": null, "fid_2": 579, "id": 579, "left": 10.986919847, "top": 65.446110046000001, "right": 11.486919847, "bottom": 64.946110046000001, "row_index": 18, "col_index": 14, "tile_id": 579 }, "geometry": { "type": "MultiPolygon", "coordinates": [ [ [ [ 11.082578797518384, 64.970946173583897 ], [ 11.082588525605495, 64.970729139953704 ], [ 11.082834322951214, 64.970518220890213 ], [ 11.083809288299813, 64.970249090029469 ], [ 11.084541313340875, 64.969833744253563 ], [ 11.085801872550991, 64.969598703133741 ], [ 11.085911662460422, 64.969296411605313 ], [ 11.084734188251232, 64.968974148297633 ], [ 11.084309486326829, 64.96929880935258 ], [ 11.083326564258625, 64.969477690672548 ], [ 11.081498419873739, 64.970595164950439 ], [ 11.081482855629064, 64.970757857678834 ], [ 11.081712057795283, 64.970929591233528 ], [ 11.082578797518384, 64.970946173583897 ] ] ] ] } },
{ "type": "Feature", "properties": { "fid": 105847, "navn": null, "hoyde_moh": 11, "arealInnsjo_km2": 0.0052, "magasinKategori": null, "fid_2": 579, "id": 579, "left": 10.986919847, "top": 65.446110046000001, "right": 11.486919847, "bottom": 64.946110046000001, "row_index": 18, "col_index": 14, "tile_id": 579 }, "geometry": { "type": "MultiPolygon", "coordinates": [ [ [ [ 11.029213411727136, 64.967084193122659 ], [ 11.029737398259345, 64.967039650460549 ], [ 11.028892836421132, 64.966648782788297 ], [ 11.028199208684667, 64.966562987272553 ], [ 11.027938487176806, 64.966591715447777 ], [ 11.027624248664178, 64.966922228190043 ], [ 11.027627666816819, 64.967219150290049 ], [ 11.028388429687652, 64.967311500293249 ], [ 11.029213411727136, 64.967084193122659 ] ] ] ] } },
{ "type": "Feature", "properties": { "fid": 105957, "navn": null, "hoyde_moh": 12, "arealInnsjo_km2": 0.0035, "magasinKategori": null, "fid_2": 579, "id": 579, "left": 10.986919847, "top": 65.446110046000001, "right": 11.486919847, "bottom": 64.946110046000001, "row_index": 18, "col_index": 14, "tile_id": 579 }, "geometry": { "type": "MultiPolygon", "coordinates": [ [ [ [ 11.082178750896489, 64.980258340394315 ], [ 11.081982135778942, 64.979952041890314 ], [ 11.082050816691154, 64.979826600487513 ], [ 11.082553893608946, 64.979627383702621 ], [ 11.08262199924992, 64.979460949379757 ], [ 11.081620051953106, 64.979513608633823 ], [ 11.081532646725556, 64.979976713155267 ], [ 11.081282709553319, 64.980216638812266 ], [ 11.081862071485892, 64.980387508979675 ], [ 11.082178750896489, 64.980258340394315 ] ] ] ] } },
{ "type": "Feature", "properties": { "fid": 106102, "navn": null, "hoyde_moh": null, "arealInnsjo_km2": 0.003, "magasinKategori": null, "fid_2": 579, "id": 579, "left": 10.986919847, "top": 65.446110046000001, "right": 11.486919847, "bottom": 64.946110046000001, "row_index": 18, "col_index": 14, "tile_id": 579 }, "geometry": { "type": "MultiPolygon", "coordinates": [ [ [ [ 11.059672129483646, 65.015369589580317 ], [ 11.058568393942503, 65.015097539984794 ], [ 11.057393549924701, 65.015275353055628 ], [ 11.057402474888397, 65.015391873753344 ], [ 11.057984444146372, 65.01523129195111 ], [ 11.058405362354565, 65.015458983239299 ], [ 11.059351352482214, 65.015616425121863 ], [ 11.059724818618127, 65.015503530887898 ], [ 11.059672129483646, 65.015369589580317 ] ] ] ] } },
{ "type": "Feature", "properties": { "fid": 122534, "navn": null, "hoyde_moh": null, "arealInnsjo_km2": 0.0107, "magasinKategori": null, "fid_2": 579, "id": 579, "left": 10.986919847, "top": 65.446110046000001, "right": 11.486919847, "bottom": 64.946110046000001, "row_index": 18, "col_index": 14, "tile_id": 579 }, "geometry": { "type": "MultiPolygon", "coordinates": [ [ [ [ 11.091898070367103, 65.006465884195208 ], [ 11.092223271064407, 65.006281736893172 ], [ 11.093452755439008, 65.006264598535154 ], [ 11.093500044477683, 65.006057535965653 ], [ 11.09212124367286, 65.005520177122889 ], [ 11.091371788853566, 65.005431890613281 ], [ 11.091230258702142, 65.005523706610418 ], [ 11.091222827534072, 65.006241961928012 ], [ 11.09020420622004, 65.005699642158973 ], [ 11.089571212807988, 65.005744429466887 ], [ 11.091687557325974, 65.006756107204112 ], [ 11.091897963213629, 65.006735109027147 ], [ 11.091898070367103, 65.006465884195208 ] ] ] ] } },
{ "type": "Feature", "properties": { "fid": 127866, "navn": null, "hoyde_moh": null, "arealInnsjo_km2": 0.0027, "magasinKategori": null, "fid_2": 579, "id": 579, "left": 10.986919847, "top": 65.446110046000001, "right": 11.486919847, "bottom": 64.946110046000001, "row_index": 18, "col_index": 14, "tile_id": 579 }, "geometry": { "type": "MultiPolygon", "coordinates": [ [ [ [ 11.027848949945771, 64.973633557728164 ], [ 11.025686141449315, 64.973340003669406 ], [ 11.0257440555747, 64.973545636235016 ], [ 11.026050779506637, 64.973676123401205 ], [ 11.027689841671974, 64.973770498668813 ], [ 11.027848949945771, 64.973633557728164 ] ] ] ] } },
{ "type": "Feature", "properties": { "fid": 128193, "navn": null, "hoyde_moh": 14, "arealInnsjo_km2": 0.0033, "magasinKategori": null, "fid_2": 579, "id": 579, "left": 10.986919847, "top": 65.446110046000001, "right": 11.486919847, "bottom": 64.946110046000001, "row_index": 18, "col_index": 14, "tile_id": 579 }, "geometry": { "type": "MultiPolygon", "coordinates": [ [ [ [ 11.121503315886542, 64.954545166007634 ], [ 11.121781804313676, 64.954371705969578 ], [ 11.121034882098655, 64.954145041679894 ], [ 11.120106793862057, 64.954349210492055 ], [ 11.120441144423223, 64.954596318144979 ], [ 11.121503315886542, 64.954545166007634 ] ] ] ] } },
{ "type": "Feature", "properties": { "fid": 135103, "navn": null, "hoyde_moh": null, "arealInnsjo_km2": 0.0028, "magasinKategori": null, "fid_2": 579, "id": 579, "left": 10.986919847, "top": 65.446110046000001, "right": 11.486919847, "bottom": 64.946110046000001, "row_index": 18, "col_index": 14, "tile_id": 579 }, "geometry": { "type": "MultiPolygon", "coordinates": [ [ [ [ 11.111065688432252, 65.018359636420399 ], [ 11.1109101293682, 65.018272102428369 ], [ 11.109794017001144, 65.018117301267964 ], [ 11.109227890607036, 65.018206064903126 ], [ 11.109628523643822, 65.018493010273829 ], [ 11.110826548492495, 65.018721655779359 ], [ 11.111065688432252, 65.018359636420399 ] ] ] ] } },
{ "type": "Feature", "properties": { "fid": 135104, "navn": null, "hoyde_moh": null, "arealInnsjo_km2": 0.0026, "magasinKategori": null, "fid_2": 579, "id": 579, "left": 10.986919847, "top": 65.446110046000001, "right": 11.486919847, "bottom": 64.946110046000001, "row_index": 18, "col_index": 14, "tile_id": 579 }, "geometry": { "type": "MultiPolygon", "coordinates": [ [ [ [ 11.066653319507655, 65.023298228378252 ], [ 11.067232401915485, 65.022823457569217 ], [ 11.066487325558381, 65.022797805064911 ], [ 11.066233803856708, 65.023088574256846 ], [ 11.065756382795628, 65.023229839552627 ], [ 11.065750421688808, 65.023427383387784 ], [ 11.066653319507655, 65.023298228378252 ] ] ] ] } },
{ "type": "Feature", "properties": { "fid": 135146, "navn": null, "hoyde_moh": 8, "arealInnsjo_km2": 0.0084, "magasinKategori": null, "fid_2": 579, "id": 579, "left": 10.986919847, "top": 65.446110046000001, "right": 11.486919847, "bottom": 64.946110046000001, "row_index": 18, "col_index": 14, "tile_id": 579 }, "geometry": { "type": "MultiPolygon", "coordinates": [ [ [ [ 11.05850307846285, 64.98332989281478 ], [ 11.058371566123196, 64.983195483124121 ], [ 11.058696763426898, 64.983117539952488 ], [ 11.056721200985745, 64.982498616089728 ], [ 11.055166345483611, 64.982754309561102 ], [ 11.055627994928255, 64.983080691387201 ], [ 11.05850307846285, 64.98332989281478 ] ] ] ] } },
{ "type": "Feature", "properties": { "fid": 135255, "navn": null, "hoyde_moh": null, "arealInnsjo_km2": 0.0043, "magasinKategori": null, "fid_2": 579, "id": 579, "left": 10.986919847, "top": 65.446110046000001, "right": 11.486919847, "bottom": 64.946110046000001, "row_index": 18, "col_index": 14, "tile_id": 579 }, "geometry": { "type": "MultiPolygon", "coordinates": [ [ [ [ 11.036731024469157, 65.010980453968799 ], [ 11.03673973551645, 65.010818746498842 ], [ 11.035823280139553, 65.011046656898429 ], [ 11.035609273790046, 65.011022638686711 ], [ 11.03572422358832, 65.010859529915365 ], [ 11.034501942322054, 65.010974882580626 ], [ 11.035085430201724, 65.011110538946127 ], [ 11.03482344609772, 65.011293644724503 ], [ 11.034926398407634, 65.01153461595834 ], [ 11.036731024469157, 65.010980453968799 ] ] ] ] } },
{ "type": "Feature", "properties": { "fid": 135278, "navn": null, "hoyde_moh": null, "arealInnsjo_km2": 0.0044, "magasinKategori": null, "fid_2": 579, "id": 579, "left": 10.986919847, "top": 65.446110046000001, "right": 11.486919847, "bottom": 64.946110046000001, "row_index": 18, "col_index": 14, "tile_id": 579 }, "geometry": { "type": "MultiPolygon", "coordinates": [ [ [ [ 11.040558600467884, 64.972158843571037 ], [ 11.040755203476092, 64.971958722021611 ], [ 11.040489157031443, 64.971783874531695 ], [ 11.038857457617375, 64.971805132524295 ], [ 11.038270188467497, 64.972163187955999 ], [ 11.040558600467884, 64.972158843571037 ] ] ] ] } },
{ "type": "Feature", "properties": { "fid": 142853, "navn": null, "hoyde_moh": 5, "arealInnsjo_km2": 0.0027, "magasinKategori": null, "fid_2": 579, "id": 579, "left": 10.986919847, "top": 65.446110046000001, "right": 11.486919847, "bottom": 64.946110046000001, "row_index": 18, "col_index": 14, "tile_id": 579 }, "geometry": { "type": "MultiPolygon", "coordinates": [ [ [ [ 11.04295221464935, 64.987206835485125 ], [ 11.042905599924111, 64.986880823140226 ], [ 11.0416733532715, 64.986708555464404 ], [ 11.041300266809806, 64.986856905120476 ], [ 11.042799235184884, 64.987277993562984 ], [ 11.04295221464935, 64.987206835485125 ] ] ] ] } },
{ "type": "Feature", "properties": { "fid": 142898, "navn": null, "hoyde_moh": 4, "arealInnsjo_km2": 0.0028, "magasinKategori": null, "fid_2": 579, "id": 579, "left": 10.986919847, "top": 65.446110046000001, "right": 11.486919847, "bottom": 64.946110046000001, "row_index": 18, "col_index": 14, "tile_id": 579 }, "geometry": { "type": "MultiPolygon", "coordinates": [ [ [ [ 11.044434712900275, 64.984425191899504 ], [ 11.044312575350174, 64.984171944969802 ], [ 11.045142027040658, 64.984073348241736 ], [ 11.044334478282419, 64.983808839121281 ], [ 11.044327751657393, 64.983429786394439 ], [ 11.043667577270977, 64.983851804035638 ], [ 11.044293556094825, 64.984491182940957 ], [ 11.044434712900275, 64.984425191899504 ] ] ] ] } },
{ "type": "Feature", "properties": { "fid": 142899, "navn": null, "hoyde_moh": 15, "arealInnsjo_km2": 0.0033, "magasinKategori": null, "fid_2": 579, "id": 579, "left": 10.986919847, "top": 65.446110046000001, "right": 11.486919847, "bottom": 64.946110046000001, "row_index": 18, "col_index": 14, "tile_id": 579 }, "geometry": { "type": "MultiPolygon", "coordinates": [ [ [ [ 11.052295838926911, 64.984983736678728 ], [ 11.053429693698853, 64.984821710131996 ], [ 11.05252306279684, 64.984540426256459 ], [ 11.051814428863649, 64.984532537483119 ], [ 11.051106818811688, 64.984886919608044 ], [ 11.052295838926911, 64.984983736678728 ] ] ] ] } },
{ "type": "Feature", "properties": { "fid": 149847, "navn": null, "hoyde_moh": null, "arealInnsjo_km2": 0.0028, "magasinKategori": null, "fid_2": 579, "id": 579, "left": 10.986919847, "top": 65.446110046000001, "right": 11.486919847, "bottom": 64.946110046000001, "row_index": 18, "col_index": 14, "tile_id": 579 }, "geometry": { "type": "MultiPolygon", "coordinates": [ [ [ [ 11.126888087756425, 65.016304029159613 ], [ 11.125986093196454, 65.016173236958579 ], [ 11.125984059510952, 65.016415626333853 ], [ 11.126209054910232, 65.016574048332018 ], [ 11.127359214335863, 65.01688973980103 ], [ 11.126888087756425, 65.016304029159613 ] ] ] ] } },
{ "type": "Feature", "properties": { "fid": 149848, "navn": null, "hoyde_moh": null, "arealInnsjo_km2": 0.0066, "magasinKategori": null, "fid_2": 579, "id": 579, "left": 10.986919847, "top": 65.446110046000001, "right": 11.486919847, "bottom": 64.946110046000001, "row_index": 18, "col_index": 14, "tile_id": 579 }, "geometry": { "type": "MultiPolygon", "coordinates": [ [ [ [ 11.056924588040467, 65.014698343190204 ], [ 11.057931769623451, 65.014271493948755 ], [ 11.055697385770028, 65.014472704178104 ], [ 11.053523191145338, 65.015184917844721 ], [ 11.054372914412012, 65.015191209827208 ], [ 11.056924588040467, 65.014698343190204 ] ] ] ] } },
{ "type": "Feature", "properties": { "fid": 150042, "navn": null, "hoyde_moh": null, "arealInnsjo_km2": 0.0029, "magasinKategori": null, "fid_2": 579, "id": 579, "left": 10.986919847, "top": 65.446110046000001, "right": 11.486919847, "bottom": 64.946110046000001, "row_index": 18, "col_index": 14, "tile_id": 579 }, "geometry": { "type": "MultiPolygon", "coordinates": [ [ [ [ 11.025610172037887, 65.008743898269785 ], [ 11.025397198498318, 65.007894014787098 ], [ 11.025181858642126, 65.007852061835123 ], [ 11.025027231053025, 65.008051581074781 ], [ 11.024968796679667, 65.008680890717372 ], [ 11.024641181078964, 65.008837877132734 ], [ 11.025075395876595, 65.008966631911349 ], [ 11.025610172037887, 65.008743898269785 ] ] ] ] } },
{ "type": "Feature", "properties": { "fid": 150459, "navn": null, "hoyde_moh": null, "arealInnsjo_km2": 0.0037, "magasinKategori": null, "fid_2": 579, "id": 579, "left": 10.986919847, "top": 65.446110046000001, "right": 11.486919847, "bottom": 64.946110046000001, "row_index": 18, "col_index": 14, "tile_id": 579 }, "geometry": { "type": "MultiPolygon", "coordinates": [ [ [ [ 11.04412037729454, 65.019353315768612 ], [ 11.045071152275348, 65.01901716273035 ], [ 11.044751021205876, 65.018994570707761 ], [ 11.044604980833094, 65.018745277697107 ], [ 11.044325429160761, 65.018704169384861 ], [ 11.044114300611515, 65.018994321370073 ], [ 11.0423662733914, 65.019458058675596 ], [ 11.04412037729454, 65.019353315768612 ] ] ] ] } },
{ "type": "Feature", "properties": { "fid": 150499, "navn": null, "hoyde_moh": null, "arealInnsjo_km2": 0.0129, "magasinKategori": null, "fid_2": 579, "id": 579, "left": 10.986919847, "top": 65.446110046000001, "right": 11.486919847, "bottom": 64.946110046000001, "row_index": 18, "col_index": 14, "tile_id": 579 }, "geometry": { "type": "MultiPolygon", "coordinates": [ [ [ [ 11.04982399443691, 65.022856795508545 ], [ 11.049984037204634, 65.022450616397975 ], [ 11.050675675900134, 65.022611712712134 ], [ 11.051944695735328, 65.022271174095451 ], [ 11.050202618604295, 65.021980654238277 ], [ 11.049889335290395, 65.022047940716874 ], [ 11.049931384450106, 65.022316671952495 ], [ 11.049665826169301, 65.022454956364228 ], [ 11.048708621536873, 65.022432227627689 ], [ 11.047858312345729, 65.02269521898917 ], [ 11.047977996994888, 65.022873085898837 ], [ 11.047496564241134, 65.023238761980849 ], [ 11.04759296535989, 65.02339013147089 ], [ 11.048238902825565, 65.023506803604079 ], [ 11.04982399443691, 65.022856795508545 ] ] ] ] } },
{ "type": "Feature", "properties": { "fid": 208352, "navn": "Betnvatnet", "hoyde_moh": 4, "arealInnsjo_km2": 0.0462, "magasinKategori": null, "fid_2": 579, "id": 579, "left": 10.986919847, "top": 65.446110046000001, "right": 11.486919847, "bottom": 64.946110046000001, "row_index": 18, "col_index": 14, "tile_id": 579 }, "geometry": { "type": "MultiPolygon", "coordinates": [ [ [ [ 11.148068801273745, 64.956777698862254 ], [ 11.148351151267933, 64.95660285429706 ], [ 11.148364574858141, 64.956337219173662 ], [ 11.148191144523766, 64.95620756232303 ], [ 11.14626221474453, 64.956254460306482 ], [ 11.144171980500401, 64.95600960989438 ], [ 11.143475509502405, 64.955550465172351 ], [ 11.142897587395995, 64.955423719849804 ], [ 11.141772824345821, 64.955367998592322 ], [ 11.14042828816787, 64.95576746433683 ], [ 11.139322500245983, 64.955707992926321 ], [ 11.13752622275323, 64.955329404798803 ], [ 11.137238522998773, 64.955330842026044 ], [ 11.136986971718189, 64.955550406658119 ], [ 11.138583683569031, 64.955902981653892 ], [ 11.139270772423501, 64.956386978420227 ], [ 11.140735586489585, 64.956810784021911 ], [ 11.145940128103174, 64.956646271158675 ], [ 11.148055740143043, 64.957001019867548 ], [ 11.148068801273745, 64.956777698862254 ] ] ] ] } }
]
}
