{
"type": "FeatureCollection",
"name": "innsjo_tile_id_654",
"crs": { "type": "name", "properties": { "name": "urn:ogc:def:crs:OGC:1.3:CRS84" } },
"xy_coordinate_resolution": 1e-15,
"features": [
{ "type": "Feature", "properties": { "fid": 4232, "navn": null, "hoyde_moh": null, "arealInnsjo_km2": 0.0063, "magasinKategori": null, "fid_2": 654, "id": 654, "left": 11.986919847, "top": 67.946110046000001, "right": 12.486919847, "bottom": 67.446110046000001, "row_index": 13, "col_index": 16, "tile_id": 654 }, "geometry": { "type": "MultiPolygon", "coordinates": [ [ [ [ 12.081943072067903, 67.517206366421036 ], [ 12.081756207201627, 67.517030438225873 ], [ 12.080888151382105, 67.516849407978739 ], [ 12.080178811060142, 67.517168174656717 ], [ 12.080073389998068, 67.51743956655713 ], [ 12.080324719026891, 67.517749086803647 ], [ 12.081241901487308, 67.517767514245151 ], [ 12.081943072067903, 67.517206366421036 ] ] ] ] } },
{ "type": "Feature", "properties": { "fid": 4233, "navn": null, "hoyde_moh": null, "arealInnsjo_km2": 0.0041, "magasinKategori": null, "fid_2": 654, "id": 654, "left": 11.986919847, "top": 67.946110046000001, "right": 12.486919847, "bottom": 67.446110046000001, "row_index": 13, "col_index": 16, "tile_id": 654 }, "geometry": { "type": "MultiPolygon", "coordinates": [ [ [ [ 12.112506789750221, 67.518623832954361 ], [ 12.112926690911136, 67.518247785974907 ], [ 12.113495005746453, 67.518111042893594 ], [ 12.112510887270393, 67.517761845387 ], [ 12.111982083289542, 67.517843806340792 ], [ 12.112191837578017, 67.518189967015019 ], [ 12.112087910692257, 67.518829585933162 ], [ 12.112515041799618, 67.518866204649925 ], [ 12.112506789750221, 67.518623832954361 ] ] ] ] } },
{ "type": "Feature", "properties": { "fid": 4234, "navn": null, "hoyde_moh": null, "arealInnsjo_km2": 0.0071, "magasinKategori": null, "fid_2": 654, "id": 654, "left": 11.986919847, "top": 67.946110046000001, "right": 12.486919847, "bottom": 67.446110046000001, "row_index": 13, "col_index": 16, "tile_id": 654 }, "geometry": { "type": "MultiPolygon", "coordinates": [ [ [ [ 12.093671417585041, 67.519276829530568 ], [ 12.093545161995658, 67.518668724828572 ], [ 12.092947352946318, 67.518222195411866 ], [ 12.092131754512117, 67.518264645439913 ], [ 12.091956390146274, 67.518537479950794 ], [ 12.092043814488957, 67.519029610847653 ], [ 12.093151785730905, 67.519430450058408 ], [ 12.093671417585041, 67.519276829530568 ] ] ] ] } },
{ "type": "Feature", "properties": { "fid": 4235, "navn": null, "hoyde_moh": null, "arealInnsjo_km2": 0.0026, "magasinKategori": null, "fid_2": 654, "id": 654, "left": 11.986919847, "top": 67.946110046000001, "right": 12.486919847, "bottom": 67.446110046000001, "row_index": 13, "col_index": 16, "tile_id": 654 }, "geometry": { "type": "MultiPolygon", "coordinates": [ [ [ [ 12.085563265101197, 67.5192985748578 ], [ 12.084065661737496, 67.518788312873454 ], [ 12.083652583395706, 67.51885898022482 ], [ 12.083925446241473, 67.519150297249922 ], [ 12.085058790139966, 67.519397138115536 ], [ 12.085563265101197, 67.5192985748578 ] ] ] ] } },
{ "type": "Feature", "properties": { "fid": 4236, "navn": null, "hoyde_moh": null, "arealInnsjo_km2": 0.01, "magasinKategori": null, "fid_2": 654, "id": 654, "left": 11.986919847, "top": 67.946110046000001, "right": 12.486919847, "bottom": 67.446110046000001, "row_index": 13, "col_index": 16, "tile_id": 654 }, "geometry": { "type": "MultiPolygon", "coordinates": [ [ [ [ 12.092641709148946, 67.519781577926636 ], [ 12.092037928857446, 67.51964952870415 ], [ 12.091473148598189, 67.519274154630892 ], [ 12.090100315963035, 67.519183581998192 ], [ 12.089410248733461, 67.519466194031935 ], [ 12.089381757061885, 67.519610407992502 ], [ 12.090675859317869, 67.519998719972563 ], [ 12.09295638667828, 67.520207311884064 ], [ 12.092641709148946, 67.519781577926636 ] ] ] ] } },
{ "type": "Feature", "properties": { "fid": 8552, "navn": null, "hoyde_moh": null, "arealInnsjo_km2": 0.0063, "magasinKategori": null, "fid_2": 654, "id": 654, "left": 11.986919847, "top": 67.946110046000001, "right": 12.486919847, "bottom": 67.446110046000001, "row_index": 13, "col_index": 16, "tile_id": 654 }, "geometry": { "type": "MultiPolygon", "coordinates": [ [ [ [ 12.091752561629802, 67.524581157537952 ], [ 12.092234803230296, 67.524714255166273 ], [ 12.092571866475771, 67.524420352482338 ], [ 12.092451432554459, 67.524216273594362 ], [ 12.090975025911987, 67.523755214064522 ], [ 12.090404610339343, 67.524174473132945 ], [ 12.09044891659973, 67.524335347983467 ], [ 12.09099447502569, 67.524378729584882 ], [ 12.090805816250439, 67.524552925315604 ], [ 12.090943973456369, 67.524711895165169 ], [ 12.091343146917543, 67.524892882084103 ], [ 12.091752561629802, 67.524581157537952 ] ] ] ] } },
{ "type": "Feature", "properties": { "fid": 26103, "navn": null, "hoyde_moh": null, "arealInnsjo_km2": 0.0111, "magasinKategori": null, "fid_2": 654, "id": 654, "left": 11.986919847, "top": 67.946110046000001, "right": 12.486919847, "bottom": 67.446110046000001, "row_index": 13, "col_index": 16, "tile_id": 654 }, "geometry": { "type": "MultiPolygon", "coordinates": [ [ [ [ 12.082641697788269, 67.502368728810339 ], [ 12.083705019483022, 67.501893117882901 ], [ 12.081620258974723, 67.501506451948487 ], [ 12.080440423765237, 67.501564708630198 ], [ 12.080424688030192, 67.501846966142523 ], [ 12.079836108214225, 67.50190610242494 ], [ 12.079539944139771, 67.50227280950746 ], [ 12.081232870236073, 67.502171115670507 ], [ 12.082011394437986, 67.502389681940528 ], [ 12.08195901962304, 67.502554473172779 ], [ 12.082538626459495, 67.502658030097493 ], [ 12.082641697788269, 67.502368728810339 ] ] ] ] } },
{ "type": "Feature", "properties": { "fid": 26265, "navn": null, "hoyde_moh": null, "arealInnsjo_km2": 0.004, "magasinKategori": null, "fid_2": 654, "id": 654, "left": 11.986919847, "top": 67.946110046000001, "right": 12.486919847, "bottom": 67.446110046000001, "row_index": 13, "col_index": 16, "tile_id": 654 }, "geometry": { "type": "MultiPolygon", "coordinates": [ [ [ [ 12.109786168226067, 67.518092533264337 ], [ 12.109295579142401, 67.517572209164797 ], [ 12.108586610145258, 67.517352334762577 ], [ 12.108305823046342, 67.517537292038 ], [ 12.108314276994005, 67.51777957844044 ], [ 12.108836274236957, 67.518182586300568 ], [ 12.109786168226067, 67.518092533264337 ] ] ] ] } },
{ "type": "Feature", "properties": { "fid": 26266, "navn": null, "hoyde_moh": null, "arealInnsjo_km2": 0.0047, "magasinKategori": null, "fid_2": 654, "id": 654, "left": 11.986919847, "top": 67.946110046000001, "right": 12.486919847, "bottom": 67.446110046000001, "row_index": 13, "col_index": 16, "tile_id": 654 }, "geometry": { "type": "MultiPolygon", "coordinates": [ [ [ [ 12.100383844222405, 67.526291232158101 ], [ 12.099824430006471, 67.526230217612579 ], [ 12.099579964474405, 67.525821559349311 ], [ 12.098811046294895, 67.52565695249244 ], [ 12.098988944392143, 67.526120531898883 ], [ 12.099522681681629, 67.526433550613973 ], [ 12.100695523857878, 67.526967738740254 ], [ 12.101190209593531, 67.526942300269894 ], [ 12.100383844222405, 67.526291232158101 ] ] ] ] } },
{ "type": "Feature", "properties": { "fid": 26280, "navn": null, "hoyde_moh": null, "arealInnsjo_km2": 0.0049, "magasinKategori": null, "fid_2": 654, "id": 654, "left": 11.986919847, "top": 67.946110046000001, "right": 12.486919847, "bottom": 67.446110046000001, "row_index": 13, "col_index": 16, "tile_id": 654 }, "geometry": { "type": "MultiPolygon", "coordinates": [ [ [ [ 12.12125458124347, 67.520206410615899 ], [ 12.121350454570187, 67.519333580529377 ], [ 12.12117392022914, 67.519238148409713 ], [ 12.120526755117305, 67.519313543297145 ], [ 12.120471107587973, 67.519781468191169 ], [ 12.120187080326968, 67.520119191030858 ], [ 12.12023992597496, 67.520342692892399 ], [ 12.120829718797854, 67.520367189670225 ], [ 12.12125458124347, 67.520206410615899 ] ] ] ] } },
{ "type": "Feature", "properties": { "fid": 26281, "navn": null, "hoyde_moh": null, "arealInnsjo_km2": 0.0028, "magasinKategori": null, "fid_2": 654, "id": 654, "left": 11.986919847, "top": 67.946110046000001, "right": 12.486919847, "bottom": 67.446110046000001, "row_index": 13, "col_index": 16, "tile_id": 654 }, "geometry": { "type": "MultiPolygon", "coordinates": [ [ [ [ 12.098890117691273, 67.521237691857266 ], [ 12.098610227383727, 67.520892858127837 ], [ 12.097263814053228, 67.520999440029982 ], [ 12.097398240323649, 67.521131582715412 ], [ 12.098243231924483, 67.521133354619536 ], [ 12.097978634712053, 67.521443739405598 ], [ 12.098657476364199, 67.521430769147315 ], [ 12.098890117691273, 67.521237691857266 ] ] ] ] } },
{ "type": "Feature", "properties": { "fid": 26282, "navn": null, "hoyde_moh": null, "arealInnsjo_km2": 0.0079, "magasinKategori": null, "fid_2": 654, "id": 654, "left": 11.986919847, "top": 67.946110046000001, "right": 12.486919847, "bottom": 67.446110046000001, "row_index": 13, "col_index": 16, "tile_id": 654 }, "geometry": { "type": "MultiPolygon", "coordinates": [ [ [ [ 12.087849285629408, 67.522391542516573 ], [ 12.087116646652721, 67.521683010021789 ], [ 12.086061665000081, 67.521635472913388 ], [ 12.085732621861982, 67.5218122534462 ], [ 12.085724319882077, 67.522108829388941 ], [ 12.086151675281542, 67.522325172657162 ], [ 12.087095570471735, 67.522729114343576 ], [ 12.087728668393884, 67.5227260500737 ], [ 12.087849285629408, 67.522391542516573 ] ] ] ] } },
{ "type": "Feature", "properties": { "fid": 71249, "navn": null, "hoyde_moh": null, "arealInnsjo_km2": 0.0031, "magasinKategori": null, "fid_2": 654, "id": 654, "left": 11.986919847, "top": 67.946110046000001, "right": 12.486919847, "bottom": 67.446110046000001, "row_index": 13, "col_index": 16, "tile_id": 654 }, "geometry": { "type": "MultiPolygon", "coordinates": [ [ [ [ 12.121803983035223, 67.522243024853751 ], [ 12.121642349318511, 67.522084564525343 ], [ 12.122038439306401, 67.521708790123967 ], [ 12.122032596420537, 67.521484419004025 ], [ 12.121451918245592, 67.521531463222772 ], [ 12.120924797903744, 67.521981666863084 ], [ 12.121001171708546, 67.522204688921022 ], [ 12.121640338040814, 67.522425777745738 ], [ 12.121803983035223, 67.522243024853751 ] ] ] ] } },
{ "type": "Feature", "properties": { "fid": 71257, "navn": null, "hoyde_moh": null, "arealInnsjo_km2": 0.0041, "magasinKategori": null, "fid_2": 654, "id": 654, "left": 11.986919847, "top": 67.946110046000001, "right": 12.486919847, "bottom": 67.446110046000001, "row_index": 13, "col_index": 16, "tile_id": 654 }, "geometry": { "type": "MultiPolygon", "coordinates": [ [ [ [ 12.095253146357805, 67.513357368875447 ], [ 12.094807715303102, 67.513216498382818 ], [ 12.094247189816109, 67.512753672675728 ], [ 12.093599209650151, 67.512692836891432 ], [ 12.093531722699483, 67.512927837051492 ], [ 12.093923244972503, 67.513510539968934 ], [ 12.094907084202351, 67.513557831331838 ], [ 12.095253146357805, 67.513357368875447 ] ] ] ] } },
{ "type": "Feature", "properties": { "fid": 71258, "navn": null, "hoyde_moh": null, "arealInnsjo_km2": 0.003, "magasinKategori": null, "fid_2": 654, "id": 654, "left": 11.986919847, "top": 67.946110046000001, "right": 12.486919847, "bottom": 67.446110046000001, "row_index": 13, "col_index": 16, "tile_id": 654 }, "geometry": { "type": "MultiPolygon", "coordinates": [ [ [ [ 12.083848515344908, 67.518148841960056 ], [ 12.084244060441971, 67.518123377355025 ], [ 12.08481246337503, 67.518346037064404 ], [ 12.084946093271371, 67.518109985849762 ], [ 12.084382193546377, 67.517923230222436 ], [ 12.083326897774356, 67.517925405672145 ], [ 12.083077618118535, 67.518352131337352 ], [ 12.08357404513278, 67.518450498536865 ], [ 12.083848515344908, 67.518148841960056 ] ] ] ] } },
{ "type": "Feature", "properties": { "fid": 82304, "navn": null, "hoyde_moh": null, "arealInnsjo_km2": 0.0042, "magasinKategori": null, "fid_2": 654, "id": 654, "left": 11.986919847, "top": 67.946110046000001, "right": 12.486919847, "bottom": 67.446110046000001, "row_index": 13, "col_index": 16, "tile_id": 654 }, "geometry": { "type": "MultiPolygon", "coordinates": [ [ [ [ 12.098353130366805, 67.513550792942226 ], [ 12.097190027662318, 67.513180420514672 ], [ 12.096900015460621, 67.51323923157284 ], [ 12.097389977183367, 67.513543307136672 ], [ 12.097518633323793, 67.514067237334331 ], [ 12.098565683351667, 67.514267098666508 ], [ 12.098353130366805, 67.513550792942226 ] ] ] ] } },
{ "type": "Feature", "properties": { "fid": 82305, "navn": null, "hoyde_moh": null, "arealInnsjo_km2": 0.0043, "magasinKategori": null, "fid_2": 654, "id": 654, "left": 11.986919847, "top": 67.946110046000001, "right": 12.486919847, "bottom": 67.446110046000001, "row_index": 13, "col_index": 16, "tile_id": 654 }, "geometry": { "type": "MultiPolygon", "coordinates": [ [ [ [ 12.079637673087239, 67.516433249418682 ], [ 12.07951391255345, 67.51620216411817 ], [ 12.078579334413909, 67.516049368615782 ], [ 12.078242082043595, 67.516163497776176 ], [ 12.077881627818849, 67.516637230177452 ], [ 12.078175063426798, 67.516730333748498 ], [ 12.07876151488051, 67.516548698063119 ], [ 12.079074653466337, 67.516794155116102 ], [ 12.079528761017519, 67.516677733472676 ], [ 12.079637673087239, 67.516433249418682 ] ] ] ] } },
{ "type": "Feature", "properties": { "fid": 82458, "navn": null, "hoyde_moh": null, "arealInnsjo_km2": 0.0043, "magasinKategori": null, "fid_2": 654, "id": 654, "left": 11.986919847, "top": 67.946110046000001, "right": 12.486919847, "bottom": 67.446110046000001, "row_index": 13, "col_index": 16, "tile_id": 654 }, "geometry": { "type": "MultiPolygon", "coordinates": [ [ [ [ 12.123307286995717, 67.520831221852077 ], [ 12.123713932683801, 67.520356426193729 ], [ 12.123240970007013, 67.52015005975008 ], [ 12.122716940309944, 67.520267962534689 ], [ 12.122253886130473, 67.520671995126492 ], [ 12.122254649100391, 67.521210770754166 ], [ 12.123307286995717, 67.520831221852077 ] ] ] ] } },
{ "type": "Feature", "properties": { "fid": 82474, "navn": null, "hoyde_moh": null, "arealInnsjo_km2": 0.004, "magasinKategori": null, "fid_2": 654, "id": 654, "left": 11.986919847, "top": 67.946110046000001, "right": 12.486919847, "bottom": 67.446110046000001, "row_index": 13, "col_index": 16, "tile_id": 654 }, "geometry": { "type": "MultiPolygon", "coordinates": [ [ [ [ 12.121262705565501, 67.526104031472002 ], [ 12.121766879609881, 67.525833872920018 ], [ 12.12119338667687, 67.525755175718814 ], [ 12.1207221072519, 67.525416409540455 ], [ 12.119654608427307, 67.52543925878895 ], [ 12.120691266867933, 67.526211211119644 ], [ 12.121262705565501, 67.526104031472002 ] ] ] ] } },
{ "type": "Feature", "properties": { "fid": 141694, "navn": null, "hoyde_moh": null, "arealInnsjo_km2": 0.0028, "magasinKategori": null, "fid_2": 654, "id": 654, "left": 11.986919847, "top": 67.946110046000001, "right": 12.486919847, "bottom": 67.446110046000001, "row_index": 13, "col_index": 16, "tile_id": 654 }, "geometry": { "type": "MultiPolygon", "coordinates": [ [ [ [ 12.126695842533158, 67.520729891562382 ], [ 12.126337413885592, 67.520503392298508 ], [ 12.126457709410387, 67.520168858430807 ], [ 12.125466600424231, 67.520304693195769 ], [ 12.125517220874274, 67.520510197370768 ], [ 12.126006663188626, 67.520842090357021 ], [ 12.126595453743878, 67.520857570216705 ], [ 12.126695842533158, 67.520729891562382 ] ] ] ] } },
{ "type": "Feature", "properties": { "fid": 141695, "navn": null, "hoyde_moh": null, "arealInnsjo_km2": 0.004, "magasinKategori": null, "fid_2": 654, "id": 654, "left": 11.986919847, "top": 67.946110046000001, "right": 12.486919847, "bottom": 67.446110046000001, "row_index": 13, "col_index": 16, "tile_id": 654 }, "geometry": { "type": "MultiPolygon", "coordinates": [ [ [ [ 12.100584263862965, 67.522768805662878 ], [ 12.100374406100709, 67.522422626333338 ], [ 12.098790344584422, 67.522327269685533 ], [ 12.098809952801187, 67.522479528876474 ], [ 12.09944890682886, 67.522700794230431 ], [ 12.099403210823235, 67.522890219258812 ], [ 12.099586963559336, 67.52303931416445 ], [ 12.09999997150493, 67.523044199257328 ], [ 12.100584263862965, 67.522768805662878 ] ] ] ] } },
{ "type": "Feature", "properties": { "fid": 142434, "navn": null, "hoyde_moh": null, "arealInnsjo_km2": 0.0027, "magasinKategori": null, "fid_2": 654, "id": 654, "left": 11.986919847, "top": 67.946110046000001, "right": 12.486919847, "bottom": 67.446110046000001, "row_index": 13, "col_index": 16, "tile_id": 654 }, "geometry": { "type": "MultiPolygon", "coordinates": [ [ [ [ 12.10564959243947, 67.515928546620472 ], [ 12.105523967654719, 67.515508914231489 ], [ 12.104568473274512, 67.515374660760969 ], [ 12.10482930892641, 67.515935332788814 ], [ 12.105178136186986, 67.516090337227382 ], [ 12.10564959243947, 67.515928546620472 ] ] ] ] } },
{ "type": "Feature", "properties": { "fid": 150826, "navn": null, "hoyde_moh": null, "arealInnsjo_km2": 0.0088, "magasinKategori": null, "fid_2": 654, "id": 654, "left": 11.986919847, "top": 67.946110046000001, "right": 12.486919847, "bottom": 67.446110046000001, "row_index": 13, "col_index": 16, "tile_id": 654 }, "geometry": { "type": "MultiPolygon", "coordinates": [ [ [ [ 12.100747728462741, 67.518183979210718 ], [ 12.101590465523886, 67.518564117063235 ], [ 12.101461721313512, 67.518297140519351 ], [ 12.100576023018661, 67.517802301490576 ], [ 12.10016869763875, 67.517738263533545 ], [ 12.099019991564647, 67.518640348966287 ], [ 12.099025710050105, 67.519044192261291 ], [ 12.099257449439889, 67.519201510038755 ], [ 12.099960773915798, 67.519196874656345 ], [ 12.10079225595898, 67.518892242670788 ], [ 12.100406588973549, 67.518650918999398 ], [ 12.100501134801473, 67.518288195809433 ], [ 12.100747728462741, 67.518183979210718 ] ] ] ] } },
{ "type": "Feature", "properties": { "fid": 157253, "navn": null, "hoyde_moh": null, "arealInnsjo_km2": 0.0326, "magasinKategori": null, "fid_2": 654, "id": 654, "left": 11.986919847, "top": 67.946110046000001, "right": 12.486919847, "bottom": 67.446110046000001, "row_index": 13, "col_index": 16, "tile_id": 654 }, "geometry": { "type": "MultiPolygon", "coordinates": [ [ [ [ 12.102923693576424, 67.521223291521977 ], [ 12.1032028335632, 67.521075571510139 ], [ 12.103329839857416, 67.521278322452034 ], [ 12.104133643034217, 67.521085312510493 ], [ 12.104685054509632, 67.520759489543124 ], [ 12.104207070265218, 67.520631981515976 ], [ 12.103820254727227, 67.520359223491994 ], [ 12.103853617902008, 67.52023394919766 ], [ 12.103489755663631, 67.520170877533658 ], [ 12.103860786343642, 67.52013684598181 ], [ 12.103761855343027, 67.519938548050362 ], [ 12.104729144924802, 67.519948849208774 ], [ 12.104698476008474, 67.519752401339687 ], [ 12.103739006326091, 67.519378541980544 ], [ 12.10331294958049, 67.519895770767377 ], [ 12.102784144607787, 67.520157531778452 ], [ 12.101880408600369, 67.520156886052618 ], [ 12.099994783103817, 67.520560613242523 ], [ 12.099777049128638, 67.520658792211549 ], [ 12.099800651011552, 67.521202294117685 ], [ 12.099445995510269, 67.521541413165039 ], [ 12.099437887050303, 67.521837811171537 ], [ 12.099529285750668, 67.521997730902555 ], [ 12.100722737680142, 67.522154407931424 ], [ 12.10216078098596, 67.521668949875377 ], [ 12.102261527618269, 67.521541380573325 ], [ 12.102121054726556, 67.521364423766173 ], [ 12.10255287864504, 67.521257325056453 ], [ 12.102535271124577, 67.521123058416961 ], [ 12.102923693576424, 67.521223291521977 ] ] ] ] } },
{ "type": "Feature", "properties": { "fid": 157254, "navn": null, "hoyde_moh": null, "arealInnsjo_km2": 0.0024, "magasinKategori": null, "fid_2": 654, "id": 654, "left": 11.986919847, "top": 67.946110046000001, "right": 12.486919847, "bottom": 67.446110046000001, "row_index": 13, "col_index": 16, "tile_id": 654 }, "geometry": { "type": "MultiPolygon", "coordinates": [ [ [ [ 12.094481229921509, 67.520531951574313 ], [ 12.09458657439315, 67.520979780971643 ], [ 12.095356584243232, 67.521162745405519 ], [ 12.095901088093239, 67.520947974470687 ], [ 12.094481229921509, 67.520531951574313 ] ] ] ] } },
{ "type": "Feature", "properties": { "fid": 157650, "navn": null, "hoyde_moh": null, "arealInnsjo_km2": 0.0024, "magasinKategori": null, "fid_2": 654, "id": 654, "left": 11.986919847, "top": 67.946110046000001, "right": 12.486919847, "bottom": 67.446110046000001, "row_index": 13, "col_index": 16, "tile_id": 654 }, "geometry": { "type": "MultiPolygon", "coordinates": [ [ [ [ 12.082588774904682, 67.519425720328087 ], [ 12.08443553167097, 67.520110713919081 ], [ 12.083502865193783, 67.519589972195831 ], [ 12.08339918870117, 67.519160836801191 ], [ 12.083237492160542, 67.519092832001547 ], [ 12.082588774904682, 67.519425720328087 ] ] ] ] } },
{ "type": "Feature", "properties": { "fid": 157759, "navn": null, "hoyde_moh": null, "arealInnsjo_km2": 0.0057, "magasinKategori": null, "fid_2": 654, "id": 654, "left": 11.986919847, "top": 67.946110046000001, "right": 12.486919847, "bottom": 67.446110046000001, "row_index": 13, "col_index": 16, "tile_id": 654 }, "geometry": { "type": "MultiPolygon", "coordinates": [ [ [ [ 12.088556654636225, 67.521225715965286 ], [ 12.088340223647402, 67.520936500420802 ], [ 12.087820757816557, 67.520910546563982 ], [ 12.087049840519109, 67.520575081350387 ], [ 12.086868463466537, 67.520264228646937 ], [ 12.086340756566482, 67.52035510578348 ], [ 12.086346495861905, 67.52057948136131 ], [ 12.086065497470722, 67.520764399347456 ], [ 12.086549980041299, 67.52088220342489 ], [ 12.087038159578423, 67.521229641728297 ], [ 12.088556654636225, 67.521225715965286 ] ] ] ] } },
{ "type": "Feature", "properties": { "fid": 157760, "navn": null, "hoyde_moh": null, "arealInnsjo_km2": 0.0015, "magasinKategori": null, "fid_2": 654, "id": 654, "left": 11.986919847, "top": 67.946110046000001, "right": 12.486919847, "bottom": 67.446110046000001, "row_index": 13, "col_index": 16, "tile_id": 654 }, "geometry": { "type": "MultiPolygon", "coordinates": [ [ [ [ 12.092439543235484, 67.52314246648686 ], [ 12.092427743947445, 67.523238678684081 ], [ 12.092687470960776, 67.523563769297354 ], [ 12.093145512648496, 67.523601352502013 ], [ 12.093053131701401, 67.523432522752799 ], [ 12.093272031895394, 67.523132008157788 ], [ 12.092439543235484, 67.52314246648686 ] ] ] ] } },
{ "type": "Feature", "properties": { "fid": 157808, "navn": null, "hoyde_moh": null, "arealInnsjo_km2": 0.0063, "magasinKategori": null, "fid_2": 654, "id": 654, "left": 11.986919847, "top": 67.946110046000001, "right": 12.486919847, "bottom": 67.446110046000001, "row_index": 13, "col_index": 16, "tile_id": 654 }, "geometry": { "type": "MultiPolygon", "coordinates": [ [ [ [ 12.088965597926402, 67.522675485154451 ], [ 12.088309217052178, 67.522679033278393 ], [ 12.088332247920864, 67.523217412870792 ], [ 12.088918565976993, 67.52321520821873 ], [ 12.089109272609889, 67.523597601093172 ], [ 12.089806478056358, 67.523548366699444 ], [ 12.089498908129574, 67.523706956268882 ], [ 12.089563003401212, 67.523840355275098 ], [ 12.090811145612429, 67.523679726631798 ], [ 12.088965597926402, 67.522675485154451 ] ] ] ] } },
{ "type": "Feature", "properties": { "fid": 158547, "navn": null, "hoyde_moh": null, "arealInnsjo_km2": 0.0658, "magasinKategori": null, "fid_2": 654, "id": 654, "left": 11.986919847, "top": 67.946110046000001, "right": 12.486919847, "bottom": 67.446110046000001, "row_index": 13, "col_index": 16, "tile_id": 654 }, "geometry": { "type": "MultiPolygon", "coordinates": [ [ [ [ 12.105693120717614, 67.523374392403696 ], [ 12.106132918982496, 67.523740295552429 ], [ 12.108245501382186, 67.524225594968257 ], [ 12.109727442785587, 67.524405491133408 ], [ 12.110530971540756, 67.524253652507696 ], [ 12.110619462218386, 67.524076211825843 ], [ 12.110277118570579, 67.523322059984707 ], [ 12.109234435972624, 67.522830307476994 ], [ 12.109360554277876, 67.522480893463239 ], [ 12.109219552537152, 67.522267394026144 ], [ 12.107485915198941, 67.521961522393099 ], [ 12.106619071365705, 67.521536905896824 ], [ 12.10330404703417, 67.521733313687335 ], [ 12.101486240502492, 67.522391272863302 ], [ 12.102469822030715, 67.522818096938352 ], [ 12.103317701116433, 67.522852393413288 ], [ 12.105693120717614, 67.523374392403696 ] ] ] ] } },
{ "type": "Feature", "properties": { "fid": 158548, "navn": null, "hoyde_moh": null, "arealInnsjo_km2": 0.0036, "magasinKategori": null, "fid_2": 654, "id": 654, "left": 11.986919847, "top": 67.946110046000001, "right": 12.486919847, "bottom": 67.446110046000001, "row_index": 13, "col_index": 16, "tile_id": 654 }, "geometry": { "type": "MultiPolygon", "coordinates": [ [ [ [ 12.101918187627637, 67.519266227952187 ], [ 12.102569503945636, 67.518721611941871 ], [ 12.102276218983929, 67.518524592029806 ], [ 12.101969931584108, 67.518570283041782 ], [ 12.101786922427097, 67.518701227246453 ], [ 12.101815720727812, 67.518874389583374 ], [ 12.101127854296527, 67.518900407997819 ], [ 12.100532589241947, 67.519260627203195 ], [ 12.100822747134071, 67.519483181611875 ], [ 12.101160792304706, 67.519175903971515 ], [ 12.101918187627637, 67.519266227952187 ] ] ] ] } },
{ "type": "Feature", "properties": { "fid": 158551, "navn": null, "hoyde_moh": null, "arealInnsjo_km2": 0.021, "magasinKategori": null, "fid_2": 654, "id": 654, "left": 11.986919847, "top": 67.946110046000001, "right": 12.486919847, "bottom": 67.446110046000001, "row_index": 13, "col_index": 16, "tile_id": 654 }, "geometry": { "type": "MultiPolygon", "coordinates": [ [ [ [ 12.112661804452385, 67.519113381351019 ], [ 12.111527657874483, 67.518913408719982 ], [ 12.110201156560255, 67.51928539005317 ], [ 12.110514300369909, 67.519622266132927 ], [ 12.110553349827562, 67.519838882587337 ], [ 12.110337676495506, 67.519995647964294 ], [ 12.110932320610184, 67.520665601663623 ], [ 12.111878962254364, 67.520801361678124 ], [ 12.114069655555681, 67.519967149717374 ], [ 12.113000642611997, 67.519561228709293 ], [ 12.112661804452385, 67.519113381351019 ] ] ] ] } },
{ "type": "Feature", "properties": { "fid": 163294, "navn": null, "hoyde_moh": null, "arealInnsjo_km2": 0.0027, "magasinKategori": null, "fid_2": 654, "id": 654, "left": 11.986919847, "top": 67.946110046000001, "right": 12.486919847, "bottom": 67.446110046000001, "row_index": 13, "col_index": 16, "tile_id": 654 }, "geometry": { "type": "MultiPolygon", "coordinates": [ [ [ [ 12.107209887414607, 67.518303639307774 ], [ 12.106592079939174, 67.517884458654279 ], [ 12.106542876043843, 67.51768794929194 ], [ 12.106092273433127, 67.517651702730745 ], [ 12.105990562097034, 67.51777018891913 ], [ 12.106055071913712, 67.518083416370374 ], [ 12.106546484948115, 67.518433094846216 ], [ 12.107129757471421, 67.518450971986425 ], [ 12.107209887414607, 67.518303639307774 ] ] ] ] } }
]
}
