{
"type": "FeatureCollection",
"name": "innsjo_tile_id_71",
"crs": { "type": "name", "properties": { "name": "urn:ogc:def:crs:OGC:1.3:CRS84" } },
"xy_coordinate_resolution": 1e-15,
"features": [
{ "type": "Feature", "properties": { "fid": 128782, "navn": null, "hoyde_moh": null, "arealInnsjo_km2": 0.0093, "magasinKategori": null, "fid_2": 71, "id": 71, "left": 4.486919847, "top": 59.446110046000001, "right": 4.986919847, "bottom": 58.946110046000001, "row_index": 30, "col_index": 1, "tile_id": 71 }, "geometry": { "type": "MultiPolygon", "coordinates": [ [ [ [ 4.891752649004303, 59.313232360582425 ], [ 4.891436504164142, 59.312647022255533 ], [ 4.891031419228129, 59.312652187730208 ], [ 4.890692755846359, 59.312398702363595 ], [ 4.89013650083136, 59.312488924839634 ], [ 4.890073334152233, 59.3127207742642 ], [ 4.889619119083061, 59.312841344174181 ], [ 4.890178726857697, 59.312868022580744 ], [ 4.889911961642174, 59.313183264580374 ], [ 4.890527282047388, 59.313184719889207 ], [ 4.890342284697473, 59.313259798732247 ], [ 4.89127057148518, 59.313729706493632 ], [ 4.891752649004303, 59.313232360582425 ] ] ] ] } },
{ "type": "Feature", "properties": { "fid": 267937, "navn": "Laugarvatnet", "hoyde_moh": 39, "arealInnsjo_km2": 0.0077, "magasinKategori": 1, "fid_2": 71, "id": 71, "left": 4.486919847, "top": 59.446110046000001, "right": 4.986919847, "bottom": 58.946110046000001, "row_index": 30, "col_index": 1, "tile_id": 71 }, "geometry": { "type": "MultiPolygon", "coordinates": [ [ [ [ 4.878889960968349, 59.303852090988748 ], [ 4.878753777748077, 59.303380278782008 ], [ 4.878459866972003, 59.302903414090167 ], [ 4.877916865524349, 59.302886213649614 ], [ 4.877965394334868, 59.3032114339251 ], [ 4.877738204453128, 59.303635809424676 ], [ 4.877966054256799, 59.303786893884343 ], [ 4.877890775752522, 59.304117234779724 ], [ 4.878194224201726, 59.304225752246509 ], [ 4.878382795234232, 59.304555450513597 ], [ 4.878677332285004, 59.304591691702576 ], [ 4.878889960968349, 59.303852090988748 ] ] ] ] } }
]
}
