{
"type": "FeatureCollection",
"name": "innsjo_tile_id_671",
"crs": { "type": "name", "properties": { "name": "urn:ogc:def:crs:OGC:1.3:CRS84" } },
"xy_coordinate_resolution": 1e-15,
"features": [
{ "type": "Feature", "properties": { "fid": 269413, "navn": "Store Le", "hoyde_moh": 103, "arealInnsjo_km2": 133.6619, "magasinKategori": null, "fid_2": 671, "id": 671, "left": 11.986919847, "top": 59.446110046000001, "right": 12.486919847, "bottom": 58.946110046000001, "row_index": 30, "col_index": 16, "tile_id": 671 }, "geometry": { "type": "MultiPolygon", "coordinates": [ [ [ [ 11.987564755752334, 59.412870423231382 ], [ 11.987924209888117, 59.412784504610748 ], [ 11.988045689079469, 59.412260375922564 ], [ 11.988788362710341, 59.411844833845656 ], [ 11.989462101397402, 59.412260030225355 ], [ 11.989366752656894, 59.412844690961556 ], [ 11.989524391481346, 59.412998494911932 ], [ 11.989636949204884, 59.413843301207599 ], [ 11.989511968381869, 59.414069839972917 ], [ 11.989655183222448, 59.414179881197143 ], [ 11.988710526082377, 59.414636029244456 ], [ 11.98828913785546, 59.415218941081683 ], [ 11.988174718464899, 59.415753405128285 ], [ 11.988352495456432, 59.416021726254712 ], [ 11.988546984240179, 59.416037124973187 ], [ 11.988514283544594, 59.415907519082836 ], [ 11.989045828473042, 59.415672896337703 ], [ 11.988547576872891, 59.415695533790249 ], [ 11.988509169404743, 59.415319641146922 ], [ 11.988962166173291, 59.414815502082462 ], [ 11.989355189927398, 59.414675763825834 ], [ 11.989635278940073, 59.414851371863406 ], [ 11.989099501696666, 59.415277508705934 ], [ 11.989274329678423, 59.415372482413801 ], [ 11.989162299090678, 59.41556091340609 ], [ 11.989658834772285, 59.415610760457568 ], [ 11.989741633461515, 59.416109294059339 ], [ 11.990010927468443, 59.416131664492617 ], [ 11.990604902852747, 59.415697008746754 ], [ 11.990509382760079, 59.415642200940141 ], [ 11.990630650254849, 59.415414389455002 ], [ 11.990971880388898, 59.415467226633865 ], [ 11.992447978849221, 59.414642001717922 ], [ 11.992838362969177, 59.414089715186769 ], [ 11.993328963707707, 59.413928446504514 ], [ 11.994128590932723, 59.41324467800824 ], [ 11.995460322543126, 59.412441390435546 ], [ 11.995628124203042, 59.412483607529275 ], [ 11.995635191813596, 59.412848782822358 ], [ 11.995836422996996, 59.412871074685526 ], [ 11.996938458646506, 59.412516816262112 ], [ 11.997154146819387, 59.412656679568293 ], [ 11.997723153903518, 59.412614808810652 ], [ 11.998908808171489, 59.411887615863321 ], [ 11.999320802479843, 59.41192141864498 ], [ 11.999258660564802, 59.411809533090171 ], [ 11.999697740377936, 59.411560026643741 ], [ 11.999843298205905, 59.411757571132362 ], [ 12.000291618197426, 59.411677490867064 ], [ 12.000348256788131, 59.411864947498181 ], [ 12.000791133365139, 59.411977085883613 ], [ 12.001674667156783, 59.411566697252951 ], [ 12.003428786061418, 59.412555116230742 ], [ 12.004241924314371, 59.412346644181909 ], [ 12.005039784316901, 59.412381399741861 ], [ 12.006150023760835, 59.411745920134621 ], [ 12.006676248110153, 59.411068510292132 ], [ 12.006809378736881, 59.410405856228849 ], [ 12.006701180390998, 59.41004673758308 ], [ 12.006354629222175, 59.409534742716481 ], [ 12.005733642636358, 59.409182176111067 ], [ 12.005727554451237, 59.408768752557194 ], [ 12.005525852257481, 59.408518526136312 ], [ 12.005823882735674, 59.408158864815491 ], [ 12.005483425092342, 59.407982732686627 ], [ 12.005810893905078, 59.4076253827089 ], [ 12.006410360972156, 59.407341445017856 ], [ 12.006547403706458, 59.406972516136548 ], [ 12.006357465170597, 59.406626239992185 ], [ 12.006731791329067, 59.405753852935909 ], [ 12.006939462392477, 59.405403707776934 ], [ 12.007610367947368, 59.405087590238566 ], [ 12.007477964040833, 59.404955280095912 ], [ 12.006794285302066, 59.405067121777108 ], [ 12.006498954209498, 59.405404831149113 ], [ 12.006207474029631, 59.405402445510667 ], [ 12.006131244681812, 59.405076319356212 ], [ 12.007139653250487, 59.404342571775111 ], [ 12.0070044117659, 59.404145424920372 ], [ 12.007528411727959, 59.403616644248594 ], [ 12.008120259292783, 59.403614819877035 ], [ 12.008262772252282, 59.402711887818633 ], [ 12.008975509971782, 59.402065608030114 ], [ 12.009426800198597, 59.401238130268197 ], [ 12.010524591497727, 59.400437432075215 ], [ 12.011122020515385, 59.39941729667656 ], [ 12.011600236281479, 59.398975955039887 ], [ 12.012252434388541, 59.39799350829972 ], [ 12.013120144522533, 59.39759810638207 ], [ 12.013732128760875, 59.396976121006503 ], [ 12.012975137984485, 59.396581185017396 ], [ 12.012154369671826, 59.397226680606863 ], [ 12.012576687570432, 59.396670265814585 ], [ 12.011323717472623, 59.396707801864487 ], [ 12.010007702308691, 59.397222402327905 ], [ 12.008595392256717, 59.398305481732166 ], [ 12.007657355037935, 59.398528704717641 ], [ 12.007421692842629, 59.399513778805087 ], [ 12.006744309511252, 59.399709674366825 ], [ 12.006562820492634, 59.40041622051195 ], [ 12.005017006850467, 59.401396841936609 ], [ 12.004827783359477, 59.401501083420833 ], [ 12.004649444873273, 59.401369557212213 ], [ 12.005008008929668, 59.400980529411726 ], [ 12.005001289145284, 59.400814978704354 ], [ 12.004798528401196, 59.400769651690176 ], [ 12.004096198574302, 59.401204968432523 ], [ 12.00358112710601, 59.400973976030947 ], [ 12.003185387866381, 59.401661038648733 ], [ 12.002569218452622, 59.401586897476086 ], [ 12.001361448339592, 59.404600182195175 ], [ 12.001115079702908, 59.404855804261196 ], [ 12.000699437374202, 59.404942694050028 ], [ 12.000924557249967, 59.405442020544527 ], [ 12.000128522741367, 59.406074356351972 ], [ 11.999231917213017, 59.406268237476858 ], [ 11.998898142956744, 59.406764476461476 ], [ 11.998309422180197, 59.407004659099108 ], [ 11.998340316322908, 59.407325218602566 ], [ 11.99600431764557, 59.407719924925154 ], [ 11.99581483527691, 59.407894985137204 ], [ 11.996095192322334, 59.408080048234581 ], [ 11.995899128857635, 59.408253770871973 ], [ 11.996101374722354, 59.408572445447312 ], [ 11.996038533795002, 59.408761448235936 ], [ 11.99527672166305, 59.408949448557749 ], [ 11.993787452881042, 59.409739190444888 ], [ 11.99168179778505, 59.40946010905278 ], [ 11.991452884594519, 59.409248078522559 ], [ 11.991456044658577, 59.408789808948768 ], [ 11.991823209266295, 59.408369471631723 ], [ 11.994654073271381, 59.407335931015133 ], [ 11.995054147077639, 59.407272684926326 ], [ 11.995078098177105, 59.407491660302028 ], [ 11.995333815853165, 59.407529649203148 ], [ 11.995609982591208, 59.407111141762314 ], [ 11.996492082934916, 59.406784056488988 ], [ 11.996161752052982, 59.406377137262425 ], [ 11.996420456717003, 59.406260363587755 ], [ 11.996423399417701, 59.405912599983075 ], [ 11.99697947504659, 59.405685530777028 ], [ 11.997056899009912, 59.405459104075852 ], [ 11.99686803530795, 59.405185642049744 ], [ 11.997022523776847, 59.404983778297613 ], [ 11.996741272445565, 59.404685274520389 ], [ 11.997210379669955, 59.404518358463939 ], [ 11.997239806623931, 59.404361205276786 ], [ 11.997860757663565, 59.404203641544939 ], [ 11.997976560657236, 59.404002458904685 ], [ 11.997252770192098, 59.403790126892282 ], [ 11.996334755925876, 59.403851543660082 ], [ 11.99575851748364, 59.403419909083709 ], [ 11.995932882473355, 59.402969600169911 ], [ 11.997155853333606, 59.402508733803707 ], [ 11.997701595089348, 59.40255771793305 ], [ 11.998119795238001, 59.4028920001995 ], [ 11.998794150825685, 59.403036082458186 ], [ 11.99873288420814, 59.40278885988554 ], [ 11.99834218246138, 59.402532699044755 ], [ 11.998056037825757, 59.401848620503173 ], [ 11.997368464133569, 59.401451883894126 ], [ 11.997653526415217, 59.400975222453852 ], [ 11.998343781804127, 59.400670453031438 ], [ 11.999783735299307, 59.400504437580068 ], [ 12.000199237139574, 59.400343440476441 ], [ 12.000563327563183, 59.399833213102276 ], [ 12.001284997509972, 59.399572769436908 ], [ 12.001387238794702, 59.399752342523428 ], [ 12.002407337908695, 59.399848220157693 ], [ 12.002937946644112, 59.400121467445373 ], [ 12.002961277200303, 59.399312507537466 ], [ 12.003681702115927, 59.398648559483505 ], [ 12.00378491730981, 59.398175561820473 ], [ 12.004349297697063, 59.397909691074311 ], [ 12.004231814388504, 59.397575795005629 ], [ 12.004349367387038, 59.397310406669312 ], [ 12.003868567881247, 59.396873406578365 ], [ 12.00408995850426, 59.396686003351597 ], [ 12.00389053718953, 59.396400501186612 ], [ 12.003730287500886, 59.396554020759382 ], [ 12.003726608370791, 59.396134118643786 ], [ 12.003976901502472, 59.395632824310155 ], [ 12.003784647722924, 59.395162536354633 ], [ 12.003397917713794, 59.395351396606372 ], [ 12.003047655401481, 59.395230770721021 ], [ 12.002558586297621, 59.39530856375378 ], [ 12.001520021144241, 59.394978839668937 ], [ 12.001474584439388, 59.394760548795524 ], [ 12.001667361780688, 59.394521109630141 ], [ 12.001537357594779, 59.394457437834241 ], [ 12.002105285601147, 59.394013564944665 ], [ 12.001821981577084, 59.393599643329132 ], [ 12.002275947859472, 59.393243144706602 ], [ 12.001871486565156, 59.392995078547287 ], [ 12.001933438893836, 59.39276237204033 ], [ 12.001607682241689, 59.392512753645846 ], [ 12.001838645977205, 59.392114384938829 ], [ 12.001752613414853, 59.391325850957941 ], [ 12.001257062113575, 59.391305379835657 ], [ 12.000991421926273, 59.390971406352314 ], [ 12.000173187127755, 59.391006429374819 ], [ 11.999568123852947, 59.390758763457434 ], [ 11.999316074233914, 59.390860337659248 ], [ 11.999238113052041, 59.391364493414109 ], [ 11.998806209931216, 59.39169376750386 ], [ 12.000163968073975, 59.393437307427007 ], [ 12.001267326887703, 59.395734136446684 ], [ 12.001450142670924, 59.397219065980167 ], [ 12.001342216366051, 59.397643573221075 ], [ 12.001629366351754, 59.398027246891438 ], [ 12.001343605681821, 59.398166960061886 ], [ 12.001392510172829, 59.398486171704306 ], [ 12.001080729272887, 59.398553218188361 ], [ 12.000948734333223, 59.399167495663626 ], [ 12.00028129811696, 59.39951971901894 ], [ 11.997068859580459, 59.39954775515492 ], [ 11.996090137087124, 59.399877262027111 ], [ 11.995974605986174, 59.400360889551102 ], [ 11.995636755899694, 59.400569302411469 ], [ 11.994245516499502, 59.400421622853614 ], [ 11.9941846397103, 59.400568255972786 ], [ 11.994372065755025, 59.400702531689134 ], [ 11.995257991430295, 59.401035965261237 ], [ 11.995172012353274, 59.401393533933472 ], [ 11.995372973076012, 59.401498861346241 ], [ 11.994895143470636, 59.401719431727713 ], [ 11.995287709033066, 59.402174534451419 ], [ 11.994448352919884, 59.402025175567658 ], [ 11.994199285259956, 59.402128355547589 ], [ 11.994177496393101, 59.40243758441828 ], [ 11.99379798340687, 59.402822165712543 ], [ 11.993666170594866, 59.403257359015399 ], [ 11.991614141955884, 59.404347498383103 ], [ 11.99102610116435, 59.40493340252214 ], [ 11.990802051014111, 59.40545930952895 ], [ 11.986919847, 59.405607562064226 ], [ 11.986919847, 59.41236648625874 ], [ 11.987564755752334, 59.412870423231382 ] ], [ [ 12.003363112672089, 59.397614857001301 ], [ 12.003383209559219, 59.397648656897893 ], [ 12.003203148340583, 59.397744911113286 ], [ 12.003363112672089, 59.397614857001301 ] ], [ [ 11.995757116741263, 59.402077713037613 ], [ 11.995717794003456, 59.402100251832401 ], [ 11.995503261349345, 59.401905192286826 ], [ 11.995654905297892, 59.401876380724438 ], [ 11.995757116741263, 59.402077713037613 ] ], [ [ 11.994052240555421, 59.404709173485188 ], [ 11.994472791882057, 59.404276787643163 ], [ 11.994608802735442, 59.404385507708859 ], [ 11.994395756708469, 59.404603047964905 ], [ 11.994475498009207, 59.40486680165192 ], [ 11.994052240555421, 59.404709173485188 ] ], [ [ 11.995069401058306, 59.40466289766421 ], [ 11.994891530165603, 59.404700926208733 ], [ 11.994880771958609, 59.404618483026418 ], [ 11.995069401058306, 59.40466289766421 ] ], [ [ 12.003900263448713, 59.410076060332251 ], [ 12.003587614316753, 59.4100295292263 ], [ 12.003282215645294, 59.409692215148709 ], [ 12.003286242055138, 59.409133602944408 ], [ 12.004065142870544, 59.408823352917878 ], [ 12.004393762215988, 59.408915440386892 ], [ 12.004369199583792, 59.408763138726826 ], [ 12.004570052990132, 59.40871168759373 ], [ 12.004666610932892, 59.408893831526207 ], [ 12.004536760822514, 59.409071513204324 ], [ 12.004968752838934, 59.409382805043002 ], [ 12.00464647339783, 59.409807802148848 ], [ 12.003900263448713, 59.410076060332251 ] ], [ [ 11.991188276323719, 59.409641225468626 ], [ 11.991358949138517, 59.40981334502748 ], [ 11.991150521536968, 59.410103531576503 ], [ 11.990946678694431, 59.40977109926181 ], [ 11.991188276323719, 59.409641225468626 ] ], [ [ 11.988238988806474, 59.41189310359055 ], [ 11.987981734616085, 59.411875688698728 ], [ 11.988051657741298, 59.411775994344048 ], [ 11.988238988806474, 59.41189310359055 ] ] ] ] } }
]
}
