{
"type": "FeatureCollection",
"name": "innsjo_tile_id_1332",
"crs": { "type": "name", "properties": { "name": "urn:ogc:def:crs:OGC:1.3:CRS84" } },
"xy_coordinate_resolution": 1e-15,
"features": [
{ "type": "Feature", "properties": { "fid": 269348, "navn": "Rostojávri", "hoyde_moh": 679, "arealInnsjo_km2": 35.3538, "magasinKategori": null, "fid_2": 1332, "id": 1332, "left": 20.486919847, "top": 68.946110046000001, "right": 20.986919847, "bottom": 68.446110046000001, "row_index": 11, "col_index": 33, "tile_id": 1332 }, "geometry": { "type": "MultiPolygon", "coordinates": [ [ [ [ 20.487143503235721, 68.770821709167791 ], [ 20.487579915667226, 68.770539916431687 ], [ 20.488092018053106, 68.770615714717664 ], [ 20.491578249078213, 68.770258557709056 ], [ 20.49337534289441, 68.769417982747612 ], [ 20.493485365648326, 68.769086842823029 ], [ 20.49309530336464, 68.769061720432717 ], [ 20.492139831499582, 68.769393778428295 ], [ 20.491249988380172, 68.769319552913771 ], [ 20.490934893694355, 68.768676728105078 ], [ 20.491106372263417, 68.76850566691202 ], [ 20.492303415122581, 68.768229929595279 ], [ 20.494089119385933, 68.768423072500241 ], [ 20.494761404180174, 68.767833743628159 ], [ 20.496549096192311, 68.767802178739373 ], [ 20.497005748775667, 68.767160455377393 ], [ 20.496137708366561, 68.766438605410741 ], [ 20.495323924752398, 68.764933330232765 ], [ 20.494016445836095, 68.764610107855958 ], [ 20.492765573337714, 68.76455482810205 ], [ 20.491647623645505, 68.763956719602518 ], [ 20.490396568976415, 68.763901519414858 ], [ 20.490607072206952, 68.762547620254495 ], [ 20.489337243796612, 68.762403034362492 ], [ 20.489433231720191, 68.761681437117915 ], [ 20.490514491959274, 68.760932515710792 ], [ 20.491918099240582, 68.760534152208749 ], [ 20.493777918548073, 68.7587749597608 ], [ 20.495143380720357, 68.758198002861519 ], [ 20.497114433670031, 68.758143350097825 ], [ 20.500792780054685, 68.756783042852291 ], [ 20.501305235161954, 68.755690425082406 ], [ 20.500793948835994, 68.755614738462171 ], [ 20.500718640553295, 68.755257314963018 ], [ 20.501135977280484, 68.754886283686474 ], [ 20.503012497728076, 68.754384853702803 ], [ 20.503865663466097, 68.753731984636474 ], [ 20.505324795468496, 68.753601567278295 ], [ 20.506594219193698, 68.753746035310229 ], [ 20.5082243531545, 68.753251401097472 ], [ 20.508244037470284, 68.752172384271788 ], [ 20.508907342274775, 68.751794479473745 ], [ 20.510176930912152, 68.751938913021689 ], [ 20.510782773697681, 68.752461267592068 ], [ 20.508754779567397, 68.753416432567363 ], [ 20.508943695038433, 68.75430983493473 ], [ 20.510459360545379, 68.75444741731971 ], [ 20.511349582944149, 68.755141652553419 ], [ 20.513851072737523, 68.755251819689278 ], [ 20.515007227159398, 68.754860147665966 ], [ 20.518076873022437, 68.755313839980872 ], [ 20.519308559035199, 68.755279553257083 ], [ 20.519877428331803, 68.754454810450369 ], [ 20.521639589999705, 68.754585412079905 ], [ 20.520540464891567, 68.755245160280211 ], [ 20.520616090962413, 68.7556025733887 ], [ 20.521923660623596, 68.755925583229086 ], [ 20.522852266870331, 68.756798502608305 ], [ 20.521222452550955, 68.75729326919452 ], [ 20.52101360418019, 68.758647205418228 ], [ 20.519876337181632, 68.759128292450129 ], [ 20.520520787397164, 68.759829259777121 ], [ 20.521743815896311, 68.760118681906391 ], [ 20.520766931393297, 68.760990774621433 ], [ 20.521430202716417, 68.761781119527043 ], [ 20.521278592582131, 68.762234779985462 ], [ 20.519875660048996, 68.762633376691085 ], [ 20.519932572619293, 68.762901408221765 ], [ 20.520444336365003, 68.762977027824363 ], [ 20.520740745533896, 68.763278814141586 ], [ 20.520728461003007, 68.764317200083482 ], [ 20.520273586845374, 68.764509612849537 ], [ 20.520216532468012, 68.765409880338453 ], [ 20.522302049486271, 68.765890993934477 ], [ 20.522718994130557, 68.76668830592503 ], [ 20.524311541727734, 68.767183073709688 ], [ 20.525544365198499, 68.767148722382032 ], [ 20.526150810886882, 68.766502720486997 ], [ 20.527117516010634, 68.766385801666331 ], [ 20.528198236425037, 68.765636718237289 ], [ 20.52958218509432, 68.765148680166078 ], [ 20.530814640175414, 68.765114299119205 ], [ 20.53100387617641, 68.764839383363608 ], [ 20.532217035646202, 68.764715628168801 ], [ 20.533088980347888, 68.764151889199695 ], [ 20.53451058068357, 68.763842652757845 ], [ 20.535116924662983, 68.763196612281646 ], [ 20.537634694461143, 68.76257795031492 ], [ 20.539305541833112, 68.761911049807708 ], [ 20.54101148371733, 68.761773414414805 ], [ 20.541693571661781, 68.761484753562556 ], [ 20.540802148010673, 68.760790684140176 ], [ 20.541730667210327, 68.760495022966722 ], [ 20.541976147960828, 68.759319817040236 ], [ 20.543321288712225, 68.758653017782265 ], [ 20.543472695712282, 68.758199421026589 ], [ 20.542069396213105, 68.757429815549443 ], [ 20.540211648408519, 68.756852662717279 ], [ 20.540248832067373, 68.755863021133649 ], [ 20.540930975705503, 68.755574266748212 ], [ 20.542939790586985, 68.755697823920073 ], [ 20.544020321394708, 68.756116945619581 ], [ 20.54553656123711, 68.756254204175008 ], [ 20.549488583223908, 68.755815320462915 ], [ 20.550709918960887, 68.756109092887201 ], [ 20.55129725404273, 68.755957862898427 ], [ 20.551587109148535, 68.755617151291048 ], [ 20.552813828639788, 68.756328678599033 ], [ 20.553739662237703, 68.75637015957885 ], [ 20.554153836828174, 68.756133803260823 ], [ 20.555348210737019, 68.756055301477389 ], [ 20.555864356177494, 68.755874536104187 ], [ 20.555730618518709, 68.755249221410352 ], [ 20.556192096288534, 68.754944165451491 ], [ 20.560222043517914, 68.75539262550204 ], [ 20.563157305272767, 68.755197731737766 ], [ 20.563333613438438, 68.755340963949521 ], [ 20.563208520355673, 68.755784994158617 ], [ 20.563294961578688, 68.756362277031485 ], [ 20.563658932680099, 68.756689046987361 ], [ 20.564545613095039, 68.75706853299566 ], [ 20.567009251920791, 68.756999266113382 ], [ 20.568304909830022, 68.756423602331083 ], [ 20.568142581308599, 68.756171914911704 ], [ 20.568379635141437, 68.756106773861532 ], [ 20.570189312152436, 68.75637040382756 ], [ 20.572314242838303, 68.756310512191135 ], [ 20.573754200341387, 68.756090220697629 ], [ 20.576991986871747, 68.75501021809653 ], [ 20.57666905636199, 68.754659797611353 ], [ 20.578847570425236, 68.754418590152326 ], [ 20.579036371510291, 68.754143615864862 ], [ 20.57975612683283, 68.754033447604741 ], [ 20.579679558882841, 68.753676065690627 ], [ 20.581547837682418, 68.752971663278373 ], [ 20.581803070984069, 68.7527173499696 ], [ 20.580786703173867, 68.752498835536343 ], [ 20.580898591841834, 68.752414769253718 ], [ 20.582642593194588, 68.752271199006543 ], [ 20.583163107424095, 68.752589070198127 ], [ 20.585303132428777, 68.752169042295975 ], [ 20.585812384299157, 68.751714261521442 ], [ 20.587036226460725, 68.751081945805865 ], [ 20.587029760138407, 68.75089333762331 ], [ 20.586331000766727, 68.750495151399846 ], [ 20.587932896046713, 68.750225178999528 ], [ 20.589326040275242, 68.750437483892554 ], [ 20.589623541543805, 68.750150436508221 ], [ 20.591295222959047, 68.749527835600986 ], [ 20.590998052630713, 68.749226176512394 ], [ 20.591108183515335, 68.748989337667041 ], [ 20.593836196290429, 68.748930162099768 ], [ 20.594423051308894, 68.748634871755513 ], [ 20.594527830256485, 68.748344385735109 ], [ 20.596468448748688, 68.748194959313352 ], [ 20.598191065428193, 68.74757986329135 ], [ 20.599156581315512, 68.747462628422426 ], [ 20.600291529101611, 68.746981020338396 ], [ 20.600460988506914, 68.746616741688555 ], [ 20.602677014573072, 68.74655386942554 ], [ 20.603377108921798, 68.746354239733634 ], [ 20.602334479182694, 68.745237781199862 ], [ 20.601857075309955, 68.745049130146342 ], [ 20.601137721457199, 68.74515939044619 ], [ 20.600307005625378, 68.745902007440549 ], [ 20.599568358245019, 68.745922987391012 ], [ 20.598999162992108, 68.745579597577731 ], [ 20.597521616708924, 68.745621461646778 ], [ 20.597163629673183, 68.746260820214303 ], [ 20.595932583802742, 68.746295670291587 ], [ 20.595040106903181, 68.745601891331731 ], [ 20.593428319967977, 68.745018424311922 ], [ 20.59335132336696, 68.744661057467781 ], [ 20.594336467639369, 68.744633109039256 ], [ 20.595977383562172, 68.74410128751245 ], [ 20.594076552652375, 68.743800111527591 ], [ 20.593939938190708, 68.74366918390389 ], [ 20.594201992918336, 68.743131383301872 ], [ 20.593721842382266, 68.742655247912907 ], [ 20.593804461093342, 68.742536049108594 ], [ 20.595632938791152, 68.742313560927656 ], [ 20.596448362009134, 68.741787029209988 ], [ 20.598094603876412, 68.741380826411643 ], [ 20.598056332435899, 68.741202180647804 ], [ 20.599514063305261, 68.74107095827577 ], [ 20.600156451038846, 68.740603333946126 ], [ 20.601140668236379, 68.740575371302484 ], [ 20.601252246833752, 68.739943092173917 ], [ 20.601933110850108, 68.739654098172792 ], [ 20.60155219862002, 68.739035726093675 ], [ 20.601967553047199, 68.738664456149138 ], [ 20.603082711670382, 68.738093468688916 ], [ 20.604521184702275, 68.737872922638601 ], [ 20.60465168044551, 68.737329923219875 ], [ 20.605825024047547, 68.736914577830987 ], [ 20.605936087257113, 68.736754104850064 ], [ 20.604848758860832, 68.735701977080069 ], [ 20.605482088991806, 68.735625509033284 ], [ 20.606328764134599, 68.736307071183887 ], [ 20.607479645084542, 68.736391166115837 ], [ 20.606935628060807, 68.737112248602045 ], [ 20.608119892538767, 68.737608887333664 ], [ 20.608511654653945, 68.738420126024224 ], [ 20.60961387029273, 68.738779796980623 ], [ 20.611106075715323, 68.738953155525181 ], [ 20.61263697681386, 68.739534283017989 ], [ 20.613741553138269, 68.739660111581202 ], [ 20.614375540764502, 68.739929746389436 ], [ 20.615587108641087, 68.739805394760126 ], [ 20.615331522659037, 68.739282239587112 ], [ 20.615777382459356, 68.738838181470669 ], [ 20.61547222587247, 68.738671652000633 ], [ 20.614596341787095, 68.738615635090781 ], [ 20.617416121074189, 68.737955630390289 ], [ 20.617886194485976, 68.737695088391689 ], [ 20.617719277722482, 68.737295351923521 ], [ 20.617138578801676, 68.737244468575938 ], [ 20.614375260850984, 68.737448972923119 ], [ 20.614883492625498, 68.737092936774701 ], [ 20.615864752801343, 68.736835830951705 ], [ 20.61592262896658, 68.736272459251623 ], [ 20.616264905828977, 68.736280694773029 ], [ 20.616469323560459, 68.736769188576019 ], [ 20.616626773134957, 68.736823173745506 ], [ 20.618222515665952, 68.736845145530125 ], [ 20.619156730320725, 68.736512900722246 ], [ 20.619332719611808, 68.736296702516697 ], [ 20.619375231320905, 68.735562919642931 ], [ 20.618780017400756, 68.735013630749947 ], [ 20.618874915004504, 68.734952509433555 ], [ 20.619665245353904, 68.734871570921555 ], [ 20.620003081251067, 68.734686615952768 ], [ 20.622998990992919, 68.734772088391381 ], [ 20.623631211500658, 68.734632673158202 ], [ 20.624253295963097, 68.734075608762851 ], [ 20.629719680883841, 68.733020888712332 ], [ 20.629642397695868, 68.732663532669832 ], [ 20.627007596175517, 68.731929719569891 ], [ 20.627137536830531, 68.731386794802944 ], [ 20.628044548526944, 68.73100130404049 ], [ 20.627967077140006, 68.730644044467567 ], [ 20.627436331425688, 68.730479388261529 ], [ 20.626225829371961, 68.730603805562708 ], [ 20.626186862884836, 68.730425183479582 ], [ 20.625448733858708, 68.730446184471276 ], [ 20.625332570951837, 68.729910203709068 ], [ 20.624840592805871, 68.729924258959784 ], [ 20.624801884615692, 68.729745628296854 ], [ 20.625670157496547, 68.729181519712455 ], [ 20.624932091586203, 68.729202607500582 ], [ 20.623552440374301, 68.729691314558337 ], [ 20.622076268615157, 68.72973346862355 ], [ 20.621642058774874, 68.730015425239472 ], [ 20.62041197660475, 68.730050537999688 ], [ 20.619958415666989, 68.730243219120865 ], [ 20.619678888441278, 68.731239877163972 ], [ 20.618221677717955, 68.731371277723468 ], [ 20.615708162283813, 68.732341637089675 ], [ 20.614497021708964, 68.732466076871674 ], [ 20.614308810556377, 68.732740998693203 ], [ 20.612132852505702, 68.732982828845792 ], [ 20.6112640450059, 68.733546691720704 ], [ 20.609541656088464, 68.733595651983592 ], [ 20.607149207244714, 68.731686329045644 ], [ 20.607010055813554, 68.729892596020179 ], [ 20.604887846475378, 68.729233872968379 ], [ 20.603995795726924, 68.728540138485769 ], [ 20.602008395759054, 68.728506658181217 ], [ 20.601892807566898, 68.727970658427779 ], [ 20.601174001701196, 68.728080916253845 ], [ 20.600970465387846, 68.729434918979209 ], [ 20.601823934753718, 68.72995003284575 ], [ 20.600501530269703, 68.730706643749684 ], [ 20.598817588907114, 68.730934139231948 ], [ 20.598894349015694, 68.731291422592832 ], [ 20.600144075658285, 68.731345910189134 ], [ 20.600428482736923, 68.731517559807202 ], [ 20.598990643915798, 68.731738150409726 ], [ 20.596591257634685, 68.733244337670229 ], [ 20.591461979526464, 68.733569373680638 ], [ 20.58804653706747, 68.733589668180997 ], [ 20.587548226971087, 68.7337476431167 ], [ 20.587650321872218, 68.733978446808266 ], [ 20.588698934566526, 68.734595885939996 ], [ 20.591000225128617, 68.735510427144746 ], [ 20.588567867679565, 68.734734416263549 ], [ 20.587385102469923, 68.73417019666968 ], [ 20.584060149057681, 68.73368898954665 ], [ 20.581599168684381, 68.733758580891759 ], [ 20.579234061495651, 68.734274788131984 ], [ 20.578744583536352, 68.735457003505161 ], [ 20.578252448734986, 68.735470923976081 ], [ 20.577683606299175, 68.73512746743188 ], [ 20.57645289304714, 68.735162181054278 ], [ 20.57658709214979, 68.735787567124561 ], [ 20.576113878973789, 68.735890855904543 ], [ 20.576455673587063, 68.736330556366354 ], [ 20.577743755705271, 68.736563949134279 ], [ 20.57897449914099, 68.736529047228274 ], [ 20.57918234456724, 68.736343439255492 ], [ 20.580432043887075, 68.736397990183661 ], [ 20.581608296183958, 68.737263613336694 ], [ 20.581230777561885, 68.737813574439627 ], [ 20.579376624291683, 68.738405221970851 ], [ 20.577880569715802, 68.738357538272894 ], [ 20.577199675110975, 68.738646428710396 ], [ 20.577390938288602, 68.739539750224623 ], [ 20.578621891316136, 68.739505028594593 ], [ 20.580760510938283, 68.739085071696337 ], [ 20.583733523861984, 68.739091008974455 ], [ 20.586252723056731, 68.739289389563538 ], [ 20.587048568326693, 68.739536482424597 ], [ 20.589471721281029, 68.739288168788207 ], [ 20.592798550653246, 68.73935576654398 ], [ 20.594420328242794, 68.738878405189269 ], [ 20.595181562071936, 68.738402993275685 ], [ 20.594591536445702, 68.737660227996244 ], [ 20.594281447443084, 68.736981358338923 ], [ 20.596316397403324, 68.738411286076129 ], [ 20.59977491493084, 68.738430007556019 ], [ 20.597446944765323, 68.739651033004691 ], [ 20.594473141514513, 68.740764443655621 ], [ 20.59259197477137, 68.740669431785136 ], [ 20.590025434333729, 68.73999155983455 ], [ 20.588573527783581, 68.740005686518103 ], [ 20.58794799208987, 68.740077328063137 ], [ 20.586776549107714, 68.74060479353345 ], [ 20.584828387268661, 68.740615053797029 ], [ 20.584731168456006, 68.740954781657734 ], [ 20.583759076645517, 68.741027157052557 ], [ 20.583198621939292, 68.740953167001692 ], [ 20.582962175534441, 68.740762083034255 ], [ 20.584573522494221, 68.740451401133939 ], [ 20.58473863256647, 68.740311929694698 ], [ 20.584587199816539, 68.739606112245127 ], [ 20.58231418867971, 68.739400647823885 ], [ 20.581840948962881, 68.739504042109488 ], [ 20.581709863609561, 68.740046937387433 ], [ 20.582186005246534, 68.741112103428108 ], [ 20.581693725811508, 68.74112594525495 ], [ 20.58112468313637, 68.740782501385226 ], [ 20.579628488002125, 68.740734923222121 ], [ 20.579024027556535, 68.741381114442746 ], [ 20.57853200822899, 68.741395028244199 ], [ 20.578189845402889, 68.740955340831448 ], [ 20.577205063372226, 68.74098309717661 ], [ 20.576827622114514, 68.741533041051426 ], [ 20.574592810835846, 68.74150611690655 ], [ 20.57442325399596, 68.741870542047636 ], [ 20.57343842604622, 68.741898276691842 ], [ 20.572604329855974, 68.741472475125491 ], [ 20.571619516819439, 68.741500199107691 ], [ 20.571184462477323, 68.741782119450505 ], [ 20.57150711286614, 68.742132552032359 ], [ 20.570768536182054, 68.7421533165342 ], [ 20.570654107410228, 68.741617276348649 ], [ 20.569157629085332, 68.741569613875754 ], [ 20.569042996584322, 68.741033580485762 ], [ 20.565842602927855, 68.741123700407826 ], [ 20.564497016425427, 68.740622292562577 ], [ 20.562754855538767, 68.740581500897036 ], [ 20.56193986750004, 68.740244932485609 ], [ 20.561844517313432, 68.739798172290691 ], [ 20.563018151594619, 68.739495548478999 ], [ 20.562922559963454, 68.7390488863266 ], [ 20.562165220418219, 68.738980325813586 ], [ 20.561596532282149, 68.738636814475939 ], [ 20.559153990658647, 68.738795272136528 ], [ 20.558320014883215, 68.738369316990884 ], [ 20.557297423537367, 68.738218479153602 ], [ 20.556673276529196, 68.73877522454795 ], [ 20.554931271475198, 68.738734351536309 ], [ 20.553511326061223, 68.739043847950725 ], [ 20.551542124236246, 68.739099148299886 ], [ 20.549270816482419, 68.740061620600059 ], [ 20.549365916176907, 68.740508389103383 ], [ 20.550368986894131, 68.740929638438558 ], [ 20.550527247329764, 68.74196327052347 ], [ 20.551695114343691, 68.74234390944028 ], [ 20.55425932083504, 68.742159521381453 ], [ 20.55402380655228, 68.742651451907165 ], [ 20.553040499687484, 68.742845330676303 ], [ 20.551527675403431, 68.742865366011145 ], [ 20.550330972200598, 68.742494492618818 ], [ 20.549961331868595, 68.742212800577803 ], [ 20.549946627611423, 68.741853746660453 ], [ 20.549734088880708, 68.741756334843672 ], [ 20.549140070013216, 68.741772974156859 ], [ 20.547985172665484, 68.742164784000551 ], [ 20.546754307424123, 68.742199454129704 ], [ 20.545929340583466, 68.742788753555146 ], [ 20.545531090710583, 68.742808850276674 ], [ 20.544926505009165, 68.74260119032482 ], [ 20.542717494788537, 68.742564266052355 ], [ 20.542610911062635, 68.742499816997196 ], [ 20.542733677616109, 68.74220429107045 ], [ 20.542656638322637, 68.741842425783204 ], [ 20.54218945362943, 68.741698284957266 ], [ 20.538363605981811, 68.741176274452457 ], [ 20.536488323171259, 68.740509790869112 ], [ 20.534729433220438, 68.740433172386602 ], [ 20.534587298992804, 68.74034729555764 ], [ 20.534686577444919, 68.739940054059659 ], [ 20.534544863647081, 68.739710351425174 ], [ 20.535730356700043, 68.739272725918823 ], [ 20.536051767153666, 68.738454932361236 ], [ 20.536922633646565, 68.737891267494632 ], [ 20.538834952296529, 68.737568104807949 ], [ 20.538948019930586, 68.736935777097059 ], [ 20.541598630603858, 68.736591869589006 ], [ 20.54201494503204, 68.736220742230742 ], [ 20.542507122875534, 68.736206926993376 ], [ 20.542356074788458, 68.736660514812499 ], [ 20.543151368233392, 68.736907906276159 ], [ 20.546843698615714, 68.736804382091776 ], [ 20.547639024011868, 68.737051662919725 ], [ 20.549096797033172, 68.736920874799978 ], [ 20.550119565336033, 68.737071933229856 ], [ 20.550157690523857, 68.737250583683931 ], [ 20.550896127447235, 68.737229909849333 ], [ 20.551085114622001, 68.736954876213744 ], [ 20.552031617158907, 68.736748622654233 ], [ 20.552221875734244, 68.737642066989196 ], [ 20.552809457577503, 68.73807489092907 ], [ 20.553832303452676, 68.738225926516151 ], [ 20.554797658561842, 68.738108945522455 ], [ 20.555687130466747, 68.73763455570149 ], [ 20.555610768369206, 68.737277168462299 ], [ 20.553147973060074, 68.736177958596784 ], [ 20.553090741709351, 68.735909939435089 ], [ 20.555475733296976, 68.735483463143083 ], [ 20.557027069807653, 68.734630983137649 ], [ 20.557158953725377, 68.734088006664166 ], [ 20.558862409677239, 68.73395021032907 ], [ 20.561548608024125, 68.732616440476718 ], [ 20.561130961045883, 68.73181922617961 ], [ 20.559747858221701, 68.731139129251972 ], [ 20.557741175746706, 68.731015760875465 ], [ 20.55706023781849, 68.731304570561946 ], [ 20.555583790329656, 68.731346056111093 ], [ 20.554504285229854, 68.730927091973697 ], [ 20.553481793941494, 68.730776148012623 ], [ 20.55227057591226, 68.73089995685342 ], [ 20.551721300930058, 68.730645690764959 ], [ 20.55098310502094, 68.730666456394545 ], [ 20.550812969035526, 68.731030778421598 ], [ 20.55007473713156, 68.731051450888472 ], [ 20.549260537873177, 68.730714810455837 ], [ 20.546818790008182, 68.730873175517289 ], [ 20.545796597367108, 68.730722176748529 ], [ 20.544016083968053, 68.729334062534036 ], [ 20.544279935629884, 68.728248142770823 ], [ 20.543219806808285, 68.727918386226335 ], [ 20.54085440584419, 68.728434058272143 ], [ 20.541707382707767, 68.73011777827719 ], [ 20.54085596444548, 68.730770837114335 ], [ 20.541159619017741, 68.732200352989963 ], [ 20.540440613717383, 68.732310346679753 ], [ 20.539645269919028, 68.732062949512184 ], [ 20.539531403734756, 68.731526892120272 ], [ 20.538755142595502, 68.731368951169713 ], [ 20.537032735956753, 68.73141717302363 ], [ 20.536654453528293, 68.731967031598899 ], [ 20.535670007581469, 68.731994544506378 ], [ 20.535593988740487, 68.731637146444399 ], [ 20.536313488881355, 68.731527157215083 ], [ 20.536729554481663, 68.731156050840269 ], [ 20.536596750854493, 68.730530619370839 ], [ 20.538319336047028, 68.730482394221156 ], [ 20.538754593933749, 68.730200557252189 ], [ 20.538942895746018, 68.728757239973774 ], [ 20.535459647259433, 68.727506723942568 ], [ 20.535137781108947, 68.727156218517933 ], [ 20.534645797457202, 68.727170011361878 ], [ 20.534456101570083, 68.726276550846507 ], [ 20.533661063003411, 68.726029213324836 ], [ 20.533282285322315, 68.725410676863476 ], [ 20.531995326948131, 68.725177029251981 ], [ 20.531900673933166, 68.724730337795648 ], [ 20.531181615156978, 68.724840299273311 ], [ 20.531200720949929, 68.72609797877216 ], [ 20.530065310218706, 68.726579125998626 ], [ 20.529894860395764, 68.726943428589948 ], [ 20.527283372040369, 68.727465796827317 ], [ 20.526374964430545, 68.727850657413953 ], [ 20.52082932965126, 68.728544729676784 ], [ 20.520658960610451, 68.728909015684593 ], [ 20.519504235656271, 68.729300719876093 ], [ 20.519939271005828, 68.730187329126849 ], [ 20.519466109142105, 68.73029027356931 ], [ 20.51952271815772, 68.730558492802373 ], [ 20.518103010557144, 68.730867594707576 ], [ 20.518367594076139, 68.732118491524773 ], [ 20.519143762669795, 68.732276615879684 ], [ 20.519238175885185, 68.732723226081049 ], [ 20.519749508745505, 68.732798932567206 ], [ 20.519825032591655, 68.733156346981175 ], [ 20.523270417398187, 68.733060137246312 ], [ 20.523857338875086, 68.733493154449036 ], [ 20.525447780231907, 68.733988005323937 ], [ 20.529253108815865, 68.734420943018236 ], [ 20.531733082467799, 68.734441403230221 ], [ 20.531771077356961, 68.734620147865797 ], [ 20.530578540090179, 68.734833264552051 ], [ 20.530635251871942, 68.735101300733334 ], [ 20.531146632612717, 68.735176793759365 ], [ 20.531033104605868, 68.735809125423572 ], [ 20.529101831098316, 68.736042827119832 ], [ 20.529196752703378, 68.736489601072421 ], [ 20.529973149623274, 68.736647674561084 ], [ 20.530048830391955, 68.737004994179131 ], [ 20.529575617104257, 68.737108145875482 ], [ 20.529670285398506, 68.737554838248656 ], [ 20.528704571071149, 68.737671684442844 ], [ 20.528325982091701, 68.738221525699487 ], [ 20.527189900730509, 68.73870265659022 ], [ 20.527890657808538, 68.739671635896102 ], [ 20.525940327579551, 68.73981610092153 ], [ 20.526356835048979, 68.740613228508607 ], [ 20.525428927380727, 68.740908802686064 ], [ 20.524160121252301, 68.740764472790374 ], [ 20.523478459251297, 68.73988485083305 ], [ 20.520505318296667, 68.739877855162433 ], [ 20.520543211964071, 68.740056513382228 ], [ 20.520050665091844, 68.740070183968911 ], [ 20.520372511264462, 68.740420807327354 ], [ 20.519179531518752, 68.740633756361916 ], [ 20.519065619458473, 68.741265992296249 ], [ 20.518383888483267, 68.741554739302998 ], [ 20.51667931966087, 68.741692050750501 ], [ 20.516755435572144, 68.740881156910973 ], [ 20.515240391036443, 68.74074354521359 ], [ 20.5128162373666, 68.740990889597811 ], [ 20.508782705248532, 68.74065373564126 ], [ 20.506416052607857, 68.740000631886232 ], [ 20.502572420920462, 68.739388430907439 ], [ 20.499826525311182, 68.739285027623126 ], [ 20.497024534555191, 68.738913343849603 ], [ 20.493805299477234, 68.73891290272266 ], [ 20.491741750300672, 68.738520710406533 ], [ 20.489261316021569, 68.738499576665916 ], [ 20.48871258404753, 68.738245192866998 ], [ 20.486919847, 68.738213875865952 ], [ 20.486919847, 68.745615462524867 ], [ 20.487753763245291, 68.74546140966963 ], [ 20.488663552218526, 68.745076750274762 ], [ 20.488797156418315, 68.744533819319301 ], [ 20.489479386932, 68.744245278560427 ], [ 20.490218099212036, 68.744224778918948 ], [ 20.492454728641071, 68.743084419949355 ], [ 20.492947339893842, 68.743070740019732 ], [ 20.493780010774142, 68.743497030327944 ], [ 20.494518693617913, 68.743476512052624 ], [ 20.495599166937474, 68.742727554430175 ], [ 20.497852890302976, 68.742844809193429 ], [ 20.498232308023074, 68.742295032290102 ], [ 20.49893346692663, 68.742095822940115 ], [ 20.500694533729497, 68.742226648054199 ], [ 20.501508658790804, 68.742563426188525 ], [ 20.503042391810819, 68.742790544663791 ], [ 20.503894339665752, 68.743305973746502 ], [ 20.504898251556732, 68.743368108202574 ], [ 20.5049735574569, 68.743725440714158 ], [ 20.504045233738832, 68.744020899569804 ], [ 20.503438485865651, 68.744666831369855 ], [ 20.504536392889122, 68.745175595470528 ], [ 20.507074528456158, 68.745464530643801 ], [ 20.507661450867126, 68.745897514354112 ], [ 20.506031858361947, 68.746392230085945 ], [ 20.503341972387158, 68.746556828557772 ], [ 20.500851040944944, 68.746154168950994 ], [ 20.500140475817954, 68.746645710839218 ], [ 20.500346431993563, 68.748796903880276 ], [ 20.49968309016624, 68.749174864747701 ], [ 20.497712591355771, 68.749229551556098 ], [ 20.497560551225877, 68.749683103784307 ], [ 20.496878262666261, 68.749971677319962 ], [ 20.493934572443077, 68.749963398961881 ], [ 20.492583890564589, 68.749461614556083 ], [ 20.491872453987302, 68.749494821675825 ], [ 20.491232861789278, 68.750015777125199 ], [ 20.490459430528436, 68.750064221268389 ], [ 20.489567431304692, 68.749239651860833 ], [ 20.48951871428941, 68.749110659366522 ], [ 20.490963370006657, 68.749133543575311 ], [ 20.491166587260278, 68.748804323690038 ], [ 20.491614418075052, 68.748769519140296 ], [ 20.492681869761348, 68.749162360860083 ], [ 20.493855910806111, 68.749075861119067 ], [ 20.49485282999618, 68.748589886405483 ], [ 20.496046695846346, 68.748377008519597 ], [ 20.49663488616773, 68.74764172503572 ], [ 20.497354852582177, 68.747531906205509 ], [ 20.497223038485707, 68.746906439662283 ], [ 20.49614385261264, 68.746487101939493 ], [ 20.495139844410318, 68.74642500539936 ], [ 20.494060698857364, 68.74600556480182 ], [ 20.492109314002576, 68.746149562283364 ], [ 20.491180717258761, 68.746444951840232 ], [ 20.489473840274982, 68.747750388973287 ], [ 20.488242516315221, 68.747784456848009 ], [ 20.486919847, 68.748267281882121 ], [ 20.486919847, 68.770776170792331 ], [ 20.487143503235721, 68.770821709167791 ] ], [ [ 20.601345231050864, 68.734453178873764 ], [ 20.602055047910326, 68.73274774668748 ], [ 20.603573703918279, 68.732327162091849 ], [ 20.603250699539224, 68.73197679228403 ], [ 20.601489639379306, 68.731847041717785 ], [ 20.601451337546266, 68.731668307412036 ], [ 20.603439018948713, 68.731701792853642 ], [ 20.604577307138484, 68.73238843847021 ], [ 20.606111349096253, 68.732614620877172 ], [ 20.606456922039982, 68.732896914843749 ], [ 20.606479886966763, 68.733246804607987 ], [ 20.605926391745186, 68.733693960337106 ], [ 20.604541484348193, 68.733773693508084 ], [ 20.604249848580853, 68.734172997720208 ], [ 20.601345231050864, 68.734453178873764 ] ], [ [ 20.532646508428666, 68.746908426163628 ], [ 20.533290744755863, 68.747609353246787 ], [ 20.532078541865292, 68.747733200939095 ], [ 20.531453080311994, 68.747121560100965 ], [ 20.532646508428666, 68.746908426163628 ] ], [ [ 20.575429264637076, 68.751189556623714 ], [ 20.576660842039008, 68.751154756825244 ], [ 20.576983719523241, 68.751505177655886 ], [ 20.575486810674082, 68.751457566426524 ], [ 20.575429264637076, 68.751189556623714 ] ], [ [ 20.557923259735087, 68.751592505407928 ], [ 20.557789695992557, 68.750967005706286 ], [ 20.558774969706231, 68.750939449346816 ], [ 20.561086907352706, 68.751323701952415 ], [ 20.562244107821623, 68.752100179738576 ], [ 20.564157260431912, 68.751776726930856 ], [ 20.564840926659151, 68.75265626368784 ], [ 20.562965969025953, 68.753158371269137 ], [ 20.560029306689326, 68.753330725805853 ], [ 20.559574795561563, 68.753523428079433 ], [ 20.559082225569774, 68.753537205530861 ], [ 20.558513204462329, 68.75319368574813 ], [ 20.55559563437081, 68.753455421468999 ], [ 20.554894637506173, 68.753654864655175 ], [ 20.554762846437189, 68.754197831439356 ], [ 20.554080925756452, 68.754486640485837 ], [ 20.553341942996227, 68.754507420269519 ], [ 20.553019390571144, 68.75415695281221 ], [ 20.552242219015543, 68.753998989093304 ], [ 20.55127466742368, 68.752947578019914 ], [ 20.553567630114586, 68.753242741912914 ], [ 20.554780274825692, 68.753118820639401 ], [ 20.554419529928104, 68.752589706897481 ], [ 20.555120251855332, 68.752390273901185 ], [ 20.554417848986375, 68.751421237533847 ], [ 20.555630658333701, 68.751297391839302 ], [ 20.556976209648084, 68.75179888384119 ], [ 20.557923259735087, 68.751592505407928 ] ], [ [ 20.54549723718134, 68.754907170655827 ], [ 20.544208460313289, 68.7546737147443 ], [ 20.544170325475751, 68.754494973795261 ], [ 20.544663151322013, 68.754481142243833 ], [ 20.54549723718134, 68.754907170655827 ] ], [ [ 20.539058419607581, 68.760749566823392 ], [ 20.539428534880802, 68.761251491004529 ], [ 20.538489909269803, 68.761295751654316 ], [ 20.538311360588619, 68.761183888531306 ], [ 20.538282509308459, 68.7608162125983 ], [ 20.539058419607581, 68.760749566823392 ] ] ] ] } }
]
}
