{
"type": "FeatureCollection",
"name": "innsjo_tile_id_971",
"crs": { "type": "name", "properties": { "name": "urn:ogc:def:crs:OGC:1.3:CRS84" } },
"xy_coordinate_resolution": 1e-15,
"features": [
{ "type": "Feature", "properties": { "fid": 15235, "navn": null, "hoyde_moh": null, "arealInnsjo_km2": 0.0147, "magasinKategori": null, "fid_2": 971, "id": 971, "left": 15.986919847, "top": 69.446110046000001, "right": 16.486919847, "bottom": 68.946110046000001, "row_index": 10, "col_index": 24, "tile_id": 971 }, "geometry": { "type": "MultiPolygon", "coordinates": [ [ [ [ 16.063517060340587, 69.293010230948155 ], [ 16.063447909046616, 69.292633953760387 ], [ 16.064268344542317, 69.292314902150963 ], [ 16.062592740604497, 69.291733238063046 ], [ 16.062092622637667, 69.291870844577218 ], [ 16.061850252640024, 69.292096648962286 ], [ 16.061792946393453, 69.292473702562148 ], [ 16.060395794103851, 69.292930723499438 ], [ 16.06040456771882, 69.293110051567652 ], [ 16.060847146694311, 69.293349504734977 ], [ 16.062314068822456, 69.293286602522201 ], [ 16.063517060340587, 69.293010230948155 ] ] ] ] } },
{ "type": "Feature", "properties": { "fid": 15367, "navn": null, "hoyde_moh": null, "arealInnsjo_km2": 0.0037, "magasinKategori": null, "fid_2": 971, "id": 971, "left": 15.986919847, "top": 69.446110046000001, "right": 16.486919847, "bottom": 68.946110046000001, "row_index": 10, "col_index": 24, "tile_id": 971 }, "geometry": { "type": "MultiPolygon", "coordinates": [ [ [ [ 16.066041291735672, 69.293317678110853 ], [ 16.066738814303054, 69.293071124661466 ], [ 16.066731312193632, 69.292918696115947 ], [ 16.065724013836171, 69.293050469379565 ], [ 16.065405652628332, 69.293276657079147 ], [ 16.064966990002848, 69.29311791312071 ], [ 16.064354259718073, 69.29354323016625 ], [ 16.064537600904519, 69.29365870083889 ], [ 16.065290612477305, 69.293519530972219 ], [ 16.065474840032074, 69.293652933425122 ], [ 16.066041291735672, 69.293317678110853 ] ] ] ] } },
{ "type": "Feature", "properties": { "fid": 15377, "navn": "Øvre-Langvatnet", "hoyde_moh": null, "arealInnsjo_km2": 0.0152, "magasinKategori": null, "fid_2": 971, "id": 971, "left": 15.986919847, "top": 69.446110046000001, "right": 16.486919847, "bottom": 68.946110046000001, "row_index": 10, "col_index": 24, "tile_id": 971 }, "geometry": { "type": "MultiPolygon", "coordinates": [ [ [ [ 16.081484565441741, 69.278243301369358 ], [ 16.081474730353559, 69.278046041508816 ], [ 16.080169605597931, 69.277776153443952 ], [ 16.079004378454023, 69.277263126317138 ], [ 16.077722872115636, 69.276957285943993 ], [ 16.076711930936611, 69.276999458974672 ], [ 16.077487570516453, 69.277828669326993 ], [ 16.080152454665797, 69.278448946777061 ], [ 16.081484565441741, 69.278243301369358 ] ] ] ] } },
{ "type": "Feature", "properties": { "fid": 15378, "navn": "Kobbevatnet", "hoyde_moh": null, "arealInnsjo_km2": 0.0243, "magasinKategori": null, "fid_2": 971, "id": 971, "left": 15.986919847, "top": 69.446110046000001, "right": 16.486919847, "bottom": 68.946110046000001, "row_index": 10, "col_index": 24, "tile_id": 971 }, "geometry": { "type": "MultiPolygon", "coordinates": [ [ [ [ 16.171077064805385, 69.277462566344497 ], [ 16.171134138835999, 69.277112374837074 ], [ 16.169309053084699, 69.276613470334084 ], [ 16.169778154976314, 69.275919567834961 ], [ 16.169593696506094, 69.275786364720318 ], [ 16.168191896431892, 69.275625421495235 ], [ 16.167067181071335, 69.276368501922917 ], [ 16.167330474130587, 69.276554991690162 ], [ 16.167139522621419, 69.276771634552006 ], [ 16.167531825226405, 69.277002189837205 ], [ 16.167528477475788, 69.277405833262549 ], [ 16.170495563839321, 69.277950848060442 ], [ 16.171077064805385, 69.277462566344497 ] ] ] ] } },
{ "type": "Feature", "properties": { "fid": 15495, "navn": null, "hoyde_moh": null, "arealInnsjo_km2": 0.0058, "magasinKategori": null, "fid_2": 971, "id": 971, "left": 15.986919847, "top": 69.446110046000001, "right": 16.486919847, "bottom": 68.946110046000001, "row_index": 10, "col_index": 24, "tile_id": 971 }, "geometry": { "type": "MultiPolygon", "coordinates": [ [ [ [ 15.988424808910249, 69.171315520148866 ], [ 15.989035603282904, 69.170890467825402 ], [ 15.987918875090127, 69.170717495563252 ], [ 15.987275815009941, 69.170981285688541 ], [ 15.987333263712468, 69.171142489185584 ], [ 15.986919847, 69.17125980526454 ], [ 15.986919847, 69.171605689366459 ], [ 15.988424808910249, 69.171315520148866 ] ] ] ] } },
{ "type": "Feature", "properties": { "fid": 15499, "navn": null, "hoyde_moh": null, "arealInnsjo_km2": 0.0151, "magasinKategori": null, "fid_2": 971, "id": 971, "left": 15.986919847, "top": 69.446110046000001, "right": 16.486919847, "bottom": 68.946110046000001, "row_index": 10, "col_index": 24, "tile_id": 971 }, "geometry": { "type": "MultiPolygon", "coordinates": [ [ [ [ 15.988329347057057, 69.168652255585954 ], [ 15.990033209564608, 69.168427211445291 ], [ 15.990152565222614, 69.168291989207546 ], [ 15.989793767024498, 69.168159515662836 ], [ 15.989787665157454, 69.168025014681305 ], [ 15.990230947837352, 69.167798149939387 ], [ 15.990224843391202, 69.167663648969906 ], [ 15.988901458470401, 69.167375363728766 ], [ 15.987290822298677, 69.167420481296404 ], [ 15.987002720150308, 69.16773605001535 ], [ 15.987014889446328, 69.168005052210745 ], [ 15.987577615335617, 69.168746258588229 ], [ 15.988035152469985, 69.16883332495847 ], [ 15.988329347057057, 69.168652255585954 ] ] ] ] } },
{ "type": "Feature", "properties": { "fid": 15560, "navn": "Nøkkevatnet", "hoyde_moh": null, "arealInnsjo_km2": 0.0036, "magasinKategori": null, "fid_2": 971, "id": 971, "left": 15.986919847, "top": 69.446110046000001, "right": 16.486919847, "bottom": 68.946110046000001, "row_index": 10, "col_index": 24, "tile_id": 971 }, "geometry": { "type": "MultiPolygon", "coordinates": [ [ [ [ 16.456099612595981, 68.993539840056911 ], [ 16.455156678776024, 68.993269782958848 ], [ 16.45478778438796, 68.993362625311548 ], [ 16.454605656773246, 68.99363337621206 ], [ 16.454723370491664, 68.993901307665155 ], [ 16.454978002818109, 68.993970994573658 ], [ 16.455654475987608, 68.993992149571554 ], [ 16.456003652412569, 68.993827889430065 ], [ 16.456099612595981, 68.993539840056911 ] ] ] ] } },
{ "type": "Feature", "properties": { "fid": 30753, "navn": "Nedre Æråsvatnet", "hoyde_moh": 35, "arealInnsjo_km2": 0.209, "magasinKategori": null, "fid_2": 971, "id": 971, "left": 15.986919847, "top": 69.446110046000001, "right": 16.486919847, "bottom": 68.946110046000001, "row_index": 10, "col_index": 24, "tile_id": 971 }, "geometry": { "type": "MultiPolygon", "coordinates": [ [ [ [ 16.055488619083132, 69.264501782221899 ], [ 16.056252090285941, 69.264066601693372 ], [ 16.056341077266939, 69.262774505756923 ], [ 16.055907472768631, 69.26166498500254 ], [ 16.055179039438993, 69.260736645637124 ], [ 16.053897103702152, 69.260394761217867 ], [ 16.0501024044136, 69.259897559888856 ], [ 16.04808329541957, 69.260008475476624 ], [ 16.046807561967675, 69.259791979291677 ], [ 16.046689283426634, 69.259963108421687 ], [ 16.047135790016064, 69.260301229518404 ], [ 16.045559409031416, 69.261718919966583 ], [ 16.045208308364231, 69.262842179576452 ], [ 16.045419105925486, 69.263020286632113 ], [ 16.044910454502052, 69.263489664966954 ], [ 16.045046899889662, 69.263695218855219 ], [ 16.046156959295963, 69.26414592808139 ], [ 16.048802191856545, 69.264937118087374 ], [ 16.050940336663022, 69.265184236885375 ], [ 16.055488619083132, 69.264501782221899 ] ] ] ] } },
{ "type": "Feature", "properties": { "fid": 31013, "navn": "Nedre Tindvatnet", "hoyde_moh": 198, "arealInnsjo_km2": 0.0426, "magasinKategori": null, "fid_2": 971, "id": 971, "left": 15.986919847, "top": 69.446110046000001, "right": 16.486919847, "bottom": 68.946110046000001, "row_index": 10, "col_index": 24, "tile_id": 971 }, "geometry": { "type": "MultiPolygon", "coordinates": [ [ [ [ 15.98726937186699, 69.215943115740941 ], [ 15.989551045881374, 69.216136332566535 ], [ 15.98999775897158, 69.215963358631171 ], [ 15.989983478596567, 69.215649435112866 ], [ 15.989670067480883, 69.215427097246817 ], [ 15.987836245099659, 69.215078845496294 ], [ 15.986919847, 69.214995258203103 ], [ 15.986919847, 69.216039377558786 ], [ 15.98726937186699, 69.215943115740941 ] ] ] ] } },
{ "type": "Feature", "properties": { "fid": 31014, "navn": "Brattheivatnet", "hoyde_moh": 106, "arealInnsjo_km2": 0.0803, "magasinKategori": null, "fid_2": 971, "id": 971, "left": 15.986919847, "top": 69.446110046000001, "right": 16.486919847, "bottom": 68.946110046000001, "row_index": 10, "col_index": 24, "tile_id": 971 }, "geometry": { "type": "MultiPolygon", "coordinates": [ [ [ [ 16.028932110126789, 69.221134966923728 ], [ 16.029531419231247, 69.219920564350431 ], [ 16.028250848005555, 69.219542528290802 ], [ 16.028051380371195, 69.219068354600822 ], [ 16.027553825522787, 69.218694616074345 ], [ 16.02414195694389, 69.218113880638029 ], [ 16.021871144980569, 69.218163309353244 ], [ 16.021305964787928, 69.218498511512024 ], [ 16.021299652708517, 69.218902157618331 ], [ 16.021005893656465, 69.219101126102416 ], [ 16.021067760981904, 69.219343014949686 ], [ 16.021752088109441, 69.219930923887844 ], [ 16.023287456163342, 69.220352342446688 ], [ 16.0252472099328, 69.221201653489075 ], [ 16.028932110126789, 69.221134966923728 ] ] ] ] } },
{ "type": "Feature", "properties": { "fid": 31089, "navn": "Nattmålsvatnet", "hoyde_moh": 160, "arealInnsjo_km2": 0.3165, "magasinKategori": null, "fid_2": 971, "id": 971, "left": 15.986919847, "top": 69.446110046000001, "right": 16.486919847, "bottom": 68.946110046000001, "row_index": 10, "col_index": 24, "tile_id": 971 }, "geometry": { "type": "MultiPolygon", "coordinates": [ [ [ [ 15.992319632747421, 69.228668001320003 ], [ 15.994671343547452, 69.228152291584266 ], [ 15.995289759219304, 69.227861718485926 ], [ 15.995357336504272, 69.227681948430757 ], [ 15.996628406153077, 69.22729791560532 ], [ 15.997492385759379, 69.22685344292475 ], [ 15.998496363421431, 69.226157023147309 ], [ 15.998756925540476, 69.225778816452205 ], [ 15.997559308908999, 69.225552547318429 ], [ 15.996552184798835, 69.225082916889306 ], [ 15.996538632780078, 69.224787106970169 ], [ 15.997547650993901, 69.223651091012286 ], [ 15.996918484712317, 69.223152550397174 ], [ 15.996285030168762, 69.223111363066508 ], [ 15.99584336414995, 69.222844841247721 ], [ 15.995827767036884, 69.222504108227994 ], [ 15.997211876026988, 69.222388487954802 ], [ 15.99746337144315, 69.221813016648568 ], [ 15.997328878055324, 69.221634413309516 ], [ 15.995692457886543, 69.222307480636104 ], [ 15.994057436608273, 69.222460499880853 ], [ 15.989329854616649, 69.223492194459467 ], [ 15.986919847, 69.223836263341241 ], [ 15.986919847, 69.228288248951742 ], [ 15.98968254313157, 69.228467973470089 ], [ 15.990630725262754, 69.228758512198681 ], [ 15.992319632747421, 69.228668001320003 ] ] ] ] } },
{ "type": "Feature", "properties": { "fid": 41131, "navn": null, "hoyde_moh": null, "arealInnsjo_km2": 0.004, "magasinKategori": null, "fid_2": 971, "id": 971, "left": 15.986919847, "top": 69.446110046000001, "right": 16.486919847, "bottom": 68.946110046000001, "row_index": 10, "col_index": 24, "tile_id": 971 }, "geometry": { "type": "MultiPolygon", "coordinates": [ [ [ [ 16.073577931381323, 69.274570366371009 ], [ 16.072500939688965, 69.274298826207669 ], [ 16.072177171313783, 69.274408642828647 ], [ 16.071918640703483, 69.274813856547453 ], [ 16.072385840079871, 69.275044067960678 ], [ 16.073018740353056, 69.275040231979105 ], [ 16.0735661801227, 69.27483951347746 ], [ 16.073577931381323, 69.274570366371009 ] ] ] ] } },
{ "type": "Feature", "properties": { "fid": 42771, "navn": "Blomvatnet", "hoyde_moh": null, "arealInnsjo_km2": 0.0069, "magasinKategori": null, "fid_2": 971, "id": 971, "left": 15.986919847, "top": 69.446110046000001, "right": 16.486919847, "bottom": 68.946110046000001, "row_index": 10, "col_index": 24, "tile_id": 971 }, "geometry": { "type": "MultiPolygon", "coordinates": [ [ [ [ 16.118380477897226, 69.268788286790212 ], [ 16.118447160342456, 69.268608470537345 ], [ 16.11780660588628, 69.268460046188792 ], [ 16.115602405584376, 69.269407173294766 ], [ 16.11524074294277, 69.269759306696145 ], [ 16.115299403311543, 69.26992037458983 ], [ 16.115679041151662, 69.269917835683501 ], [ 16.118380477897226, 69.268788286790212 ] ] ] ] } },
{ "type": "Feature", "properties": { "fid": 42776, "navn": null, "hoyde_moh": null, "arealInnsjo_km2": 0.003, "magasinKategori": null, "fid_2": 971, "id": 971, "left": 15.986919847, "top": 69.446110046000001, "right": 16.486919847, "bottom": 68.946110046000001, "row_index": 10, "col_index": 24, "tile_id": 971 }, "geometry": { "type": "MultiPolygon", "coordinates": [ [ [ [ 16.099250520873436, 69.295459766325322 ], [ 16.099392550520864, 69.295261542371207 ], [ 16.099133701174964, 69.295155556278019 ], [ 16.097588923349889, 69.29518329780295 ], [ 16.098696234761405, 69.295526069966044 ], [ 16.099194058324798, 69.295845799415929 ], [ 16.099646536777779, 69.295771171887353 ], [ 16.099250520873436, 69.295459766325322 ] ] ] ] } },
{ "type": "Feature", "properties": { "fid": 42777, "navn": null, "hoyde_moh": null, "arealInnsjo_km2": 0.0029, "magasinKategori": null, "fid_2": 971, "id": 971, "left": 15.986919847, "top": 69.446110046000001, "right": 16.486919847, "bottom": 68.946110046000001, "row_index": 10, "col_index": 24, "tile_id": 971 }, "geometry": { "type": "MultiPolygon", "coordinates": [ [ [ [ 16.067531394546986, 69.295783966186789 ], [ 16.066804913498697, 69.295958768627656 ], [ 16.06743560996528, 69.296412394175576 ], [ 16.067923709476663, 69.296543830255786 ], [ 16.068574174291971, 69.296369402804388 ], [ 16.067531394546986, 69.295783966186789 ] ] ] ] } },
{ "type": "Feature", "properties": { "fid": 42828, "navn": null, "hoyde_moh": null, "arealInnsjo_km2": 0.0089, "magasinKategori": null, "fid_2": 971, "id": 971, "left": 15.986919847, "top": 69.446110046000001, "right": 16.486919847, "bottom": 68.946110046000001, "row_index": 10, "col_index": 24, "tile_id": 971 }, "geometry": { "type": "MultiPolygon", "coordinates": [ [ [ [ 16.10203005300378, 69.279835702227047 ], [ 16.101873115196899, 69.279738040858547 ], [ 16.10219500322788, 69.279592572601459 ], [ 16.103255080357439, 69.278025083836354 ], [ 16.102847240106922, 69.277973869612993 ], [ 16.102651980823698, 69.278118621730883 ], [ 16.101801520679025, 69.279325913872242 ], [ 16.101052540568535, 69.280039249557319 ], [ 16.101109726648172, 69.280666729130658 ], [ 16.101367677910925, 69.281257053750707 ], [ 16.101653061137267, 69.281389774426444 ], [ 16.10203005300378, 69.279835702227047 ] ] ] ] } },
{ "type": "Feature", "properties": { "fid": 42984, "navn": null, "hoyde_moh": null, "arealInnsjo_km2": 0.0061, "magasinKategori": null, "fid_2": 971, "id": 971, "left": 15.986919847, "top": 69.446110046000001, "right": 16.486919847, "bottom": 68.946110046000001, "row_index": 10, "col_index": 24, "tile_id": 971 }, "geometry": { "type": "MultiPolygon", "coordinates": [ [ [ [ 16.028839648415914, 69.162010945622242 ], [ 16.028976811811315, 69.161714233443234 ], [ 16.028087740096868, 69.161558010139572 ], [ 16.028282034365372, 69.161404374184897 ], [ 16.026958529053886, 69.161116381324987 ], [ 16.026641007653907, 69.161333534670774 ], [ 16.026702173301551, 69.161557398751725 ], [ 16.027464463112651, 69.161696357796771 ], [ 16.027961972966889, 69.162096910391696 ], [ 16.028519430846703, 69.162165424150814 ], [ 16.029168084844297, 69.162565070454306 ], [ 16.029419945796558, 69.162563654500204 ], [ 16.02941063667333, 69.162366299002031 ], [ 16.028839648415914, 69.162010945622242 ] ] ] ] } },
{ "type": "Feature", "properties": { "fid": 43145, "navn": null, "hoyde_moh": null, "arealInnsjo_km2": 0.0061, "magasinKategori": null, "fid_2": 971, "id": 971, "left": 15.986919847, "top": 69.446110046000001, "right": 16.486919847, "bottom": 68.946110046000001, "row_index": 10, "col_index": 24, "tile_id": 971 }, "geometry": { "type": "MultiPolygon", "coordinates": [ [ [ [ 15.999279897756862, 69.220663440677725 ], [ 15.997779270416512, 69.220438928628525 ], [ 15.996832806301841, 69.220731407305649 ], [ 15.996819877495151, 69.22100055290268 ], [ 15.99728594558373, 69.22124890338749 ], [ 15.99816901507155, 69.22122603938098 ], [ 15.999279897756862, 69.220663440677725 ] ] ] ] } },
{ "type": "Feature", "properties": { "fid": 43146, "navn": null, "hoyde_moh": null, "arealInnsjo_km2": 0.0059, "magasinKategori": null, "fid_2": 971, "id": 971, "left": 15.986919847, "top": 69.446110046000001, "right": 16.486919847, "bottom": 68.946110046000001, "row_index": 10, "col_index": 24, "tile_id": 971 }, "geometry": { "type": "MultiPolygon", "coordinates": [ [ [ [ 16.067941533341568, 69.223848833284123 ], [ 16.066929962016765, 69.223828182038318 ], [ 16.064964751180373, 69.224459192155535 ], [ 16.0650473600544, 69.224593219978743 ], [ 16.066804807894755, 69.224367106165886 ], [ 16.067009315022098, 69.224930900014101 ], [ 16.067259686473868, 69.224884416473571 ], [ 16.067941533341568, 69.223848833284123 ] ] ] ] } },
{ "type": "Feature", "properties": { "fid": 43161, "navn": null, "hoyde_moh": null, "arealInnsjo_km2": 0.0057, "magasinKategori": null, "fid_2": 971, "id": 971, "left": 15.986919847, "top": 69.446110046000001, "right": 16.486919847, "bottom": 68.946110046000001, "row_index": 10, "col_index": 24, "tile_id": 971 }, "geometry": { "type": "MultiPolygon", "coordinates": [ [ [ [ 16.053079101938394, 69.212217475789387 ], [ 16.052948120440998, 69.212119704256438 ], [ 16.05355922222277, 69.211703302279119 ], [ 16.052526116788275, 69.21122527412102 ], [ 16.051889328682069, 69.211632770207004 ], [ 16.051612092764636, 69.211643339909074 ], [ 16.052048042379159, 69.212304489013633 ], [ 16.052383571522345, 69.212454918169342 ], [ 16.053079101938394, 69.212217475789387 ] ], [ [ 16.052334585978496, 69.211441702367409 ], [ 16.052743657755883, 69.211546746664197 ], [ 16.052720588149953, 69.211591822922855 ], [ 16.052186605501198, 69.211514447952268 ], [ 16.052334585978496, 69.211441702367409 ] ] ] ] } },
{ "type": "Feature", "properties": { "fid": 43162, "navn": null, "hoyde_moh": null, "arealInnsjo_km2": 0.0058, "magasinKategori": null, "fid_2": 971, "id": 971, "left": 15.986919847, "top": 69.446110046000001, "right": 16.486919847, "bottom": 68.946110046000001, "row_index": 10, "col_index": 24, "tile_id": 971 }, "geometry": { "type": "MultiPolygon", "coordinates": [ [ [ [ 16.046571497116375, 69.214463396727652 ], [ 16.047011687028654, 69.214164833955607 ], [ 16.046317133949337, 69.213899973343956 ], [ 16.045709532442626, 69.213867780639703 ], [ 16.04425449973207, 69.214594124636037 ], [ 16.044310584411591, 69.214710383937387 ], [ 16.046571497116375, 69.214463396727652 ] ] ] ] } },
{ "type": "Feature", "properties": { "fid": 43227, "navn": null, "hoyde_moh": null, "arealInnsjo_km2": 0.0132, "magasinKategori": null, "fid_2": 971, "id": 971, "left": 15.986919847, "top": 69.446110046000001, "right": 16.486919847, "bottom": 68.946110046000001, "row_index": 10, "col_index": 24, "tile_id": 971 }, "geometry": { "type": "MultiPolygon", "coordinates": [ [ [ [ 16.022674820999288, 69.187968550643888 ], [ 16.023102338998925, 69.187409838307403 ], [ 16.022734441955034, 69.187089133609149 ], [ 16.023163460411556, 69.186557409116489 ], [ 16.02226711604467, 69.186266837053566 ], [ 16.021833036924903, 69.186690959853195 ], [ 16.020833731530292, 69.186894202473482 ], [ 16.020655135144988, 69.186850414683306 ], [ 16.020511009342346, 69.18646550656841 ], [ 16.020330322594805, 69.18637697495933 ], [ 16.020134907316958, 69.186512578811246 ], [ 16.020516447287157, 69.187120309386813 ], [ 16.021604859611038, 69.18774169915396 ], [ 16.021672102310138, 69.188100065170673 ], [ 16.022674820999288, 69.187968550643888 ] ] ] ] } },
{ "type": "Feature", "properties": { "fid": 43249, "navn": null, "hoyde_moh": null, "arealInnsjo_km2": 0.0099, "magasinKategori": null, "fid_2": 971, "id": 971, "left": 15.986919847, "top": 69.446110046000001, "right": 16.486919847, "bottom": 68.946110046000001, "row_index": 10, "col_index": 24, "tile_id": 971 }, "geometry": { "type": "MultiPolygon", "coordinates": [ [ [ [ 16.070357258402247, 69.22929609946064 ], [ 16.069683418672984, 69.228959447469649 ], [ 16.069946492797239, 69.228661834290236 ], [ 16.069630372980388, 69.228394718040661 ], [ 16.068795419444292, 69.228372982137245 ], [ 16.068727566040103, 69.228534847382718 ], [ 16.068222959644803, 69.228555909039073 ], [ 16.068113188515735, 69.228888268303791 ], [ 16.06705218259161, 69.228894919613296 ], [ 16.067176115407605, 69.229360640073537 ], [ 16.067358675347062, 69.22947611063573 ], [ 16.067989360918897, 69.229454181983868 ], [ 16.068109069029713, 69.229318903774953 ], [ 16.067976150792283, 69.229185188542232 ], [ 16.068293555958192, 69.228959084971876 ], [ 16.068673811104006, 69.228983638889332 ], [ 16.068682623475098, 69.229162967815 ], [ 16.068436606706829, 69.229299028241314 ], [ 16.068678065807774, 69.229584457501488 ], [ 16.070357258402247, 69.22929609946064 ] ] ] ] } },
{ "type": "Feature", "properties": { "fid": 43257, "navn": null, "hoyde_moh": null, "arealInnsjo_km2": 0.0031, "magasinKategori": null, "fid_2": 971, "id": 971, "left": 15.986919847, "top": 69.446110046000001, "right": 16.486919847, "bottom": 68.946110046000001, "row_index": 10, "col_index": 24, "tile_id": 971 }, "geometry": { "type": "MultiPolygon", "coordinates": [ [ [ [ 16.087386614814605, 69.242383377369976 ], [ 16.086873603482452, 69.241731854717344 ], [ 16.08624616211155, 69.241825494014364 ], [ 16.086299417502559, 69.242390128954668 ], [ 16.086611968980126, 69.242567546899906 ], [ 16.087318856926579, 69.242545249569943 ], [ 16.087386614814605, 69.242383377369976 ] ] ] ] } },
{ "type": "Feature", "properties": { "fid": 43258, "navn": null, "hoyde_moh": null, "arealInnsjo_km2": 0.0037, "magasinKategori": null, "fid_2": 971, "id": 971, "left": 15.986919847, "top": 69.446110046000001, "right": 16.486919847, "bottom": 68.946110046000001, "row_index": 10, "col_index": 24, "tile_id": 971 }, "geometry": { "type": "MultiPolygon", "coordinates": [ [ [ [ 16.076509379285739, 69.24484619523713 ], [ 16.076647295025722, 69.244567380919307 ], [ 16.076463922890092, 69.244433986148209 ], [ 16.075507205046542, 69.244529547775883 ], [ 16.075265752025839, 69.244755370000433 ], [ 16.076094710614356, 69.245153820621496 ], [ 16.076930903604289, 69.245105736742588 ], [ 16.076509379285739, 69.24484619523713 ] ] ] ] } },
{ "type": "Feature", "properties": { "fid": 61853, "navn": null, "hoyde_moh": null, "arealInnsjo_km2": 0.0039, "magasinKategori": null, "fid_2": 971, "id": 971, "left": 15.986919847, "top": 69.446110046000001, "right": 16.486919847, "bottom": 68.946110046000001, "row_index": 10, "col_index": 24, "tile_id": 971 }, "geometry": { "type": "MultiPolygon", "coordinates": [ [ [ [ 16.038378670354362, 69.212647411992521 ], [ 16.038701269422489, 69.212528781642192 ], [ 16.03953858785701, 69.212613519186434 ], [ 16.038910917315501, 69.212159874741772 ], [ 16.037272264498327, 69.212214670530756 ], [ 16.037863966032234, 69.212444219358872 ], [ 16.037451497321015, 69.21279649611003 ], [ 16.03829223450283, 69.212952792786751 ], [ 16.038378670354362, 69.212647411992521 ] ] ] ] } },
{ "type": "Feature", "properties": { "fid": 61854, "navn": null, "hoyde_moh": null, "arealInnsjo_km2": 0.0145, "magasinKategori": null, "fid_2": 971, "id": 971, "left": 15.986919847, "top": 69.446110046000001, "right": 16.486919847, "bottom": 68.946110046000001, "row_index": 10, "col_index": 24, "tile_id": 971 }, "geometry": { "type": "MultiPolygon", "coordinates": [ [ [ [ 16.058337861782963, 69.217028644202486 ], [ 16.058141066686879, 69.216617269640039 ], [ 16.057272615630499, 69.216416302591881 ], [ 16.056750868471706, 69.216598882083915 ], [ 16.056513006732281, 69.216896320996469 ], [ 16.057272236113903, 69.21796796981188 ], [ 16.059097185635306, 69.218100284888465 ], [ 16.060323588885197, 69.218388735634576 ], [ 16.058337861782963, 69.217028644202486 ] ] ] ] } },
{ "type": "Feature", "properties": { "fid": 61965, "navn": null, "hoyde_moh": null, "arealInnsjo_km2": 0.004, "magasinKategori": null, "fid_2": 971, "id": 971, "left": 15.986919847, "top": 69.446110046000001, "right": 16.486919847, "bottom": 68.946110046000001, "row_index": 10, "col_index": 24, "tile_id": 971 }, "geometry": { "type": "MultiPolygon", "coordinates": [ [ [ [ 16.085485731765477, 69.173430816480519 ], [ 16.083887136841984, 69.173216741219491 ], [ 16.08268121571497, 69.173296079460201 ], [ 16.083375358065449, 69.173569762121431 ], [ 16.085397438920488, 69.173682602033395 ], [ 16.085485731765477, 69.173430816480519 ] ] ] ] } },
{ "type": "Feature", "properties": { "fid": 61976, "navn": null, "hoyde_moh": null, "arealInnsjo_km2": 0.0042, "magasinKategori": null, "fid_2": 971, "id": 971, "left": 15.986919847, "top": 69.446110046000001, "right": 16.486919847, "bottom": 68.946110046000001, "row_index": 10, "col_index": 24, "tile_id": 971 }, "geometry": { "type": "MultiPolygon", "coordinates": [ [ [ [ 15.992376109487189, 69.156789798049374 ], [ 15.990788592178601, 69.156772035400849 ], [ 15.990853955393117, 69.156547432079577 ], [ 15.990468133458288, 69.156370270825946 ], [ 15.989416311802282, 69.156501886865087 ], [ 15.989902031116504, 69.156660537840224 ], [ 15.990276871351034, 69.156595598302559 ], [ 15.990412936834581, 69.156819042568159 ], [ 15.990665544093936, 69.15683552716942 ], [ 15.990677751563728, 69.157104529411683 ], [ 15.991117208874437, 69.15735322381623 ], [ 15.992376109487189, 69.156789798049374 ] ] ] ] } },
{ "type": "Feature", "properties": { "fid": 61981, "navn": null, "hoyde_moh": null, "arealInnsjo_km2": 0.0107, "magasinKategori": null, "fid_2": 971, "id": 971, "left": 15.986919847, "top": 69.446110046000001, "right": 16.486919847, "bottom": 68.946110046000001, "row_index": 10, "col_index": 24, "tile_id": 971 }, "geometry": { "type": "MultiPolygon", "coordinates": [ [ [ [ 15.993011015232396, 69.171854281519174 ], [ 15.993260936430413, 69.171807905433695 ], [ 15.993280008486563, 69.171673259349177 ], [ 15.992562267057602, 69.17140832476521 ], [ 15.993838411915235, 69.171759639293271 ], [ 15.99421146017332, 69.171649947175737 ], [ 15.993989454993125, 69.17120268504631 ], [ 15.993508694627815, 69.171160703178217 ], [ 15.993521638809737, 69.170891556273389 ], [ 15.992445980178436, 69.171068170107304 ], [ 15.99207701499361, 69.171267615301275 ], [ 15.991195154483165, 69.171272692483527 ], [ 15.990432402288532, 69.171680778021042 ], [ 15.990491748647445, 69.171877666552604 ], [ 15.990871736062696, 69.171920326330792 ], [ 15.991243575545235, 69.171783650785557 ], [ 15.991453707046613, 69.171970791820613 ], [ 15.992332740277885, 69.171902946243264 ], [ 15.992643262036978, 69.172080538405552 ], [ 15.993142301778571, 69.171970032833045 ], [ 15.993011015232396, 69.171854281519174 ] ] ] ] } },
{ "type": "Feature", "properties": { "fid": 61993, "navn": null, "hoyde_moh": null, "arealInnsjo_km2": 0.0031, "magasinKategori": null, "fid_2": 971, "id": 971, "left": 15.986919847, "top": 69.446110046000001, "right": 16.486919847, "bottom": 68.946110046000001, "row_index": 10, "col_index": 24, "tile_id": 971 }, "geometry": { "type": "MultiPolygon", "coordinates": [ [ [ [ 16.021547720640445, 69.163920035495465 ], [ 16.021561154804626, 69.16366881988246 ], [ 16.020855331394696, 69.163655067741004 ], [ 16.020164127717148, 69.163425877112559 ], [ 16.01997227290973, 69.163633303858077 ], [ 16.020172479147288, 69.164143448265534 ], [ 16.021547720640445, 69.163920035495465 ] ] ] ] } },
{ "type": "Feature", "properties": { "fid": 62089, "navn": null, "hoyde_moh": null, "arealInnsjo_km2": 0.0049, "magasinKategori": null, "fid_2": 971, "id": 971, "left": 15.986919847, "top": 69.446110046000001, "right": 16.486919847, "bottom": 68.946110046000001, "row_index": 10, "col_index": 24, "tile_id": 971 }, "geometry": { "type": "MultiPolygon", "coordinates": [ [ [ [ 15.993076399532208, 69.256306110522061 ], [ 15.992581461484376, 69.255995129110318 ], [ 15.991549878950611, 69.256126706517051 ], [ 15.991385346883341, 69.256396630277507 ], [ 15.991444123702816, 69.256575672756355 ], [ 15.992138806560469, 69.25682272790749 ], [ 15.992819475121756, 69.256773974005782 ], [ 15.993076399532208, 69.256306110522061 ] ] ] ] } },
{ "type": "Feature", "properties": { "fid": 62094, "navn": null, "hoyde_moh": null, "arealInnsjo_km2": 0.0063, "magasinKategori": null, "fid_2": 971, "id": 971, "left": 15.986919847, "top": 69.446110046000001, "right": 16.486919847, "bottom": 68.946110046000001, "row_index": 10, "col_index": 24, "tile_id": 971 }, "geometry": { "type": "MultiPolygon", "coordinates": [ [ [ [ 16.103656761682331, 69.279448534553921 ], [ 16.104456280133839, 69.278734953958249 ], [ 16.104519455352243, 69.278483412845588 ], [ 16.104386262754559, 69.278349725285295 ], [ 16.104131446015909, 69.278324444515206 ], [ 16.103571904429714, 69.278776385896705 ], [ 16.10303058803964, 69.279587156459755 ], [ 16.103046311646953, 69.280394373786933 ], [ 16.103367046528238, 69.280724098894879 ], [ 16.103614793462896, 69.280614888046259 ], [ 16.103656761682331, 69.279448534553921 ] ] ] ] } },
{ "type": "Feature", "properties": { "fid": 75644, "navn": null, "hoyde_moh": null, "arealInnsjo_km2": 0.0025, "magasinKategori": null, "fid_2": 971, "id": 971, "left": 15.986919847, "top": 69.446110046000001, "right": 16.486919847, "bottom": 68.946110046000001, "row_index": 10, "col_index": 24, "tile_id": 971 }, "geometry": { "type": "MultiPolygon", "coordinates": [ [ [ [ 16.070283911476974, 69.204702946281074 ], [ 16.069895717015026, 69.204508211894648 ], [ 16.069723732830255, 69.204598881066588 ], [ 16.069753246027616, 69.205199634458651 ], [ 16.070417028452297, 69.205356961567176 ], [ 16.070868168424745, 69.205291376548686 ], [ 16.070283911476974, 69.204702946281074 ] ] ] ] } },
{ "type": "Feature", "properties": { "fid": 75652, "navn": null, "hoyde_moh": null, "arealInnsjo_km2": 0.0037, "magasinKategori": null, "fid_2": 971, "id": 971, "left": 15.986919847, "top": 69.446110046000001, "right": 16.486919847, "bottom": 68.946110046000001, "row_index": 10, "col_index": 24, "tile_id": 971 }, "geometry": { "type": "MultiPolygon", "coordinates": [ [ [ [ 16.036657321120863, 69.19506024013377 ], [ 16.036524814795815, 69.194926679157618 ], [ 16.035256841955928, 69.194790702209247 ], [ 16.034058485520024, 69.195057999191391 ], [ 16.035410224737181, 69.195363716133713 ], [ 16.036657321120863, 69.19506024013377 ] ] ] ] } },
{ "type": "Feature", "properties": { "fid": 75653, "navn": null, "hoyde_moh": null, "arealInnsjo_km2": 0.003, "magasinKategori": null, "fid_2": 971, "id": 971, "left": 15.986919847, "top": 69.446110046000001, "right": 16.486919847, "bottom": 68.946110046000001, "row_index": 10, "col_index": 24, "tile_id": 971 }, "geometry": { "type": "MultiPolygon", "coordinates": [ [ [ [ 16.019397643796164, 69.199333882788366 ], [ 16.018901777298399, 69.198977960038306 ], [ 16.018210984831576, 69.198775751482501 ], [ 16.017941865876118, 69.198956812115284 ], [ 16.018393792125938, 69.199447354142123 ], [ 16.01915400021441, 69.199514615322428 ], [ 16.019397643796164, 69.199333882788366 ] ] ] ] } },
{ "type": "Feature", "properties": { "fid": 75654, "navn": null, "hoyde_moh": null, "arealInnsjo_km2": 0.0047, "magasinKategori": null, "fid_2": 971, "id": 971, "left": 15.986919847, "top": 69.446110046000001, "right": 16.486919847, "bottom": 68.946110046000001, "row_index": 10, "col_index": 24, "tile_id": 971 }, "geometry": { "type": "MultiPolygon", "coordinates": [ [ [ [ 16.048710829752434, 69.213266478868292 ], [ 16.047075138464951, 69.213384133456842 ], [ 16.047774000748731, 69.213738656267694 ], [ 16.049973318295805, 69.213788069408253 ], [ 16.048710829752434, 69.213266478868292 ] ] ] ] } },
{ "type": "Feature", "properties": { "fid": 75737, "navn": null, "hoyde_moh": null, "arealInnsjo_km2": 0.0025, "magasinKategori": null, "fid_2": 971, "id": 971, "left": 15.986919847, "top": 69.446110046000001, "right": 16.486919847, "bottom": 68.946110046000001, "row_index": 10, "col_index": 24, "tile_id": 971 }, "geometry": { "type": "MultiPolygon", "coordinates": [ [ [ [ 16.057378380793327, 69.178045495099482 ], [ 16.058189673387776, 69.178139175115405 ], [ 16.058308910822493, 69.178003904648477 ], [ 16.05782160118984, 69.177827513411856 ], [ 16.056866926316204, 69.177896156986975 ], [ 16.056936881538224, 69.17777903853036 ], [ 16.056682683154143, 69.177735841541121 ], [ 16.056362424392464, 69.177890192255234 ], [ 16.056425002520747, 69.178141125497987 ], [ 16.057059430774988, 69.17822683636642 ], [ 16.057378380793327, 69.178045495099482 ] ] ] ] } },
{ "type": "Feature", "properties": { "fid": 75815, "navn": null, "hoyde_moh": null, "arealInnsjo_km2": 0.0025, "magasinKategori": null, "fid_2": 971, "id": 971, "left": 15.986919847, "top": 69.446110046000001, "right": 16.486919847, "bottom": 68.946110046000001, "row_index": 10, "col_index": 24, "tile_id": 971 }, "geometry": { "type": "MultiPolygon", "coordinates": [ [ [ [ 16.059291091998524, 69.290551710667401 ], [ 16.059087105311256, 69.290526051947012 ], [ 16.056807911319215, 69.290557834468885 ], [ 16.057783299224418, 69.290812068276509 ], [ 16.059227357725021, 69.290803235345763 ], [ 16.059291091998524, 69.290551710667401 ] ] ] ] } },
{ "type": "Feature", "properties": { "fid": 75829, "navn": "Blomvatnet", "hoyde_moh": null, "arealInnsjo_km2": 0.0096, "magasinKategori": null, "fid_2": 971, "id": 971, "left": 15.986919847, "top": 69.446110046000001, "right": 16.486919847, "bottom": 68.946110046000001, "row_index": 10, "col_index": 24, "tile_id": 971 }, "geometry": { "type": "MultiPolygon", "coordinates": [ [ [ [ 16.12232564002738, 69.267237949275199 ], [ 16.123100855780045, 69.267053529927082 ], [ 16.123140796024025, 69.266846977530591 ], [ 16.120110569631542, 69.266992206347069 ], [ 16.119868145368034, 69.267199979890236 ], [ 16.119941901214784, 69.267648144010678 ], [ 16.120688041814859, 69.267885389154145 ], [ 16.122337227150425, 69.267462015753111 ], [ 16.12232564002738, 69.267237949275199 ] ] ] ] } },
{ "type": "Feature", "properties": { "fid": 83361, "navn": "Lyngvatnet", "hoyde_moh": null, "arealInnsjo_km2": 0.0129, "magasinKategori": null, "fid_2": 971, "id": 971, "left": 15.986919847, "top": 69.446110046000001, "right": 16.486919847, "bottom": 68.946110046000001, "row_index": 10, "col_index": 24, "tile_id": 971 }, "geometry": { "type": "MultiPolygon", "coordinates": [ [ [ [ 16.093426650050237, 69.284025180681439 ], [ 16.093164808827492, 69.283354057729397 ], [ 16.0937780426434, 69.28245326413959 ], [ 16.093958021642621, 69.282003667279156 ], [ 16.093824619076283, 69.281869973204067 ], [ 16.093570021865382, 69.281844585648031 ], [ 16.093234479823607, 69.282223501538965 ], [ 16.092139638285438, 69.282616091455793 ], [ 16.092199319043477, 69.282795098105339 ], [ 16.092720722989018, 69.283087788137152 ], [ 16.09265378353248, 69.283267594390225 ], [ 16.092086655162895, 69.283576127255202 ], [ 16.091968564980409, 69.284249560432656 ], [ 16.092301840458529, 69.284830452605902 ], [ 16.092732852896443, 69.284836700007673 ], [ 16.093426650050237, 69.284025180681439 ] ] ] ] } },
{ "type": "Feature", "properties": { "fid": 83362, "navn": null, "hoyde_moh": null, "arealInnsjo_km2": 0.0055, "magasinKategori": null, "fid_2": 971, "id": 971, "left": 15.986919847, "top": 69.446110046000001, "right": 16.486919847, "bottom": 68.946110046000001, "row_index": 10, "col_index": 24, "tile_id": 971 }, "geometry": { "type": "MultiPolygon", "coordinates": [ [ [ [ 16.092659792364476, 69.289922679775643 ], [ 16.092691499142404, 69.289043501288688 ], [ 16.092191634823457, 69.289181194579086 ], [ 16.092062226080074, 69.289630469577219 ], [ 16.091375734179142, 69.290083258799328 ], [ 16.090926638413652, 69.290731870230445 ], [ 16.090958741418529, 69.290866205258226 ], [ 16.091336501140756, 69.290819067215537 ], [ 16.092659792364476, 69.289922679775643 ] ] ] ] } },
{ "type": "Feature", "properties": { "fid": 83365, "navn": null, "hoyde_moh": null, "arealInnsjo_km2": 0.0084, "magasinKategori": null, "fid_2": 971, "id": 971, "left": 15.986919847, "top": 69.446110046000001, "right": 16.486919847, "bottom": 68.946110046000001, "row_index": 10, "col_index": 24, "tile_id": 971 }, "geometry": { "type": "MultiPolygon", "coordinates": [ [ [ [ 16.059850751688632, 69.299929949773357 ], [ 16.059691479746515, 69.299778450402769 ], [ 16.05892894328996, 69.299738271120546 ], [ 16.058789512387722, 69.299479020613731 ], [ 16.058300083611226, 69.29932056995969 ], [ 16.057780985231588, 69.299592815056158 ], [ 16.05763158480271, 69.300167748905125 ], [ 16.057853172358023, 69.30055206535971 ], [ 16.058846038740327, 69.300635686295593 ], [ 16.059850751688632, 69.299929949773357 ] ] ] ] } },
{ "type": "Feature", "properties": { "fid": 83389, "navn": null, "hoyde_moh": null, "arealInnsjo_km2": 0.0073, "magasinKategori": null, "fid_2": 971, "id": 971, "left": 15.986919847, "top": 69.446110046000001, "right": 16.486919847, "bottom": 68.946110046000001, "row_index": 10, "col_index": 24, "tile_id": 971 }, "geometry": { "type": "MultiPolygon", "coordinates": [ [ [ [ 16.08375216302499, 69.263304417329408 ], [ 16.083634393993083, 69.26297329625973 ], [ 16.082983959610463, 69.262618605684381 ], [ 16.083016217622788, 69.262250577841556 ], [ 16.082535321746054, 69.261742437157196 ], [ 16.082284554263385, 69.261788853346005 ], [ 16.082065516202842, 69.26247188160842 ], [ 16.082415177372855, 69.263393516905069 ], [ 16.082523540182748, 69.263536345046873 ], [ 16.08375216302499, 69.263304417329408 ] ] ] ] } },
{ "type": "Feature", "properties": { "fid": 84297, "navn": null, "hoyde_moh": null, "arealInnsjo_km2": 0.0026, "magasinKategori": null, "fid_2": 971, "id": 971, "left": 15.986919847, "top": 69.446110046000001, "right": 16.486919847, "bottom": 68.946110046000001, "row_index": 10, "col_index": 24, "tile_id": 971 }, "geometry": { "type": "MultiPolygon", "coordinates": [ [ [ [ 16.030558485531266, 69.20640695670474 ], [ 16.028527292044217, 69.206158977125483 ], [ 16.027909935297114, 69.206449669070025 ], [ 16.030563574082887, 69.206514465990509 ], [ 16.030558485531266, 69.20640695670474 ] ] ] ] } },
{ "type": "Feature", "properties": { "fid": 84298, "navn": null, "hoyde_moh": null, "arealInnsjo_km2": 0.0026, "magasinKategori": null, "fid_2": 971, "id": 971, "left": 15.986919847, "top": 69.446110046000001, "right": 16.486919847, "bottom": 68.946110046000001, "row_index": 10, "col_index": 24, "tile_id": 971 }, "geometry": { "type": "MultiPolygon", "coordinates": [ [ [ [ 16.069561658908139, 69.20901273193472 ], [ 16.069950941583315, 69.208714334175227 ], [ 16.069184972724091, 69.208539699857639 ], [ 16.068420175427978, 69.208903116899549 ], [ 16.067666089282401, 69.20897066015084 ], [ 16.068127435069858, 69.209111400731146 ], [ 16.069561658908139, 69.20901273193472 ] ] ] ] } },
{ "type": "Feature", "properties": { "fid": 84415, "navn": "Kroktjønna", "hoyde_moh": null, "arealInnsjo_km2": 0.0172, "magasinKategori": null, "fid_2": 971, "id": 971, "left": 15.986919847, "top": 69.446110046000001, "right": 16.486919847, "bottom": 68.946110046000001, "row_index": 10, "col_index": 24, "tile_id": 971 }, "geometry": { "type": "MultiPolygon", "coordinates": [ [ [ [ 16.073334967160847, 69.228192339708201 ], [ 16.072572706216906, 69.228107385804961 ], [ 16.071946107967111, 69.227698695611934 ], [ 16.073034973258792, 69.227745745528281 ], [ 16.073343160052627, 69.227851459725443 ], [ 16.073460388472402, 69.228173621442451 ], [ 16.07378967033689, 69.228189511838295 ], [ 16.073904907943394, 69.227964565305996 ], [ 16.07486526520232, 69.227967467558827 ], [ 16.075109901396029, 69.227804588379001 ], [ 16.074546631989332, 69.227655619424624 ], [ 16.073869906800944, 69.227767460946438 ], [ 16.073661176382821, 69.227634131854543 ], [ 16.073847770867939, 69.227319139310183 ], [ 16.073586316103324, 69.227141381896189 ], [ 16.072567949441613, 69.226986177661999 ], [ 16.072783604441145, 69.226742759204939 ], [ 16.073331098540219, 69.226577910301671 ], [ 16.073193740911012, 69.226354534702779 ], [ 16.072808219630058, 69.226222393451508 ], [ 16.071618390829041, 69.226175879662989 ], [ 16.070920856587282, 69.22637762050438 ], [ 16.070926595866698, 69.22649418425668 ], [ 16.071381263903397, 69.226491362761138 ], [ 16.071363512890375, 69.226643949040536 ], [ 16.071569753898938, 69.226732360649152 ], [ 16.071066138860115, 69.226762393884641 ], [ 16.071306725152375, 69.227029976327373 ], [ 16.071805291915108, 69.226892253880465 ], [ 16.072390692475885, 69.226978399498307 ], [ 16.071763613547056, 69.227071986017748 ], [ 16.072384442814197, 69.227364113238693 ], [ 16.071573461193317, 69.227315334490669 ], [ 16.071378004248007, 69.22745108547079 ], [ 16.071435150904158, 69.227585268494337 ], [ 16.073110669509127, 69.228767762004168 ], [ 16.073847246474944, 69.228843814555376 ], [ 16.073334967160847, 69.228192339708201 ] ], [ [ 16.073198525150783, 69.2274756532167 ], [ 16.073203834517628, 69.22758325043273 ], [ 16.072771308620922, 69.227523154711122 ], [ 16.073198525150783, 69.2274756532167 ] ] ] ] } },
{ "type": "Feature", "properties": { "fid": 84604, "navn": null, "hoyde_moh": null, "arealInnsjo_km2": 0.0059, "magasinKategori": null, "fid_2": 971, "id": 971, "left": 15.986919847, "top": 69.446110046000001, "right": 16.486919847, "bottom": 68.946110046000001, "row_index": 10, "col_index": 24, "tile_id": 971 }, "geometry": { "type": "MultiPolygon", "coordinates": [ [ [ [ 15.987141367239495, 69.15520555216402 ], [ 15.987707464687759, 69.154915204512818 ], [ 15.986919847, 69.154849121969136 ], [ 15.986919847, 69.155210959058863 ], [ 15.987141367239495, 69.15520555216402 ] ] ] ] } },
{ "type": "Feature", "properties": { "fid": 84605, "navn": null, "hoyde_moh": null, "arealInnsjo_km2": 0.0052, "magasinKategori": null, "fid_2": 971, "id": 971, "left": 15.986919847, "top": 69.446110046000001, "right": 16.486919847, "bottom": 68.946110046000001, "row_index": 10, "col_index": 24, "tile_id": 971 }, "geometry": { "type": "MultiPolygon", "coordinates": [ [ [ [ 16.002206708476248, 69.160257613126447 ], [ 16.000260206780045, 69.160107579105343 ], [ 15.99943819832767, 69.160309673145932 ], [ 15.999444357189107, 69.160444173855737 ], [ 16.000267893646427, 69.160824972683926 ], [ 16.000945806602285, 69.16077627695735 ], [ 16.002206708476248, 69.160257613126447 ] ] ] ] } },
{ "type": "Feature", "properties": { "fid": 84610, "navn": null, "hoyde_moh": null, "arealInnsjo_km2": 0.0038, "magasinKategori": null, "fid_2": 971, "id": 971, "left": 15.986919847, "top": 69.446110046000001, "right": 16.486919847, "bottom": 68.946110046000001, "row_index": 10, "col_index": 24, "tile_id": 971 }, "geometry": { "type": "MultiPolygon", "coordinates": [ [ [ [ 16.024053942949902, 69.168470441913399 ], [ 16.022908086838495, 69.168217146663025 ], [ 16.02190753652064, 69.1683755619989 ], [ 16.021966317595819, 69.168554506216438 ], [ 16.022353035258991, 69.168740652509172 ], [ 16.023034507844226, 69.168763602825067 ], [ 16.024053942949902, 69.168470441913399 ] ] ] ] } },
{ "type": "Feature", "properties": { "fid": 84737, "navn": null, "hoyde_moh": null, "arealInnsjo_km2": 0.015, "magasinKategori": null, "fid_2": 971, "id": 971, "left": 15.986919847, "top": 69.446110046000001, "right": 16.486919847, "bottom": 68.946110046000001, "row_index": 10, "col_index": 24, "tile_id": 971 }, "geometry": { "type": "MultiPolygon", "coordinates": [ [ [ [ 15.999754822615301, 69.172721058011007 ], [ 15.999896965415259, 69.172522913040055 ], [ 15.999381514200957, 69.172274770098426 ], [ 15.999057112693556, 69.171245117521082 ], [ 15.997421020625856, 69.171290565842725 ], [ 15.997150012936222, 69.17142667124422 ], [ 15.997103935047761, 69.172072711843143 ], [ 15.997253444338034, 69.17259205297195 ], [ 15.99756303766509, 69.172742734629594 ], [ 15.999255799345137, 69.172831582716924 ], [ 15.999754822615301, 69.172721058011007 ] ] ] ] } },
{ "type": "Feature", "properties": { "fid": 84852, "navn": null, "hoyde_moh": null, "arealInnsjo_km2": 0.0038, "magasinKategori": null, "fid_2": 971, "id": 971, "left": 15.986919847, "top": 69.446110046000001, "right": 16.486919847, "bottom": 68.946110046000001, "row_index": 10, "col_index": 24, "tile_id": 971 }, "geometry": { "type": "MultiPolygon", "coordinates": [ [ [ [ 16.353121699068179, 68.9565943914195 ], [ 16.353203587939515, 68.956297727646685 ], [ 16.352644605851985, 68.956140693114762 ], [ 16.351508902958692, 68.956750684106382 ], [ 16.351569785317466, 68.956929605217482 ], [ 16.352246674775142, 68.95697806806966 ], [ 16.353121699068179, 68.9565943914195 ] ] ] ] } },
{ "type": "Feature", "properties": { "fid": 105413, "navn": null, "hoyde_moh": null, "arealInnsjo_km2": 0.0042, "magasinKategori": null, "fid_2": 971, "id": 971, "left": 15.986919847, "top": 69.446110046000001, "right": 16.486919847, "bottom": 68.946110046000001, "row_index": 10, "col_index": 24, "tile_id": 971 }, "geometry": { "type": "MultiPolygon", "coordinates": [ [ [ [ 16.047579949398664, 69.167728006722442 ], [ 16.047394999888972, 69.16754974787888 ], [ 16.047830356480183, 69.167170393426574 ], [ 16.047516869262541, 69.166939011943299 ], [ 16.047012205708533, 69.166924322023789 ], [ 16.046442279356963, 69.167125018679144 ], [ 16.046453890841047, 69.167367116214947 ], [ 16.046636676113536, 69.167500453542431 ], [ 16.046390358564125, 69.167618639537338 ], [ 16.046445041925502, 69.167707999144511 ], [ 16.047579949398664, 69.167728006722442 ] ] ] ] } },
{ "type": "Feature", "properties": { "fid": 105530, "navn": null, "hoyde_moh": null, "arealInnsjo_km2": 0.0031, "magasinKategori": null, "fid_2": 971, "id": 971, "left": 15.986919847, "top": 69.446110046000001, "right": 16.486919847, "bottom": 68.946110046000001, "row_index": 10, "col_index": 24, "tile_id": 971 }, "geometry": { "type": "MultiPolygon", "coordinates": [ [ [ [ 16.018514467038237, 69.131855356517619 ], [ 16.018360640624309, 69.131793483341539 ], [ 16.016525215775889, 69.131275161846375 ], [ 16.016963606954072, 69.131505768127596 ], [ 16.017184000206893, 69.131917046165825 ], [ 16.017440930446629, 69.132032125397203 ], [ 16.018497254741796, 69.132025872607457 ], [ 16.018514467038237, 69.131855356517619 ] ] ] ] } },
{ "type": "Feature", "properties": { "fid": 105659, "navn": "Lomtjønna", "hoyde_moh": null, "arealInnsjo_km2": 0.0121, "magasinKategori": null, "fid_2": 971, "id": 971, "left": 15.986919847, "top": 69.446110046000001, "right": 16.486919847, "bottom": 68.946110046000001, "row_index": 10, "col_index": 24, "tile_id": 971 }, "geometry": { "type": "MultiPolygon", "coordinates": [ [ [ [ 16.108710908944456, 69.272779082314315 ], [ 16.108701740942788, 69.272599667020486 ], [ 16.106508233247084, 69.272784311233906 ], [ 16.105990368910767, 69.27305661084128 ], [ 16.105880712193066, 69.27338917298863 ], [ 16.105563057252667, 69.273615434374534 ], [ 16.10558818706232, 69.274108580313097 ], [ 16.105823786502111, 69.274259550527461 ], [ 16.106653885363375, 69.274155579178455 ], [ 16.108710908944456, 69.272779082314315 ] ] ] ] } },
{ "type": "Feature", "properties": { "fid": 105782, "navn": null, "hoyde_moh": null, "arealInnsjo_km2": 0.0053, "magasinKategori": null, "fid_2": 971, "id": 971, "left": 15.986919847, "top": 69.446110046000001, "right": 16.486919847, "bottom": 68.946110046000001, "row_index": 10, "col_index": 24, "tile_id": 971 }, "geometry": { "type": "MultiPolygon", "coordinates": [ [ [ [ 16.069581281874147, 69.295717406622572 ], [ 16.069401619845756, 69.295153462926706 ], [ 16.069011103442129, 69.294949585868196 ], [ 16.068584317437015, 69.295032943327996 ], [ 16.06862336266866, 69.29531074457806 ], [ 16.067826791589848, 69.295091433237829 ], [ 16.068487682381104, 69.295643439169282 ], [ 16.068210264623133, 69.295671969143086 ], [ 16.068240917260347, 69.295779588613058 ], [ 16.068787643340521, 69.29607201460486 ], [ 16.069270000683158, 69.296087063338533 ], [ 16.069581281874147, 69.295717406622572 ] ] ] ] } },
{ "type": "Feature", "properties": { "fid": 120959, "navn": null, "hoyde_moh": null, "arealInnsjo_km2": 0.0106, "magasinKategori": null, "fid_2": 971, "id": 971, "left": 15.986919847, "top": 69.446110046000001, "right": 16.486919847, "bottom": 68.946110046000001, "row_index": 10, "col_index": 24, "tile_id": 971 }, "geometry": { "type": "MultiPolygon", "coordinates": [ [ [ [ 16.023420073764736, 69.165164507374783 ], [ 16.024706807554679, 69.165201790467634 ], [ 16.023831036848694, 69.164794419205762 ], [ 16.022936384016372, 69.163983544415586 ], [ 16.021623030659015, 69.163919588682177 ], [ 16.021562412102909, 69.164233868212179 ], [ 16.022053576512224, 69.164500027744594 ], [ 16.021987680023976, 69.165244857440356 ], [ 16.023420073764736, 69.165164507374783 ] ] ] ] } },
{ "type": "Feature", "properties": { "fid": 120960, "navn": null, "hoyde_moh": null, "arealInnsjo_km2": 0.006, "magasinKategori": null, "fid_2": 971, "id": 971, "left": 15.986919847, "top": 69.446110046000001, "right": 16.486919847, "bottom": 68.946110046000001, "row_index": 10, "col_index": 24, "tile_id": 971 }, "geometry": { "type": "MultiPolygon", "coordinates": [ [ [ [ 16.028239307583185, 69.165844450191457 ], [ 16.028302198971417, 69.165575000089206 ], [ 16.027986833713143, 69.165298839345681 ], [ 16.027409853162464, 69.165347128616389 ], [ 16.026670685337326, 69.165172154285912 ], [ 16.026229522183439, 69.165434979018031 ], [ 16.026303091549579, 69.165927753987319 ], [ 16.026585656894806, 69.166042578920141 ], [ 16.026927766824446, 69.165816400053586 ], [ 16.027671356315231, 69.166090097345034 ], [ 16.028239307583185, 69.165844450191457 ] ] ] ] } },
{ "type": "Feature", "properties": { "fid": 121465, "navn": null, "hoyde_moh": null, "arealInnsjo_km2": 0.0081, "magasinKategori": null, "fid_2": 971, "id": 971, "left": 15.986919847, "top": 69.446110046000001, "right": 16.486919847, "bottom": 68.946110046000001, "row_index": 10, "col_index": 24, "tile_id": 971 }, "geometry": { "type": "MultiPolygon", "coordinates": [ [ [ [ 16.077357113782309, 69.299167139032534 ], [ 16.077365515749104, 69.298826260090181 ], [ 16.077983938020658, 69.29851745984584 ], [ 16.077975899660508, 69.298355886283758 ], [ 16.076156553752682, 69.298475015368012 ], [ 16.075708197320683, 69.298630277188735 ], [ 16.075395390727905, 69.298973047256325 ], [ 16.076236230966234, 69.299568752632538 ], [ 16.077357113782309, 69.299167139032534 ] ] ] ] } },
{ "type": "Feature", "properties": { "fid": 122023, "navn": null, "hoyde_moh": null, "arealInnsjo_km2": 0.0069, "magasinKategori": null, "fid_2": 971, "id": 971, "left": 15.986919847, "top": 69.446110046000001, "right": 16.486919847, "bottom": 68.946110046000001, "row_index": 10, "col_index": 24, "tile_id": 971 }, "geometry": { "type": "MultiPolygon", "coordinates": [ [ [ [ 16.063833424629571, 69.217335677502888 ], [ 16.062963578533449, 69.217107839766683 ], [ 16.062558577299406, 69.216572094200771 ], [ 16.062254298278265, 69.216547239614613 ], [ 16.061993195204913, 69.21688958573003 ], [ 16.061248423720112, 69.217154184328123 ], [ 16.061063927697344, 69.217514175432953 ], [ 16.062247566211202, 69.2174441085902 ], [ 16.063722521478581, 69.217650282354271 ], [ 16.06401981139825, 69.217531850112607 ], [ 16.063833424629571, 69.217335677502888 ] ] ] ] } },
{ "type": "Feature", "properties": { "fid": 122024, "navn": null, "hoyde_moh": null, "arealInnsjo_km2": 0.0053, "magasinKategori": null, "fid_2": 971, "id": 971, "left": 15.986919847, "top": 69.446110046000001, "right": 16.486919847, "bottom": 68.946110046000001, "row_index": 10, "col_index": 24, "tile_id": 971 }, "geometry": { "type": "MultiPolygon", "coordinates": [ [ [ [ 16.075407215103997, 69.244036955481917 ], [ 16.076029883271126, 69.243844724982623 ], [ 16.075744263275922, 69.243694028076504 ], [ 16.075912783385679, 69.243522564125698 ], [ 16.073762287308984, 69.243500069495127 ], [ 16.073872686127054, 69.24419897845263 ], [ 16.075407215103997, 69.244036955481917 ] ] ] ] } },
{ "type": "Feature", "properties": { "fid": 130905, "navn": "Ramsavatnet", "hoyde_moh": 9, "arealInnsjo_km2": 0.0245, "magasinKategori": null, "fid_2": 971, "id": 971, "left": 15.986919847, "top": 69.446110046000001, "right": 16.486919847, "bottom": 68.946110046000001, "row_index": 10, "col_index": 24, "tile_id": 971 }, "geometry": { "type": "MultiPolygon", "coordinates": [ [ [ [ 16.097316205289864, 69.17110465308896 ], [ 16.096928757159379, 69.170416485369358 ], [ 16.096177404197096, 69.170008771268257 ], [ 16.096396439866272, 69.16935252875696 ], [ 16.096900695979361, 69.168856006477128 ], [ 16.096263672767048, 69.168716464232958 ], [ 16.094672065115553, 69.169139175847391 ], [ 16.093395805214879, 69.168815509316246 ], [ 16.093339995518697, 69.169210422674013 ], [ 16.094223989511406, 69.169752024810521 ], [ 16.094338261568701, 69.170020467158693 ], [ 16.094248276376447, 69.170236212180257 ], [ 16.094950562480012, 69.170671154355475 ], [ 16.095058108382073, 69.171307379964489 ], [ 16.097316205289864, 69.17110465308896 ] ] ] ] } },
{ "type": "Feature", "properties": { "fid": 136450, "navn": null, "hoyde_moh": null, "arealInnsjo_km2": 0.0039, "magasinKategori": null, "fid_2": 971, "id": 971, "left": 15.986919847, "top": 69.446110046000001, "right": 16.486919847, "bottom": 68.946110046000001, "row_index": 10, "col_index": 24, "tile_id": 971 }, "geometry": { "type": "MultiPolygon", "coordinates": [ [ [ [ 16.047304312014745, 69.209750238469908 ], [ 16.048257391049209, 69.209618881196832 ], [ 16.046041695572782, 69.209219751031299 ], [ 16.045270894936859, 69.209466590491928 ], [ 16.045655952021693, 69.209598793891971 ], [ 16.045588845372318, 69.209778583547603 ], [ 16.046414443103728, 69.209621101761954 ], [ 16.047304312014745, 69.209750238469908 ] ] ] ] } },
{ "type": "Feature", "properties": { "fid": 137738, "navn": null, "hoyde_moh": null, "arealInnsjo_km2": 0.0026, "magasinKategori": null, "fid_2": 971, "id": 971, "left": 15.986919847, "top": 69.446110046000001, "right": 16.486919847, "bottom": 68.946110046000001, "row_index": 10, "col_index": 24, "tile_id": 971 }, "geometry": { "type": "MultiPolygon", "coordinates": [ [ [ [ 16.07316584700121, 69.287228278781356 ], [ 16.072014914736766, 69.287011275071634 ], [ 16.071531361962649, 69.287480664685333 ], [ 16.071890166775539, 69.287568133508969 ], [ 16.073047189132598, 69.287390548634846 ], [ 16.07316584700121, 69.287228278781356 ] ] ] ] } },
{ "type": "Feature", "properties": { "fid": 137739, "navn": null, "hoyde_moh": null, "arealInnsjo_km2": 0.0043, "magasinKategori": null, "fid_2": 971, "id": 971, "left": 15.986919847, "top": 69.446110046000001, "right": 16.486919847, "bottom": 68.946110046000001, "row_index": 10, "col_index": 24, "tile_id": 971 }, "geometry": { "type": "MultiPolygon", "coordinates": [ [ [ [ 16.064038236137634, 69.290719906855955 ], [ 16.062655935985351, 69.290432420483725 ], [ 16.062527856300047, 69.290926597046592 ], [ 16.062672107127788, 69.291284385527049 ], [ 16.063283662865732, 69.291352381854821 ], [ 16.064038236137634, 69.290719906855955 ] ] ] ] } },
{ "type": "Feature", "properties": { "fid": 144093, "navn": null, "hoyde_moh": null, "arealInnsjo_km2": 0.007, "magasinKategori": null, "fid_2": 971, "id": 971, "left": 15.986919847, "top": 69.446110046000001, "right": 16.486919847, "bottom": 68.946110046000001, "row_index": 10, "col_index": 24, "tile_id": 971 }, "geometry": { "type": "MultiPolygon", "coordinates": [ [ [ [ 16.160804895672577, 69.290438498867815 ], [ 16.161567172359256, 69.290003125231806 ], [ 16.16302923812102, 69.289858675071244 ], [ 16.16334749148119, 69.289650241177199 ], [ 16.162918122881941, 69.289204571198752 ], [ 16.161475409188917, 69.288290510364931 ], [ 16.161327268431393, 69.288363259316213 ], [ 16.161553928825978, 69.288810114494126 ], [ 16.162882374735752, 69.289482950321499 ], [ 16.162894399411247, 69.289707102715127 ], [ 16.161504011444787, 69.289770257066081 ], [ 16.160372092017774, 69.29039664472333 ], [ 16.158844192937199, 69.290263464148865 ], [ 16.160840797087506, 69.290635672817174 ], [ 16.161166772413729, 69.290570790200661 ], [ 16.160804895672577, 69.290438498867815 ] ] ] ] } },
{ "type": "Feature", "properties": { "fid": 148507, "navn": "Kvanntovikvatnet", "hoyde_moh": 298, "arealInnsjo_km2": 0.0566, "magasinKategori": null, "fid_2": 971, "id": 971, "left": 15.986919847, "top": 69.446110046000001, "right": 16.486919847, "bottom": 68.946110046000001, "row_index": 10, "col_index": 24, "tile_id": 971 }, "geometry": { "type": "MultiPolygon", "coordinates": [ [ [ [ 16.388899999132509, 68.970246930903912 ], [ 16.387900052200941, 68.969438764459156 ], [ 16.387018493222556, 68.967732608358375 ], [ 16.384666449604538, 68.966863633414718 ], [ 16.382722477938383, 68.966924228225253 ], [ 16.38165397915337, 68.966609944387983 ], [ 16.381302006904146, 68.966568028989116 ], [ 16.381160420415018, 68.966703547490681 ], [ 16.381230876477588, 68.967034965664737 ], [ 16.381904224341493, 68.967415240242275 ], [ 16.382023733365546, 68.967728231269732 ], [ 16.384281741827611, 68.968293016654869 ], [ 16.38439734817555, 68.96854324630209 ], [ 16.383598406123951, 68.968944407499393 ], [ 16.383656769586544, 68.969078488223531 ], [ 16.386839526775098, 68.970048291069034 ], [ 16.386823025502046, 68.970182978445195 ], [ 16.387367557650514, 68.970501576180112 ], [ 16.38851472341069, 68.970474407612386 ], [ 16.388899999132509, 68.970246930903912 ] ] ] ] } },
{ "type": "Feature", "properties": { "fid": 150644, "navn": "Nattmålsvatnet", "hoyde_moh": 19, "arealInnsjo_km2": 0.018, "magasinKategori": null, "fid_2": 971, "id": 971, "left": 15.986919847, "top": 69.446110046000001, "right": 16.486919847, "bottom": 68.946110046000001, "row_index": 10, "col_index": 24, "tile_id": 971 }, "geometry": { "type": "MultiPolygon", "coordinates": [ [ [ [ 16.108170817254596, 69.286496467734366 ], [ 16.108533788813354, 69.286162281970931 ], [ 16.108523235975298, 69.285955878479228 ], [ 16.106376745860977, 69.286095366078769 ], [ 16.105503050497919, 69.28635208838395 ], [ 16.105364334388184, 69.286613081388936 ], [ 16.105458608186375, 69.286971246982475 ], [ 16.106221065341746, 69.287513405318791 ], [ 16.108128159822826, 69.287644798969794 ], [ 16.108298849406633, 69.287509167679062 ], [ 16.108170817254596, 69.286496467734366 ] ] ] ] } },
{ "type": "Feature", "properties": { "fid": 150705, "navn": "Nøggesvikvatnet", "hoyde_moh": null, "arealInnsjo_km2": 0.0052, "magasinKategori": null, "fid_2": 971, "id": 971, "left": 15.986919847, "top": 69.446110046000001, "right": 16.486919847, "bottom": 68.946110046000001, "row_index": 10, "col_index": 24, "tile_id": 971 }, "geometry": { "type": "MultiPolygon", "coordinates": [ [ [ [ 16.347584047661055, 68.977484834069017 ], [ 16.346578072753989, 68.977376061120651 ], [ 16.346394510052832, 68.977233985394093 ], [ 16.344302971146973, 68.97734911914489 ], [ 16.34484651502142, 68.977658797086363 ], [ 16.34702340796326, 68.977713416363969 ], [ 16.347584047661055, 68.977484834069017 ] ] ] ] } },
{ "type": "Feature", "properties": { "fid": 150858, "navn": null, "hoyde_moh": null, "arealInnsjo_km2": 0.0107, "magasinKategori": null, "fid_2": 971, "id": 971, "left": 15.986919847, "top": 69.446110046000001, "right": 16.486919847, "bottom": 68.946110046000001, "row_index": 10, "col_index": 24, "tile_id": 971 }, "geometry": { "type": "MultiPolygon", "coordinates": [ [ [ [ 16.024046323277666, 69.213934941152971 ], [ 16.024063552516406, 69.213764426100823 ], [ 16.024382452378848, 69.213565212817912 ], [ 16.024349189685534, 69.213394997511713 ], [ 16.02365198449743, 69.213067279265829 ], [ 16.020449317755858, 69.213696150460436 ], [ 16.020732057706162, 69.213802106927758 ], [ 16.02143470990908, 69.213708257438341 ], [ 16.021792768909741, 69.213804797162283 ], [ 16.021467533698907, 69.21386959638815 ], [ 16.021571876729361, 69.213940641596992 ], [ 16.023450559072764, 69.214153734552468 ], [ 16.024046323277666, 69.213934941152971 ] ] ] ] } },
{ "type": "Feature", "properties": { "fid": 162696, "navn": null, "hoyde_moh": null, "arealInnsjo_km2": 0.0127, "magasinKategori": null, "fid_2": 971, "id": 971, "left": 15.986919847, "top": 69.446110046000001, "right": 16.486919847, "bottom": 68.946110046000001, "row_index": 10, "col_index": 24, "tile_id": 971 }, "geometry": { "type": "MultiPolygon", "coordinates": [ [ [ [ 16.085854133419474, 69.302280064549365 ], [ 16.08797960487238, 69.301692785161123 ], [ 16.085952755091323, 69.301723449079788 ], [ 16.084570795135487, 69.301974278799264 ], [ 16.082661688157547, 69.301824783743939 ], [ 16.082746691932051, 69.302003634768255 ], [ 16.08361971066067, 69.302222400966514 ], [ 16.083378347030905, 69.302466167773986 ], [ 16.083439352109608, 69.3026719863675 ], [ 16.083827647258001, 69.30283100040694 ], [ 16.084915121135456, 69.3027793435989 ], [ 16.085854133419474, 69.302280064549365 ] ] ] ] } },
{ "type": "Feature", "properties": { "fid": 179049, "navn": "Storvatnet", "hoyde_moh": 252, "arealInnsjo_km2": 0.1396, "magasinKategori": null, "fid_2": 971, "id": 971, "left": 15.986919847, "top": 69.446110046000001, "right": 16.486919847, "bottom": 68.946110046000001, "row_index": 10, "col_index": 24, "tile_id": 971 }, "geometry": { "type": "MultiPolygon", "coordinates": [ [ [ [ 16.384525642022044, 68.952691715296595 ], [ 16.384901094271168, 68.952312010228283 ], [ 16.385094612600483, 68.951816987536546 ], [ 16.385533997879339, 68.951661018369848 ], [ 16.38553433650457, 68.95087163404385 ], [ 16.384965945892098, 68.950562286774513 ], [ 16.384118754868588, 68.948990393771282 ], [ 16.383740179219068, 68.948921700458769 ], [ 16.383681620311688, 68.948787621410816 ], [ 16.383924505538527, 68.948678009897392 ], [ 16.382675007914109, 68.94824859172418 ], [ 16.382057314613068, 68.947150253658648 ], [ 16.381789851313176, 68.946269478001781 ], [ 16.381372560554865, 68.946110046 ], [ 16.378579059744922, 68.946110046 ], [ 16.378756464674741, 68.94662975911092 ], [ 16.379134140827549, 68.947084190340547 ], [ 16.37944627009821, 68.948086334570746 ], [ 16.379171389825835, 68.948877935561626 ], [ 16.379858201312597, 68.949886022325288 ], [ 16.38011211110668, 68.950754082545274 ], [ 16.380432961806125, 68.951092357659064 ], [ 16.379971170379029, 68.951293435473602 ], [ 16.3801070920942, 68.951471741524145 ], [ 16.379794067508755, 68.951653675848647 ], [ 16.37985796820049, 68.951877415197103 ], [ 16.380098147278233, 68.952126640569247 ], [ 16.381097828052066, 68.95254912905412 ], [ 16.382920105651237, 68.952955981829589 ], [ 16.38391557118473, 68.952911946429396 ], [ 16.384525642022044, 68.952691715296595 ] ] ] ] } },
{ "type": "Feature", "properties": { "fid": 179051, "navn": "Nøggesvikvatn", "hoyde_moh": 375, "arealInnsjo_km2": 0.0113, "magasinKategori": null, "fid_2": 971, "id": 971, "left": 15.986919847, "top": 69.446110046000001, "right": 16.486919847, "bottom": 68.946110046000001, "row_index": 10, "col_index": 24, "tile_id": 971 }, "geometry": { "type": "MultiPolygon", "coordinates": [ [ [ [ 16.340755052074869, 68.972416522241133 ], [ 16.341055054713127, 68.972010513712732 ], [ 16.339551158784634, 68.971923637852186 ], [ 16.337618647743422, 68.972593592053272 ], [ 16.337613814876018, 68.972925523260841 ], [ 16.337871639429849, 68.973058056428854 ], [ 16.339689813633903, 68.972972052301799 ], [ 16.340755052074869, 68.972416522241133 ] ] ] ] } },
{ "type": "Feature", "properties": { "fid": 182324, "navn": null, "hoyde_moh": 4, "arealInnsjo_km2": 0.0619, "magasinKategori": null, "fid_2": 971, "id": 971, "left": 15.986919847, "top": 69.446110046000001, "right": 16.486919847, "bottom": 68.946110046000001, "row_index": 10, "col_index": 24, "tile_id": 971 }, "geometry": { "type": "MultiPolygon", "coordinates": [ [ [ [ 16.160120853494657, 69.28097165783646 ], [ 16.16154704852628, 69.281114565549188 ], [ 16.162655935509207, 69.281008453209367 ], [ 16.162695523697163, 69.280801892380325 ], [ 16.163133042808855, 69.280458116144715 ], [ 16.161951788573496, 69.279685722986002 ], [ 16.158866852643801, 69.278836304341638 ], [ 16.158305039697591, 69.278750464001206 ], [ 16.157047199013306, 69.278911361456721 ], [ 16.1563041010508, 69.278745913655968 ], [ 16.155475948581493, 69.278894957202255 ], [ 16.155738924529626, 69.279081555976731 ], [ 16.155288665949829, 69.279658600465027 ], [ 16.155404271836488, 69.280402281842044 ], [ 16.155565754647839, 69.280580589526878 ], [ 16.156852398726929, 69.280957670224964 ], [ 16.156987618715412, 69.281118213655546 ], [ 16.157512685130406, 69.280989130388562 ], [ 16.159627352957536, 69.281217049084944 ], [ 16.160120853494657, 69.28097165783646 ] ] ] ] } },
{ "type": "Feature", "properties": { "fid": 183060, "navn": "Bogstjørna", "hoyde_moh": null, "arealInnsjo_km2": 0.0063, "magasinKategori": null, "fid_2": 971, "id": 971, "left": 15.986919847, "top": 69.446110046000001, "right": 16.486919847, "bottom": 68.946110046000001, "row_index": 10, "col_index": 24, "tile_id": 971 }, "geometry": { "type": "MultiPolygon", "coordinates": [ [ [ [ 16.01549657614687, 69.131335054184589 ], [ 16.015587593811542, 69.131128225996108 ], [ 16.015580099523945, 69.130966915055936 ], [ 16.01519577555581, 69.130816618930979 ], [ 16.013753122112057, 69.130627808174893 ], [ 16.013213970285197, 69.130935847342542 ], [ 16.013222282484687, 69.131115181482144 ], [ 16.013788303843441, 69.13138100995188 ], [ 16.01549657614687, 69.131335054184589 ] ] ] ] } },
{ "type": "Feature", "properties": { "fid": 183163, "navn": "Reinstitjønna", "hoyde_moh": null, "arealInnsjo_km2": 0.0063, "magasinKategori": null, "fid_2": 971, "id": 971, "left": 15.986919847, "top": 69.446110046000001, "right": 16.486919847, "bottom": 68.946110046000001, "row_index": 10, "col_index": 24, "tile_id": 971 }, "geometry": { "type": "MultiPolygon", "coordinates": [ [ [ [ 16.02633776176679, 69.251277541910113 ], [ 16.022458481321408, 69.251085194714008 ], [ 16.022260820656303, 69.251185113562272 ], [ 16.022778410573519, 69.251433183944755 ], [ 16.023669858253001, 69.251562530267606 ], [ 16.025364036808885, 69.251543425891001 ], [ 16.02633776176679, 69.251277541910113 ] ] ] ] } },
{ "type": "Feature", "properties": { "fid": 196160, "navn": "Einlettvatnet", "hoyde_moh": 37, "arealInnsjo_km2": 0.2823, "magasinKategori": null, "fid_2": 971, "id": 971, "left": 15.986919847, "top": 69.446110046000001, "right": 16.486919847, "bottom": 68.946110046000001, "row_index": 10, "col_index": 24, "tile_id": 971 }, "geometry": { "type": "MultiPolygon", "coordinates": [ [ [ [ 16.082715812203091, 69.26130181724848 ], [ 16.082600301120966, 69.261015437568773 ], [ 16.082760408724639, 69.260673695800449 ], [ 16.082379862767745, 69.259644624414761 ], [ 16.08000645626305, 69.259237920568495 ], [ 16.079900807346959, 69.259148889035771 ], [ 16.079985494880905, 69.25881650062928 ], [ 16.078957580403237, 69.258500030811248 ], [ 16.078680121197447, 69.258008548285716 ], [ 16.07669147236501, 69.257706938517714 ], [ 16.076244110962573, 69.257359838005655 ], [ 16.07570447697174, 69.257192873375686 ], [ 16.075846469461126, 69.256994578252971 ], [ 16.075737108341798, 69.256824934650936 ], [ 16.074005546527218, 69.256602506343114 ], [ 16.072652243396902, 69.256871016960034 ], [ 16.070650428102581, 69.256811677115707 ], [ 16.068505826851471, 69.25642133863488 ], [ 16.068013331292221, 69.256182216096619 ], [ 16.068637736202437, 69.256016911405084 ], [ 16.070888873032377, 69.256002976113749 ], [ 16.071690300603677, 69.255836473473508 ], [ 16.071453373837649, 69.255649680096511 ], [ 16.070486484720515, 69.255539073337005 ], [ 16.068723021121588, 69.25569340501437 ], [ 16.066186850584884, 69.255054413396493 ], [ 16.063420296959084, 69.254874139511159 ], [ 16.061448678099815, 69.254392959120111 ], [ 16.060003540588699, 69.254330076944441 ], [ 16.059529995247061, 69.25447648719738 ], [ 16.060198624195845, 69.255216823963877 ], [ 16.05945733597623, 69.255580135391355 ], [ 16.059447352534665, 69.255894116039258 ], [ 16.05841817980777, 69.256061866715655 ], [ 16.058374584015514, 69.256205639706351 ], [ 16.059321396147514, 69.25642406663475 ], [ 16.057996086035939, 69.256746015043078 ], [ 16.058335661240513, 69.256959284465523 ], [ 16.05979165604484, 69.257246343038972 ], [ 16.060621579834883, 69.257142591279475 ], [ 16.060692651711385, 69.257043584366883 ], [ 16.059663702130543, 69.256179801605484 ], [ 16.059822818556938, 69.255811091630136 ], [ 16.060550195795948, 69.255680971703015 ], [ 16.061608267059142, 69.256105082984647 ], [ 16.061551232581756, 69.256491105973396 ], [ 16.063086008793366, 69.256831467726442 ], [ 16.063306367112638, 69.257197846548507 ], [ 16.064345419100345, 69.257747536895579 ], [ 16.067758412773724, 69.258201848640894 ], [ 16.068135054734082, 69.258656947560993 ], [ 16.070172494571736, 69.258922387193465 ], [ 16.071946321181652, 69.259485420212414 ], [ 16.074095264547008, 69.260467655008668 ], [ 16.078640130778499, 69.261273484232802 ], [ 16.082045679097021, 69.261566119607465 ], [ 16.082715812203091, 69.26130181724848 ] ] ] ] } },
{ "type": "Feature", "properties": { "fid": 196163, "navn": "Steinsvatnet", "hoyde_moh": 5, "arealInnsjo_km2": 0.0444, "magasinKategori": null, "fid_2": 971, "id": 971, "left": 15.986919847, "top": 69.446110046000001, "right": 16.486919847, "bottom": 68.946110046000001, "row_index": 10, "col_index": 24, "tile_id": 971 }, "geometry": { "type": "MultiPolygon", "coordinates": [ [ [ [ 16.081002633898187, 69.300588442082613 ], [ 16.081837247882177, 69.300547351923058 ], [ 16.082268833097785, 69.300051352072231 ], [ 16.083023803575731, 69.299939000892493 ], [ 16.082939702063019, 69.299778082617493 ], [ 16.083888444508904, 69.299485132566275 ], [ 16.08369667892158, 69.29919923111612 ], [ 16.083816675519582, 69.299064032507303 ], [ 16.082692138882368, 69.298882717746977 ], [ 16.080602923882527, 69.299182694659507 ], [ 16.07865109467534, 69.299697228410878 ], [ 16.077756447157679, 69.29955023585805 ], [ 16.076627536446736, 69.299790547420798 ], [ 16.075542190692079, 69.300398224932891 ], [ 16.075630691307701, 69.300648810346203 ], [ 16.076329725560267, 69.30094044652914 ], [ 16.079119576205152, 69.300958955291065 ], [ 16.081002633898187, 69.300588442082613 ] ] ] ] } },
{ "type": "Feature", "properties": { "fid": 196164, "navn": "Kleivvatnet", "hoyde_moh": 6, "arealInnsjo_km2": 0.0928, "magasinKategori": null, "fid_2": 971, "id": 971, "left": 15.986919847, "top": 69.446110046000001, "right": 16.486919847, "bottom": 68.946110046000001, "row_index": 10, "col_index": 24, "tile_id": 971 }, "geometry": { "type": "MultiPolygon", "coordinates": [ [ [ [ 16.099285521819134, 69.308141948247894 ], [ 16.099110188239106, 69.307685633933716 ], [ 16.098434164015373, 69.307358064516578 ], [ 16.098555473244645, 69.307249665029971 ], [ 16.097570599737946, 69.306332086919923 ], [ 16.097349973024695, 69.305481325361995 ], [ 16.096924177990296, 69.305080500853222 ], [ 16.092747814463593, 69.305743718280993 ], [ 16.091860058232292, 69.305740349417462 ], [ 16.091239821680915, 69.306013333779887 ], [ 16.090929215320966, 69.306391995088944 ], [ 16.090995727889219, 69.306705496107725 ], [ 16.09139996509445, 69.307178313430498 ], [ 16.093439081414722, 69.308385253627193 ], [ 16.094339179595796, 69.308630704054707 ], [ 16.096108181784132, 69.309005189630042 ], [ 16.096818130914389, 69.309000694540089 ], [ 16.099019365077204, 69.308394774146862 ], [ 16.099285521819134, 69.308141948247894 ] ] ] ] } },
{ "type": "Feature", "properties": { "fid": 197029, "navn": "Litlevatnet", "hoyde_moh": 260, "arealInnsjo_km2": 0.0358, "magasinKategori": null, "fid_2": 971, "id": 971, "left": 15.986919847, "top": 69.446110046000001, "right": 16.486919847, "bottom": 68.946110046000001, "row_index": 10, "col_index": 24, "tile_id": 971 }, "geometry": { "type": "MultiPolygon", "coordinates": [ [ [ [ 16.384825196391606, 68.955873811206985 ], [ 16.385463101269128, 68.955698202798885 ], [ 16.385451839449182, 68.955518889348326 ], [ 16.384781296222464, 68.95517448854973 ], [ 16.384696898228441, 68.955022768531506 ], [ 16.384902826707023, 68.954724991056224 ], [ 16.384636494687488, 68.954458043519082 ], [ 16.384022321751157, 68.954211855555457 ], [ 16.382345732338326, 68.954144613642214 ], [ 16.381955301684425, 68.954282416848145 ], [ 16.380896530119518, 68.955313677434575 ], [ 16.380465981493366, 68.95553674944648 ], [ 16.380592996733871, 68.955648029929705 ], [ 16.379976068974862, 68.955760569110666 ], [ 16.380089876754088, 68.955983905089738 ], [ 16.380594417518978, 68.956069529399585 ], [ 16.380204808805939, 68.956225172367965 ], [ 16.380285820143364, 68.956323190125417 ], [ 16.380897453644994, 68.956524560984278 ], [ 16.384825196391606, 68.955873811206985 ] ] ] ] } },
{ "type": "Feature", "properties": { "fid": 206793, "navn": "Møsjevatnet", "hoyde_moh": 43, "arealInnsjo_km2": 0.0301, "magasinKategori": null, "fid_2": 971, "id": 971, "left": 15.986919847, "top": 69.446110046000001, "right": 16.486919847, "bottom": 68.946110046000001, "row_index": 10, "col_index": 24, "tile_id": 971 }, "geometry": { "type": "MultiPolygon", "coordinates": [ [ [ [ 16.029071727733989, 69.267872065526632 ], [ 16.029798197850976, 69.267177033372349 ], [ 16.0296610281695, 69.266953624060221 ], [ 16.028992850068636, 69.266742344988359 ], [ 16.027573562482093, 69.266705941282254 ], [ 16.026316718073669, 69.26689278782807 ], [ 16.025815669407979, 69.267003390009023 ], [ 16.025674417526059, 69.267228364445856 ], [ 16.025251397377879, 69.267383347220971 ], [ 16.025247272715237, 69.267831913466196 ], [ 16.025006898966716, 69.268102409923998 ], [ 16.024555581400186, 69.268194685658003 ], [ 16.024561935167263, 69.268329273294128 ], [ 16.02519651386223, 69.268370446622498 ], [ 16.025337284566724, 69.26866550053559 ], [ 16.025901283334225, 69.268814628688389 ], [ 16.026982354402193, 69.268655737061195 ], [ 16.029071727733989, 69.267872065526632 ] ] ] ] } },
{ "type": "Feature", "properties": { "fid": 212293, "navn": "Torddalsvatnet", "hoyde_moh": 43, "arealInnsjo_km2": 0.737, "magasinKategori": null, "fid_2": 971, "id": 971, "left": 15.986919847, "top": 69.446110046000001, "right": 16.486919847, "bottom": 68.946110046000001, "row_index": 10, "col_index": 24, "tile_id": 971 }, "geometry": { "type": "MultiPolygon", "coordinates": [ [ [ [ 15.993536490553968, 69.205521000278779 ], [ 16.000805863683276, 69.203864630696643 ], [ 16.002536660399734, 69.203630261746994 ], [ 16.004027097152591, 69.203110354432312 ], [ 16.005224595576735, 69.202260286197458 ], [ 16.007006454035054, 69.201496488325944 ], [ 16.008064489627611, 69.201454430218007 ], [ 16.010514640478764, 69.200955759449172 ], [ 16.010708155856854, 69.200775154035668 ], [ 16.010705511408357, 69.200174330879122 ], [ 16.010068405601334, 69.199496414031401 ], [ 16.009420239788891, 69.199123508400405 ], [ 16.008114516857432, 69.198718569928658 ], [ 16.008055762322417, 69.19853953191587 ], [ 16.00911561754074, 69.1979951875648 ], [ 16.008670468929274, 69.197100884452396 ], [ 16.008223786174618, 69.196717826744603 ], [ 16.007650845812218, 69.195241278360896 ], [ 16.0072096082196, 69.19497478441582 ], [ 16.006006751808606, 69.195152130457885 ], [ 16.004318010152215, 69.195736086813568 ], [ 15.999027908620226, 69.195919296536374 ], [ 15.996929162653805, 69.196371018697491 ], [ 15.995812067672381, 69.196772023192878 ], [ 15.995128282388491, 69.197269269073615 ], [ 15.994917633002586, 69.197629336467259 ], [ 15.9953156873037, 69.198057374131437 ], [ 15.994746522759375, 69.198302823104427 ], [ 15.995571420890597, 69.198683820941611 ], [ 15.994817614829049, 69.19930694642342 ], [ 15.994756266270942, 69.199621306736645 ], [ 15.994371841167057, 69.200044979587304 ], [ 15.993805891328353, 69.200362248606424 ], [ 15.992440479473684, 69.200863409871545 ], [ 15.986919847, 69.201597432529994 ], [ 15.986919847, 69.205678964796888 ], [ 15.989359594417399, 69.205814082105476 ], [ 15.993536490553968, 69.205521000278779 ] ] ] ] } },
{ "type": "Feature", "properties": { "fid": 212294, "navn": "Sverigedalsvatnet", "hoyde_moh": 83, "arealInnsjo_km2": 0.2745, "magasinKategori": null, "fid_2": 971, "id": 971, "left": 15.986919847, "top": 69.446110046000001, "right": 16.486919847, "bottom": 68.946110046000001, "row_index": 10, "col_index": 24, "tile_id": 971 }, "geometry": { "type": "MultiPolygon", "coordinates": [ [ [ [ 16.002799525604562, 69.216463539134196 ], [ 16.005573096749455, 69.216366586145739 ], [ 16.006711912257462, 69.216422728838495 ], [ 16.009565746974481, 69.216962136260548 ], [ 16.010699858839072, 69.216910651601054 ], [ 16.0128933628522, 69.21628789253532 ], [ 16.014401552315714, 69.216135527150968 ], [ 16.015927143555057, 69.215274399380917 ], [ 16.015916683664113, 69.215050323769717 ], [ 16.016363993594428, 69.21489503565499 ], [ 16.017809331392243, 69.215021230947642 ], [ 16.018826805808317, 69.214638524242304 ], [ 16.019954050925339, 69.214443513216239 ], [ 16.019375125759009, 69.213944666004892 ], [ 16.019496311601113, 69.213836320922809 ], [ 16.01603983156814, 69.213901646490541 ], [ 16.013372997170087, 69.213029303494523 ], [ 16.012614837442197, 69.213015817052451 ], [ 16.011918257917802, 69.213235161902261 ], [ 16.011937017507332, 69.213638659980802 ], [ 16.012255550496402, 69.213977615986593 ], [ 16.015084539027505, 69.214535015281129 ], [ 16.013271424725744, 69.214644332967325 ], [ 16.009907039766109, 69.214520554004253 ], [ 16.006205372936051, 69.214201268067072 ], [ 16.005441795844032, 69.214071273492678 ], [ 16.003484279983677, 69.213239579343522 ], [ 16.002702160469759, 69.212705983759449 ], [ 16.002530507837559, 69.211720296034613 ], [ 16.001434348233758, 69.211493557129472 ], [ 16.000557867599554, 69.211651116727936 ], [ 15.999419758728694, 69.212159980448575 ], [ 15.999070330096698, 69.212798806513987 ], [ 15.998751205359683, 69.212997883532523 ], [ 15.998735998695214, 69.213222287315403 ], [ 15.998050784957831, 69.213692642777488 ], [ 15.997303704449422, 69.213921188938457 ], [ 15.996792031885903, 69.214327752610075 ], [ 15.996807247867055, 69.21576271053496 ], [ 15.996673006076399, 69.216140095822652 ], [ 15.996814856844304, 69.216480189407307 ], [ 15.997492684669725, 69.216942662055288 ], [ 15.999522474771705, 69.217146172942904 ], [ 16.002799525604562, 69.216463539134196 ] ] ] ] } },
{ "type": "Feature", "properties": { "fid": 212295, "navn": "Storvatnet", "hoyde_moh": 26, "arealInnsjo_km2": 0.3184, "magasinKategori": null, "fid_2": 971, "id": 971, "left": 15.986919847, "top": 69.446110046000001, "right": 16.486919847, "bottom": 68.946110046000001, "row_index": 10, "col_index": 24, "tile_id": 971 }, "geometry": { "type": "MultiPolygon", "coordinates": [ [ [ [ 16.06334836867725, 69.234801632462279 ], [ 16.063031106133231, 69.23451648330483 ], [ 16.063679762205517, 69.234342164267844 ], [ 16.063676955361089, 69.233768155444295 ], [ 16.065753958461254, 69.232311312186667 ], [ 16.065121213063392, 69.231776977420267 ], [ 16.065162085414212, 69.231579493349301 ], [ 16.066222992168726, 69.231052733008525 ], [ 16.066535156604235, 69.230718855931542 ], [ 16.0667365924539, 69.230188609829597 ], [ 16.066259859701461, 69.229743006876703 ], [ 16.065543893435997, 69.228545559142745 ], [ 16.064509536327261, 69.228058636610768 ], [ 16.063446811477895, 69.228029310223789 ], [ 16.061757247767883, 69.227582283477702 ], [ 16.0611753727209, 69.227567833542338 ], [ 16.060418868485613, 69.227599479682553 ], [ 16.05904786676993, 69.227984600975105 ], [ 16.055278727760012, 69.227900054114059 ], [ 16.054460326847298, 69.228218975336276 ], [ 16.053150628644524, 69.228307513499459 ], [ 16.053106626874225, 69.228442498438881 ], [ 16.053395368012445, 69.22866505493765 ], [ 16.053931514540579, 69.228778291596981 ], [ 16.05370589310867, 69.22881554549565 ], [ 16.052151456246385, 69.228547073096124 ], [ 16.051245487141401, 69.228624166317942 ], [ 16.052356053252847, 69.229119761148496 ], [ 16.052647395514615, 69.229396028173767 ], [ 16.053158731798202, 69.229518477411261 ], [ 16.056984775247781, 69.22972838132992 ], [ 16.056162407110925, 69.229966522611804 ], [ 16.056536135129296, 69.230376816512987 ], [ 16.056502161108785, 69.23071785197925 ], [ 16.056870243174696, 69.231011580872405 ], [ 16.05692730985745, 69.231145768711045 ], [ 16.056780078324596, 69.231236361467367 ], [ 16.055100843045036, 69.231004465349159 ], [ 16.053939042047812, 69.23154074103725 ], [ 16.05379570191586, 69.231711939969927 ], [ 16.053864489378711, 69.232088313621603 ], [ 16.054251688065708, 69.23277657341923 ], [ 16.054900753867503, 69.233131284814661 ], [ 16.055638294959532, 69.233225527233941 ], [ 16.055547673043463, 69.233441340667795 ], [ 16.056555324036509, 69.233892514047454 ], [ 16.059351240661446, 69.234736689851843 ], [ 16.059661705198796, 69.234878111796476 ], [ 16.059672194147193, 69.235093306987295 ], [ 16.059853884022992, 69.235190762804621 ], [ 16.061687120638737, 69.235457634027853 ], [ 16.062521936099238, 69.235409088371043 ], [ 16.06334836867725, 69.234801632462279 ] ], [ [ 16.058399946391983, 69.229728590277574 ], [ 16.058380356243305, 69.229845309343602 ], [ 16.057949570874978, 69.229821042409085 ], [ 16.058399946391983, 69.229728590277574 ] ] ] ] } },
{ "type": "Feature", "properties": { "fid": 216240, "navn": "Steintjørna", "hoyde_moh": 29, "arealInnsjo_km2": 0.0177, "magasinKategori": null, "fid_2": 971, "id": 971, "left": 15.986919847, "top": 69.446110046000001, "right": 16.486919847, "bottom": 68.946110046000001, "row_index": 10, "col_index": 24, "tile_id": 971 }, "geometry": { "type": "MultiPolygon", "coordinates": [ [ [ [ 16.134278159925195, 69.262469007414353 ], [ 16.136975460710815, 69.262262841583535 ], [ 16.137226120750562, 69.262216435842092 ], [ 16.13729309698968, 69.262045578564695 ], [ 16.136446881864455, 69.261351539350287 ], [ 16.135484100248, 69.261330959001185 ], [ 16.133852287687581, 69.261583842024677 ], [ 16.132242830692707, 69.262751340217534 ], [ 16.132249845508493, 69.2628858335149 ], [ 16.134278159925195, 69.262469007414353 ] ] ] ] } },
{ "type": "Feature", "properties": { "fid": 220136, "navn": "Trollvatnet", "hoyde_moh": 338, "arealInnsjo_km2": 0.1282, "magasinKategori": null, "fid_2": 971, "id": 971, "left": 15.986919847, "top": 69.446110046000001, "right": 16.486919847, "bottom": 68.946110046000001, "row_index": 10, "col_index": 24, "tile_id": 971 }, "geometry": { "type": "MultiPolygon", "coordinates": [ [ [ [ 16.351254399441963, 68.955855683396337 ], [ 16.353453744517111, 68.955497401879967 ], [ 16.35514678084991, 68.955430154963551 ], [ 16.357021725944072, 68.955074400642658 ], [ 16.357262659106944, 68.954937933530005 ], [ 16.357385119325475, 68.954084794667651 ], [ 16.355710126838485, 68.953631652021187 ], [ 16.352267840003183, 68.953658945433915 ], [ 16.351226459582069, 68.953362203688641 ], [ 16.350476498452853, 68.953341225868584 ], [ 16.349470802771005, 68.953627250757762 ], [ 16.346734060089993, 68.953765467399975 ], [ 16.344859802391351, 68.954542699134279 ], [ 16.344779150127103, 68.954857288773283 ], [ 16.34446469307311, 68.955021226989018 ], [ 16.344478353640181, 68.95524537263573 ], [ 16.344897713986331, 68.955573965395942 ], [ 16.344364192466227, 68.955829329602338 ], [ 16.344407717322735, 68.956133971283094 ], [ 16.344971857967508, 68.956380693031392 ], [ 16.346712377932018, 68.956680931840353 ], [ 16.349645221721186, 68.95647837745868 ], [ 16.351254399441963, 68.955855683396337 ] ] ] ] } },
{ "type": "Feature", "properties": { "fid": 221796, "navn": "Nakkevatnet", "hoyde_moh": 35, "arealInnsjo_km2": 0.0664, "magasinKategori": null, "fid_2": 971, "id": 971, "left": 15.986919847, "top": 69.446110046000001, "right": 16.486919847, "bottom": 68.946110046000001, "row_index": 10, "col_index": 24, "tile_id": 971 }, "geometry": { "type": "MultiPolygon", "coordinates": [ [ [ [ 16.051149226814282, 69.225064094294865 ], [ 16.052608544496906, 69.224938691650664 ], [ 16.055499266343858, 69.224113635409324 ], [ 16.056262631529091, 69.223705353527208 ], [ 16.056024012634524, 69.223473705447603 ], [ 16.053668754832429, 69.222833262966702 ], [ 16.053034955623684, 69.222792375218006 ], [ 16.053146295943517, 69.222477865390374 ], [ 16.052634434746295, 69.222346361247318 ], [ 16.052076487007955, 69.222296038257767 ], [ 16.05131153557619, 69.22267731408067 ], [ 16.050825449410148, 69.222545826979058 ], [ 16.049872248645467, 69.222686075568745 ], [ 16.048671920313637, 69.223464719002166 ], [ 16.048962702906191, 69.223731936357083 ], [ 16.048809689923424, 69.224226258433276 ], [ 16.048565765387398, 69.2244071232181 ], [ 16.047937361553522, 69.224473723704847 ], [ 16.048575334615446, 69.225124506178361 ], [ 16.048936480378988, 69.225283845925105 ], [ 16.048748245270872, 69.225571912371706 ], [ 16.049053508872611, 69.225614902994153 ], [ 16.051149226814282, 69.225064094294865 ] ] ] ] } },
{ "type": "Feature", "properties": { "fid": 225271, "navn": "Trolldalstjørna", "hoyde_moh": 111, "arealInnsjo_km2": 0.0379, "magasinKategori": null, "fid_2": 971, "id": 971, "left": 15.986919847, "top": 69.446110046000001, "right": 16.486919847, "bottom": 68.946110046000001, "row_index": 10, "col_index": 24, "tile_id": 971 }, "geometry": { "type": "MultiPolygon", "coordinates": [ [ [ [ 16.009506537079506, 69.247798059030245 ], [ 16.009699397440542, 69.247599702984388 ], [ 16.008482725719766, 69.246996826132929 ], [ 16.006027674485125, 69.246410216057015 ], [ 16.002792688042369, 69.246455932237964 ], [ 16.002041634632089, 69.246621642984991 ], [ 16.00192514588327, 69.246837664684804 ], [ 16.002087599463831, 69.247069916795397 ], [ 16.003563151649264, 69.247805779714739 ], [ 16.004960447152069, 69.247941251092541 ], [ 16.009506537079506, 69.247798059030245 ] ] ] ] } },
{ "type": "Feature", "properties": { "fid": 227422, "navn": "Øvre Æråsvatnet", "hoyde_moh": 44, "arealInnsjo_km2": 0.2442, "magasinKategori": null, "fid_2": 971, "id": 971, "left": 15.986919847, "top": 69.446110046000001, "right": 16.486919847, "bottom": 68.946110046000001, "row_index": 10, "col_index": 24, "tile_id": 971 }, "geometry": { "type": "MultiPolygon", "coordinates": [ [ [ [ 16.041631485586024, 69.258450891260168 ], [ 16.041570143717131, 69.258227123497321 ], [ 16.042048534178328, 69.257650218169573 ], [ 16.041888585129634, 69.257480769854922 ], [ 16.039818134583211, 69.256515609366645 ], [ 16.039287788822342, 69.256007651542291 ], [ 16.039430106322193, 69.255809386060861 ], [ 16.041284210901981, 69.255430491403757 ], [ 16.041258416320577, 69.254892501527308 ], [ 16.040636725489954, 69.254062031627143 ], [ 16.040756313233945, 69.253917895677262 ], [ 16.041410021929771, 69.253833235379858 ], [ 16.041578461374918, 69.253652838345644 ], [ 16.041423704858754, 69.253590987480095 ], [ 16.040721999016789, 69.253729751485793 ], [ 16.038460962568937, 69.253537065500353 ], [ 16.036260842415736, 69.254079449321679 ], [ 16.034899785812282, 69.254186176200889 ], [ 16.033068967714001, 69.253990932262965 ], [ 16.030447996506506, 69.254203901129998 ], [ 16.029497530223118, 69.254433792950437 ], [ 16.028311101356174, 69.255023846196892 ], [ 16.027158655551418, 69.255263895671405 ], [ 16.02719710010717, 69.255541797656178 ], [ 16.02793544626951, 69.256174120824468 ], [ 16.027953444504121, 69.257088857756358 ], [ 16.028113281997385, 69.257258319066381 ], [ 16.02964333438025, 69.257509223140644 ], [ 16.030751906366149, 69.257942099077766 ], [ 16.035972709982612, 69.258646436628524 ], [ 16.042634427729787, 69.258785848407626 ], [ 16.041631485586024, 69.258450891260168 ] ] ] ] } },
{ "type": "Feature", "properties": { "fid": 227423, "navn": "Storvatnet", "hoyde_moh": 30, "arealInnsjo_km2": 0.9248, "magasinKategori": null, "fid_2": 971, "id": 971, "left": 15.986919847, "top": 69.446110046000001, "right": 16.486919847, "bottom": 68.946110046000001, "row_index": 10, "col_index": 24, "tile_id": 971 }, "geometry": { "type": "MultiPolygon", "coordinates": [ [ [ [ 16.06232066792418, 69.278424848545725 ], [ 16.063517295702312, 69.278552031639975 ], [ 16.064395135701801, 69.278376218661975 ], [ 16.064762608492885, 69.278122821672554 ], [ 16.064834601049853, 69.278041566735936 ], [ 16.063819195100752, 69.277994179735813 ], [ 16.064136714346141, 69.277749881038091 ], [ 16.06400415260569, 69.277634187770971 ], [ 16.063390344321167, 69.277512395079043 ], [ 16.062103914671255, 69.27761895975388 ], [ 16.061659006579951, 69.277325620938043 ], [ 16.062473883008696, 69.276899158538214 ], [ 16.064057486279211, 69.276656226102816 ], [ 16.064751856481234, 69.276355882181193 ], [ 16.065236194773529, 69.275904533484535 ], [ 16.065933172434367, 69.275658072938072 ], [ 16.06598709727891, 69.275209374201168 ], [ 16.067875364217514, 69.274471136107493 ], [ 16.069195986884065, 69.273521217739258 ], [ 16.070430922410885, 69.271863257407702 ], [ 16.069784201168368, 69.270557766072713 ], [ 16.069938386253636, 69.270090417055982 ], [ 16.069690706024829, 69.269688338427628 ], [ 16.068920375912288, 69.269468874069958 ], [ 16.064883418052869, 69.269233589736615 ], [ 16.060359890251682, 69.268364568466495 ], [ 16.057636189852335, 69.26805845292958 ], [ 16.057394902645779, 69.268302005045129 ], [ 16.055257407056185, 69.268601985929763 ], [ 16.052860240310945, 69.269280403052178 ], [ 16.051578591016824, 69.269476553668341 ], [ 16.049523432691192, 69.270430795160038 ], [ 16.047628392923734, 69.271034246829146 ], [ 16.047388263182835, 69.271304774074807 ], [ 16.047523478758176, 69.271483336706098 ], [ 16.047329639301029, 69.271663892552766 ], [ 16.045872341486003, 69.271896939914512 ], [ 16.044926447221762, 69.272234514259836 ], [ 16.04409472471799, 69.272840555947539 ], [ 16.041218871442219, 69.27306400492472 ], [ 16.040840949586723, 69.273631331352505 ], [ 16.041488879597047, 69.27394143755987 ], [ 16.043246810096338, 69.274164037554613 ], [ 16.042930649521523, 69.274435106379599 ], [ 16.043604503901165, 69.275283013586346 ], [ 16.045121662937401, 69.276287357458415 ], [ 16.045705620575671, 69.276848789809037 ], [ 16.046480562183444, 69.277158110097105 ], [ 16.047222590638953, 69.277315062272649 ], [ 16.048741711601956, 69.277305857680744 ], [ 16.049893054683004, 69.278070213850029 ], [ 16.052123254043938, 69.278621714656666 ], [ 16.053517979923711, 69.279178277918817 ], [ 16.057527407788598, 69.279333193104833 ], [ 16.06232066792418, 69.278424848545725 ] ] ] ] } },
{ "type": "Feature", "properties": { "fid": 227424, "navn": "Lomstjønna", "hoyde_moh": 24, "arealInnsjo_km2": 0.0294, "magasinKategori": null, "fid_2": 971, "id": 971, "left": 15.986919847, "top": 69.446110046000001, "right": 16.486919847, "bottom": 68.946110046000001, "row_index": 10, "col_index": 24, "tile_id": 971 }, "geometry": { "type": "MultiPolygon", "coordinates": [ [ [ [ 16.053831651505149, 69.285634110350131 ], [ 16.053896741050327, 69.285409486759832 ], [ 16.053761385402716, 69.285230929519471 ], [ 16.052916852570064, 69.285056599873656 ], [ 16.053696786322963, 69.284944312246012 ], [ 16.054134764959116, 69.285094118701252 ], [ 16.054521942563003, 69.284714967915406 ], [ 16.053093420166487, 69.283997262997744 ], [ 16.052287324822416, 69.28409185873177 ], [ 16.051511001009036, 69.283755664138212 ], [ 16.049511225628546, 69.2848352170342 ], [ 16.049579241253422, 69.285193567464262 ], [ 16.050793984468008, 69.285688462338157 ], [ 16.053584031944457, 69.285752216508499 ], [ 16.053831651505149, 69.285634110350131 ] ] ] ] } },
{ "type": "Feature", "properties": { "fid": 268580, "navn": "Trolldalsvatnet", "hoyde_moh": 160, "arealInnsjo_km2": 0.1659, "magasinKategori": 1, "fid_2": 971, "id": 971, "left": 15.986919847, "top": 69.446110046000001, "right": 16.486919847, "bottom": 68.946110046000001, "row_index": 10, "col_index": 24, "tile_id": 971 }, "geometry": { "type": "MultiPolygon", "coordinates": [ [ [ [ 16.014748079162935, 69.229524304230011 ], [ 16.017911107629285, 69.229075167621929 ], [ 16.020096796859779, 69.228264018591673 ], [ 16.020551946248489, 69.227732153092276 ], [ 16.020236193499837, 69.227464947406716 ], [ 16.019346599485289, 69.227353605001355 ], [ 16.018030180769752, 69.226760446155538 ], [ 16.01676005085686, 69.226615458235486 ], [ 16.015933724147128, 69.226234653884575 ], [ 16.012069245939156, 69.225719212345652 ], [ 16.011316481218756, 69.22583125314442 ], [ 16.009484600324686, 69.226640222017593 ], [ 16.008804406991118, 69.226689043851266 ], [ 16.007162573862445, 69.227245832839913 ], [ 16.007042497784493, 69.227381069072919 ], [ 16.007190801249738, 69.227855383821876 ], [ 16.007110520220184, 69.228304394122333 ], [ 16.006667841133105, 69.228567078433329 ], [ 16.007417475976006, 69.228930436149867 ], [ 16.007415058091421, 69.229423747670879 ], [ 16.007748886055129, 69.229538486527233 ], [ 16.01033240576146, 69.229666711284523 ], [ 16.012596103977089, 69.229438280657618 ], [ 16.014748079162935, 69.229524304230011 ] ] ] ] } }
]
}
