{
"type": "FeatureCollection",
"name": "innsjo_tile_id_656",
"crs": { "type": "name", "properties": { "name": "urn:ogc:def:crs:OGC:1.3:CRS84" } },
"xy_coordinate_resolution": 1e-15,
"features": [
{ "type": "Feature", "properties": { "fid": 99084, "navn": null, "hoyde_moh": null, "arealInnsjo_km2": 0.0044, "magasinKategori": 2, "fid_2": 656, "id": 656, "left": 11.986919847, "top": 66.946110046000001, "right": 12.486919847, "bottom": 66.446110046000001, "row_index": 15, "col_index": 16, "tile_id": 656 }, "geometry": { "type": "MultiPolygon", "coordinates": [ [ [ [ 12.07564807827884, 66.499719576994863 ], [ 12.074754881118499, 66.499121570770896 ], [ 12.074431697075219, 66.49905608379585 ], [ 12.074022963710883, 66.499207723977378 ], [ 12.075085974363402, 66.499617927570085 ], [ 12.075242422366385, 66.499777896379285 ], [ 12.075169012912111, 66.499935721024144 ], [ 12.07685270891783, 66.50047227078899 ], [ 12.077150013737588, 66.500340539087603 ], [ 12.07564807827884, 66.499719576994863 ] ] ] ] } },
{ "type": "Feature", "properties": { "fid": 141654, "navn": null, "hoyde_moh": null, "arealInnsjo_km2": 0.0055, "magasinKategori": null, "fid_2": 656, "id": 656, "left": 11.986919847, "top": 66.946110046000001, "right": 12.486919847, "bottom": 66.446110046000001, "row_index": 15, "col_index": 16, "tile_id": 656 }, "geometry": { "type": "MultiPolygon", "coordinates": [ [ [ [ 12.136923604569679, 66.569252100087041 ], [ 12.136088084864562, 66.568352802172811 ], [ 12.1349667005979, 66.568940968307501 ], [ 12.135809651027357, 66.569005038392717 ], [ 12.136373759243247, 66.56972106413744 ], [ 12.1367653996457, 66.569785053302809 ], [ 12.136923604569679, 66.569252100087041 ] ] ] ] } },
{ "type": "Feature", "properties": { "fid": 142679, "navn": null, "hoyde_moh": null, "arealInnsjo_km2": 0.0037, "magasinKategori": null, "fid_2": 656, "id": 656, "left": 11.986919847, "top": 66.946110046000001, "right": 12.486919847, "bottom": 66.446110046000001, "row_index": 15, "col_index": 16, "tile_id": 656 }, "geometry": { "type": "MultiPolygon", "coordinates": [ [ [ [ 12.108352376703497, 66.482716212651098 ], [ 12.108345512470661, 66.482556352219362 ], [ 12.10719421859403, 66.48217257177312 ], [ 12.106216750192502, 66.482253333895656 ], [ 12.10674636382519, 66.482392434186934 ], [ 12.106320699551501, 66.482506217186128 ], [ 12.108352376703497, 66.482716212651098 ] ] ] ] } }
]
}
