{
"type": "FeatureCollection",
"name": "innsjo_tile_id_618",
"crs": { "type": "name", "properties": { "name": "urn:ogc:def:crs:OGC:1.3:CRS84" } },
"xy_coordinate_resolution": 1e-15,
"features": [
{ "type": "Feature", "properties": { "fid": 15739, "navn": null, "hoyde_moh": 23, "arealInnsjo_km2": 0.0032, "magasinKategori": null, "fid_2": 618, "id": 618, "left": 11.486919847, "top": 65.946110046000001, "right": 11.986919847, "bottom": 65.446110046000001, "row_index": 17, "col_index": 15, "tile_id": 618 }, "geometry": { "type": "MultiPolygon", "coordinates": [ [ [ [ 11.926222661076158, 65.683969985552508 ], [ 11.927471989919329, 65.683272521586375 ], [ 11.927473495519481, 65.683092762124645 ], [ 11.926834193563703, 65.683024369407775 ], [ 11.926697201175719, 65.683161792094722 ], [ 11.92694434657253, 65.683228742478633 ], [ 11.926601066546979, 65.683468872516215 ], [ 11.925229358392981, 65.684051873238275 ], [ 11.926367776953491, 65.684101873130615 ], [ 11.926222661076158, 65.683969985552508 ] ] ] ] } },
{ "type": "Feature", "properties": { "fid": 15831, "navn": "Langklubbvalen", "hoyde_moh": null, "arealInnsjo_km2": 0.0154, "magasinKategori": null, "fid_2": 618, "id": 618, "left": 11.486919847, "top": 65.946110046000001, "right": 11.986919847, "bottom": 65.446110046000001, "row_index": 17, "col_index": 15, "tile_id": 618 }, "geometry": { "type": "MultiPolygon", "coordinates": [ [ [ [ 11.857299836990871, 65.698944480981979 ], [ 11.856317917347205, 65.697750609923403 ], [ 11.854249930225384, 65.697573770807935 ], [ 11.853880225275645, 65.69777835946131 ], [ 11.853314664890943, 65.697591287927722 ], [ 11.85288662092152, 65.697859691800048 ], [ 11.854190583961552, 65.69822150666046 ], [ 11.854171748629307, 65.69844635918524 ], [ 11.854941013301097, 65.698306324547858 ], [ 11.856504833030595, 65.698653991471744 ], [ 11.856693801448483, 65.698785147601384 ], [ 11.856628447771554, 65.698983984116353 ], [ 11.856887514876478, 65.699553775394833 ], [ 11.857168486836562, 65.699530560249912 ], [ 11.857299836990871, 65.698944480981979 ] ] ] ] } },
{ "type": "Feature", "properties": { "fid": 15964, "navn": null, "hoyde_moh": null, "arealInnsjo_km2": 0.0039, "magasinKategori": null, "fid_2": 618, "id": 618, "left": 11.486919847, "top": 65.946110046000001, "right": 11.986919847, "bottom": 65.446110046000001, "row_index": 17, "col_index": 15, "tile_id": 618 }, "geometry": { "type": "MultiPolygon", "coordinates": [ [ [ [ 11.920749792317579, 65.648192099998084 ], [ 11.920378803417202, 65.647795106179245 ], [ 11.920000746395688, 65.647721538609062 ], [ 11.918809262657204, 65.648346000483386 ], [ 11.919129259567795, 65.648483504934262 ], [ 11.920749792317579, 65.648192099998084 ] ] ] ] } },
{ "type": "Feature", "properties": { "fid": 25560, "navn": "Karbuvatnet", "hoyde_moh": 28, "arealInnsjo_km2": 0.1863, "magasinKategori": null, "fid_2": 618, "id": 618, "left": 11.486919847, "top": 65.946110046000001, "right": 11.986919847, "bottom": 65.446110046000001, "row_index": 17, "col_index": 15, "tile_id": 618 }, "geometry": { "type": "MultiPolygon", "coordinates": [ [ [ [ 11.886414830936607, 65.66862889393569 ], [ 11.886850190069289, 65.668629621541015 ], [ 11.886899135011827, 65.668287467580015 ], [ 11.886642114274755, 65.667933221433074 ], [ 11.886851095336493, 65.667659808762735 ], [ 11.890091467042746, 65.666655601093865 ], [ 11.890144586274342, 65.666546761684174 ], [ 11.889704593466268, 65.666115142370458 ], [ 11.889218800406223, 65.666052502588798 ], [ 11.889211044815871, 65.665397109399791 ], [ 11.889834707990877, 65.664352546271459 ], [ 11.889883593367111, 65.664010480576707 ], [ 11.889458171313237, 65.663318176976091 ], [ 11.889476667707591, 65.663093317852088 ], [ 11.889194988015173, 65.662910193821361 ], [ 11.889697240914556, 65.662729972453846 ], [ 11.889571819641763, 65.662579767098478 ], [ 11.888984938758933, 65.662393281568413 ], [ 11.888495707067783, 65.662689887699372 ], [ 11.887074666534151, 65.663022138416736 ], [ 11.883490252730544, 65.663278681147318 ], [ 11.883209015311172, 65.66349043913992 ], [ 11.883378027257116, 65.66363992591728 ], [ 11.88303696902237, 65.664292942090256 ], [ 11.882547812792826, 65.664787109409659 ], [ 11.882052857584556, 65.664446303332454 ], [ 11.881198832267568, 65.664399536658863 ], [ 11.880761741090083, 65.664578372022504 ], [ 11.880922951931391, 65.665051279580837 ], [ 11.881685493588082, 65.665252439709008 ], [ 11.882419904857066, 65.665202546012381 ], [ 11.882094319282734, 65.665406299634924 ], [ 11.881979195900474, 65.665740721709497 ], [ 11.881660246954672, 65.665809629293946 ], [ 11.881502970374305, 65.666351362464155 ], [ 11.880892109653674, 65.666731042772057 ], [ 11.880728270366587, 65.667021448441886 ], [ 11.8813755582912, 65.667359450527798 ], [ 11.88343558361513, 65.667679667395859 ], [ 11.883867161038298, 65.667842070029678 ], [ 11.884242917615264, 65.668284068040606 ], [ 11.885649732351313, 65.668014951862361 ], [ 11.885984570633378, 65.668089334202733 ], [ 11.886142828682368, 65.668337744738764 ], [ 11.885637792983236, 65.668688533938194 ], [ 11.885699062764997, 65.668849015686931 ], [ 11.886414830936607, 65.66862889393569 ] ] ] ] } },
{ "type": "Feature", "properties": { "fid": 62143, "navn": "Mårnestjørna", "hoyde_moh": null, "arealInnsjo_km2": 0.0094, "magasinKategori": null, "fid_2": 618, "id": 618, "left": 11.486919847, "top": 65.946110046000001, "right": 11.986919847, "bottom": 65.446110046000001, "row_index": 17, "col_index": 15, "tile_id": 618 }, "geometry": { "type": "MultiPolygon", "coordinates": [ [ [ [ 11.824499228837551, 65.660397426857742 ], [ 11.824236000372604, 65.660177736857747 ], [ 11.824182074170444, 65.65988239069226 ], [ 11.822897021750151, 65.659672813721031 ], [ 11.822449697874532, 65.659761911340468 ], [ 11.822223773505396, 65.660484487428704 ], [ 11.823080317470405, 65.660755899915031 ], [ 11.823950964644352, 65.660757808784084 ], [ 11.824499228837551, 65.660397426857742 ] ] ] ] } },
{ "type": "Feature", "properties": { "fid": 62204, "navn": null, "hoyde_moh": null, "arealInnsjo_km2": 0.0031, "magasinKategori": null, "fid_2": 618, "id": 618, "left": 11.486919847, "top": 65.946110046000001, "right": 11.986919847, "bottom": 65.446110046000001, "row_index": 17, "col_index": 15, "tile_id": 618 }, "geometry": { "type": "MultiPolygon", "coordinates": [ [ [ [ 11.897150240368108, 65.706624132002702 ], [ 11.895824695973413, 65.706272230759581 ], [ 11.895728146346231, 65.705995726029414 ], [ 11.895238985978288, 65.706103772068388 ], [ 11.895836112375781, 65.706765771276224 ], [ 11.897076327444971, 65.706742250255843 ], [ 11.897150240368108, 65.706624132002702 ] ] ] ] } },
{ "type": "Feature", "properties": { "fid": 62218, "navn": null, "hoyde_moh": null, "arealInnsjo_km2": 0.0054, "magasinKategori": null, "fid_2": 618, "id": 618, "left": 11.486919847, "top": 65.946110046000001, "right": 11.986919847, "bottom": 65.446110046000001, "row_index": 17, "col_index": 15, "tile_id": 618 }, "geometry": { "type": "MultiPolygon", "coordinates": [ [ [ [ 11.865439573968878, 65.702976176347406 ], [ 11.865827219730521, 65.70293286553931 ], [ 11.865768579976621, 65.70260170389507 ], [ 11.865331510390359, 65.702394420597457 ], [ 11.865824783626033, 65.701927230679132 ], [ 11.865389696657312, 65.701737859996712 ], [ 11.864572100021039, 65.70183384594705 ], [ 11.864845885279358, 65.701945630302333 ], [ 11.865071882831003, 65.703198435716757 ], [ 11.865551305033975, 65.70319841440373 ], [ 11.865439573968878, 65.702976176347406 ] ] ] ] } },
{ "type": "Feature", "properties": { "fid": 62261, "navn": null, "hoyde_moh": null, "arealInnsjo_km2": 0.0059, "magasinKategori": null, "fid_2": 618, "id": 618, "left": 11.486919847, "top": 65.946110046000001, "right": 11.986919847, "bottom": 65.446110046000001, "row_index": 17, "col_index": 15, "tile_id": 618 }, "geometry": { "type": "MultiPolygon", "coordinates": [ [ [ [ 11.985288554742684, 65.676143081193104 ], [ 11.984894615069241, 65.67593529575349 ], [ 11.985143782971218, 65.67564307234737 ], [ 11.985014780472719, 65.675466033949789 ], [ 11.985738103033141, 65.675317177855376 ], [ 11.984855530596494, 65.675217722550073 ], [ 11.984584500173929, 65.675321736693832 ], [ 11.983491570392863, 65.676232154415615 ], [ 11.983707872453722, 65.676407510248666 ], [ 11.985288554742684, 65.676143081193104 ] ] ] ] } },
{ "type": "Feature", "properties": { "fid": 83905, "navn": null, "hoyde_moh": null, "arealInnsjo_km2": 0.0026, "magasinKategori": null, "fid_2": 618, "id": 618, "left": 11.486919847, "top": 65.946110046000001, "right": 11.986919847, "bottom": 65.446110046000001, "row_index": 17, "col_index": 15, "tile_id": 618 }, "geometry": { "type": "MultiPolygon", "coordinates": [ [ [ [ 11.705970187650426, 65.5751155518725 ], [ 11.705685227279682, 65.574877996511134 ], [ 11.704620886448831, 65.574654604694203 ], [ 11.704500336494364, 65.574746477729306 ], [ 11.704571391510026, 65.575014602183458 ], [ 11.704934684233995, 65.575169789276927 ], [ 11.705970187650426, 65.5751155518725 ] ] ] ] } },
{ "type": "Feature", "properties": { "fid": 83927, "navn": null, "hoyde_moh": null, "arealInnsjo_km2": 0.0049, "magasinKategori": null, "fid_2": 618, "id": 618, "left": 11.486919847, "top": 65.946110046000001, "right": 11.986919847, "bottom": 65.446110046000001, "row_index": 17, "col_index": 15, "tile_id": 618 }, "geometry": { "type": "MultiPolygon", "coordinates": [ [ [ [ 11.861403719707749, 65.703931779617818 ], [ 11.861280021060178, 65.703799459514599 ], [ 11.860548422781733, 65.703884981669518 ], [ 11.860216045847586, 65.703639784554454 ], [ 11.860985200463828, 65.70310455703256 ], [ 11.859617732783899, 65.703552291395496 ], [ 11.859935477051737, 65.704058082919602 ], [ 11.860962084403683, 65.704272491960722 ], [ 11.861403719707749, 65.703931779617818 ] ] ] ] } },
{ "type": "Feature", "properties": { "fid": 83938, "navn": "Skiftevatnet", "hoyde_moh": null, "arealInnsjo_km2": 0.0228, "magasinKategori": null, "fid_2": 618, "id": 618, "left": 11.486919847, "top": 65.946110046000001, "right": 11.986919847, "bottom": 65.446110046000001, "row_index": 17, "col_index": 15, "tile_id": 618 }, "geometry": { "type": "MultiPolygon", "coordinates": [ [ [ [ 11.961457171534137, 65.700072716597077 ], [ 11.963434198007054, 65.699827792654688 ], [ 11.964361768864592, 65.699360701389708 ], [ 11.963025371495242, 65.698731236446974 ], [ 11.961820908421776, 65.698682809878633 ], [ 11.960020383921448, 65.699516927880822 ], [ 11.960019121655863, 65.699696509037523 ], [ 11.960410253844332, 65.699877628240628 ], [ 11.960378244925067, 65.700740177790891 ], [ 11.961098905414016, 65.700753107902443 ], [ 11.961457171534137, 65.700072716597077 ] ], [ [ 11.961543466500787, 65.699684960614363 ], [ 11.962287988866549, 65.699715333930726 ], [ 11.961362764691001, 65.700011654662262 ], [ 11.961270951921094, 65.699780018492518 ], [ 11.961543466500787, 65.699684960614363 ] ] ] ] } },
{ "type": "Feature", "properties": { "fid": 83939, "navn": null, "hoyde_moh": null, "arealInnsjo_km2": 0.0037, "magasinKategori": null, "fid_2": 618, "id": 618, "left": 11.486919847, "top": 65.946110046000001, "right": 11.986919847, "bottom": 65.446110046000001, "row_index": 17, "col_index": 15, "tile_id": 618 }, "geometry": { "type": "MultiPolygon", "coordinates": [ [ [ [ 11.970343728366974, 65.701345529939402 ], [ 11.971488057662569, 65.701251433047631 ], [ 11.970775825050177, 65.701121707073966 ], [ 11.968178906410584, 65.701477519905765 ], [ 11.96842214776885, 65.701697344552557 ], [ 11.970343728366974, 65.701345529939402 ] ] ] ] } },
{ "type": "Feature", "properties": { "fid": 83940, "navn": null, "hoyde_moh": null, "arealInnsjo_km2": 0.0087, "magasinKategori": null, "fid_2": 618, "id": 618, "left": 11.486919847, "top": 65.946110046000001, "right": 11.986919847, "bottom": 65.446110046000001, "row_index": 17, "col_index": 15, "tile_id": 618 }, "geometry": { "type": "MultiPolygon", "coordinates": [ [ [ [ 11.986919847, 65.704098036372386 ], [ 11.986919847, 65.703638220245026 ], [ 11.986482985163699, 65.703499776286876 ], [ 11.98454710473476, 65.703915090151483 ], [ 11.985019377163566, 65.704228767895756 ], [ 11.986371185067229, 65.704229360425245 ], [ 11.986919847, 65.704098036372386 ] ] ] ] } },
{ "type": "Feature", "properties": { "fid": 84116, "navn": null, "hoyde_moh": null, "arealInnsjo_km2": 0.0028, "magasinKategori": null, "fid_2": 618, "id": 618, "left": 11.486919847, "top": 65.946110046000001, "right": 11.986919847, "bottom": 65.446110046000001, "row_index": 17, "col_index": 15, "tile_id": 618 }, "geometry": { "type": "MultiPolygon", "coordinates": [ [ [ [ 11.868101980094174, 65.595783290171994 ], [ 11.869085520526324, 65.595648009414859 ], [ 11.868283675351085, 65.595268027827402 ], [ 11.867739514113284, 65.595448913447314 ], [ 11.867847750132226, 65.595644413930046 ], [ 11.867679407139248, 65.595890164333611 ], [ 11.86789340957804, 65.59605659135498 ], [ 11.868171948280235, 65.596024343139717 ], [ 11.868101980094174, 65.595783290171994 ] ] ] ] } },
{ "type": "Feature", "properties": { "fid": 105684, "navn": null, "hoyde_moh": null, "arealInnsjo_km2": 0.003, "magasinKategori": null, "fid_2": 618, "id": 618, "left": 11.486919847, "top": 65.946110046000001, "right": 11.986919847, "bottom": 65.446110046000001, "row_index": 17, "col_index": 15, "tile_id": 618 }, "geometry": { "type": "MultiPolygon", "coordinates": [ [ [ [ 11.915630386954833, 65.672894553164795 ], [ 11.914918110895767, 65.672755567369492 ], [ 11.915628844765218, 65.672490485391975 ], [ 11.913670218754602, 65.672501012260781 ], [ 11.914313849567955, 65.672803048138377 ], [ 11.914307152565595, 65.672937890777348 ], [ 11.915630386954833, 65.672894553164795 ] ] ] ] } },
{ "type": "Feature", "properties": { "fid": 105850, "navn": "Ner-Osen", "hoyde_moh": null, "arealInnsjo_km2": 0.0442, "magasinKategori": null, "fid_2": 618, "id": 618, "left": 11.486919847, "top": 65.946110046000001, "right": 11.986919847, "bottom": 65.446110046000001, "row_index": 17, "col_index": 15, "tile_id": 618 }, "geometry": { "type": "MultiPolygon", "coordinates": [ [ [ [ 11.896867970627119, 65.702157691757918 ], [ 11.896329535845732, 65.701826660078893 ], [ 11.896209417487809, 65.700948958492162 ], [ 11.897368894270405, 65.700594744232134 ], [ 11.897649337341683, 65.700373869538112 ], [ 11.897639466818131, 65.699898052743563 ], [ 11.89820030668475, 65.69945648087932 ], [ 11.89978397208678, 65.698806705773322 ], [ 11.899957785769507, 65.698605841009837 ], [ 11.899726792622888, 65.698296070434353 ], [ 11.899087498030386, 65.697841218583235 ], [ 11.897669238373776, 65.697437148357778 ], [ 11.897509280026709, 65.697565998335421 ], [ 11.897731225131274, 65.697992786357062 ], [ 11.897665811656031, 65.69838022804494 ], [ 11.896950125206521, 65.698995295479676 ], [ 11.896114469852741, 65.700097723250394 ], [ 11.896602307961789, 65.700366837420702 ], [ 11.895728259353822, 65.700931168650442 ], [ 11.895950202529496, 65.701357959099553 ], [ 11.895198859646596, 65.701264527087346 ], [ 11.895552959662272, 65.700727958536817 ], [ 11.89517171559371, 65.700438919515832 ], [ 11.894707577443214, 65.701354655290359 ], [ 11.893289344450764, 65.701731776935674 ], [ 11.893260889707999, 65.701867074853865 ], [ 11.894737655057744, 65.70162352081357 ], [ 11.894799548729765, 65.701981494036417 ], [ 11.894311961991001, 65.701909954419236 ], [ 11.894189747717062, 65.702181644852971 ], [ 11.89554996195568, 65.702649671841314 ], [ 11.895985894108872, 65.702650375717624 ], [ 11.896867970627119, 65.702157691757918 ] ] ] ] } },
{ "type": "Feature", "properties": { "fid": 105973, "navn": null, "hoyde_moh": null, "arealInnsjo_km2": 0.0038, "magasinKategori": null, "fid_2": 618, "id": 618, "left": 11.486919847, "top": 65.946110046000001, "right": 11.986919847, "bottom": 65.446110046000001, "row_index": 17, "col_index": 15, "tile_id": 618 }, "geometry": { "type": "MultiPolygon", "coordinates": [ [ [ [ 11.81171609390174, 65.880842930596984 ], [ 11.811435666566171, 65.880686396544618 ], [ 11.811661922962365, 65.880547496364002 ], [ 11.811069386149709, 65.880549450737874 ], [ 11.810956967255363, 65.880327077306163 ], [ 11.810459363229844, 65.880390099246981 ], [ 11.810618625482205, 65.881042650263183 ], [ 11.810947138166553, 65.881036641996047 ], [ 11.811062094408779, 65.880881865799978 ], [ 11.811921526417402, 65.881315023642387 ], [ 11.81171609390174, 65.880842930596984 ] ] ] ] } },
{ "type": "Feature", "properties": { "fid": 122705, "navn": null, "hoyde_moh": null, "arealInnsjo_km2": 0.0079, "magasinKategori": null, "fid_2": 618, "id": 618, "left": 11.486919847, "top": 65.946110046000001, "right": 11.986919847, "bottom": 65.446110046000001, "row_index": 17, "col_index": 15, "tile_id": 618 }, "geometry": { "type": "MultiPolygon", "coordinates": [ [ [ [ 11.814964945331216, 65.643333868828208 ], [ 11.814439500409128, 65.643101124427176 ], [ 11.812808788880858, 65.643104429039241 ], [ 11.811760625034472, 65.643464980629759 ], [ 11.814358582155133, 65.643758290120445 ], [ 11.814964945331216, 65.643333868828208 ] ] ] ] } },
{ "type": "Feature", "properties": { "fid": 122842, "navn": "Olhåksådammen", "hoyde_moh": null, "arealInnsjo_km2": 0.0084, "magasinKategori": null, "fid_2": 618, "id": 618, "left": 11.486919847, "top": 65.946110046000001, "right": 11.986919847, "bottom": 65.446110046000001, "row_index": 17, "col_index": 15, "tile_id": 618 }, "geometry": { "type": "MultiPolygon", "coordinates": [ [ [ [ 11.890066954803984, 65.696494984377139 ], [ 11.889680748646567, 65.695963528665615 ], [ 11.889211818266071, 65.695667115007865 ], [ 11.889153335049052, 65.695533545670145 ], [ 11.889423871300361, 65.695420611351253 ], [ 11.888605428652291, 65.695310417196396 ], [ 11.888712451077382, 65.695487995253544 ], [ 11.888448752897196, 65.695663663574138 ], [ 11.888724159682718, 65.696179210621679 ], [ 11.888561091118826, 65.696281046182435 ], [ 11.888925645868955, 65.696812961173677 ], [ 11.889620792360688, 65.696988261667116 ], [ 11.890058375546003, 65.696809403563734 ], [ 11.890066954803984, 65.696494984377139 ] ] ] ] } },
{ "type": "Feature", "properties": { "fid": 123091, "navn": "Hestvatnet", "hoyde_moh": null, "arealInnsjo_km2": 0.0461, "magasinKategori": null, "fid_2": 618, "id": 618, "left": 11.486919847, "top": 65.946110046000001, "right": 11.986919847, "bottom": 65.446110046000001, "row_index": 17, "col_index": 15, "tile_id": 618 }, "geometry": { "type": "MultiPolygon", "coordinates": [ [ [ [ 11.986619458384121, 65.649904208221713 ], [ 11.986515032207274, 65.650130777132617 ], [ 11.986771197228345, 65.650466948710175 ], [ 11.986919847, 65.65056853233304 ], [ 11.986919847, 65.64983350409581 ], [ 11.986619458384121, 65.649904208221713 ] ] ] ] } },
{ "type": "Feature", "properties": { "fid": 123095, "navn": null, "hoyde_moh": null, "arealInnsjo_km2": 0.0029, "magasinKategori": null, "fid_2": 618, "id": 618, "left": 11.486919847, "top": 65.946110046000001, "right": 11.986919847, "bottom": 65.446110046000001, "row_index": 17, "col_index": 15, "tile_id": 618 }, "geometry": { "type": "MultiPolygon", "coordinates": [ [ [ [ 11.927218006438439, 65.671774313860183 ], [ 11.927244148453791, 65.671542874375348 ], [ 11.926768663096626, 65.671459730642781 ], [ 11.926286833047461, 65.671819197321469 ], [ 11.926216189660609, 65.672350406764068 ], [ 11.926712849860671, 65.672313909621352 ], [ 11.927218006438439, 65.671774313860183 ] ] ] ] } },
{ "type": "Feature", "properties": { "fid": 128053, "navn": null, "hoyde_moh": null, "arealInnsjo_km2": 0.0129, "magasinKategori": null, "fid_2": 618, "id": 618, "left": 11.486919847, "top": 65.946110046000001, "right": 11.986919847, "bottom": 65.446110046000001, "row_index": 17, "col_index": 15, "tile_id": 618 }, "geometry": { "type": "MultiPolygon", "coordinates": [ [ [ [ 11.956499885737939, 65.712390572786063 ], [ 11.956390304947517, 65.712195039487824 ], [ 11.95578851198105, 65.712081101371865 ], [ 11.953388572366283, 65.712262264868428 ], [ 11.952900135690133, 65.711993333816523 ], [ 11.952885891864273, 65.711679275953884 ], [ 11.953049720405726, 65.71158627997842 ], [ 11.953827901411554, 65.7115263011205 ], [ 11.954046913870563, 65.711342447736868 ], [ 11.95266789122706, 65.711297386215875 ], [ 11.951900576665865, 65.71164449849617 ], [ 11.952069392771566, 65.711784912699912 ], [ 11.951852384257064, 65.711986764274343 ], [ 11.952449179008168, 65.712055986026641 ], [ 11.952336059815295, 65.712210881578656 ], [ 11.952881538369422, 65.7125953637713 ], [ 11.95358107911454, 65.712420123306813 ], [ 11.954848874143188, 65.712637981419235 ], [ 11.956394941723694, 65.712617027714259 ], [ 11.956499885737939, 65.712390572786063 ] ] ] ] } },
{ "type": "Feature", "properties": { "fid": 128103, "navn": null, "hoyde_moh": null, "arealInnsjo_km2": 0.0025, "magasinKategori": null, "fid_2": 618, "id": 618, "left": 11.486919847, "top": 65.946110046000001, "right": 11.986919847, "bottom": 65.446110046000001, "row_index": 17, "col_index": 15, "tile_id": 618 }, "geometry": { "type": "MultiPolygon", "coordinates": [ [ [ [ 11.858662245922952, 65.700229887186637 ], [ 11.859163466308711, 65.700229437970322 ], [ 11.859168493587614, 65.700076686958752 ], [ 11.857590368191499, 65.699800960861225 ], [ 11.857384545264155, 65.699912571311756 ], [ 11.857382986766007, 65.700289736607431 ], [ 11.857519323000238, 65.700341043980146 ], [ 11.858039555732308, 65.700115839509152 ], [ 11.858662245922952, 65.700229887186637 ] ] ] ] } },
{ "type": "Feature", "properties": { "fid": 128148, "navn": "Øver-Osen", "hoyde_moh": null, "arealInnsjo_km2": 0.0123, "magasinKategori": null, "fid_2": 618, "id": 618, "left": 11.486919847, "top": 65.946110046000001, "right": 11.986919847, "bottom": 65.446110046000001, "row_index": 17, "col_index": 15, "tile_id": 618 }, "geometry": { "type": "MultiPolygon", "coordinates": [ [ [ [ 11.901587214446165, 65.696617336780591 ], [ 11.901393929168337, 65.696252924617212 ], [ 11.900528562286766, 65.69553304352705 ], [ 11.900156607428594, 65.694740839767533 ], [ 11.899670546873844, 65.694875901405297 ], [ 11.899337665139962, 65.695600604515917 ], [ 11.899493334774238, 65.695822090918966 ], [ 11.90003744552704, 65.696206932718781 ], [ 11.900403358401769, 65.696747645111458 ], [ 11.901092897775307, 65.697066827603692 ], [ 11.901392329159096, 65.697016246920057 ], [ 11.901587214446165, 65.696617336780591 ] ] ] ] } },
{ "type": "Feature", "properties": { "fid": 128196, "navn": null, "hoyde_moh": null, "arealInnsjo_km2": 0.0036, "magasinKategori": null, "fid_2": 618, "id": 618, "left": 11.486919847, "top": 65.946110046000001, "right": 11.986919847, "bottom": 65.446110046000001, "row_index": 17, "col_index": 15, "tile_id": 618 }, "geometry": { "type": "MultiPolygon", "coordinates": [ [ [ [ 11.973352688333811, 65.69509074664208 ], [ 11.973979934612982, 65.69486306848151 ], [ 11.973505010313952, 65.694710673823792 ], [ 11.972559478225527, 65.694639272473836 ], [ 11.972032163276412, 65.694793226550388 ], [ 11.972072831784939, 65.694954152367359 ], [ 11.972570736464183, 65.695115000397365 ], [ 11.973738419302283, 65.69522691268142 ], [ 11.973352688333811, 65.69509074664208 ] ] ] ] } },
{ "type": "Feature", "properties": { "fid": 128451, "navn": null, "hoyde_moh": null, "arealInnsjo_km2": 0.0036, "magasinKategori": null, "fid_2": 618, "id": 618, "left": 11.486919847, "top": 65.946110046000001, "right": 11.986919847, "bottom": 65.446110046000001, "row_index": 17, "col_index": 15, "tile_id": 618 }, "geometry": { "type": "MultiPolygon", "coordinates": [ [ [ [ 11.980390941854226, 65.88967168200243 ], [ 11.980278405910722, 65.889269764361572 ], [ 11.97990397835988, 65.889070577020391 ], [ 11.979359384007669, 65.889108163297053 ], [ 11.979245323917883, 65.889828630777316 ], [ 11.979412229791627, 65.889942193395541 ], [ 11.980390941854226, 65.88967168200243 ] ] ] ] } },
{ "type": "Feature", "properties": { "fid": 135234, "navn": null, "hoyde_moh": null, "arealInnsjo_km2": 0.005, "magasinKategori": null, "fid_2": 618, "id": 618, "left": 11.486919847, "top": 65.946110046000001, "right": 11.986919847, "bottom": 65.446110046000001, "row_index": 17, "col_index": 15, "tile_id": 618 }, "geometry": { "type": "MultiPolygon", "coordinates": [ [ [ [ 11.869198723744443, 65.704243289711954 ], [ 11.870288113125502, 65.703845713793086 ], [ 11.867237908561686, 65.704253214094976 ], [ 11.867769880008536, 65.70453060535435 ], [ 11.868627208207219, 65.704595096165448 ], [ 11.869198723744443, 65.704243289711954 ] ] ] ] } },
{ "type": "Feature", "properties": { "fid": 135235, "navn": null, "hoyde_moh": null, "arealInnsjo_km2": 0.0039, "magasinKategori": null, "fid_2": 618, "id": 618, "left": 11.486919847, "top": 65.946110046000001, "right": 11.986919847, "bottom": 65.446110046000001, "row_index": 17, "col_index": 15, "tile_id": 618 }, "geometry": { "type": "MultiPolygon", "coordinates": [ [ [ [ 11.895584467035523, 65.704516827495468 ], [ 11.894708602979158, 65.704677167535564 ], [ 11.894328358181108, 65.704980513175926 ], [ 11.895307396226812, 65.705159590165181 ], [ 11.895188496835559, 65.705458111300899 ], [ 11.895846902406984, 65.705454903189477 ], [ 11.895584467035523, 65.704516827495468 ] ], [ [ 11.895132903456732, 65.704767802352066 ], [ 11.895153036235101, 65.704947017547454 ], [ 11.894553700457536, 65.704850572611349 ], [ 11.895132903456732, 65.704767802352066 ] ] ] ] } },
{ "type": "Feature", "properties": { "fid": 135281, "navn": null, "hoyde_moh": null, "arealInnsjo_km2": 0.0039, "magasinKategori": null, "fid_2": 618, "id": 618, "left": 11.486919847, "top": 65.946110046000001, "right": 11.986919847, "bottom": 65.446110046000001, "row_index": 17, "col_index": 15, "tile_id": 618 }, "geometry": { "type": "MultiPolygon", "coordinates": [ [ [ [ 11.901247479590804, 65.708360252110509 ], [ 11.901277583056224, 65.708045284324214 ], [ 11.900062833811186, 65.707906808549197 ], [ 11.899516287411025, 65.708087792241443 ], [ 11.899350605249015, 65.708360308708237 ], [ 11.901247479590804, 65.708360252110509 ] ] ] ] } },
{ "type": "Feature", "properties": { "fid": 141545, "navn": null, "hoyde_moh": null, "arealInnsjo_km2": 0.031, "magasinKategori": null, "fid_2": 618, "id": 618, "left": 11.486919847, "top": 65.946110046000001, "right": 11.986919847, "bottom": 65.446110046000001, "row_index": 17, "col_index": 15, "tile_id": 618 }, "geometry": { "type": "MultiPolygon", "coordinates": [ [ [ [ 11.892991104908097, 65.603644010997982 ], [ 11.893315214131732, 65.603527060724687 ], [ 11.892656183527391, 65.603081164510186 ], [ 11.893294289531752, 65.603222454373295 ], [ 11.893594885917503, 65.603494788304829 ], [ 11.89373812107587, 65.603450207443714 ], [ 11.893690265601876, 65.603178279662288 ], [ 11.89437074804211, 65.603253973294713 ], [ 11.894446281984212, 65.603103472359734 ], [ 11.893712210946877, 65.602898348624493 ], [ 11.893118271009847, 65.602867259236362 ], [ 11.892964842556262, 65.602997128046468 ], [ 11.892281026109407, 65.602469896190357 ], [ 11.891886751213971, 65.602499912256519 ], [ 11.890346482803878, 65.602021611740255 ], [ 11.889484791975489, 65.60134820124064 ], [ 11.889157508337954, 65.601393770727285 ], [ 11.889211781016767, 65.60161347412766 ], [ 11.888406713884102, 65.601330892639112 ], [ 11.887890525224556, 65.601610223721281 ], [ 11.887987787839002, 65.601949623998124 ], [ 11.888678133260942, 65.602134842163451 ], [ 11.891281698578084, 65.603618577224609 ], [ 11.893685467594336, 65.604275990520136 ], [ 11.892991104908097, 65.603644010997982 ] ], [ [ 11.890091479893513, 65.602040193129881 ], [ 11.89027843363484, 65.60220558285252 ], [ 11.890115282548452, 65.602226043647221 ], [ 11.889953489292822, 65.602137146047113 ], [ 11.890091479893513, 65.602040193129881 ] ] ] ] } },
{ "type": "Feature", "properties": { "fid": 142951, "navn": null, "hoyde_moh": null, "arealInnsjo_km2": 0.0048, "magasinKategori": null, "fid_2": 618, "id": 618, "left": 11.486919847, "top": 65.946110046000001, "right": 11.986919847, "bottom": 65.446110046000001, "row_index": 17, "col_index": 15, "tile_id": 618 }, "geometry": { "type": "MultiPolygon", "coordinates": [ [ [ [ 11.974534621862539, 65.654172765425528 ], [ 11.972802058536704, 65.654242674064548 ], [ 11.970346218265922, 65.653697927644643 ], [ 11.970697443169522, 65.653915505111186 ], [ 11.97280795290115, 65.654484809953772 ], [ 11.973775644010692, 65.654573826016488 ], [ 11.974478685791892, 65.654443307105538 ], [ 11.974534621862539, 65.654172765425528 ] ] ] ] } },
{ "type": "Feature", "properties": { "fid": 149991, "navn": "Einåsvatnet", "hoyde_moh": null, "arealInnsjo_km2": 0.0213, "magasinKategori": null, "fid_2": 618, "id": 618, "left": 11.486919847, "top": 65.946110046000001, "right": 11.986919847, "bottom": 65.446110046000001, "row_index": 17, "col_index": 15, "tile_id": 618 }, "geometry": { "type": "MultiPolygon", "coordinates": [ [ [ [ 11.967768600867348, 65.69846833203907 ], [ 11.967508017122951, 65.697907628639555 ], [ 11.967179905894433, 65.697707486336668 ], [ 11.970275030467397, 65.697710033097536 ], [ 11.968106197544, 65.697231458546696 ], [ 11.965815789600637, 65.697024600110723 ], [ 11.964022278487885, 65.697158258531246 ], [ 11.963679049952303, 65.697586966709949 ], [ 11.963907731780761, 65.697681324490489 ], [ 11.965155727177786, 65.697540309587012 ], [ 11.965792207716961, 65.697770392526721 ], [ 11.966712656794773, 65.698192374391155 ], [ 11.966867158863614, 65.69878213028602 ], [ 11.968189801843348, 65.698720523966884 ], [ 11.969102612262889, 65.699079925436678 ], [ 11.969185764627042, 65.698853839080513 ], [ 11.967768600867348, 65.69846833203907 ] ] ] ] } },
{ "type": "Feature", "properties": { "fid": 150109, "navn": null, "hoyde_moh": null, "arealInnsjo_km2": 0.0038, "magasinKategori": null, "fid_2": 618, "id": 618, "left": 11.486919847, "top": 65.946110046000001, "right": 11.986919847, "bottom": 65.446110046000001, "row_index": 17, "col_index": 15, "tile_id": 618 }, "geometry": { "type": "MultiPolygon", "coordinates": [ [ [ [ 11.882013791795789, 65.691690734176476 ], [ 11.882675317685468, 65.691372877002564 ], [ 11.881371798827615, 65.691173508140878 ], [ 11.881379214449945, 65.691864370302781 ], [ 11.881144875842555, 65.692201382689959 ], [ 11.881416164899198, 65.692196157282638 ], [ 11.882013791795789, 65.691690734176476 ] ] ] ] } },
{ "type": "Feature", "properties": { "fid": 158997, "navn": "Kjellarhaugvatnet", "hoyde_moh": null, "arealInnsjo_km2": 0.0385, "magasinKategori": null, "fid_2": 618, "id": 618, "left": 11.486919847, "top": 65.946110046000001, "right": 11.986919847, "bottom": 65.446110046000001, "row_index": 17, "col_index": 15, "tile_id": 618 }, "geometry": { "type": "MultiPolygon", "coordinates": [ [ [ [ 11.9581752761899, 65.695008907027145 ], [ 11.960746842304786, 65.695389961158426 ], [ 11.96172871541113, 65.695209364492527 ], [ 11.961472240854928, 65.694873058121715 ], [ 11.959945356846257, 65.6946692924042 ], [ 11.96039387407196, 65.694400116849025 ], [ 11.961157126903982, 65.694403302093733 ], [ 11.961160210893643, 65.694241538309399 ], [ 11.961488717020393, 65.694064439998797 ], [ 11.961470376292084, 65.693903236965454 ], [ 11.960846365295884, 65.693592200348121 ], [ 11.961493730716983, 65.693346025077474 ], [ 11.961480381435797, 65.693229553693413 ], [ 11.961185314463819, 65.693127491898636 ], [ 11.960515190084989, 65.693365219486807 ], [ 11.959862094053637, 65.693368807746168 ], [ 11.958545664190002, 65.693672661285945 ], [ 11.958223477856379, 65.693903402396401 ], [ 11.956977807383568, 65.693873778401368 ], [ 11.956688908658798, 65.694014030650862 ], [ 11.956801366560658, 65.694236384114078 ], [ 11.956197963575431, 65.694104447979015 ], [ 11.956576263873226, 65.694555002239511 ], [ 11.956577587718357, 65.695138660932841 ], [ 11.956307137725794, 65.695251621608023 ], [ 11.956900166022425, 65.695294085186788 ], [ 11.957231540517359, 65.695521167754023 ], [ 11.9581752761899, 65.695008907027145 ] ] ] ] } },
{ "type": "Feature", "properties": { "fid": 158998, "navn": "Kjellarhaugvatnet", "hoyde_moh": null, "arealInnsjo_km2": 0.0186, "magasinKategori": null, "fid_2": 618, "id": 618, "left": 11.486919847, "top": 65.946110046000001, "right": 11.986919847, "bottom": 65.446110046000001, "row_index": 17, "col_index": 15, "tile_id": 618 }, "geometry": { "type": "MultiPolygon", "coordinates": [ [ [ [ 11.956724918686248, 65.697192172827769 ], [ 11.956023044259036, 65.697151936115546 ], [ 11.955751988149915, 65.696878908950396 ], [ 11.956498101820394, 65.696541060050706 ], [ 11.956400771126633, 65.696453174843015 ], [ 11.955790839314377, 65.696455992295228 ], [ 11.955595498489403, 65.696271226901686 ], [ 11.955804882113277, 65.696006806600124 ], [ 11.955117276349394, 65.69609194636709 ], [ 11.955036613493872, 65.695958772971252 ], [ 11.955381822898852, 65.695736579962258 ], [ 11.955097312399287, 65.695535484500695 ], [ 11.955434207696031, 65.695430229079946 ], [ 11.955313916257317, 65.695333802113723 ], [ 11.955001503770047, 65.695268021706411 ], [ 11.954561771633895, 65.695806409306599 ], [ 11.953627164839288, 65.696210618392783 ], [ 11.953509675810308, 65.696518092537076 ], [ 11.954154400511147, 65.697008551672383 ], [ 11.955937192139576, 65.697737266582621 ], [ 11.956811687907923, 65.697379169430647 ], [ 11.956724918686248, 65.697192172827769 ] ], [ [ 11.95491731582583, 65.696248430706063 ], [ 11.954714367131906, 65.696189506364391 ], [ 11.955010293771787, 65.696112080544978 ], [ 11.95491731582583, 65.696248430706063 ] ] ] ] } },
{ "type": "Feature", "properties": { "fid": 160031, "navn": null, "hoyde_moh": null, "arealInnsjo_km2": 0.0036, "magasinKategori": null, "fid_2": 618, "id": 618, "left": 11.486919847, "top": 65.946110046000001, "right": 11.986919847, "bottom": 65.446110046000001, "row_index": 17, "col_index": 15, "tile_id": 618 }, "geometry": { "type": "MultiPolygon", "coordinates": [ [ [ [ 11.860011242104841, 65.701784967670932 ], [ 11.860782337606249, 65.701662722322112 ], [ 11.859875546315124, 65.701347498277372 ], [ 11.859619464256927, 65.701594765459546 ], [ 11.858876991760956, 65.701779293408379 ], [ 11.858875019294581, 65.702156449769248 ], [ 11.859468264086885, 65.7021992070556 ], [ 11.860011242104841, 65.701784967670932 ] ] ] ] } },
{ "type": "Feature", "properties": { "fid": 165857, "navn": "Trollvatnet", "hoyde_moh": 502, "arealInnsjo_km2": 0.02, "magasinKategori": null, "fid_2": 618, "id": 618, "left": 11.486919847, "top": 65.946110046000001, "right": 11.986919847, "bottom": 65.446110046000001, "row_index": 17, "col_index": 15, "tile_id": 618 }, "geometry": { "type": "MultiPolygon", "coordinates": [ [ [ [ 11.802304172321723, 65.628195280868539 ], [ 11.802540183907327, 65.627562303315074 ], [ 11.801236402764687, 65.627361909072746 ], [ 11.799777760145661, 65.62754147619502 ], [ 11.797230316505127, 65.62709438302376 ], [ 11.797067321255561, 65.627196211357301 ], [ 11.797057648761813, 65.627510712335152 ], [ 11.796721225948763, 65.627615624008925 ], [ 11.798511521254213, 65.628094480173814 ], [ 11.799868522203496, 65.627979696543974 ], [ 11.801620654741432, 65.628306646787252 ], [ 11.802304172321723, 65.628195280868539 ] ] ] ] } },
{ "type": "Feature", "properties": { "fid": 165858, "navn": null, "hoyde_moh": 293, "arealInnsjo_km2": 0.0047, "magasinKategori": null, "fid_2": 618, "id": 618, "left": 11.486919847, "top": 65.946110046000001, "right": 11.986919847, "bottom": 65.446110046000001, "row_index": 17, "col_index": 15, "tile_id": 618 }, "geometry": { "type": "MultiPolygon", "coordinates": [ [ [ [ 11.829014390708938, 65.67186086391709 ], [ 11.829299192053762, 65.671478541364351 ], [ 11.828934910928997, 65.671332468924163 ], [ 11.826997065331426, 65.671727601673979 ], [ 11.827376673881432, 65.672016977008738 ], [ 11.829014390708938, 65.67186086391709 ] ] ] ] } },
{ "type": "Feature", "properties": { "fid": 165859, "navn": "Viåstjønna", "hoyde_moh": 13, "arealInnsjo_km2": 0.0107, "magasinKategori": null, "fid_2": 618, "id": 618, "left": 11.486919847, "top": 65.946110046000001, "right": 11.986919847, "bottom": 65.446110046000001, "row_index": 17, "col_index": 15, "tile_id": 618 }, "geometry": { "type": "MultiPolygon", "coordinates": [ [ [ [ 11.898717576096223, 65.681693999410356 ], [ 11.898281037323505, 65.681495800230508 ], [ 11.898174111420431, 65.681120925297833 ], [ 11.897218181692073, 65.680752740328799 ], [ 11.896891138721733, 65.680749851357007 ], [ 11.896602110547647, 65.681087744786282 ], [ 11.896428291519564, 65.681674773945474 ], [ 11.896712500027725, 65.682073378246272 ], [ 11.897790582635649, 65.682169603375314 ], [ 11.898717576096223, 65.681693999410356 ] ] ] ] } },
{ "type": "Feature", "properties": { "fid": 183480, "navn": "Sveavatnet", "hoyde_moh": null, "arealInnsjo_km2": 0.0486, "magasinKategori": null, "fid_2": 618, "id": 618, "left": 11.486919847, "top": 65.946110046000001, "right": 11.986919847, "bottom": 65.446110046000001, "row_index": 17, "col_index": 15, "tile_id": 618 }, "geometry": { "type": "MultiPolygon", "coordinates": [ [ [ [ 11.981835727011632, 65.694197672139637 ], [ 11.9816195093802, 65.694022317762276 ], [ 11.982223214723446, 65.693776988851837 ], [ 11.984615924586414, 65.693672847263826 ], [ 11.984939129494053, 65.693517328224246 ], [ 11.986033265816854, 65.693558813807982 ], [ 11.986622597433845, 65.693376584103632 ], [ 11.98634429978974, 65.692663623446251 ], [ 11.986465337746441, 65.692580435529109 ], [ 11.986919847, 65.692537102897688 ], [ 11.986919847, 65.692128316152761 ], [ 11.986090653276369, 65.692165775757644 ], [ 11.985766746993981, 65.69181291493139 ], [ 11.984780094585661, 65.691760351809194 ], [ 11.984587547315943, 65.691602532232011 ], [ 11.984571098606759, 65.691270478627629 ], [ 11.984154695648611, 65.691251732704458 ], [ 11.984461092274765, 65.691829474137649 ], [ 11.983118339411316, 65.691900695672857 ], [ 11.982161559357495, 65.692296549504391 ], [ 11.982170909106561, 65.692565871254217 ], [ 11.982935958760912, 65.692586764618383 ], [ 11.982884105975605, 65.69270445638989 ], [ 11.980970822897643, 65.692930588599509 ], [ 11.98107827422754, 65.693107920746684 ], [ 11.98067755993141, 65.693412135383952 ], [ 11.981125656983407, 65.693708736991979 ], [ 11.981375135261226, 65.694359354654551 ], [ 11.981835727011632, 65.694197672139637 ] ] ] ] } },
{ "type": "Feature", "properties": { "fid": 194046, "navn": "Røssvatnet", "hoyde_moh": 672, "arealInnsjo_km2": 0.0272, "magasinKategori": null, "fid_2": 618, "id": 618, "left": 11.486919847, "top": 65.946110046000001, "right": 11.986919847, "bottom": 65.446110046000001, "row_index": 17, "col_index": 15, "tile_id": 618 }, "geometry": { "type": "MultiPolygon", "coordinates": [ [ [ [ 11.822445283454007, 65.657122086760339 ], [ 11.822490907253981, 65.656941620294617 ], [ 11.821460569671807, 65.656269338052823 ], [ 11.821294736706115, 65.655545139364079 ], [ 11.820273370846268, 65.655357567459902 ], [ 11.819352089214034, 65.655491359430115 ], [ 11.818705143879178, 65.655943243791313 ], [ 11.819064100862333, 65.656843560719736 ], [ 11.819436967791493, 65.657070132081103 ], [ 11.820574272674225, 65.657524893909653 ], [ 11.821493180347469, 65.657570756355994 ], [ 11.822445283454007, 65.657122086760339 ] ] ] ] } },
{ "type": "Feature", "properties": { "fid": 194047, "navn": "Inntjørna", "hoyde_moh": 21, "arealInnsjo_km2": 0.0052, "magasinKategori": null, "fid_2": 618, "id": 618, "left": 11.486919847, "top": 65.946110046000001, "right": 11.986919847, "bottom": 65.446110046000001, "row_index": 17, "col_index": 15, "tile_id": 618 }, "geometry": { "type": "MultiPolygon", "coordinates": [ [ [ [ 11.918118215806542, 65.671975816950052 ], [ 11.918734434632444, 65.671263642066847 ], [ 11.918367836876145, 65.671100053117442 ], [ 11.917485003598728, 65.671188877633597 ], [ 11.91758812723266, 65.67133052281703 ], [ 11.916991684983016, 65.671638339214127 ], [ 11.917154286100011, 65.671733950756376 ], [ 11.917143373329445, 65.672021467589857 ], [ 11.918118215806542, 65.671975816950052 ] ] ] ] } },
{ "type": "Feature", "properties": { "fid": 208357, "navn": "Okvatnet", "hoyde_moh": 114, "arealInnsjo_km2": 0.0349, "magasinKategori": null, "fid_2": 618, "id": 618, "left": 11.486919847, "top": 65.946110046000001, "right": 11.986919847, "bottom": 65.446110046000001, "row_index": 17, "col_index": 15, "tile_id": 618 }, "geometry": { "type": "MultiPolygon", "coordinates": [ [ [ [ 11.824236411485083, 65.636804820410489 ], [ 11.825256136586631, 65.635986906211201 ], [ 11.824682432208874, 65.635710079569634 ], [ 11.824703036731851, 65.635099163986666 ], [ 11.824541477652279, 65.634814772174167 ], [ 11.82398264905701, 65.634672520807186 ], [ 11.823067340096619, 65.634653588667504 ], [ 11.822393373430387, 65.635052196259736 ], [ 11.821212600173249, 65.635190805806474 ], [ 11.820832506328477, 65.635494239872671 ], [ 11.820978335553205, 65.635635147941144 ], [ 11.821521666780425, 65.635634106577399 ], [ 11.821536302132293, 65.635768500913017 ], [ 11.821246261237318, 65.635899493320295 ], [ 11.821196295310946, 65.636241708910134 ], [ 11.821989329395134, 65.636936353390183 ], [ 11.824236411485083, 65.636804820410489 ] ] ] ] } },
{ "type": "Feature", "properties": { "fid": 214977, "navn": "Barnvatnet", "hoyde_moh": 10, "arealInnsjo_km2": 0.0186, "magasinKategori": null, "fid_2": 618, "id": 618, "left": 11.486919847, "top": 65.946110046000001, "right": 11.986919847, "bottom": 65.446110046000001, "row_index": 17, "col_index": 15, "tile_id": 618 }, "geometry": { "type": "MultiPolygon", "coordinates": [ [ [ [ 11.863105896710785, 65.685824391574542 ], [ 11.86297834597727, 65.685656158371799 ], [ 11.863008833069092, 65.685143798664541 ], [ 11.862885224398095, 65.685011390339653 ], [ 11.862452442332268, 65.68503741479995 ], [ 11.861708426741162, 65.684611486578618 ], [ 11.861090937185713, 65.684937346209097 ], [ 11.859414360389646, 65.685139444647461 ], [ 11.85908332546807, 65.685693388096837 ], [ 11.860377822314693, 65.685974405391732 ], [ 11.863105896710785, 65.685824391574542 ] ] ] ] } },
{ "type": "Feature", "properties": { "fid": 221474, "navn": null, "hoyde_moh": 94, "arealInnsjo_km2": 0.0046, "magasinKategori": null, "fid_2": 618, "id": 618, "left": 11.486919847, "top": 65.946110046000001, "right": 11.986919847, "bottom": 65.446110046000001, "row_index": 17, "col_index": 15, "tile_id": 618 }, "geometry": { "type": "MultiPolygon", "coordinates": [ [ [ [ 11.829279671387315, 65.636998473675931 ], [ 11.829099028836486, 65.637136700119044 ], [ 11.829111338277727, 65.63764816115328 ], [ 11.829547038481442, 65.637855543866635 ], [ 11.830955561380112, 65.637811423352403 ], [ 11.829279671387315, 65.636998473675931 ] ] ] ] } },
{ "type": "Feature", "properties": { "fid": 262315, "navn": "Holmvatnet", "hoyde_moh": 15, "arealInnsjo_km2": 0.1448, "magasinKategori": null, "fid_2": 618, "id": 618, "left": 11.486919847, "top": 65.946110046000001, "right": 11.986919847, "bottom": 65.446110046000001, "row_index": 17, "col_index": 15, "tile_id": 618 }, "geometry": { "type": "MultiPolygon", "coordinates": [ [ [ [ 11.879897557156013, 65.67717517171684 ], [ 11.879898130147653, 65.676788919990727 ], [ 11.880498638266269, 65.676508175727093 ], [ 11.880782528671016, 65.676125660256318 ], [ 11.880673373605326, 65.675337517065302 ], [ 11.880851794096763, 65.675181492422624 ], [ 11.880139646075188, 65.67504234463982 ], [ 11.880025729088262, 65.674802020608425 ], [ 11.880486811851798, 65.674640649655259 ], [ 11.880077851493088, 65.674486785006962 ], [ 11.881036397282722, 65.674100484231644 ], [ 11.880038427720779, 65.673544791303044 ], [ 11.877467650659348, 65.673290492371521 ], [ 11.87772675753768, 65.674100214007197 ], [ 11.874898569981367, 65.676084092328779 ], [ 11.874634222079454, 65.67644831911042 ], [ 11.874610656285492, 65.676825927827977 ], [ 11.874122848173961, 65.676942817600789 ], [ 11.874640731106549, 65.677094711928987 ], [ 11.874227949241101, 65.677497653579721 ], [ 11.874500785034252, 65.677797822334583 ], [ 11.874502129549414, 65.678201806858468 ], [ 11.874119913169066, 65.678289969403423 ], [ 11.874338360407156, 65.678492209134163 ], [ 11.87402057051313, 65.678965084342892 ], [ 11.87428265063256, 65.679166782445179 ], [ 11.873989086816755, 65.67927104330856 ], [ 11.873845153727542, 65.679543172156798 ], [ 11.874277093321277, 65.680100762701798 ], [ 11.874258677408363, 65.680325533811924 ], [ 11.873929767199611, 65.680502352996015 ], [ 11.874097948847398, 65.680642940856075 ], [ 11.875295253414446, 65.680638224966273 ], [ 11.876707532794876, 65.680216438142992 ], [ 11.876767610832264, 65.679972943056967 ], [ 11.877258410394358, 65.679685290703958 ], [ 11.877327146129316, 65.679324773577449 ], [ 11.877867155403685, 65.678892549581477 ], [ 11.878241141056995, 65.678337746771263 ], [ 11.879091207604352, 65.677755966041246 ], [ 11.879525142253373, 65.677155149969067 ], [ 11.879897557156013, 65.67717517171684 ] ], [ [ 11.879373188120615, 65.675200422520788 ], [ 11.879314381880087, 65.675650592130765 ], [ 11.878938895060298, 65.675603832704326 ], [ 11.879002760068726, 65.675198491113179 ], [ 11.879373188120615, 65.675200422520788 ] ], [ [ 11.878888386994401, 65.676323057115752 ], [ 11.879253195715163, 65.676666412735955 ], [ 11.878710911971028, 65.676883144860838 ], [ 11.878658520426487, 65.676605822252526 ], [ 11.878888386994401, 65.676323057115752 ] ] ] ] } },
{ "type": "Feature", "properties": { "fid": 262316, "navn": "Husvatnet", "hoyde_moh": 10, "arealInnsjo_km2": 0.0841, "magasinKategori": null, "fid_2": 618, "id": 618, "left": 11.486919847, "top": 65.946110046000001, "right": 11.986919847, "bottom": 65.446110046000001, "row_index": 17, "col_index": 15, "tile_id": 618 }, "geometry": { "type": "MultiPolygon", "coordinates": [ [ [ [ 11.866361935561795, 65.681785252575366 ], [ 11.866455727029575, 65.681451207879078 ], [ 11.867236982107878, 65.681032601326493 ], [ 11.867136020935108, 65.680711166158275 ], [ 11.86735822339095, 65.680554349418301 ], [ 11.867411613129056, 65.680248032715014 ], [ 11.868437734632863, 65.679680973016346 ], [ 11.868461829882001, 65.678719709562301 ], [ 11.868737448019459, 65.678454153485703 ], [ 11.871695025154917, 65.677042509697259 ], [ 11.871907304711943, 65.676796034409108 ], [ 11.871424881716358, 65.676374176461209 ], [ 11.870282098520985, 65.676278944494769 ], [ 11.86850235047566, 65.676725447447382 ], [ 11.866013843589423, 65.678442601664685 ], [ 11.864967132454613, 65.679611568088518 ], [ 11.863708033959272, 65.680434434481214 ], [ 11.863581742113396, 65.681065345237144 ], [ 11.863971926391882, 65.681246618378125 ], [ 11.86571994341549, 65.681492113264838 ], [ 11.866146439336145, 65.681807313595584 ], [ 11.866361935561795, 65.681785252575366 ] ] ] ] } },
{ "type": "Feature", "properties": { "fid": 263713, "navn": "Floavatnet", "hoyde_moh": 5, "arealInnsjo_km2": 0.5661, "magasinKategori": null, "fid_2": 618, "id": 618, "left": 11.486919847, "top": 65.946110046000001, "right": 11.986919847, "bottom": 65.446110046000001, "row_index": 17, "col_index": 15, "tile_id": 618 }, "geometry": { "type": "MultiPolygon", "coordinates": [ [ [ [ 11.970531537221031, 65.653227276308456 ], [ 11.970480686498455, 65.652213556008235 ], [ 11.970643425733478, 65.651923049108973 ], [ 11.970913130126142, 65.651810145643339 ], [ 11.973199318537031, 65.652393989212499 ], [ 11.973943346933902, 65.652810469240308 ], [ 11.974705678630317, 65.652620781153431 ], [ 11.974720880390766, 65.652382297723335 ], [ 11.974170181241007, 65.65213256675959 ], [ 11.974494868515052, 65.651928702216566 ], [ 11.974397650807928, 65.651840738887699 ], [ 11.969507755760786, 65.650176135751948 ], [ 11.968315542669446, 65.649453996085285 ], [ 11.968311750996936, 65.649229592322939 ], [ 11.968932641498183, 65.648382541967791 ], [ 11.969098069003655, 65.648307258496871 ], [ 11.969975297978426, 65.648559649042753 ], [ 11.970391106116876, 65.648201350026113 ], [ 11.970244393543156, 65.648060582029956 ], [ 11.969593355458743, 65.648073125378389 ], [ 11.969095241861622, 65.647903267825185 ], [ 11.969034408202027, 65.647751815806757 ], [ 11.969441785263754, 65.647510364889243 ], [ 11.969538187019708, 65.647212162415499 ], [ 11.969876205599235, 65.647124868444777 ], [ 11.970663700071629, 65.647351850865377 ], [ 11.970800841378704, 65.647600640641073 ], [ 11.973990142845807, 65.647717963105805 ], [ 11.974524684325374, 65.64744705766384 ], [ 11.974610565604458, 65.647247875884901 ], [ 11.974420458716553, 65.647107866053091 ], [ 11.973566156174666, 65.646864128943804 ], [ 11.971885678766208, 65.646816245893049 ], [ 11.971059723805691, 65.647011835682662 ], [ 11.970458528663984, 65.646700287207167 ], [ 11.969860107511142, 65.645463819585132 ], [ 11.969508846827441, 65.645057650845189 ], [ 11.968216897460849, 65.644409224355286 ], [ 11.968104526323758, 65.644187057721552 ], [ 11.966271974506679, 65.6433784096088 ], [ 11.966211448441566, 65.643038554759457 ], [ 11.965875890504158, 65.642766675724545 ], [ 11.964911815277457, 65.642704615062868 ], [ 11.964684104929008, 65.642996424631562 ], [ 11.961426523628559, 65.6426557190876 ], [ 11.961050117278207, 65.64278874554094 ], [ 11.961483571071238, 65.643346010727214 ], [ 11.961324267985214, 65.643474931023277 ], [ 11.960870467681026, 65.643501700872363 ], [ 11.960291269786094, 65.643189739957108 ], [ 11.959743369515001, 65.643343944061968 ], [ 11.959582443721741, 65.643841115093622 ], [ 11.958800855787462, 65.644233386631612 ], [ 11.959133078560788, 65.644666862095818 ], [ 11.958848594583555, 65.644842940279119 ], [ 11.958169012717091, 65.644793437431218 ], [ 11.957228793000974, 65.644371692620496 ], [ 11.956368806723802, 65.643885540324121 ], [ 11.956314837987636, 65.643222067782119 ], [ 11.955560670897507, 65.64309311099953 ], [ 11.954410530649021, 65.643115358875505 ], [ 11.953821224762649, 65.643288470418824 ], [ 11.953485044394375, 65.643582314835655 ], [ 11.951797754949599, 65.644046042770398 ], [ 11.951640547780308, 65.644767523170415 ], [ 11.952061590937653, 65.645980677686325 ], [ 11.95395628412045, 65.646384022415972 ], [ 11.955529408348982, 65.646254570052918 ], [ 11.956504110678262, 65.646792501891341 ], [ 11.957544047830952, 65.646754202935909 ], [ 11.958343597380736, 65.647088897212967 ], [ 11.95900108560671, 65.647893295511992 ], [ 11.958574733366033, 65.648162090282057 ], [ 11.960355545937963, 65.64908824684025 ], [ 11.963539629955244, 65.650301373181208 ], [ 11.964298496740195, 65.651040953066101 ], [ 11.964238565737162, 65.651850322842222 ], [ 11.966026723362747, 65.65207590710979 ], [ 11.966298487834429, 65.651980923380194 ], [ 11.966284531449762, 65.651666872757389 ], [ 11.967217862184521, 65.651648651390417 ], [ 11.967482232498959, 65.651868009048101 ], [ 11.966780349142148, 65.652007498534147 ], [ 11.966342638281185, 65.652366071247982 ], [ 11.966930474530342, 65.652749749712243 ], [ 11.968894837562555, 65.652801358723224 ], [ 11.969173593829899, 65.65295741888653 ], [ 11.969418158635676, 65.653383733591411 ], [ 11.970179082890928, 65.653377866121247 ], [ 11.970531537221031, 65.653227276308456 ] ] ] ] } },
{ "type": "Feature", "properties": { "fid": 263850, "navn": null, "hoyde_moh": null, "arealInnsjo_km2": 0.006, "magasinKategori": null, "fid_2": 618, "id": 618, "left": 11.486919847, "top": 65.946110046000001, "right": 11.986919847, "bottom": 65.446110046000001, "row_index": 17, "col_index": 15, "tile_id": 618 }, "geometry": { "type": "MultiPolygon", "coordinates": [ [ [ [ 11.917793908023262, 65.706129597043514 ], [ 11.919513474847667, 65.705639525327243 ], [ 11.920584080453793, 65.705811036797741 ], [ 11.920759950970806, 65.705742115807851 ], [ 11.919776591431607, 65.705460470654742 ], [ 11.918971020223331, 65.705617518702397 ], [ 11.918977463760848, 65.705424297902979 ], [ 11.918539203394458, 65.705459266227834 ], [ 11.916644807227245, 65.705930704379753 ], [ 11.916974289519663, 65.706065788799151 ], [ 11.916679653291457, 65.706185289234838 ], [ 11.917793908023262, 65.706129597043514 ] ] ] ] } },
{ "type": "Feature", "properties": { "fid": 264233, "navn": "Fersetvatnet", "hoyde_moh": 4, "arealInnsjo_km2": 0.0837, "magasinKategori": null, "fid_2": 618, "id": 618, "left": 11.486919847, "top": 65.946110046000001, "right": 11.986919847, "bottom": 65.446110046000001, "row_index": 17, "col_index": 15, "tile_id": 618 }, "geometry": { "type": "MultiPolygon", "coordinates": [ [ [ [ 11.98648058131711, 65.656255856407952 ], [ 11.986919847, 65.656276327481663 ], [ 11.986919847, 65.655741472272837 ], [ 11.986754689519135, 65.655801495182288 ], [ 11.98598344428509, 65.655717799328698 ], [ 11.986691610252956, 65.655443642628072 ], [ 11.986919847, 65.655541501107422 ], [ 11.986919847, 65.655194360541358 ], [ 11.986107809699138, 65.655284361929915 ], [ 11.985618787250461, 65.655195205155181 ], [ 11.984248687383808, 65.655392576400487 ], [ 11.98278688289021, 65.655169819128986 ], [ 11.982505609432284, 65.655372944953001 ], [ 11.980758458542629, 65.655562093126719 ], [ 11.979581694013186, 65.655984081571688 ], [ 11.979393077732759, 65.656228373865815 ], [ 11.979242705946907, 65.656142502658923 ], [ 11.97884604954956, 65.656287834962612 ], [ 11.978874732402399, 65.656504828167897 ], [ 11.978344704042836, 65.656528524293861 ], [ 11.979442597747934, 65.656875485112437 ], [ 11.982775117072046, 65.656579930935393 ], [ 11.983380958170175, 65.656738762944372 ], [ 11.984996883932331, 65.656787834508279 ], [ 11.985382328951983, 65.656923973933687 ], [ 11.985376224550635, 65.657058825679371 ], [ 11.986071066678113, 65.656856608292017 ], [ 11.985962833791733, 65.656670101931624 ], [ 11.98648058131711, 65.656255856407952 ] ] ] ] } }
]
}
