{
"type": "FeatureCollection",
"name": "innsjo_tile_id_69",
"crs": { "type": "name", "properties": { "name": "urn:ogc:def:crs:OGC:1.3:CRS84" } },
"xy_coordinate_resolution": 1e-15,
"features": [
{ "type": "Feature", "properties": { "fid": 5151, "navn": "Måsavatnet", "hoyde_moh": null, "arealInnsjo_km2": 0.0168, "magasinKategori": null, "fid_2": 69, "id": 69, "left": 4.486919847, "top": 60.446110046000001, "right": 4.986919847, "bottom": 59.946110046000001, "row_index": 28, "col_index": 1, "tile_id": 69 }, "geometry": { "type": "MultiPolygon", "coordinates": [ [ [ [ 4.922688931750175, 60.446095028377925 ], [ 4.922635393633162, 60.44594059599369 ], [ 4.922991747578386, 60.44542120221103 ], [ 4.921646869396764, 60.445263081605709 ], [ 4.920456365031894, 60.445469292338458 ], [ 4.920007250330912, 60.446003951483611 ], [ 4.920312087744768, 60.446110046 ], [ 4.921196376448469, 60.446110046 ], [ 4.921447125687188, 60.445985058312893 ], [ 4.921732676115557, 60.4460297708967 ], [ 4.921594371501557, 60.446110046 ], [ 4.922736032297095, 60.446110046 ], [ 4.922688931750175, 60.446095028377925 ] ], [ [ 4.922358883402724, 60.445824255472324 ], [ 4.922368191030803, 60.44589638170671 ], [ 4.922143854897228, 60.445943510999498 ], [ 4.922142639699294, 60.445808643251198 ], [ 4.922358883402724, 60.445824255472324 ] ] ] ] } },
{ "type": "Feature", "properties": { "fid": 5188, "navn": null, "hoyde_moh": null, "arealInnsjo_km2": 0.0034, "magasinKategori": null, "fid_2": 69, "id": 69, "left": 4.486919847, "top": 60.446110046000001, "right": 4.986919847, "bottom": 59.946110046000001, "row_index": 28, "col_index": 1, "tile_id": 69 }, "geometry": { "type": "MultiPolygon", "coordinates": [ [ [ [ 4.982629057043771, 60.312248788102899 ], [ 4.982950277987861, 60.312141562498695 ], [ 4.980954563619435, 60.311865453983977 ], [ 4.980558424264006, 60.311844521860145 ], [ 4.980507987555808, 60.311959781250863 ], [ 4.981682034800631, 60.312139222211101 ], [ 4.982264936261245, 60.312408586285493 ], [ 4.982666711570531, 60.312384781820896 ], [ 4.982629057043771, 60.312248788102899 ] ] ] ] } },
{ "type": "Feature", "properties": { "fid": 5204, "navn": "Sævartjørna", "hoyde_moh": null, "arealInnsjo_km2": 0.0097, "magasinKategori": null, "fid_2": 69, "id": 69, "left": 4.486919847, "top": 60.446110046000001, "right": 4.986919847, "bottom": 59.946110046000001, "row_index": 28, "col_index": 1, "tile_id": 69 }, "geometry": { "type": "MultiPolygon", "coordinates": [ [ [ [ 4.974842258836635, 60.286022362788991 ], [ 4.975025869337697, 60.286000973155801 ], [ 4.975248014938593, 60.286403171567827 ], [ 4.975932759541738, 60.286136438209397 ], [ 4.975978354075816, 60.285912936033291 ], [ 4.975332925593837, 60.285713597179445 ], [ 4.975148548402942, 60.285887785709939 ], [ 4.974607368097311, 60.285871238595341 ], [ 4.974697871676068, 60.285577401176688 ], [ 4.974528284290575, 60.285041826635016 ], [ 4.973748700006274, 60.28519796856061 ], [ 4.973710952207738, 60.285799189419492 ], [ 4.974590878231536, 60.286446205067655 ], [ 4.974842258836635, 60.286022362788991 ] ] ] ] } },
{ "type": "Feature", "properties": { "fid": 5206, "navn": "Skiteklettsvatnet", "hoyde_moh": null, "arealInnsjo_km2": 0.0144, "magasinKategori": null, "fid_2": 69, "id": 69, "left": 4.486919847, "top": 60.446110046000001, "right": 4.986919847, "bottom": 59.946110046000001, "row_index": 28, "col_index": 1, "tile_id": 69 }, "geometry": { "type": "MultiPolygon", "coordinates": [ [ [ [ 4.975085281540053, 60.267716739153343 ], [ 4.975318082933319, 60.267588875594512 ], [ 4.97514285127003, 60.267250976661778 ], [ 4.975306630694862, 60.267094138635656 ], [ 4.975096458578104, 60.266889960052175 ], [ 4.973730654825093, 60.266371937432453 ], [ 4.973187483380765, 60.266373496968832 ], [ 4.973196793322534, 60.266886263045869 ], [ 4.973421042729495, 60.267270620893939 ], [ 4.973289003101116, 60.267608255876745 ], [ 4.975263131142277, 60.268036737548215 ], [ 4.975085281540053, 60.267716739153343 ] ] ] ] } },
{ "type": "Feature", "properties": { "fid": 5290, "navn": null, "hoyde_moh": null, "arealInnsjo_km2": 0.0076, "magasinKategori": null, "fid_2": 69, "id": 69, "left": 4.486919847, "top": 60.446110046000001, "right": 4.986919847, "bottom": 59.946110046000001, "row_index": 28, "col_index": 1, "tile_id": 69 }, "geometry": { "type": "MultiPolygon", "coordinates": [ [ [ [ 4.971154384081475, 60.333872799163053 ], [ 4.972148219229747, 60.332725356960879 ], [ 4.971697772281231, 60.332702717481098 ], [ 4.971287843098923, 60.333085903150263 ], [ 4.970701950235884, 60.333130955699787 ], [ 4.970441676265627, 60.333329872777483 ], [ 4.970215321449798, 60.333988235694314 ], [ 4.970701312153278, 60.334164818650066 ], [ 4.971154384081475, 60.333872799163053 ] ] ] ] } },
{ "type": "Feature", "properties": { "fid": 26745, "navn": null, "hoyde_moh": null, "arealInnsjo_km2": 0.0177, "magasinKategori": null, "fid_2": 69, "id": 69, "left": 4.486919847, "top": 60.446110046000001, "right": 4.986919847, "bottom": 59.946110046000001, "row_index": 28, "col_index": 1, "tile_id": 69 }, "geometry": { "type": "MultiPolygon", "coordinates": [ [ [ [ 4.979058189302292, 60.276917289820261 ], [ 4.979273327991937, 60.276492314081189 ], [ 4.97982270422272, 60.276293087644028 ], [ 4.979369430861097, 60.276153563761632 ], [ 4.978607777441101, 60.276310273891411 ], [ 4.97680179902649, 60.276129628815518 ], [ 4.975572413284053, 60.276263154936828 ], [ 4.97413796966149, 60.276741048907063 ], [ 4.979058189302292, 60.276917289820261 ] ] ] ] } },
{ "type": "Feature", "properties": { "fid": 26992, "navn": null, "hoyde_moh": null, "arealInnsjo_km2": 0.0057, "magasinKategori": null, "fid_2": 69, "id": 69, "left": 4.486919847, "top": 60.446110046000001, "right": 4.986919847, "bottom": 59.946110046000001, "row_index": 28, "col_index": 1, "tile_id": 69 }, "geometry": { "type": "MultiPolygon", "coordinates": [ [ [ [ 4.95000001120389, 60.382117289111726 ], [ 4.950293897313141, 60.382136445184024 ], [ 4.949879911578084, 60.381377640238767 ], [ 4.949250009077345, 60.381331404846129 ], [ 4.948978890242625, 60.381467031668549 ], [ 4.948704951221719, 60.381917139305784 ], [ 4.948980250533598, 60.382186311831987 ], [ 4.95000001120389, 60.382117289111726 ] ] ] ] } },
{ "type": "Feature", "properties": { "fid": 27343, "navn": null, "hoyde_moh": null, "arealInnsjo_km2": 0.0112, "magasinKategori": null, "fid_2": 69, "id": 69, "left": 4.486919847, "top": 60.446110046000001, "right": 4.986919847, "bottom": 59.946110046000001, "row_index": 28, "col_index": 1, "tile_id": 69 }, "geometry": { "type": "MultiPolygon", "coordinates": [ [ [ [ 4.966085765195256, 60.445385620891081 ], [ 4.965452232839001, 60.444773129376301 ], [ 4.964958447070066, 60.44435363458215 ], [ 4.96409798341984, 60.444102739252955 ], [ 4.964316088817104, 60.444396915038148 ], [ 4.964369768858441, 60.445135918692472 ], [ 4.964627752753626, 60.44540443575687 ], [ 4.966099998850625, 60.445971470661298 ], [ 4.966085765195256, 60.445385620891081 ] ] ] ] } },
{ "type": "Feature", "properties": { "fid": 49648, "navn": null, "hoyde_moh": null, "arealInnsjo_km2": 0.0078, "magasinKategori": null, "fid_2": 69, "id": 69, "left": 4.486919847, "top": 60.446110046000001, "right": 4.986919847, "bottom": 59.946110046000001, "row_index": 28, "col_index": 1, "tile_id": 69 }, "geometry": { "type": "MultiPolygon", "coordinates": [ [ [ [ 4.981106276737658, 60.261866889658322 ], [ 4.981006052050516, 60.261504219209144 ], [ 4.980551488716278, 60.261373641268904 ], [ 4.979750523815465, 60.261708976315774 ], [ 4.979153916255467, 60.262293196155227 ], [ 4.979252780019297, 60.262521010451898 ], [ 4.980016219040154, 60.262490154996115 ], [ 4.981106276737658, 60.261866889658322 ] ] ] ] } },
{ "type": "Feature", "properties": { "fid": 71913, "navn": null, "hoyde_moh": null, "arealInnsjo_km2": 0.0087, "magasinKategori": null, "fid_2": 69, "id": 69, "left": 4.486919847, "top": 60.446110046000001, "right": 4.986919847, "bottom": 59.946110046000001, "row_index": 28, "col_index": 1, "tile_id": 69 }, "geometry": { "type": "MultiPolygon", "coordinates": [ [ [ [ 4.974305875078724, 60.284055237515254 ], [ 4.974525867533973, 60.283738148789375 ], [ 4.974039091339361, 60.283426727762027 ], [ 4.97398445019375, 60.282840727255312 ], [ 4.973858410050592, 60.282836909808566 ], [ 4.973210838726678, 60.283536437225692 ], [ 4.973121189431809, 60.2841180439627 ], [ 4.973669816188337, 60.28436857027372 ], [ 4.97438917470094, 60.284408299445552 ], [ 4.974305875078724, 60.284055237515254 ] ] ] ] } },
{ "type": "Feature", "properties": { "fid": 71914, "navn": null, "hoyde_moh": null, "arealInnsjo_km2": 0.0058, "magasinKategori": null, "fid_2": 69, "id": 69, "left": 4.486919847, "top": 60.446110046000001, "right": 4.986919847, "bottom": 59.946110046000001, "row_index": 28, "col_index": 1, "tile_id": 69 }, "geometry": { "type": "MultiPolygon", "coordinates": [ [ [ [ 4.981033332219401, 60.285445887080968 ], [ 4.981205469060979, 60.284929572361285 ], [ 4.982525042251061, 60.284654969281945 ], [ 4.980392218791303, 60.284770145372349 ], [ 4.980215578094626, 60.28488166872306 ], [ 4.980403701046593, 60.285264973009639 ], [ 4.98017119800548, 60.285536589775859 ], [ 4.98053935941512, 60.285781478835851 ], [ 4.981033332219401, 60.285445887080968 ] ] ] ] } },
{ "type": "Feature", "properties": { "fid": 79811, "navn": null, "hoyde_moh": null, "arealInnsjo_km2": 0.0163, "magasinKategori": null, "fid_2": 69, "id": 69, "left": 4.486919847, "top": 60.446110046000001, "right": 4.986919847, "bottom": 59.946110046000001, "row_index": 28, "col_index": 1, "tile_id": 69 }, "geometry": { "type": "MultiPolygon", "coordinates": [ [ [ [ 4.952184543583654, 60.382562557291067 ], [ 4.952100415558776, 60.382362275150854 ], [ 4.952331678202663, 60.38225247492467 ], [ 4.952737840016592, 60.382345623425302 ], [ 4.952682152076235, 60.38220905540328 ], [ 4.9529663483754, 60.381822174378556 ], [ 4.952786321977131, 60.381663907341142 ], [ 4.953099713679872, 60.381331837323259 ], [ 4.952923439665065, 60.380706114372288 ], [ 4.953382074623589, 60.380522418633689 ], [ 4.952512555972999, 60.380504811043181 ], [ 4.952018998598912, 60.380678509816534 ], [ 4.95191599999363, 60.381799193876894 ], [ 4.951418249749696, 60.382296498741411 ], [ 4.950919716814851, 60.382362111604579 ], [ 4.951051125740485, 60.383058453004558 ], [ 4.951505680052921, 60.383054288885482 ], [ 4.952184543583654, 60.382562557291067 ] ] ] ] } },
{ "type": "Feature", "properties": { "fid": 80065, "navn": null, "hoyde_moh": null, "arealInnsjo_km2": 0.0116, "magasinKategori": null, "fid_2": 69, "id": 69, "left": 4.486919847, "top": 60.446110046000001, "right": 4.986919847, "bottom": 59.946110046000001, "row_index": 28, "col_index": 1, "tile_id": 69 }, "geometry": { "type": "MultiPolygon", "coordinates": [ [ [ [ 4.975905508979152, 60.44132268522322 ], [ 4.976124247635771, 60.440583219476636 ], [ 4.975679690737827, 60.439913460105849 ], [ 4.974544207062878, 60.440562361156935 ], [ 4.974533742597344, 60.440939699574976 ], [ 4.974667745974091, 60.441033509354334 ], [ 4.975406106271413, 60.440948060617352 ], [ 4.974901913953817, 60.441346351472447 ], [ 4.974712102282159, 60.441996875620035 ], [ 4.975172028087354, 60.441956882633747 ], [ 4.975905508979152, 60.44132268522322 ] ] ] ] } },
{ "type": "Feature", "properties": { "fid": 110718, "navn": null, "hoyde_moh": null, "arealInnsjo_km2": 0.0054, "magasinKategori": null, "fid_2": 69, "id": 69, "left": 4.486919847, "top": 60.446110046000001, "right": 4.986919847, "bottom": 59.946110046000001, "row_index": 28, "col_index": 1, "tile_id": 69 }, "geometry": { "type": "MultiPolygon", "coordinates": [ [ [ [ 4.986919847, 60.272704625899465 ], [ 4.986919847, 60.272382229142742 ], [ 4.985286479741991, 60.272188342188933 ], [ 4.985329012795303, 60.272432401471086 ], [ 4.985737060719084, 60.27249877659262 ], [ 4.985925903742258, 60.272729272913253 ], [ 4.986919847, 60.272704625899465 ] ] ] ] } },
{ "type": "Feature", "properties": { "fid": 110741, "navn": "Kleivavatnet", "hoyde_moh": null, "arealInnsjo_km2": 0.0101, "magasinKategori": null, "fid_2": 69, "id": 69, "left": 4.486919847, "top": 60.446110046000001, "right": 4.986919847, "bottom": 59.946110046000001, "row_index": 28, "col_index": 1, "tile_id": 69 }, "geometry": { "type": "MultiPolygon", "coordinates": [ [ [ [ 4.976321880614897, 60.434727683332639 ], [ 4.976369200378595, 60.434639144248834 ], [ 4.975644412385025, 60.4346172867522 ], [ 4.97586798921751, 60.433985713193003 ], [ 4.975636867964551, 60.433942809201028 ], [ 4.975039139894966, 60.434509114603465 ], [ 4.974090992878899, 60.434821979917075 ], [ 4.974130318916047, 60.435092865783787 ], [ 4.974465338927281, 60.435471660869709 ], [ 4.974312877381019, 60.435673849007188 ], [ 4.974773881085311, 60.435624803010029 ], [ 4.976321880614897, 60.434727683332639 ] ], [ [ 4.974557087300415, 60.435024928097384 ], [ 4.97441196041062, 60.435020505931199 ], [ 4.974407127927504, 60.434912436846282 ], [ 4.974557087300415, 60.435024928097384 ] ] ] ] } },
{ "type": "Feature", "properties": { "fid": 110743, "navn": null, "hoyde_moh": null, "arealInnsjo_km2": 0.0044, "magasinKategori": null, "fid_2": 69, "id": 69, "left": 4.486919847, "top": 60.446110046000001, "right": 4.986919847, "bottom": 59.946110046000001, "row_index": 28, "col_index": 1, "tile_id": 69 }, "geometry": { "type": "MultiPolygon", "coordinates": [ [ [ [ 4.977576636558054, 60.443548822611945 ], [ 4.977671590822665, 60.443075269982636 ], [ 4.977524045534827, 60.442944866800858 ], [ 4.977763354397679, 60.44262844576599 ], [ 4.977539460052679, 60.44237902075178 ], [ 4.977261153236292, 60.442424582617313 ], [ 4.976900398596628, 60.443573388911574 ], [ 4.977576636558054, 60.443548822611945 ] ] ] ] } },
{ "type": "Feature", "properties": { "fid": 110750, "navn": "Sandvikavatnet", "hoyde_moh": null, "arealInnsjo_km2": 0.0158, "magasinKategori": null, "fid_2": 69, "id": 69, "left": 4.486919847, "top": 60.446110046000001, "right": 4.986919847, "bottom": 59.946110046000001, "row_index": 28, "col_index": 1, "tile_id": 69 }, "geometry": { "type": "MultiPolygon", "coordinates": [ [ [ [ 4.91963735443442, 60.444455235521296 ], [ 4.919781331961305, 60.444324762691011 ], [ 4.919647259406069, 60.44394304925725 ], [ 4.919972081417845, 60.443674330427044 ], [ 4.91995833727133, 60.443494062644959 ], [ 4.91933449565671, 60.443825560222379 ], [ 4.918820204626526, 60.443719825422299 ], [ 4.918777824951711, 60.443331992444172 ], [ 4.918640744429472, 60.443264855643939 ], [ 4.917652956141102, 60.443450413133569 ], [ 4.917382349183733, 60.443576908738123 ], [ 4.917378384967404, 60.444188211333085 ], [ 4.917095500438681, 60.444700898653693 ], [ 4.917193187151731, 60.444793809907651 ], [ 4.917600849592604, 60.444590622722927 ], [ 4.91963735443442, 60.444455235521296 ] ] ] ] } },
{ "type": "Feature", "properties": { "fid": 115962, "navn": null, "hoyde_moh": null, "arealInnsjo_km2": 0.0077, "magasinKategori": null, "fid_2": 69, "id": 69, "left": 4.486919847, "top": 60.446110046000001, "right": 4.986919847, "bottom": 59.946110046000001, "row_index": 28, "col_index": 1, "tile_id": 69 }, "geometry": { "type": "MultiPolygon", "coordinates": [ [ [ [ 4.901718284232493, 60.329392361302411 ], [ 4.902161914638516, 60.329612766563443 ], [ 4.902354990397766, 60.329519959717494 ], [ 4.902173181054914, 60.32923564720555 ], [ 4.902627922869916, 60.32907882936194 ], [ 4.902847746048005, 60.328627107359523 ], [ 4.901904995740817, 60.328337271669902 ], [ 4.901583595647658, 60.328875785169672 ], [ 4.901135589509558, 60.329122724707325 ], [ 4.901033108232095, 60.329793802870746 ], [ 4.901718284232493, 60.329392361302411 ] ] ] ] } },
{ "type": "Feature", "properties": { "fid": 116092, "navn": "Trollavatnet", "hoyde_moh": null, "arealInnsjo_km2": 0.0174, "magasinKategori": null, "fid_2": 69, "id": 69, "left": 4.486919847, "top": 60.446110046000001, "right": 4.986919847, "bottom": 59.946110046000001, "row_index": 28, "col_index": 1, "tile_id": 69 }, "geometry": { "type": "MultiPolygon", "coordinates": [ [ [ [ 4.968455884896128, 60.26967295440798 ], [ 4.968848731850321, 60.269424184069386 ], [ 4.970037758410589, 60.269469381839194 ], [ 4.9699775568224, 60.26892811334973 ], [ 4.969438376241906, 60.268749865379405 ], [ 4.967991880205301, 60.268885746975563 ], [ 4.966957318381848, 60.269645388785875 ], [ 4.96555043939425, 60.270339773449436 ], [ 4.963485245600484, 60.270501692414577 ], [ 4.96414834874989, 60.270701642998063 ], [ 4.964932627128636, 60.270653631003768 ], [ 4.968455884896128, 60.26967295440798 ] ] ] ] } },
{ "type": "Feature", "properties": { "fid": 116093, "navn": null, "hoyde_moh": null, "arealInnsjo_km2": 0.0073, "magasinKategori": null, "fid_2": 69, "id": 69, "left": 4.486919847, "top": 60.446110046000001, "right": 4.986919847, "bottom": 59.946110046000001, "row_index": 28, "col_index": 1, "tile_id": 69 }, "geometry": { "type": "MultiPolygon", "coordinates": [ [ [ [ 4.970764405022372, 60.296632804752413 ], [ 4.971895486980904, 60.296271595529539 ], [ 4.968820407256439, 60.296384926936035 ], [ 4.968550288102549, 60.296520625553448 ], [ 4.968587871518106, 60.296656621261512 ], [ 4.969455529433244, 60.296817814949108 ], [ 4.970767787477916, 60.296749720270256 ], [ 4.970764405022372, 60.296632804752413 ] ], [ [ 4.969907410930015, 60.296678688262617 ], [ 4.969633408117065, 60.29669734454329 ], [ 4.969668088329552, 60.296563511127708 ], [ 4.96999063049351, 60.296591273204285 ], [ 4.969907410930015, 60.296678688262617 ] ] ] ] } },
{ "type": "Feature", "properties": { "fid": 116392, "navn": null, "hoyde_moh": null, "arealInnsjo_km2": 0.0042, "magasinKategori": null, "fid_2": 69, "id": 69, "left": 4.486919847, "top": 60.446110046000001, "right": 4.986919847, "bottom": 59.946110046000001, "row_index": 28, "col_index": 1, "tile_id": 69 }, "geometry": { "type": "MultiPolygon", "coordinates": [ [ [ [ 4.979945221670798, 60.438523042627082 ], [ 4.979944403178965, 60.438235355492239 ], [ 4.980308689813915, 60.43764405867276 ], [ 4.979896617172154, 60.437739469380432 ], [ 4.979828428126473, 60.438290262822605 ], [ 4.97857500383968, 60.439012050313721 ], [ 4.978905087524873, 60.439282753540773 ], [ 4.979945221670798, 60.438523042627082 ] ] ] ] } },
{ "type": "Feature", "properties": { "fid": 116733, "navn": null, "hoyde_moh": null, "arealInnsjo_km2": 0.0067, "magasinKategori": null, "fid_2": 69, "id": 69, "left": 4.486919847, "top": 60.446110046000001, "right": 4.986919847, "bottom": 59.946110046000001, "row_index": 28, "col_index": 1, "tile_id": 69 }, "geometry": { "type": "MultiPolygon", "coordinates": [ [ [ [ 4.986919847, 60.363707807098756 ], [ 4.986919847, 60.362224653365814 ], [ 4.986693177197571, 60.362050800102409 ], [ 4.986427863371063, 60.362141677220485 ], [ 4.98642143108157, 60.362635962532636 ], [ 4.986651276826746, 60.363128389170292 ], [ 4.98637254635332, 60.363623424288029 ], [ 4.986783268258107, 60.363824608385649 ], [ 4.986919847, 60.363707807098756 ] ] ] ] } },
{ "type": "Feature", "properties": { "fid": 141803, "navn": null, "hoyde_moh": null, "arealInnsjo_km2": 0.005, "magasinKategori": null, "fid_2": 69, "id": 69, "left": 4.486919847, "top": 60.446110046000001, "right": 4.986919847, "bottom": 59.946110046000001, "row_index": 28, "col_index": 1, "tile_id": 69 }, "geometry": { "type": "MultiPolygon", "coordinates": [ [ [ [ 4.960406967822873, 60.34686095080442 ], [ 4.960192343711071, 60.346836350531952 ], [ 4.959866615731309, 60.347123124435321 ], [ 4.960136251895572, 60.347437011632906 ], [ 4.96045341052866, 60.34750961386024 ], [ 4.96185464429979, 60.347624134761901 ], [ 4.961995504563011, 60.347511604907169 ], [ 4.960406967822873, 60.34686095080442 ] ] ] ] } },
{ "type": "Feature", "properties": { "fid": 155016, "navn": null, "hoyde_moh": null, "arealInnsjo_km2": 0.003, "magasinKategori": null, "fid_2": 69, "id": 69, "left": 4.486919847, "top": 60.446110046000001, "right": 4.986919847, "bottom": 59.946110046000001, "row_index": 28, "col_index": 1, "tile_id": 69 }, "geometry": { "type": "MultiPolygon", "coordinates": [ [ [ [ 4.983525927511222, 60.280830647106448 ], [ 4.983681418913435, 60.280448815433004 ], [ 4.98428195927209, 60.280422157148934 ], [ 4.984500128459744, 60.280266914440624 ], [ 4.983409209381493, 60.280305815264619 ], [ 4.98286906357627, 60.280577076698449 ], [ 4.982920808845155, 60.280893334684954 ], [ 4.983525927511222, 60.280830647106448 ] ] ] ] } },
{ "type": "Feature", "properties": { "fid": 155017, "navn": null, "hoyde_moh": null, "arealInnsjo_km2": 0.0037, "magasinKategori": null, "fid_2": 69, "id": 69, "left": 4.486919847, "top": 60.446110046000001, "right": 4.986919847, "bottom": 59.946110046000001, "row_index": 28, "col_index": 1, "tile_id": 69 }, "geometry": { "type": "MultiPolygon", "coordinates": [ [ [ [ 4.985460602126305, 60.281144879384257 ], [ 4.984283880410049, 60.281145217630652 ], [ 4.98406813049135, 60.280985794933976 ], [ 4.983071000969714, 60.281144601044033 ], [ 4.983696836366642, 60.281208380667863 ], [ 4.983170613827337, 60.28165989498946 ], [ 4.985460602126305, 60.281144879384257 ] ] ] ] } },
{ "type": "Feature", "properties": { "fid": 159694, "navn": "Kleivavatnet", "hoyde_moh": null, "arealInnsjo_km2": 0.0146, "magasinKategori": null, "fid_2": 69, "id": 69, "left": 4.486919847, "top": 60.446110046000001, "right": 4.986919847, "bottom": 59.946110046000001, "row_index": 28, "col_index": 1, "tile_id": 69 }, "geometry": { "type": "MultiPolygon", "coordinates": [ [ [ [ 4.977133039637797, 60.436550096372642 ], [ 4.977490498581548, 60.436749756350892 ], [ 4.977580149999647, 60.435583708833548 ], [ 4.977911070677012, 60.434820638783066 ], [ 4.978264651287797, 60.434462762326035 ], [ 4.978231663815404, 60.43399415475664 ], [ 4.978087831815814, 60.433980874797335 ], [ 4.977227242054054, 60.434907883704071 ], [ 4.977135709806689, 60.435354632800177 ], [ 4.976267961095981, 60.436191404302093 ], [ 4.97635310854997, 60.43667945356971 ], [ 4.976490288164158, 60.436746532706181 ], [ 4.975958545016916, 60.436928141029327 ], [ 4.975951221566001, 60.437134751836382 ], [ 4.976308500101369, 60.437334401403504 ], [ 4.977133039637797, 60.436550096372642 ] ] ] ] } },
{ "type": "Feature", "properties": { "fid": 159776, "navn": null, "hoyde_moh": null, "arealInnsjo_km2": 0.0057, "magasinKategori": null, "fid_2": 69, "id": 69, "left": 4.486919847, "top": 60.446110046000001, "right": 4.986919847, "bottom": 59.946110046000001, "row_index": 28, "col_index": 1, "tile_id": 69 }, "geometry": { "type": "MultiPolygon", "coordinates": [ [ [ [ 4.975988873960705, 60.439032799900232 ], [ 4.975951153177854, 60.438456490331681 ], [ 4.974949942009656, 60.438902452286413 ], [ 4.974947292569632, 60.439217030053264 ], [ 4.975683953748356, 60.439733768189733 ], [ 4.976354156632635, 60.43916970258519 ], [ 4.975988873960705, 60.439032799900232 ] ] ] ] } },
{ "type": "Feature", "properties": { "fid": 159870, "navn": null, "hoyde_moh": null, "arealInnsjo_km2": 0.0106, "magasinKategori": null, "fid_2": 69, "id": 69, "left": 4.486919847, "top": 60.446110046000001, "right": 4.986919847, "bottom": 59.946110046000001, "row_index": 28, "col_index": 1, "tile_id": 69 }, "geometry": { "type": "MultiPolygon", "coordinates": [ [ [ [ 4.985417844767541, 60.37874275423728 ], [ 4.985367487996814, 60.37856145150684 ], [ 4.985133763339865, 60.378248739836998 ], [ 4.984684397215621, 60.378064351008113 ], [ 4.98304886237926, 60.3782217626893 ], [ 4.982647964300882, 60.378380346409216 ], [ 4.982566010859466, 60.378602726566655 ], [ 4.984996548183156, 60.378918800142003 ], [ 4.985417844767541, 60.37874275423728 ] ] ] ] } },
{ "type": "Feature", "properties": { "fid": 159876, "navn": null, "hoyde_moh": null, "arealInnsjo_km2": 0.0128, "magasinKategori": null, "fid_2": 69, "id": 69, "left": 4.486919847, "top": 60.446110046000001, "right": 4.986919847, "bottom": 59.946110046000001, "row_index": 28, "col_index": 1, "tile_id": 69 }, "geometry": { "type": "MultiPolygon", "coordinates": [ [ [ [ 4.974262517063575, 60.387017825523458 ], [ 4.975347940658352, 60.38661031308029 ], [ 4.975746641123497, 60.386325595089446 ], [ 4.975804668672866, 60.386003831807123 ], [ 4.974667945749221, 60.385942432819085 ], [ 4.973662722358561, 60.386433240822228 ], [ 4.973529376900496, 60.386923857401136 ], [ 4.973207700163654, 60.387174789250096 ], [ 4.973206121701484, 60.387776886743779 ], [ 4.974262517063575, 60.387017825523458 ] ] ] ] } },
{ "type": "Feature", "properties": { "fid": 163830, "navn": null, "hoyde_moh": null, "arealInnsjo_km2": 0.0068, "magasinKategori": null, "fid_2": 69, "id": 69, "left": 4.486919847, "top": 60.446110046000001, "right": 4.986919847, "bottom": 59.946110046000001, "row_index": 28, "col_index": 1, "tile_id": 69 }, "geometry": { "type": "MultiPolygon", "coordinates": [ [ [ [ 4.974099147313147, 60.261168901512633 ], [ 4.974010099003244, 60.260716663634561 ], [ 4.971979547271078, 60.260897795738131 ], [ 4.971977521858566, 60.261059366952772 ], [ 4.972744757382374, 60.261442344752261 ], [ 4.973285558206752, 60.261458801228152 ], [ 4.974099147313147, 60.261168901512633 ] ] ] ] } },
{ "type": "Feature", "properties": { "fid": 164563, "navn": null, "hoyde_moh": null, "arealInnsjo_km2": 0.0103, "magasinKategori": null, "fid_2": 69, "id": 69, "left": 4.486919847, "top": 60.446110046000001, "right": 4.986919847, "bottom": 59.946110046000001, "row_index": 28, "col_index": 1, "tile_id": 69 }, "geometry": { "type": "MultiPolygon", "coordinates": [ [ [ [ 4.95565376673713, 60.350375279573093 ], [ 4.956056559504325, 60.350198743744102 ], [ 4.956598543531348, 60.350511961767431 ], [ 4.957192240859507, 60.350404105174967 ], [ 4.957286531694091, 60.350083483899468 ], [ 4.957155052701844, 60.349387150518623 ], [ 4.956293431101902, 60.349459727812281 ], [ 4.955965390742142, 60.349323927305036 ], [ 4.955195381175813, 60.350559068086419 ], [ 4.955651912756553, 60.350537053616847 ], [ 4.95565376673713, 60.350375279573093 ] ] ] ] } },
{ "type": "Feature", "properties": { "fid": 164767, "navn": null, "hoyde_moh": null, "arealInnsjo_km2": 0.0146, "magasinKategori": null, "fid_2": 69, "id": 69, "left": 4.486919847, "top": 60.446110046000001, "right": 4.986919847, "bottom": 59.946110046000001, "row_index": 28, "col_index": 1, "tile_id": 69 }, "geometry": { "type": "MultiPolygon", "coordinates": [ [ [ [ 4.950773271797189, 60.347304729528624 ], [ 4.950900239768345, 60.347011946100849 ], [ 4.951729026749731, 60.346767473044736 ], [ 4.953166825662756, 60.345705491923532 ], [ 4.95195522058179, 60.345821473133135 ], [ 4.950137183544003, 60.346584168842291 ], [ 4.950187762598974, 60.347053143858538 ], [ 4.949675284575837, 60.347235317666019 ], [ 4.949463370943368, 60.347480526591994 ], [ 4.949778754387994, 60.34757112175965 ], [ 4.950773271797189, 60.347304729528624 ] ] ] ] } },
{ "type": "Feature", "properties": { "fid": 166718, "navn": "Fuglavatnet", "hoyde_moh": 24, "arealInnsjo_km2": 0.0801, "magasinKategori": null, "fid_2": 69, "id": 69, "left": 4.486919847, "top": 60.446110046000001, "right": 4.986919847, "bottom": 59.946110046000001, "row_index": 28, "col_index": 1, "tile_id": 69 }, "geometry": { "type": "MultiPolygon", "coordinates": [ [ [ [ 4.978730878147802, 60.429370436525211 ], [ 4.979920447279448, 60.428723191371517 ], [ 4.979830878149065, 60.428271013335518 ], [ 4.980637099746449, 60.427486218514652 ], [ 4.980601949196948, 60.427035641084359 ], [ 4.979316559427447, 60.426987862559983 ], [ 4.978828354634166, 60.426523588978 ], [ 4.979455808930402, 60.425715445953976 ], [ 4.979183969404318, 60.425266615223777 ], [ 4.977191379517448, 60.425350344117824 ], [ 4.977107505717304, 60.425734318898058 ], [ 4.976882761444896, 60.425934271527218 ], [ 4.976836570231081, 60.426454333600354 ], [ 4.976470402531941, 60.426766987993723 ], [ 4.976185138910978, 60.426722321035442 ], [ 4.975517816522517, 60.426971902071706 ], [ 4.974569454378582, 60.426700528996534 ], [ 4.974696862541958, 60.426991956606464 ], [ 4.97400874398789, 60.427555543218951 ], [ 4.974051460427308, 60.427799625539123 ], [ 4.974239155290627, 60.427751262424493 ], [ 4.974827817385568, 60.427256682938378 ], [ 4.975066665464381, 60.427236914793404 ], [ 4.97501899857802, 60.427622103288151 ], [ 4.97515388579103, 60.427707022136872 ], [ 4.976557876606863, 60.427236931609379 ], [ 4.976881474140281, 60.428002035532046 ], [ 4.977242758305204, 60.428021886132498 ], [ 4.976955457749191, 60.428579559686987 ], [ 4.977060681190646, 60.429346893801792 ], [ 4.977784965198132, 60.429665567991449 ], [ 4.978049897826435, 60.430024186018187 ], [ 4.97849799279042, 60.429929803324761 ], [ 4.978730878147802, 60.429370436525211 ] ], [ [ 4.977832807968525, 60.427662253216198 ], [ 4.977605488097379, 60.427736209914762 ], [ 4.977547355539333, 60.427617575369986 ], [ 4.977739753814352, 60.427533453453876 ], [ 4.977832807968525, 60.427662253216198 ] ] ] ] } },
{ "type": "Feature", "properties": { "fid": 204243, "navn": "Krokavatnet", "hoyde_moh": 21, "arealInnsjo_km2": 0.1009, "magasinKategori": null, "fid_2": 69, "id": 69, "left": 4.486919847, "top": 60.446110046000001, "right": 4.986919847, "bottom": 59.946110046000001, "row_index": 28, "col_index": 1, "tile_id": 69 }, "geometry": { "type": "MultiPolygon", "coordinates": [ [ [ [ 4.985470332090205, 60.271870212640074 ], [ 4.986919847, 60.271292941400695 ], [ 4.986919847, 60.270824453862247 ], [ 4.98660053099008, 60.270771747487267 ], [ 4.986379904702765, 60.270504350895216 ], [ 4.985878239048897, 60.270462158703864 ], [ 4.985743546233814, 60.270233342922502 ], [ 4.985832054465313, 60.270101258336908 ], [ 4.986776890717564, 60.269922991888713 ], [ 4.986732978025936, 60.269544075042852 ], [ 4.985656395393105, 60.269026047594167 ], [ 4.984713272867571, 60.269042441074014 ], [ 4.983442355309388, 60.269813057080107 ], [ 4.982575148396041, 60.269651957869051 ], [ 4.982765376258544, 60.269136213201101 ], [ 4.982589381037754, 60.269094929153169 ], [ 4.980867620466396, 60.269114770384626 ], [ 4.980514548819312, 60.26933773358256 ], [ 4.979184528749745, 60.269400440296472 ], [ 4.978813437016074, 60.2692877173208 ], [ 4.978515224805601, 60.268819361027184 ], [ 4.97834588571189, 60.269181758250795 ], [ 4.977906367717975, 60.269209160313586 ], [ 4.977498775320368, 60.269031205253143 ], [ 4.977207776197724, 60.269148119919372 ], [ 4.97764181645614, 60.269321847593297 ], [ 4.97799020909734, 60.269640723620725 ], [ 4.977926540419427, 60.269780761577529 ], [ 4.978920283153949, 60.270233446743987 ], [ 4.978965025921082, 60.27045957889753 ], [ 4.979471054943811, 60.270906396080143 ], [ 4.979652523571158, 60.270902850995007 ], [ 4.979608693892982, 60.270523933720078 ], [ 4.97992233320864, 60.270326655169576 ], [ 4.98077318238835, 60.270325434721286 ], [ 4.981324857213787, 60.270549019169849 ], [ 4.98140085937511, 60.271108762291384 ], [ 4.981175618652363, 60.271470522566169 ], [ 4.981592162921539, 60.271761818498085 ], [ 4.982197813169766, 60.271546422342098 ], [ 4.982666603113586, 60.271560602178582 ], [ 4.982482324534192, 60.271734892069254 ], [ 4.982579553244937, 60.271827732197913 ], [ 4.982982902914257, 60.27178597316032 ], [ 4.983482010405119, 60.272142739329119 ], [ 4.984202583107296, 60.271876721596186 ], [ 4.985470332090205, 60.271870212640074 ] ], [ [ 4.981365167177779, 60.269336583542369 ], [ 4.981672767364993, 60.269336946471405 ], [ 4.981589655375672, 60.269424371149285 ], [ 4.981365167177779, 60.269336583542369 ] ], [ [ 4.979703422076782, 60.269549586434593 ], [ 4.979287697933678, 60.269545955201657 ], [ 4.979384302615879, 60.269459107565027 ], [ 4.979703422076782, 60.269549586434593 ] ], [ [ 4.982048118291403, 60.269671891423243 ], [ 4.982898603850695, 60.269967379567319 ], [ 4.982224563437891, 60.270297568982464 ], [ 4.98145212228132, 60.270103320497604 ], [ 4.98140568359301, 60.269819502773075 ], [ 4.982048118291403, 60.269671891423243 ] ], [ [ 4.981716531306494, 60.270749729862608 ], [ 4.982177970087057, 60.270529861781512 ], [ 4.982633962999975, 60.270795471832507 ], [ 4.982319000877214, 60.271001796000874 ], [ 4.98177201922819, 60.270886269215538 ], [ 4.981716531306494, 60.270749729862608 ] ] ] ] } },
{ "type": "Feature", "properties": { "fid": 204245, "navn": "Nesvikavatnet", "hoyde_moh": 6, "arealInnsjo_km2": 0.0477, "magasinKategori": null, "fid_2": 69, "id": 69, "left": 4.486919847, "top": 60.446110046000001, "right": 4.986919847, "bottom": 59.946110046000001, "row_index": 28, "col_index": 1, "tile_id": 69 }, "geometry": { "type": "MultiPolygon", "coordinates": [ [ [ [ 4.971467280302839, 60.277406107473119 ], [ 4.971574375176693, 60.276977876011443 ], [ 4.971823196129022, 60.276868612265794 ], [ 4.971510584962495, 60.275438644180824 ], [ 4.971915095062998, 60.275388044980353 ], [ 4.972059606081235, 60.275095705162961 ], [ 4.975314790118154, 60.274385343632829 ], [ 4.973460940116268, 60.274445983374747 ], [ 4.972633301416605, 60.274699440317015 ], [ 4.969023068933502, 60.275057388666795 ], [ 4.968117545307316, 60.275209578866132 ], [ 4.968171072063847, 60.275364077558059 ], [ 4.967848897637896, 60.275480136254359 ], [ 4.96830712677284, 60.275727778795293 ], [ 4.96799545189382, 60.275907085656662 ], [ 4.968176433131155, 60.276200365066749 ], [ 4.968746670938935, 60.27612775699361 ], [ 4.969378146634368, 60.276290779535657 ], [ 4.969753235378893, 60.276625833385594 ], [ 4.969844167581009, 60.276916312808808 ], [ 4.970429581383913, 60.27715880576784 ], [ 4.970467073608206, 60.277591459252818 ], [ 4.971467280302839, 60.277406107473119 ] ] ] ] } },
{ "type": "Feature", "properties": { "fid": 220569, "navn": "Storavatnet", "hoyde_moh": 8, "arealInnsjo_km2": 0.0678, "magasinKategori": null, "fid_2": 69, "id": 69, "left": 4.486919847, "top": 60.446110046000001, "right": 4.986919847, "bottom": 59.946110046000001, "row_index": 28, "col_index": 1, "tile_id": 69 }, "geometry": { "type": "MultiPolygon", "coordinates": [ [ [ [ 4.950315410313005, 60.350554369509098 ], [ 4.949583249308363, 60.350460025020368 ], [ 4.949095782971576, 60.350148491945191 ], [ 4.948133918613561, 60.34985830647387 ], [ 4.948134601727343, 60.349561766517553 ], [ 4.948731706136684, 60.34942714617479 ], [ 4.948600036740483, 60.349027552890938 ], [ 4.94887437139007, 60.348424718812026 ], [ 4.948407559632871, 60.3482395673566 ], [ 4.948234186842265, 60.347883672572955 ], [ 4.946599150357037, 60.34819337230212 ], [ 4.946325662753661, 60.348059085337027 ], [ 4.945917889056214, 60.348127598806947 ], [ 4.945652586728603, 60.348218393907359 ], [ 4.945835810140347, 60.348349863014782 ], [ 4.945478133415986, 60.348599685879115 ], [ 4.94456011273869, 60.348688515496619 ], [ 4.944469078655576, 60.348982411252216 ], [ 4.944255743304115, 60.349092830441371 ], [ 4.944657250254246, 60.349365780823952 ], [ 4.944606615919671, 60.349481022343305 ], [ 4.942619481364408, 60.349267535320635 ], [ 4.94401403533105, 60.349723765113723 ], [ 4.946457035928739, 60.35021178889442 ], [ 4.947458742453712, 60.350619972799599 ], [ 4.9480412833719, 60.351042219783459 ], [ 4.949621312715627, 60.351468101120787 ], [ 4.95062574344378, 60.351561591293589 ], [ 4.950315410313005, 60.350554369509098 ] ], [ [ 4.947686590239913, 60.349224457397945 ], [ 4.947421310729244, 60.349315167554344 ], [ 4.94736225961644, 60.349205489964355 ], [ 4.947550576638688, 60.34900454967827 ], [ 4.947686590239913, 60.349224457397945 ] ] ] ] } },
{ "type": "Feature", "properties": { "fid": 226560, "navn": "Mjåvatnet", "hoyde_moh": 20, "arealInnsjo_km2": 0.2001, "magasinKategori": null, "fid_2": 69, "id": 69, "left": 4.486919847, "top": 60.446110046000001, "right": 4.986919847, "bottom": 59.946110046000001, "row_index": 28, "col_index": 1, "tile_id": 69 }, "geometry": { "type": "MultiPolygon", "coordinates": [ [ [ [ 4.974849489450695, 60.281698301080056 ], [ 4.975163727040371, 60.28120422729431 ], [ 4.975926285023143, 60.280598169968307 ], [ 4.975923135416061, 60.280328326731123 ], [ 4.977246723262418, 60.2800178902882 ], [ 4.978831547398327, 60.279202898588785 ], [ 4.979856591941066, 60.278964260518727 ], [ 4.980177066371844, 60.278713287702026 ], [ 4.980501896749399, 60.278129694956675 ], [ 4.982984510974494, 60.277081252520048 ], [ 4.984107250865547, 60.276782606420461 ], [ 4.986591380374585, 60.276453241796681 ], [ 4.986919847, 60.276286653962934 ], [ 4.986919847, 60.274359036973109 ], [ 4.986863190314873, 60.274384759939558 ], [ 4.986742312053315, 60.275370053415827 ], [ 4.986509939682588, 60.275641684126768 ], [ 4.985741531052163, 60.275708324213291 ], [ 4.984434396221309, 60.27618117580333 ], [ 4.982935621779996, 60.277034812044924 ], [ 4.981711310881495, 60.277276387794814 ], [ 4.980176464844131, 60.278128970319393 ], [ 4.978096699660582, 60.2788480601534 ], [ 4.977733907594601, 60.279295448462335 ], [ 4.97556540787861, 60.280146661354038 ], [ 4.975397959419244, 60.280330464876691 ], [ 4.973363167753405, 60.280682226732125 ], [ 4.97213256599103, 60.281265160098556 ], [ 4.974030858181392, 60.28084635355556 ], [ 4.974714187244736, 60.280885057425124 ], [ 4.974847343368912, 60.280979013319993 ], [ 4.974299274261886, 60.282050125387556 ], [ 4.974357008152146, 60.282168739909942 ], [ 4.974886320483884, 60.281987093406855 ], [ 4.974849489450695, 60.281698301080056 ] ] ] ] } },
{ "type": "Feature", "properties": { "fid": 226563, "navn": "Storavatnet", "hoyde_moh": 3, "arealInnsjo_km2": 0.0338, "magasinKategori": null, "fid_2": 69, "id": 69, "left": 4.486919847, "top": 60.446110046000001, "right": 4.986919847, "bottom": 59.946110046000001, "row_index": 28, "col_index": 1, "tile_id": 69 }, "geometry": { "type": "MultiPolygon", "coordinates": [ [ [ [ 4.960301410561987, 60.334675974004426 ], [ 4.960392249460766, 60.334382063267491 ], [ 4.96021794069367, 60.334178980431801 ], [ 4.960164237637747, 60.333440165040813 ], [ 4.959806618879613, 60.332521233894091 ], [ 4.958904017664241, 60.332340884403926 ], [ 4.958312761188878, 60.332430815725651 ], [ 4.957630242480973, 60.332230138507867 ], [ 4.957185985846309, 60.33245047497455 ], [ 4.957180034089419, 60.332791950311872 ], [ 4.956954468496082, 60.332857010536756 ], [ 4.956954814839653, 60.333144663272897 ], [ 4.957623673258635, 60.333308823056534 ], [ 4.957729002624618, 60.333482935741749 ], [ 4.957621645102774, 60.333911162561755 ], [ 4.957896500821281, 60.334180205472613 ], [ 4.958265182322386, 60.334425180489013 ], [ 4.959083787721863, 60.334405172289159 ], [ 4.960075837238763, 60.3347410394083 ], [ 4.960301410561987, 60.334675974004426 ] ] ] ] } },
{ "type": "Feature", "properties": { "fid": 227054, "navn": "Kaldavatnet", "hoyde_moh": 8, "arealInnsjo_km2": 0.0315, "magasinKategori": null, "fid_2": 69, "id": 69, "left": 4.486919847, "top": 60.446110046000001, "right": 4.986919847, "bottom": 59.946110046000001, "row_index": 28, "col_index": 1, "tile_id": 69 }, "geometry": { "type": "MultiPolygon", "coordinates": [ [ [ [ 4.980012409308889, 60.264584762271312 ], [ 4.980426178610909, 60.264309595611834 ], [ 4.981593972228283, 60.264084293965254 ], [ 4.982406110891677, 60.262922266611554 ], [ 4.980685314493184, 60.263526430225291 ], [ 4.979341778823803, 60.263710361727988 ], [ 4.97749288976619, 60.264472331166772 ], [ 4.976754184882597, 60.264546781221618 ], [ 4.976610345168498, 60.264686316161587 ], [ 4.97669654934657, 60.265160868184189 ], [ 4.97650743731504, 60.265416864704939 ], [ 4.976850710931584, 60.265729744778632 ], [ 4.977400018235697, 60.265817962506787 ], [ 4.978079697569327, 60.265694662207885 ], [ 4.978335471736838, 60.265567822094653 ], [ 4.978395304041682, 60.265227848199508 ], [ 4.97815686007735, 60.26496006989484 ], [ 4.978166255233431, 60.26473562100432 ], [ 4.978922578699666, 60.264470826284338 ], [ 4.980012409308889, 60.264584762271312 ] ] ] ] } }
]
}
