{
"type": "FeatureCollection",
"name": "innsjo_tile_id_2091",
"crs": { "type": "name", "properties": { "name": "urn:ogc:def:crs:OGC:1.3:CRS84" } },
"xy_coordinate_resolution": 1e-15,
"features": [
{ "type": "Feature", "properties": { "fid": 269298, "navn": "Svanevatn", "hoyde_moh": 22, "arealInnsjo_km2": 14.9075, "magasinKategori": null, "fid_2": 2091, "id": 2091, "left": 29.986919847, "top": 69.446110046000001, "right": 30.486919847, "bottom": 68.946110046000001, "row_index": 10, "col_index": 52, "tile_id": 2091 }, "geometry": { "type": "MultiPolygon", "coordinates": [ [ [ [ 30.049277703352981, 69.445757574829727 ], [ 30.049123876695681, 69.445500804540359 ], [ 30.050467346398552, 69.445133304449513 ], [ 30.050570297008086, 69.445019856778913 ], [ 30.050361149583118, 69.444680402851063 ], [ 30.050480749749759, 69.444607751886849 ], [ 30.0526489568819, 69.444648159702183 ], [ 30.06159260619825, 69.44316388254046 ], [ 30.073475049880194, 69.442391316568461 ], [ 30.073963331820384, 69.442202181515327 ], [ 30.073836014074363, 69.441656950861301 ], [ 30.074837136806945, 69.439002011400987 ], [ 30.077117259284762, 69.438212489560087 ], [ 30.084178057013915, 69.438050082171969 ], [ 30.089535917372881, 69.437500508711665 ], [ 30.094638448904306, 69.437771141199903 ], [ 30.098507118826188, 69.43727924833172 ], [ 30.100677741258984, 69.436787021555133 ], [ 30.098225232960552, 69.436005636410144 ], [ 30.098978765989333, 69.435512023013089 ], [ 30.105676947631853, 69.436827948009451 ], [ 30.111201619127989, 69.435483587865207 ], [ 30.121834745055121, 69.436838778639711 ], [ 30.125360841773521, 69.437044627400553 ], [ 30.125458361595683, 69.436565991901773 ], [ 30.125864702128897, 69.436592793772476 ], [ 30.125985782586749, 69.436079887649058 ], [ 30.125151786334726, 69.434574738210969 ], [ 30.12025711037014, 69.435086631892162 ], [ 30.117198806237067, 69.434356726399471 ], [ 30.110830369991408, 69.432325495508678 ], [ 30.104555684987933, 69.431083545406466 ], [ 30.097466236059631, 69.430321932543961 ], [ 30.094289119051957, 69.431995453705909 ], [ 30.081114535005028, 69.432311322568211 ], [ 30.074347484773376, 69.43027956357605 ], [ 30.073422389709066, 69.429837853623269 ], [ 30.072060632941096, 69.428587955781538 ], [ 30.06806728642087, 69.42654903633715 ], [ 30.065271045244156, 69.425944753677044 ], [ 30.06345327692436, 69.425076332178989 ], [ 30.061998279396779, 69.423525422431453 ], [ 30.057023638149783, 69.420775754964993 ], [ 30.044718694911218, 69.417209873820397 ], [ 30.037007195090197, 69.41581885133823 ], [ 30.027592965038522, 69.412874770295829 ], [ 30.002049721770248, 69.408505786149519 ], [ 29.99732397278974, 69.40884379234295 ], [ 29.992281138644728, 69.408393724267739 ], [ 29.986919847, 69.405851606124301 ], [ 29.986919847, 69.416373218503608 ], [ 29.987742313633625, 69.416447872280685 ], [ 29.98915951302029, 69.41712747708246 ], [ 29.98910360142137, 69.417469565219818 ], [ 29.989435849137973, 69.417646866248319 ], [ 29.989158118659073, 69.417945358089966 ], [ 29.98936181707651, 69.418287844487423 ], [ 29.989169271040687, 69.418475245414754 ], [ 29.989595673218634, 69.418552542969792 ], [ 29.989760147403668, 69.418848771754071 ], [ 29.990310125861836, 69.419166703935218 ], [ 29.99043655885453, 69.419357001597362 ], [ 29.990014927117642, 69.419443259743062 ], [ 29.990528818262192, 69.419947041709293 ], [ 29.990431524184256, 69.420139577618983 ], [ 29.991227483441083, 69.420506250513725 ], [ 29.991381370559463, 69.420717053009582 ], [ 29.993324670018517, 69.421173940720692 ], [ 29.99354114320619, 69.421448644278385 ], [ 29.994476073310647, 69.421825793745171 ], [ 29.994609286585384, 69.422083535239182 ], [ 29.995471825649091, 69.422447917697866 ], [ 29.995580565125799, 69.422595307235625 ], [ 29.995260800695903, 69.422682072341857 ], [ 29.995758407142741, 69.422955271065632 ], [ 29.996713673407896, 69.423117015829831 ], [ 29.996764911058115, 69.423263769909539 ], [ 29.998372159819606, 69.423916924618752 ], [ 29.999152232511992, 69.424542051813773 ], [ 30.00081408342966, 69.425112945881409 ], [ 30.000702446048049, 69.425223248619091 ], [ 30.001435829906576, 69.42608074512674 ], [ 30.000795900126302, 69.426448326739774 ], [ 30.000680145920835, 69.426591770419094 ], [ 30.000758097269426, 69.426847486264251 ], [ 30.000418834337815, 69.426909184996546 ], [ 30.000311659535047, 69.427089252931552 ], [ 30.000568985007853, 69.427226112708851 ], [ 30.000644691658756, 69.42752198674728 ], [ 30.000173435094755, 69.427611534617455 ], [ 30.000471949893871, 69.427871822486452 ], [ 30.000014356546792, 69.428360038460454 ], [ 30.000278613227515, 69.42866367791629 ], [ 29.999894420926633, 69.428592700263067 ], [ 29.999543150953201, 69.428776346441012 ], [ 29.999479153269924, 69.429016963030705 ], [ 29.999872342641773, 69.429300206208836 ], [ 29.999810681752365, 69.429911120353452 ], [ 29.999961393816513, 69.430224041470908 ], [ 30.000851526496437, 69.430639675851154 ], [ 30.001729603578514, 69.430817807961432 ], [ 30.001995469487735, 69.430998848811228 ], [ 30.001915162097117, 69.431235658949049 ], [ 30.002284642761619, 69.431389788352504 ], [ 30.002577581813132, 69.432231837084274 ], [ 30.002369955351359, 69.432498663378738 ], [ 30.002421585065562, 69.432677428693765 ], [ 30.00217588212502, 69.432792928535505 ], [ 30.002148457345907, 69.433016142244014 ], [ 30.001630986023258, 69.433198890437552 ], [ 30.001833809022617, 69.433384390405934 ], [ 30.001791894661508, 69.433527856636331 ], [ 30.001214572622963, 69.433678500009023 ], [ 30.001775441690739, 69.433653424151331 ], [ 30.001907011079094, 69.43392328906252 ], [ 30.002189596059676, 69.433970271022631 ], [ 30.001843588815881, 69.434089461394038 ], [ 30.001678169942409, 69.434343538591406 ], [ 30.002698796345829, 69.434724834833389 ], [ 30.00254937685267, 69.434993615054339 ], [ 30.003466309403947, 69.435404590286041 ], [ 30.003337374732766, 69.43551052555064 ], [ 30.003419245890232, 69.435776397380096 ], [ 30.004222963476874, 69.436493934293722 ], [ 30.004203281236535, 69.436966819797149 ], [ 30.004532902660412, 69.437341215567685 ], [ 30.004234723324949, 69.437456648964769 ], [ 30.004065326956145, 69.438299533342189 ], [ 30.004349625915221, 69.438533738970094 ], [ 30.004143845680844, 69.438715509171857 ], [ 30.004517641742211, 69.438907752575503 ], [ 30.00491229972441, 69.439466734255021 ], [ 30.006589671270596, 69.439990639839095 ], [ 30.005986137163578, 69.440696150158388 ], [ 30.00617129732969, 69.440986613933219 ], [ 30.007217402489644, 69.441522934587269 ], [ 30.008587571032134, 69.441532801995891 ], [ 30.008377197788782, 69.441676955643047 ], [ 30.007470180810206, 69.441604312651322 ], [ 30.005154137877405, 69.44186137836553 ], [ 30.00469186493218, 69.442152506808739 ], [ 30.004848211812003, 69.442455825761783 ], [ 30.006234520189199, 69.442670912150689 ], [ 30.00432460884938, 69.442846738927059 ], [ 30.003582900901403, 69.443131477444354 ], [ 30.003327327948703, 69.443553623795097 ], [ 30.003488622419596, 69.443624292944605 ], [ 30.003437526386158, 69.443963309156814 ], [ 30.003670737937206, 69.444027544131103 ], [ 30.003279943121019, 69.444093036864459 ], [ 30.004249339957102, 69.444440394277535 ], [ 30.005160563749673, 69.444499709114339 ], [ 30.004892853889846, 69.444634823968173 ], [ 30.004717064975999, 69.445085017953048 ], [ 30.004952480040984, 69.445748104899835 ], [ 30.005547421158138, 69.446018270650654 ], [ 30.00560837189531, 69.446110046 ], [ 30.04867036554683, 69.446110046 ], [ 30.049277703352981, 69.445757574829727 ] ], [ [ 30.045735261354505, 69.442646195504835 ], [ 30.046001334444473, 69.442825257200354 ], [ 30.045929835851346, 69.442959954233089 ], [ 30.045622147157705, 69.442928048534114 ], [ 30.04570508581245, 69.443005803092277 ], [ 30.043711132716258, 69.44326476185752 ], [ 30.043169045878482, 69.443133497750452 ], [ 30.043431570219987, 69.442833370536135 ], [ 30.045735261354505, 69.442646195504835 ] ] ] ] } }
]
}
