{
"type": "FeatureCollection",
"name": "innsjo_tile_id_539",
"crs": { "type": "name", "properties": { "name": "urn:ogc:def:crs:OGC:1.3:CRS84" } },
"xy_coordinate_resolution": 1e-15,
"features": [
{ "type": "Feature", "properties": { "fid": 451, "navn": null, "hoyde_moh": 5, "arealInnsjo_km2": 0.0028, "magasinKategori": null, "fid_2": 539, "id": 539, "left": 10.486919847, "top": 65.446110046000001, "right": 10.986919847, "bottom": 64.946110046000001, "row_index": 18, "col_index": 13, "tile_id": 539 }, "geometry": { "type": "MultiPolygon", "coordinates": [ [ [ [ 10.863235117107681, 64.973547895975202 ], [ 10.862615442736333, 64.973356149437279 ], [ 10.859787120670171, 64.972739946936059 ], [ 10.863212809160636, 64.973697554127185 ], [ 10.863235117107681, 64.973547895975202 ] ] ] ] } },
{ "type": "Feature", "properties": { "fid": 527, "navn": null, "hoyde_moh": 2, "arealInnsjo_km2": 0.0064, "magasinKategori": null, "fid_2": 539, "id": 539, "left": 10.486919847, "top": 65.446110046000001, "right": 10.986919847, "bottom": 64.946110046000001, "row_index": 18, "col_index": 13, "tile_id": 539 }, "geometry": { "type": "MultiPolygon", "coordinates": [ [ [ [ 10.822014279379587, 64.964184301109128 ], [ 10.822090990459188, 64.96348950817989 ], [ 10.821626362515779, 64.963438278232843 ], [ 10.821210198874306, 64.962989959491921 ], [ 10.820163962981374, 64.963125813080723 ], [ 10.820386824796746, 64.963591991740984 ], [ 10.821130996339853, 64.963563431825946 ], [ 10.821438343490854, 64.963798554765134 ], [ 10.82097281363605, 64.96408570315738 ], [ 10.821558007575485, 64.964086297298451 ], [ 10.821824391917728, 64.964322966845458 ], [ 10.822014279379587, 64.964184301109128 ] ] ] ] } },
{ "type": "Feature", "properties": { "fid": 15727, "navn": null, "hoyde_moh": 14, "arealInnsjo_km2": 0.0033, "magasinKategori": null, "fid_2": 539, "id": 539, "left": 10.486919847, "top": 65.446110046000001, "right": 10.986919847, "bottom": 64.946110046000001, "row_index": 18, "col_index": 13, "tile_id": 539 }, "geometry": { "type": "MultiPolygon", "coordinates": [ [ [ [ 10.86365358214168, 64.984444725284064 ], [ 10.862877248697213, 64.984126493558321 ], [ 10.862801900821959, 64.983852159741119 ], [ 10.862158283865842, 64.984019177505957 ], [ 10.862011263405714, 64.984221458521162 ], [ 10.862105273069862, 64.98443555277926 ], [ 10.863495531527681, 64.984544149905076 ], [ 10.86365358214168, 64.984444725284064 ] ] ] ] } },
{ "type": "Feature", "properties": { "fid": 15728, "navn": null, "hoyde_moh": 4, "arealInnsjo_km2": 0.0023, "magasinKategori": null, "fid_2": 539, "id": 539, "left": 10.486919847, "top": 65.446110046000001, "right": 10.986919847, "bottom": 64.946110046000001, "row_index": 18, "col_index": 13, "tile_id": 539 }, "geometry": { "type": "MultiPolygon", "coordinates": [ [ [ [ 10.844129810583221, 64.985181901065559 ], [ 10.842765166466272, 64.985245867380897 ], [ 10.84171437654533, 64.985086954329688 ], [ 10.842252803211974, 64.985415563851248 ], [ 10.843851494889432, 64.985412504514244 ], [ 10.844129810583221, 64.985181901065559 ] ] ] ] } },
{ "type": "Feature", "properties": { "fid": 15729, "navn": null, "hoyde_moh": 5, "arealInnsjo_km2": 0.0047, "magasinKategori": null, "fid_2": 539, "id": 539, "left": 10.486919847, "top": 65.446110046000001, "right": 10.986919847, "bottom": 64.946110046000001, "row_index": 18, "col_index": 13, "tile_id": 539 }, "geometry": { "type": "MultiPolygon", "coordinates": [ [ [ [ 10.87533995256989, 64.993799614121656 ], [ 10.87549802764911, 64.993266876610235 ], [ 10.875802019272735, 64.993139658772293 ], [ 10.87585701689855, 64.992848088415073 ], [ 10.875117027859693, 64.992881997004176 ], [ 10.875149380174809, 64.993065793284956 ], [ 10.874523792733276, 64.99342453640692 ], [ 10.874575484528162, 64.993650840866266 ], [ 10.874359703988187, 64.993799461157749 ], [ 10.874803366431463, 64.993987625789188 ], [ 10.87533995256989, 64.993799614121656 ] ] ] ] } },
{ "type": "Feature", "properties": { "fid": 15735, "navn": null, "hoyde_moh": 2, "arealInnsjo_km2": 0.0049, "magasinKategori": null, "fid_2": 539, "id": 539, "left": 10.486919847, "top": 65.446110046000001, "right": 10.986919847, "bottom": 64.946110046000001, "row_index": 18, "col_index": 13, "tile_id": 539 }, "geometry": { "type": "MultiPolygon", "coordinates": [ [ [ [ 10.876841230931975, 64.979650065779708 ], [ 10.876734385686257, 64.979441469946053 ], [ 10.876833999266269, 64.979314441877477 ], [ 10.875511882722153, 64.978851034739279 ], [ 10.874943747188919, 64.978852120296352 ], [ 10.874977232399662, 64.978732790315377 ], [ 10.874627748378472, 64.978536981035319 ], [ 10.874409592979418, 64.978564287801859 ], [ 10.87439289487935, 64.978829235248114 ], [ 10.874018355628435, 64.978870008878985 ], [ 10.874870604807541, 64.979049625113433 ], [ 10.875239082208154, 64.979288830973942 ], [ 10.876140398172291, 64.979356910675151 ], [ 10.876841230931975, 64.979650065779708 ] ] ] ] } },
{ "type": "Feature", "properties": { "fid": 15736, "navn": null, "hoyde_moh": null, "arealInnsjo_km2": 0.0027, "magasinKategori": null, "fid_2": 539, "id": 539, "left": 10.486919847, "top": 65.446110046000001, "right": 10.986919847, "bottom": 64.946110046000001, "row_index": 18, "col_index": 13, "tile_id": 539 }, "geometry": { "type": "MultiPolygon", "coordinates": [ [ [ [ 10.859237690888058, 64.979725004165161 ], [ 10.859720619151867, 64.97965617944233 ], [ 10.858798107289202, 64.979123634759262 ], [ 10.85849446489755, 64.979097042868389 ], [ 10.858394831382594, 64.97918801847112 ], [ 10.858643463538188, 64.979409378137547 ], [ 10.858671610081384, 64.979726354826326 ], [ 10.858871926544349, 64.979954101191083 ], [ 10.859126292122463, 64.979950831537224 ], [ 10.859237690888058, 64.979725004165161 ] ] ] ] } },
{ "type": "Feature", "properties": { "fid": 15942, "navn": null, "hoyde_moh": null, "arealInnsjo_km2": 0.0035, "magasinKategori": null, "fid_2": 539, "id": 539, "left": 10.486919847, "top": 65.446110046000001, "right": 10.986919847, "bottom": 64.946110046000001, "row_index": 18, "col_index": 13, "tile_id": 539 }, "geometry": { "type": "MultiPolygon", "coordinates": [ [ [ [ 10.776963177876587, 64.972550324238796 ], [ 10.777628778958492, 64.972362898935657 ], [ 10.777287578984639, 64.97200798183917 ], [ 10.777031594781082, 64.971984188820272 ], [ 10.776347147061321, 64.972207660449001 ], [ 10.775869947087363, 64.972680053826792 ], [ 10.776963177876587, 64.972550324238796 ] ] ] ] } },
{ "type": "Feature", "properties": { "fid": 15952, "navn": null, "hoyde_moh": 4, "arealInnsjo_km2": 0.003, "magasinKategori": null, "fid_2": 539, "id": 539, "left": 10.486919847, "top": 65.446110046000001, "right": 10.986919847, "bottom": 64.946110046000001, "row_index": 18, "col_index": 13, "tile_id": 539 }, "geometry": { "type": "MultiPolygon", "coordinates": [ [ [ [ 10.814411463887696, 64.974874987978609 ], [ 10.813869584597725, 64.974556954415633 ], [ 10.814438560101831, 64.974277671605023 ], [ 10.813639553794207, 64.973670543796729 ], [ 10.813057528434527, 64.973557569182773 ], [ 10.813777031182834, 64.974145119947849 ], [ 10.81390262381653, 64.974411014570606 ], [ 10.813711836878202, 64.974591262697388 ], [ 10.813879252904242, 64.974840805030439 ], [ 10.814411463887696, 64.974874987978609 ] ] ] ] } },
{ "type": "Feature", "properties": { "fid": 15962, "navn": null, "hoyde_moh": 8, "arealInnsjo_km2": 0.0035, "magasinKategori": null, "fid_2": 539, "id": 539, "left": 10.486919847, "top": 65.446110046000001, "right": 10.986919847, "bottom": 64.946110046000001, "row_index": 18, "col_index": 13, "tile_id": 539 }, "geometry": { "type": "MultiPolygon", "coordinates": [ [ [ [ 10.852254295424475, 64.969910852773879 ], [ 10.851940208491545, 64.96978679447372 ], [ 10.851301879352523, 64.969851713593002 ], [ 10.850116221686998, 64.969373255068859 ], [ 10.849819775940309, 64.969428184534948 ], [ 10.84984787334346, 64.969643600052393 ], [ 10.850523833617386, 64.969997945583785 ], [ 10.85217063017638, 64.970094574833055 ], [ 10.852254295424475, 64.969910852773879 ] ] ] ] } },
{ "type": "Feature", "properties": { "fid": 15963, "navn": null, "hoyde_moh": null, "arealInnsjo_km2": 0.0053, "magasinKategori": null, "fid_2": 539, "id": 539, "left": 10.486919847, "top": 65.446110046000001, "right": 10.986919847, "bottom": 64.946110046000001, "row_index": 18, "col_index": 13, "tile_id": 539 }, "geometry": { "type": "MultiPolygon", "coordinates": [ [ [ [ 10.830796108720209, 64.972043244561476 ], [ 10.829710672284902, 64.971356470385402 ], [ 10.830265303753949, 64.971412527077646 ], [ 10.829009875815981, 64.971024070003125 ], [ 10.828438733949286, 64.971039900717855 ], [ 10.829228031947947, 64.971425204364635 ], [ 10.829048431091534, 64.971588974696573 ], [ 10.830278851129416, 64.97222911759539 ], [ 10.830596988773584, 64.972234243841754 ], [ 10.830796108720209, 64.972043244561476 ] ] ] ] } },
{ "type": "Feature", "properties": { "fid": 28629, "navn": "Hasfjordvatnet", "hoyde_moh": 5, "arealInnsjo_km2": 0.6509, "magasinKategori": null, "fid_2": 539, "id": 539, "left": 10.486919847, "top": 65.446110046000001, "right": 10.986919847, "bottom": 64.946110046000001, "row_index": 18, "col_index": 13, "tile_id": 539 }, "geometry": { "type": "MultiPolygon", "coordinates": [ [ [ [ 10.986871049432825, 64.946923902518023 ], [ 10.986919847, 64.947004946899753 ], [ 10.986919847, 64.946775097760906 ], [ 10.986871049432825, 64.946923902518023 ] ] ] ] } },
{ "type": "Feature", "properties": { "fid": 62026, "navn": null, "hoyde_moh": 4, "arealInnsjo_km2": 0.0065, "magasinKategori": null, "fid_2": 539, "id": 539, "left": 10.486919847, "top": 65.446110046000001, "right": 10.986919847, "bottom": 64.946110046000001, "row_index": 18, "col_index": 13, "tile_id": 539 }, "geometry": { "type": "MultiPolygon", "coordinates": [ [ [ [ 10.793433678682632, 64.987173601517156 ], [ 10.790380361926942, 64.986819652632605 ], [ 10.789844710116153, 64.986606511742721 ], [ 10.789674157242224, 64.986702545122043 ], [ 10.790795831850634, 64.987201346454142 ], [ 10.791257544533504, 64.987144002458024 ], [ 10.791836141876058, 64.987441852214161 ], [ 10.793130301923549, 64.987390469889945 ], [ 10.794335377703657, 64.987536734626687 ], [ 10.793433678682632, 64.987173601517156 ] ] ] ] } },
{ "type": "Feature", "properties": { "fid": 62115, "navn": null, "hoyde_moh": 1, "arealInnsjo_km2": 0.0099, "magasinKategori": null, "fid_2": 539, "id": 539, "left": 10.486919847, "top": 65.446110046000001, "right": 10.986919847, "bottom": 64.946110046000001, "row_index": 18, "col_index": 13, "tile_id": 539 }, "geometry": { "type": "MultiPolygon", "coordinates": [ [ [ [ 10.873056273365533, 64.991889888342001 ], [ 10.872900733117051, 64.991715983708687 ], [ 10.873394735747933, 64.991444652641093 ], [ 10.875626357714712, 64.991635279380063 ], [ 10.874182013456871, 64.991219813024003 ], [ 10.874276449308367, 64.991183059447991 ], [ 10.876315245685031, 64.991542883482381 ], [ 10.876870000806147, 64.991781570103598 ], [ 10.876952240379287, 64.991654599936822 ], [ 10.876470114656669, 64.991428258009009 ], [ 10.876562885016185, 64.99127021192534 ], [ 10.876161525937825, 64.991028306427523 ], [ 10.875792865952892, 64.99101065040891 ], [ 10.875433904275001, 64.991229999889185 ], [ 10.874104825126283, 64.990898790438322 ], [ 10.872966446866062, 64.991083084124199 ], [ 10.873405003940158, 64.991269584911009 ], [ 10.872703074322798, 64.991314420493438 ], [ 10.872945189195411, 64.991429604566918 ], [ 10.872826462237402, 64.991611197505691 ], [ 10.871941394875435, 64.991877812933652 ], [ 10.872130201378919, 64.992039787014036 ], [ 10.873056273365533, 64.991889888342001 ] ], [ [ 10.873698287313648, 64.991236357231784 ], [ 10.873990508571266, 64.991326861492013 ], [ 10.873836787370811, 64.991381747547749 ], [ 10.873659547212162, 64.991345565422336 ], [ 10.873698287313648, 64.991236357231784 ] ] ] ] } },
{ "type": "Feature", "properties": { "fid": 62132, "navn": null, "hoyde_moh": 6, "arealInnsjo_km2": 0.0098, "magasinKategori": null, "fid_2": 539, "id": 539, "left": 10.486919847, "top": 65.446110046000001, "right": 10.986919847, "bottom": 64.946110046000001, "row_index": 18, "col_index": 13, "tile_id": 539 }, "geometry": { "type": "MultiPolygon", "coordinates": [ [ [ [ 10.844385998411768, 64.978793441730161 ], [ 10.845549637700325, 64.978870729541356 ], [ 10.845556282986193, 64.978642259867613 ], [ 10.844994576094917, 64.97854184584223 ], [ 10.846210084920997, 64.978580308355035 ], [ 10.846511002144659, 64.978217309812166 ], [ 10.844753329036539, 64.978260087430286 ], [ 10.843878343532898, 64.978047842449357 ], [ 10.843621256698599, 64.977791615543183 ], [ 10.843471806597787, 64.978059335592192 ], [ 10.842799267022354, 64.977960675572717 ], [ 10.843098383121859, 64.978489784191254 ], [ 10.843754908069306, 64.978494969977874 ], [ 10.844251208387439, 64.978912280268418 ], [ 10.844385998411768, 64.978793441730161 ] ] ] ] } },
{ "type": "Feature", "properties": { "fid": 62133, "navn": null, "hoyde_moh": 7, "arealInnsjo_km2": 0.0041, "magasinKategori": null, "fid_2": 539, "id": 539, "left": 10.486919847, "top": 65.446110046000001, "right": 10.986919847, "bottom": 64.946110046000001, "row_index": 18, "col_index": 13, "tile_id": 539 }, "geometry": { "type": "MultiPolygon", "coordinates": [ [ [ [ 10.849680771892757, 64.979739367099924 ], [ 10.85058210526887, 64.979905571796721 ], [ 10.850844122332896, 64.979780562545727 ], [ 10.85048718048758, 64.979577744556352 ], [ 10.849344946272803, 64.979464870775558 ], [ 10.848984858260041, 64.979212707097801 ], [ 10.848809931097637, 64.979370068591649 ], [ 10.848034252942599, 64.979048265332608 ], [ 10.848425171644132, 64.979462624601226 ], [ 10.849460477966311, 64.979961977197661 ], [ 10.849680771892757, 64.979739367099924 ] ] ] ] } },
{ "type": "Feature", "properties": { "fid": 62140, "navn": null, "hoyde_moh": 4, "arealInnsjo_km2": 0.017, "magasinKategori": null, "fid_2": 539, "id": 539, "left": 10.486919847, "top": 65.446110046000001, "right": 10.986919847, "bottom": 64.946110046000001, "row_index": 18, "col_index": 13, "tile_id": 539 }, "geometry": { "type": "MultiPolygon", "coordinates": [ [ [ [ 10.834442067715486, 64.977359194068612 ], [ 10.834488875727427, 64.977053379258223 ], [ 10.834860056726432, 64.977042630568889 ], [ 10.834929740240575, 64.976897802455014 ], [ 10.832996302952534, 64.976126958552229 ], [ 10.832593569898542, 64.975730288172699 ], [ 10.832954815900619, 64.975211349213211 ], [ 10.832161029061551, 64.974995369313547 ], [ 10.831528747305905, 64.975101991542118 ], [ 10.83147336460722, 64.97531561790872 ], [ 10.832014367340951, 64.975753639122303 ], [ 10.831554526826046, 64.976002332655952 ], [ 10.832071899672389, 64.976303432714346 ], [ 10.832053217019212, 64.976509007554171 ], [ 10.832595131170766, 64.976922334093587 ], [ 10.834089899603892, 64.977423592858671 ], [ 10.834442067715486, 64.977359194068612 ] ] ] ] } },
{ "type": "Feature", "properties": { "fid": 62141, "navn": null, "hoyde_moh": 13, "arealInnsjo_km2": 0.0028, "magasinKategori": null, "fid_2": 539, "id": 539, "left": 10.486919847, "top": 65.446110046000001, "right": 10.986919847, "bottom": 64.946110046000001, "row_index": 18, "col_index": 13, "tile_id": 539 }, "geometry": { "type": "MultiPolygon", "coordinates": [ [ [ [ 10.921401067644339, 64.982454297083265 ], [ 10.921149653125408, 64.982158651586118 ], [ 10.921353120896885, 64.982004870866604 ], [ 10.920091091740154, 64.981868059978183 ], [ 10.920079819125567, 64.982065655411887 ], [ 10.920941413950608, 64.982513350931271 ], [ 10.921401067644339, 64.982454297083265 ] ] ] ] } },
{ "type": "Feature", "properties": { "fid": 62142, "navn": null, "hoyde_moh": 7, "arealInnsjo_km2": 0.0046, "magasinKategori": null, "fid_2": 539, "id": 539, "left": 10.486919847, "top": 65.446110046000001, "right": 10.986919847, "bottom": 64.946110046000001, "row_index": 18, "col_index": 13, "tile_id": 539 }, "geometry": { "type": "MultiPolygon", "coordinates": [ [ [ [ 10.851260744241786, 64.980716121622379 ], [ 10.85135966055379, 64.980631331879238 ], [ 10.850861026261729, 64.980236363492338 ], [ 10.850437842054959, 64.98014162450589 ], [ 10.850034945976143, 64.980208783210827 ], [ 10.849446715907808, 64.980649264139544 ], [ 10.849541080984453, 64.980798845060917 ], [ 10.851260744241786, 64.980716121622379 ] ] ] ] } },
{ "type": "Feature", "properties": { "fid": 62153, "navn": null, "hoyde_moh": 6, "arealInnsjo_km2": 0.0033, "magasinKategori": null, "fid_2": 539, "id": 539, "left": 10.486919847, "top": 65.446110046000001, "right": 10.986919847, "bottom": 64.946110046000001, "row_index": 18, "col_index": 13, "tile_id": 539 }, "geometry": { "type": "MultiPolygon", "coordinates": [ [ [ [ 10.810981251405222, 64.971181866679146 ], [ 10.810819016196755, 64.971020101182376 ], [ 10.811738954171611, 64.970793389859296 ], [ 10.811282233195604, 64.970720780430199 ], [ 10.810639945752749, 64.9709292290147 ], [ 10.810318932555582, 64.970746190887283 ], [ 10.810484782665156, 64.97043932040512 ], [ 10.809959783380478, 64.970497813489828 ], [ 10.810561186846776, 64.971495522791471 ], [ 10.810981251405222, 64.971181866679146 ] ] ] ] } },
{ "type": "Feature", "properties": { "fid": 62160, "navn": null, "hoyde_moh": 4, "arealInnsjo_km2": 0.0063, "magasinKategori": null, "fid_2": 539, "id": 539, "left": 10.486919847, "top": 65.446110046000001, "right": 10.986919847, "bottom": 64.946110046000001, "row_index": 18, "col_index": 13, "tile_id": 539 }, "geometry": { "type": "MultiPolygon", "coordinates": [ [ [ [ 10.816481214587466, 64.972845317930819 ], [ 10.816137137875998, 64.972818760486021 ], [ 10.815917652945958, 64.972598139136906 ], [ 10.816015157556334, 64.972388664660258 ], [ 10.81471687496057, 64.971809947671133 ], [ 10.813768270262145, 64.971177494904012 ], [ 10.813741118207444, 64.97142274040678 ], [ 10.814082919409179, 64.971703607178156 ], [ 10.814075123935051, 64.972054289188065 ], [ 10.814325113786262, 64.97200810070882 ], [ 10.814737595077951, 64.972393326916531 ], [ 10.815130279302442, 64.972412983582643 ], [ 10.816313121287941, 64.973012274097471 ], [ 10.816481214587466, 64.972845317930819 ] ] ] ] } },
{ "type": "Feature", "properties": { "fid": 62176, "navn": null, "hoyde_moh": 2, "arealInnsjo_km2": 0.0032, "magasinKategori": null, "fid_2": 539, "id": 539, "left": 10.486919847, "top": 65.446110046000001, "right": 10.986919847, "bottom": 64.946110046000001, "row_index": 18, "col_index": 13, "tile_id": 539 }, "geometry": { "type": "MultiPolygon", "coordinates": [ [ [ [ 10.856300240577404, 64.969859293653087 ], [ 10.855947491055007, 64.969694352537417 ], [ 10.855851855804563, 64.969354465546331 ], [ 10.854959001595407, 64.969154816652974 ], [ 10.854642439286804, 64.969316332183112 ], [ 10.85576518826651, 64.969886298249648 ], [ 10.856300240577404, 64.969859293653087 ] ] ] ] } },
{ "type": "Feature", "properties": { "fid": 62192, "navn": null, "hoyde_moh": 3, "arealInnsjo_km2": 0.0136, "magasinKategori": null, "fid_2": 539, "id": 539, "left": 10.486919847, "top": 65.446110046000001, "right": 10.986919847, "bottom": 64.946110046000001, "row_index": 18, "col_index": 13, "tile_id": 539 }, "geometry": { "type": "MultiPolygon", "coordinates": [ [ [ [ 10.825378394159667, 64.966729673375809 ], [ 10.825326267802563, 64.966541708527444 ], [ 10.824873361561172, 64.965984245403433 ], [ 10.824212631221888, 64.965968515361936 ], [ 10.823673701943804, 64.965665968330228 ], [ 10.823675599310773, 64.965450035663522 ], [ 10.82342751084818, 64.965312033819984 ], [ 10.822909594802828, 64.965139951794242 ], [ 10.82250889370671, 64.96523747430652 ], [ 10.822547555937428, 64.965405558781285 ], [ 10.82209251868766, 64.965497781765933 ], [ 10.822387783904032, 64.965656972623975 ], [ 10.822386192977604, 64.96586680212647 ], [ 10.822217812078724, 64.965931559521977 ], [ 10.821460044476812, 64.96543977810677 ], [ 10.821276250837684, 64.965049209724484 ], [ 10.82032190186124, 64.964938670122066 ], [ 10.819803572002694, 64.964546803493519 ], [ 10.819531588895803, 64.964109895418545 ], [ 10.819336671025974, 64.96417480368234 ], [ 10.819597755064539, 64.964599991333898 ], [ 10.820141087191125, 64.965028692720821 ], [ 10.820635375891344, 64.965180797415272 ], [ 10.820741434540315, 64.96542932997788 ], [ 10.821182458459994, 64.965421386792741 ], [ 10.821067654770971, 64.965703991409953 ], [ 10.822097847352792, 64.966025897274861 ], [ 10.822404529130187, 64.966361936027184 ], [ 10.822906392749097, 64.966323156021545 ], [ 10.822687072358205, 64.966029475300417 ], [ 10.823141325923052, 64.965923296702584 ], [ 10.822844052592439, 64.965726660370763 ], [ 10.823024048243127, 64.96556578477221 ], [ 10.823649133639215, 64.965763520429647 ], [ 10.82373521719648, 64.965992075824786 ], [ 10.824228559480098, 64.966168139637617 ], [ 10.824257820069796, 64.966574505944621 ], [ 10.82453378925582, 64.966410386091269 ], [ 10.824807230984067, 64.966712231399484 ], [ 10.825378394159667, 64.966729673375809 ] ] ] ] } },
{ "type": "Feature", "properties": { "fid": 62196, "navn": null, "hoyde_moh": 5, "arealInnsjo_km2": 0.0035, "magasinKategori": null, "fid_2": 539, "id": 539, "left": 10.486919847, "top": 65.446110046000001, "right": 10.986919847, "bottom": 64.946110046000001, "row_index": 18, "col_index": 13, "tile_id": 539 }, "geometry": { "type": "MultiPolygon", "coordinates": [ [ [ [ 10.845896421063488, 64.962178606678691 ], [ 10.844232329610003, 64.961610801417649 ], [ 10.844569611953325, 64.962125426360686 ], [ 10.844930872886113, 64.962074743318851 ], [ 10.845268884941909, 64.962325318615143 ], [ 10.845631758521874, 64.962347571624719 ], [ 10.845888488517756, 64.962662659676454 ], [ 10.846552032235328, 64.962688440092236 ], [ 10.845896421063488, 64.962178606678691 ] ] ] ] } },
{ "type": "Feature", "properties": { "fid": 62251, "navn": null, "hoyde_moh": null, "arealInnsjo_km2": 0.0284, "magasinKategori": null, "fid_2": 539, "id": 539, "left": 10.486919847, "top": 65.446110046000001, "right": 10.986919847, "bottom": 64.946110046000001, "row_index": 18, "col_index": 13, "tile_id": 539 }, "geometry": { "type": "MultiPolygon", "coordinates": [ [ [ [ 10.837706805437055, 64.95510174103039 ], [ 10.837824467603616, 64.954965623897181 ], [ 10.837720278647209, 64.954679767740373 ], [ 10.837294962629221, 64.954343951390385 ], [ 10.837449953281546, 64.954135535082642 ], [ 10.837336916401412, 64.954029282720114 ], [ 10.8368091270621, 64.954053719326936 ], [ 10.83728590993455, 64.954523460018606 ], [ 10.837216198528127, 64.954739832242538 ], [ 10.836329628077886, 64.954472373377783 ], [ 10.835969600702054, 64.954162735603973 ], [ 10.836189854244413, 64.953980592545918 ], [ 10.83469095988459, 64.953738697396929 ], [ 10.834232597582584, 64.953537847084974 ], [ 10.834067412139213, 64.953288570677458 ], [ 10.835696204657362, 64.952954462509908 ], [ 10.836437341584157, 64.952954240331593 ], [ 10.834273417149658, 64.951966609738207 ], [ 10.834391082361273, 64.951830495294971 ], [ 10.834174237327193, 64.951447289191321 ], [ 10.833212414415643, 64.951315401624257 ], [ 10.833114026499942, 64.951424371178149 ], [ 10.833439617749853, 64.951851247726196 ], [ 10.83317809931973, 64.952051916258256 ], [ 10.833332150871355, 64.952139725692106 ], [ 10.833223640367226, 64.952410377965705 ], [ 10.833692825153426, 64.952458467231324 ], [ 10.833687141953263, 64.952682921096994 ], [ 10.832804115753333, 64.952774613307923 ], [ 10.832737679172252, 64.953044644949188 ], [ 10.833595286842691, 64.953509864186586 ], [ 10.834955981223063, 64.953897018868986 ], [ 10.834956280804672, 64.954211161301799 ], [ 10.836392526666383, 64.955082085905531 ], [ 10.837706805437055, 64.95510174103039 ] ] ] ] } },
{ "type": "Feature", "properties": { "fid": 62252, "navn": null, "hoyde_moh": 3, "arealInnsjo_km2": 0.019, "magasinKategori": null, "fid_2": 539, "id": 539, "left": 10.486919847, "top": 65.446110046000001, "right": 10.986919847, "bottom": 64.946110046000001, "row_index": 18, "col_index": 13, "tile_id": 539 }, "geometry": { "type": "MultiPolygon", "coordinates": [ [ [ [ 10.857819182767807, 64.984763674365567 ], [ 10.856831788413679, 64.984313265098223 ], [ 10.85783234241716, 64.984198071087988 ], [ 10.856979802873356, 64.983858365521783 ], [ 10.857109768374043, 64.983773176701561 ], [ 10.856904302648157, 64.983641545845657 ], [ 10.855469899166884, 64.983393693597961 ], [ 10.854607700681264, 64.982821006983357 ], [ 10.854126213608222, 64.982689875035888 ], [ 10.853209481556785, 64.983009334219446 ], [ 10.853491394584438, 64.983351347794724 ], [ 10.854520166738512, 64.983753408301681 ], [ 10.854656493454495, 64.984128131333065 ], [ 10.855833285990345, 64.984316609903587 ], [ 10.8576329469778, 64.984958480852256 ], [ 10.857819182767807, 64.984763674365567 ] ], [ [ 10.85570229913893, 64.984026433435943 ], [ 10.85501133437252, 64.983875639976702 ], [ 10.855226491059184, 64.983822930897361 ], [ 10.85570229913893, 64.984026433435943 ] ], [ [ 10.85619196943172, 64.984095410846223 ], [ 10.856179201749509, 64.983882042109585 ], [ 10.856399217622265, 64.983811670364389 ], [ 10.85692429161784, 64.984001438435413 ], [ 10.856521800095033, 64.984225915470319 ], [ 10.85619196943172, 64.984095410846223 ] ] ] ] } },
{ "type": "Feature", "properties": { "fid": 62257, "navn": null, "hoyde_moh": 2, "arealInnsjo_km2": 0.0041, "magasinKategori": null, "fid_2": 539, "id": 539, "left": 10.486919847, "top": 65.446110046000001, "right": 10.986919847, "bottom": 64.946110046000001, "row_index": 18, "col_index": 13, "tile_id": 539 }, "geometry": { "type": "MultiPolygon", "coordinates": [ [ [ [ 10.84859058928882, 64.982982342054783 ], [ 10.847936851910038, 64.982473480965496 ], [ 10.847416740384773, 64.982602082170388 ], [ 10.847696216278695, 64.982348586277254 ], [ 10.847016219485219, 64.982108628781219 ], [ 10.847180756308777, 64.982656267132441 ], [ 10.846931830912904, 64.982818306653385 ], [ 10.847744973540864, 64.983059456196102 ], [ 10.84859058928882, 64.982982342054783 ] ], [ [ 10.847743258719062, 64.982802711486457 ], [ 10.848004314936503, 64.982751111429096 ], [ 10.848277327367384, 64.982953215205185 ], [ 10.847743258719062, 64.982802711486457 ] ] ] ] } },
{ "type": "Feature", "properties": { "fid": 62258, "navn": null, "hoyde_moh": null, "arealInnsjo_km2": 0.0139, "magasinKategori": null, "fid_2": 539, "id": 539, "left": 10.486919847, "top": 65.446110046000001, "right": 10.986919847, "bottom": 64.946110046000001, "row_index": 18, "col_index": 13, "tile_id": 539 }, "geometry": { "type": "MultiPolygon", "coordinates": [ [ [ [ 10.931691326195599, 64.985617718635865 ], [ 10.932581479579301, 64.985319089132091 ], [ 10.932049997109111, 64.985299016616764 ], [ 10.932165262335202, 64.985135895113515 ], [ 10.932051931415419, 64.985029717757101 ], [ 10.932276807197145, 64.984919107297685 ], [ 10.932053456409076, 64.984760317851467 ], [ 10.931312829786219, 64.985075247406598 ], [ 10.930591881398689, 64.985075433264001 ], [ 10.930307830092254, 64.985249764397224 ], [ 10.929563095129044, 64.984918290399165 ], [ 10.930795792540216, 64.984956164030791 ], [ 10.930846680288957, 64.984785085017847 ], [ 10.929455669070904, 64.984309337456367 ], [ 10.92910047208718, 64.984089513788547 ], [ 10.929193606690523, 64.98390871395226 ], [ 10.928500131333548, 64.983702299814496 ], [ 10.92860459982143, 64.984266415966388 ], [ 10.928360068687676, 64.984404255381193 ], [ 10.928397717245993, 64.984628081258208 ], [ 10.929416149778637, 64.984938095068642 ], [ 10.929890635907837, 64.985344876495731 ], [ 10.931142673480075, 64.985651817756093 ], [ 10.931691326195599, 64.985617718635865 ] ] ] ] } },
{ "type": "Feature", "properties": { "fid": 62259, "navn": null, "hoyde_moh": 8, "arealInnsjo_km2": 0.0032, "magasinKategori": null, "fid_2": 539, "id": 539, "left": 10.486919847, "top": 65.446110046000001, "right": 10.986919847, "bottom": 64.946110046000001, "row_index": 18, "col_index": 13, "tile_id": 539 }, "geometry": { "type": "MultiPolygon", "coordinates": [ [ [ [ 10.795746877103849, 64.983238219031449 ], [ 10.794766276959724, 64.982955019535041 ], [ 10.794179422725039, 64.982989247217631 ], [ 10.793508064451562, 64.982597375388906 ], [ 10.793226222917534, 64.982621150745075 ], [ 10.793434993605484, 64.982959073463206 ], [ 10.795709217513602, 64.983384476299349 ], [ 10.795746877103849, 64.983238219031449 ] ] ] ] } },
{ "type": "Feature", "properties": { "fid": 62260, "navn": null, "hoyde_moh": 8, "arealInnsjo_km2": 0.0031, "magasinKategori": null, "fid_2": 539, "id": 539, "left": 10.486919847, "top": 65.446110046000001, "right": 10.986919847, "bottom": 64.946110046000001, "row_index": 18, "col_index": 13, "tile_id": 539 }, "geometry": { "type": "MultiPolygon", "coordinates": [ [ [ [ 10.888574318074282, 64.98669046834371 ], [ 10.887977123104005, 64.986418568608698 ], [ 10.886591563190022, 64.986049420698819 ], [ 10.887108403073084, 64.986578404915207 ], [ 10.887766793631855, 64.986568524242557 ], [ 10.888770265937314, 64.986962356602447 ], [ 10.888574318074282, 64.98669046834371 ] ] ] ] } },
{ "type": "Feature", "properties": { "fid": 83750, "navn": null, "hoyde_moh": 7, "arealInnsjo_km2": 0.009, "magasinKategori": null, "fid_2": 539, "id": 539, "left": 10.486919847, "top": 65.446110046000001, "right": 10.986919847, "bottom": 64.946110046000001, "row_index": 18, "col_index": 13, "tile_id": 539 }, "geometry": { "type": "MultiPolygon", "coordinates": [ [ [ [ 10.899822120332113, 64.980729107927999 ], [ 10.899909557295425, 64.98065862335973 ], [ 10.898815025865439, 64.980258404484303 ], [ 10.896443230252627, 64.979960352028442 ], [ 10.896455375714806, 64.980257278330399 ], [ 10.896858889538906, 64.980362216688192 ], [ 10.896815849028755, 64.980543031524391 ], [ 10.897195836558986, 64.980679586858926 ], [ 10.900000015915074, 64.981002910134094 ], [ 10.899822120332113, 64.980729107927999 ] ] ] ] } },
{ "type": "Feature", "properties": { "fid": 83763, "navn": null, "hoyde_moh": 6, "arealInnsjo_km2": 0.0025, "magasinKategori": null, "fid_2": 539, "id": 539, "left": 10.486919847, "top": 65.446110046000001, "right": 10.986919847, "bottom": 64.946110046000001, "row_index": 18, "col_index": 13, "tile_id": 539 }, "geometry": { "type": "MultiPolygon", "coordinates": [ [ [ [ 10.885546647590502, 64.977532411800041 ], [ 10.885138112134063, 64.977140773811712 ], [ 10.884349593322632, 64.97726262694475 ], [ 10.884346666919669, 64.977517348128472 ], [ 10.885149514004308, 64.977681609979044 ], [ 10.885546647590502, 64.977532411800041 ] ] ] ] } },
{ "type": "Feature", "properties": { "fid": 83764, "navn": null, "hoyde_moh": null, "arealInnsjo_km2": 0.0029, "magasinKategori": null, "fid_2": 539, "id": 539, "left": 10.486919847, "top": 65.446110046000001, "right": 10.986919847, "bottom": 64.946110046000001, "row_index": 18, "col_index": 13, "tile_id": 539 }, "geometry": { "type": "MultiPolygon", "coordinates": [ [ [ [ 10.826675383469802, 64.976563539019352 ], [ 10.826678149571656, 64.976294331593934 ], [ 10.826411207436196, 64.976109160936076 ], [ 10.825678783632787, 64.976243784459911 ], [ 10.825660892161064, 64.97660298929047 ], [ 10.826410565567128, 64.976719528147527 ], [ 10.826675383469802, 64.976563539019352 ] ] ] ] } },
{ "type": "Feature", "properties": { "fid": 83812, "navn": null, "hoyde_moh": 8, "arealInnsjo_km2": 0.0027, "magasinKategori": null, "fid_2": 539, "id": 539, "left": 10.486919847, "top": 65.446110046000001, "right": 10.986919847, "bottom": 64.946110046000001, "row_index": 18, "col_index": 13, "tile_id": 539 }, "geometry": { "type": "MultiPolygon", "coordinates": [ [ [ [ 10.861175489327799, 64.983529199183948 ], [ 10.86038172847608, 64.98351704649528 ], [ 10.859878140990975, 64.983237828898183 ], [ 10.859783867186756, 64.9833297633987 ], [ 10.859772096684992, 64.983585232132512 ], [ 10.860022350795434, 64.98378137735061 ], [ 10.860701283158418, 64.983933250992749 ], [ 10.861175489327799, 64.983529199183948 ] ] ] ] } },
{ "type": "Feature", "properties": { "fid": 83904, "navn": null, "hoyde_moh": 4, "arealInnsjo_km2": 0.0038, "magasinKategori": null, "fid_2": 539, "id": 539, "left": 10.486919847, "top": 65.446110046000001, "right": 10.986919847, "bottom": 64.946110046000001, "row_index": 18, "col_index": 13, "tile_id": 539 }, "geometry": { "type": "MultiPolygon", "coordinates": [ [ [ [ 10.843496915418559, 64.961433444013764 ], [ 10.842149140775382, 64.960789411560455 ], [ 10.841609974757441, 64.960762048960603 ], [ 10.84122241429751, 64.961057003740905 ], [ 10.842382464891921, 64.961368012161088 ], [ 10.842692183852678, 64.961269517973989 ], [ 10.843475306550664, 64.961543843317145 ], [ 10.843496915418559, 64.961433444013764 ] ] ] ] } },
{ "type": "Feature", "properties": { "fid": 83976, "navn": null, "hoyde_moh": null, "arealInnsjo_km2": 0.0041, "magasinKategori": null, "fid_2": 539, "id": 539, "left": 10.486919847, "top": 65.446110046000001, "right": 10.986919847, "bottom": 64.946110046000001, "row_index": 18, "col_index": 13, "tile_id": 539 }, "geometry": { "type": "MultiPolygon", "coordinates": [ [ [ [ 10.891314690188659, 64.993103934352987 ], [ 10.890598340150291, 64.992958098405154 ], [ 10.890051370747349, 64.992579562806952 ], [ 10.891197586605982, 64.992676579879387 ], [ 10.890972806775752, 64.992558579634604 ], [ 10.891314224576222, 64.992453933611586 ], [ 10.889922373840051, 64.99245323577658 ], [ 10.889373983085113, 64.992756103898074 ], [ 10.88827694965009, 64.992698267027635 ], [ 10.890609412032129, 64.99320637332282 ], [ 10.891314690188659, 64.993103934352987 ] ] ] ] } },
{ "type": "Feature", "properties": { "fid": 83998, "navn": null, "hoyde_moh": 5, "arealInnsjo_km2": 0.0028, "magasinKategori": null, "fid_2": 539, "id": 539, "left": 10.486919847, "top": 65.446110046000001, "right": 10.986919847, "bottom": 64.946110046000001, "row_index": 18, "col_index": 13, "tile_id": 539 }, "geometry": { "type": "MultiPolygon", "coordinates": [ [ [ [ 10.750019727687983, 64.947203117395247 ], [ 10.750540741945567, 64.946731157586527 ], [ 10.750382430432238, 64.946573201872368 ], [ 10.749092982447621, 64.947095135653825 ], [ 10.749781313827071, 64.947297255935382 ], [ 10.750019727687983, 64.947203117395247 ] ] ] ] } },
{ "type": "Feature", "properties": { "fid": 105683, "navn": null, "hoyde_moh": 4, "arealInnsjo_km2": 0.0025, "magasinKategori": null, "fid_2": 539, "id": 539, "left": 10.486919847, "top": 65.446110046000001, "right": 10.986919847, "bottom": 64.946110046000001, "row_index": 18, "col_index": 13, "tile_id": 539 }, "geometry": { "type": "MultiPolygon", "coordinates": [ [ [ [ 10.838698655929203, 64.981370643995348 ], [ 10.838260054257121, 64.981102419358265 ], [ 10.837702093778791, 64.981089536845928 ], [ 10.837566232246237, 64.980807472644372 ], [ 10.837080746802981, 64.980714999802245 ], [ 10.83705852492805, 64.980948967770018 ], [ 10.837223906291852, 64.981067375295353 ], [ 10.838401126918047, 64.981509202694056 ], [ 10.838698655929203, 64.981370643995348 ] ] ] ] } },
{ "type": "Feature", "properties": { "fid": 105712, "navn": null, "hoyde_moh": 10, "arealInnsjo_km2": 0.0047, "magasinKategori": null, "fid_2": 539, "id": 539, "left": 10.486919847, "top": 65.446110046000001, "right": 10.986919847, "bottom": 64.946110046000001, "row_index": 18, "col_index": 13, "tile_id": 539 }, "geometry": { "type": "MultiPolygon", "coordinates": [ [ [ [ 10.930718338185125, 64.980843399317436 ], [ 10.929071757954068, 64.980533584550159 ], [ 10.928353824776837, 64.980110712291093 ], [ 10.927884919475158, 64.980193260432245 ], [ 10.927949927032623, 64.98033497015075 ], [ 10.928637548020479, 64.980488652656817 ], [ 10.928621020005616, 64.980836822600168 ], [ 10.930274080674931, 64.981042834860204 ], [ 10.930718338185125, 64.980843399317436 ] ] ] ] } },
{ "type": "Feature", "properties": { "fid": 105726, "navn": null, "hoyde_moh": 5, "arealInnsjo_km2": 0.0033, "magasinKategori": null, "fid_2": 539, "id": 539, "left": 10.486919847, "top": 65.446110046000001, "right": 10.986919847, "bottom": 64.946110046000001, "row_index": 18, "col_index": 13, "tile_id": 539 }, "geometry": { "type": "MultiPolygon", "coordinates": [ [ [ [ 10.890315628662998, 64.978009284118968 ], [ 10.890637253396161, 64.977974201665972 ], [ 10.890611816064814, 64.97767304227574 ], [ 10.889163518866253, 64.977507548085256 ], [ 10.889207268337184, 64.977606720480793 ], [ 10.889015872742119, 64.977653390672927 ], [ 10.88912791368749, 64.977828774777038 ], [ 10.890514242602404, 64.978205568480561 ], [ 10.890315628662998, 64.978009284118968 ] ] ] ] } },
{ "type": "Feature", "properties": { "fid": 105727, "navn": null, "hoyde_moh": 5, "arealInnsjo_km2": 0.005, "magasinKategori": null, "fid_2": 539, "id": 539, "left": 10.486919847, "top": 65.446110046000001, "right": 10.986919847, "bottom": 64.946110046000001, "row_index": 18, "col_index": 13, "tile_id": 539 }, "geometry": { "type": "MultiPolygon", "coordinates": [ [ [ [ 10.878335342766416, 64.977768004324133 ], [ 10.882053134522346, 64.977971515512948 ], [ 10.879366019247211, 64.977708421204682 ], [ 10.88111917128959, 64.977667898635261 ], [ 10.880673700599971, 64.977564542094385 ], [ 10.876774167703495, 64.97750498501108 ], [ 10.878241129521408, 64.97780916951929 ], [ 10.878189791561057, 64.977935645821233 ], [ 10.878698272576379, 64.977942785440504 ], [ 10.878335342766416, 64.977768004324133 ] ] ] ] } },
{ "type": "Feature", "properties": { "fid": 105741, "navn": null, "hoyde_moh": 6, "arealInnsjo_km2": 0.0025, "magasinKategori": null, "fid_2": 539, "id": 539, "left": 10.486919847, "top": 65.446110046000001, "right": 10.986919847, "bottom": 64.946110046000001, "row_index": 18, "col_index": 13, "tile_id": 539 }, "geometry": { "type": "MultiPolygon", "coordinates": [ [ [ [ 10.866848714919326, 64.978134082895849 ], [ 10.866441529943675, 64.97801125211646 ], [ 10.866768019414, 64.977906519795098 ], [ 10.86566828374942, 64.977608181795844 ], [ 10.865267950285679, 64.977631859973442 ], [ 10.865174526390618, 64.97781459808634 ], [ 10.865386237006234, 64.977974433038568 ], [ 10.866848714919326, 64.978134082895849 ] ] ] ] } },
{ "type": "Feature", "properties": { "fid": 105753, "navn": null, "hoyde_moh": 2, "arealInnsjo_km2": 0.005, "magasinKategori": null, "fid_2": 539, "id": 539, "left": 10.486919847, "top": 65.446110046000001, "right": 10.986919847, "bottom": 64.946110046000001, "row_index": 18, "col_index": 13, "tile_id": 539 }, "geometry": { "type": "MultiPolygon", "coordinates": [ [ [ [ 10.861153552513546, 64.97494497324152 ], [ 10.860910724752365, 64.974793165010141 ], [ 10.861082896880907, 64.974628255004234 ], [ 10.860607086966006, 64.974463953961248 ], [ 10.860377574379839, 64.974553749771815 ], [ 10.860568734149142, 64.974723987208549 ], [ 10.860430112183153, 64.974822958588675 ], [ 10.858935782125714, 64.974511359012084 ], [ 10.857974920286731, 64.974590535538354 ], [ 10.858873839351283, 64.974875625649119 ], [ 10.861154399967665, 64.975158818791627 ], [ 10.861153552513546, 64.97494497324152 ] ] ] ] } },
{ "type": "Feature", "properties": { "fid": 105770, "navn": null, "hoyde_moh": 3, "arealInnsjo_km2": 0.0144, "magasinKategori": null, "fid_2": 539, "id": 539, "left": 10.486919847, "top": 65.446110046000001, "right": 10.986919847, "bottom": 64.946110046000001, "row_index": 18, "col_index": 13, "tile_id": 539 }, "geometry": { "type": "MultiPolygon", "coordinates": [ [ [ [ 10.842826117868137, 64.975429856519511 ], [ 10.84200524232199, 64.975162392948789 ], [ 10.841924913653946, 64.974922957581839 ], [ 10.843182298499267, 64.974879387681554 ], [ 10.845646825507433, 64.97523563235471 ], [ 10.846281936056016, 64.975215584698276 ], [ 10.846682105567078, 64.974997542919141 ], [ 10.842038450723958, 64.974667809067952 ], [ 10.841682051125762, 64.974601510396312 ], [ 10.841617326168603, 64.974365476178406 ], [ 10.840381526746897, 64.974259534475578 ], [ 10.839585022466784, 64.973999477495639 ], [ 10.838975131243147, 64.974153493120212 ], [ 10.839050359447056, 64.974368250918474 ], [ 10.839773234180448, 64.974734651216053 ], [ 10.841218310007415, 64.974998784732406 ], [ 10.841947853159857, 64.975509527604757 ], [ 10.842826117868137, 64.975429856519511 ] ], [ [ 10.839716268037902, 64.974472048001928 ], [ 10.839560496291487, 64.974410715301858 ], [ 10.839803794967779, 64.974367803115015 ], [ 10.839716268037902, 64.974472048001928 ] ], [ [ 10.841327320526348, 64.974913294372186 ], [ 10.840160576459391, 64.974619810196955 ], [ 10.840532190752107, 64.974447814713685 ], [ 10.841457297950763, 64.974732576489629 ], [ 10.841872686984662, 64.975243721550669 ], [ 10.841327320526348, 64.974913294372186 ] ] ] ] } },
{ "type": "Feature", "properties": { "fid": 105806, "navn": null, "hoyde_moh": null, "arealInnsjo_km2": 0.0175, "magasinKategori": null, "fid_2": 539, "id": 539, "left": 10.486919847, "top": 65.446110046000001, "right": 10.986919847, "bottom": 64.946110046000001, "row_index": 18, "col_index": 13, "tile_id": 539 }, "geometry": { "type": "MultiPolygon", "coordinates": [ [ [ [ 10.932006860015624, 64.968550125525041 ], [ 10.930158946916128, 64.96790083866108 ], [ 10.930103833531355, 64.9677221019098 ], [ 10.930641147440697, 64.967535638019953 ], [ 10.93021132507106, 64.967155146672141 ], [ 10.931651861063035, 64.967154578893755 ], [ 10.931707834416866, 64.967046011546429 ], [ 10.926940722462563, 64.966461381183166 ], [ 10.928526089711541, 64.966997487076156 ], [ 10.928045612955813, 64.967093465447959 ], [ 10.929005464799102, 64.967475952253068 ], [ 10.929323131284011, 64.967768093136385 ], [ 10.929210335581233, 64.967966958867862 ], [ 10.930960595291426, 64.968438067674413 ], [ 10.932227823675952, 64.968969217463993 ], [ 10.932347141034279, 64.968859862452774 ], [ 10.932006860015624, 64.968550125525041 ] ] ] ] } },
{ "type": "Feature", "properties": { "fid": 105807, "navn": null, "hoyde_moh": 5, "arealInnsjo_km2": 0.0048, "magasinKategori": null, "fid_2": 539, "id": 539, "left": 10.486919847, "top": 65.446110046000001, "right": 10.986919847, "bottom": 64.946110046000001, "row_index": 18, "col_index": 13, "tile_id": 539 }, "geometry": { "type": "MultiPolygon", "coordinates": [ [ [ [ 10.834548600855523, 64.967695749017651 ], [ 10.834046117809644, 64.967741202306385 ], [ 10.832811799048059, 64.967434527401181 ], [ 10.832323690291265, 64.967653218209279 ], [ 10.83187321186999, 64.967435778386118 ], [ 10.832259254518531, 64.967889690722089 ], [ 10.832798442295365, 64.967733997095493 ], [ 10.833757689063962, 64.967951548770245 ], [ 10.83445573400884, 64.967876509997708 ], [ 10.835017543535374, 64.968151700921382 ], [ 10.836058554529908, 64.968332154668261 ], [ 10.834548600855523, 64.967695749017651 ] ] ] ] } },
{ "type": "Feature", "properties": { "fid": 105867, "navn": null, "hoyde_moh": 2, "arealInnsjo_km2": 0.0029, "magasinKategori": null, "fid_2": 539, "id": 539, "left": 10.486919847, "top": 65.446110046000001, "right": 10.986919847, "bottom": 64.946110046000001, "row_index": 18, "col_index": 13, "tile_id": 539 }, "geometry": { "type": "MultiPolygon", "coordinates": [ [ [ [ 10.862453870515772, 64.999216082285841 ], [ 10.8630180248804, 64.999231192537167 ], [ 10.862866479739171, 64.999071408920869 ], [ 10.863054871593404, 64.998905595503757 ], [ 10.862159248775951, 64.998700722991259 ], [ 10.861738341855874, 64.999153897683144 ], [ 10.861842993308407, 64.999299618706232 ], [ 10.86254475378821, 64.999346500909411 ], [ 10.862453870515772, 64.999216082285841 ] ] ] ] } },
{ "type": "Feature", "properties": { "fid": 105956, "navn": null, "hoyde_moh": 6, "arealInnsjo_km2": 0.0028, "magasinKategori": null, "fid_2": 539, "id": 539, "left": 10.486919847, "top": 65.446110046000001, "right": 10.986919847, "bottom": 64.946110046000001, "row_index": 18, "col_index": 13, "tile_id": 539 }, "geometry": { "type": "MultiPolygon", "coordinates": [ [ [ [ 10.811992917438696, 64.971797415337022 ], [ 10.812434759335076, 64.971558700295162 ], [ 10.812114055924283, 64.971514453874747 ], [ 10.812015707691565, 64.971008437372305 ], [ 10.811712231511745, 64.971053388214528 ], [ 10.811706502368938, 64.971363591817237 ], [ 10.811409953570868, 64.97156746955703 ], [ 10.811561941548876, 64.971805526220734 ], [ 10.811381392172212, 64.971939409993084 ], [ 10.81183707152454, 64.972098726072389 ], [ 10.811992917438696, 64.971797415337022 ] ] ] ] } },
{ "type": "Feature", "properties": { "fid": 122249, "navn": null, "hoyde_moh": null, "arealInnsjo_km2": 0.0075, "magasinKategori": null, "fid_2": 539, "id": 539, "left": 10.486919847, "top": 65.446110046000001, "right": 10.986919847, "bottom": 64.946110046000001, "row_index": 18, "col_index": 13, "tile_id": 539 }, "geometry": { "type": "MultiPolygon", "coordinates": [ [ [ [ 10.932719171968108, 64.971081181888309 ], [ 10.932457381221912, 64.970680659327073 ], [ 10.931927494189191, 64.970678508580662 ], [ 10.931016300102469, 64.970385179386284 ], [ 10.930700428615589, 64.970119964546001 ], [ 10.93011141976352, 64.970181531102099 ], [ 10.930163615677481, 64.970315340922383 ], [ 10.931600878512462, 64.970853384611829 ], [ 10.931292641333116, 64.971575374778382 ], [ 10.932035810951222, 64.97159269613357 ], [ 10.932719171968108, 64.971081181888309 ] ] ] ] } },
{ "type": "Feature", "properties": { "fid": 122303, "navn": null, "hoyde_moh": 4, "arealInnsjo_km2": 0.003, "magasinKategori": null, "fid_2": 539, "id": 539, "left": 10.486919847, "top": 65.446110046000001, "right": 10.986919847, "bottom": 64.946110046000001, "row_index": 18, "col_index": 13, "tile_id": 539 }, "geometry": { "type": "MultiPolygon", "coordinates": [ [ [ [ 10.831955903038347, 64.965341164581858 ], [ 10.831507503708, 64.965358370738386 ], [ 10.830789548443626, 64.965045718854967 ], [ 10.831469660067858, 64.965742722448638 ], [ 10.832638865684007, 64.96581452771612 ], [ 10.831955903038347, 64.965341164581858 ] ] ] ] } },
{ "type": "Feature", "properties": { "fid": 122730, "navn": null, "hoyde_moh": 5, "arealInnsjo_km2": 0.0023, "magasinKategori": null, "fid_2": 539, "id": 539, "left": 10.486919847, "top": 65.446110046000001, "right": 10.986919847, "bottom": 64.946110046000001, "row_index": 18, "col_index": 13, "tile_id": 539 }, "geometry": { "type": "MultiPolygon", "coordinates": [ [ [ [ 10.838782780728129, 64.959050872268762 ], [ 10.8383106766226, 64.958788983889562 ], [ 10.83697559258221, 64.958428917279775 ], [ 10.837603119094659, 64.958910417667383 ], [ 10.83875316213774, 64.959211290845062 ], [ 10.838782780728129, 64.959050872268762 ] ] ] ] } },
{ "type": "Feature", "properties": { "fid": 122731, "navn": null, "hoyde_moh": 2, "arealInnsjo_km2": 0.0047, "magasinKategori": null, "fid_2": 539, "id": 539, "left": 10.486919847, "top": 65.446110046000001, "right": 10.986919847, "bottom": 64.946110046000001, "row_index": 18, "col_index": 13, "tile_id": 539 }, "geometry": { "type": "MultiPolygon", "coordinates": [ [ [ [ 10.900119864929541, 64.994546391156362 ], [ 10.900127023376045, 64.994243795716528 ], [ 10.8978679587728, 64.994020793395634 ], [ 10.898191762294918, 64.994209182761082 ], [ 10.897647252989517, 64.994441544114935 ], [ 10.900119864929541, 64.994546391156362 ] ] ] ] } },
{ "type": "Feature", "properties": { "fid": 122788, "navn": null, "hoyde_moh": 1, "arealInnsjo_km2": 0.0045, "magasinKategori": null, "fid_2": 539, "id": 539, "left": 10.486919847, "top": 65.446110046000001, "right": 10.986919847, "bottom": 64.946110046000001, "row_index": 18, "col_index": 13, "tile_id": 539 }, "geometry": { "type": "MultiPolygon", "coordinates": [ [ [ [ 10.900399538475854, 64.992199778259518 ], [ 10.900061734521392, 64.992113736828216 ], [ 10.899966261693239, 64.991933337052004 ], [ 10.900465376801041, 64.991650378835132 ], [ 10.903639463524726, 64.991392843598646 ], [ 10.902809081093903, 64.99130648770101 ], [ 10.900388011415288, 64.991511101109722 ], [ 10.899437469620809, 64.991603062253049 ], [ 10.899007876178826, 64.991807939499409 ], [ 10.900078108534295, 64.992326653921424 ], [ 10.900399538475854, 64.992199778259518 ] ] ] ] } },
{ "type": "Feature", "properties": { "fid": 122789, "navn": null, "hoyde_moh": 4, "arealInnsjo_km2": 0.0029, "magasinKategori": null, "fid_2": 539, "id": 539, "left": 10.486919847, "top": 65.446110046000001, "right": 10.986919847, "bottom": 64.946110046000001, "row_index": 18, "col_index": 13, "tile_id": 539 }, "geometry": { "type": "MultiPolygon", "coordinates": [ [ [ [ 10.873083201818394, 64.99276433742051 ], [ 10.872926802224748, 64.992611081092278 ], [ 10.873629815877729, 64.992680418704012 ], [ 10.873953869663071, 64.992591059071017 ], [ 10.873978745930113, 64.992446504686612 ], [ 10.873679596750856, 64.992301792329684 ], [ 10.87276387283856, 64.992357160227073 ], [ 10.872596624416976, 64.992520153536631 ], [ 10.872684576604865, 64.992570762539685 ], [ 10.872347629329214, 64.992639090657335 ], [ 10.872714204499319, 64.992985111262527 ], [ 10.873083201818394, 64.99276433742051 ] ] ] ] } },
{ "type": "Feature", "properties": { "fid": 122841, "navn": null, "hoyde_moh": 6, "arealInnsjo_km2": 0.0034, "magasinKategori": null, "fid_2": 539, "id": 539, "left": 10.486919847, "top": 65.446110046000001, "right": 10.986919847, "bottom": 64.946110046000001, "row_index": 18, "col_index": 13, "tile_id": 539 }, "geometry": { "type": "MultiPolygon", "coordinates": [ [ [ [ 10.786427073710691, 64.982643578213555 ], [ 10.784758681614534, 64.982577622466764 ], [ 10.784307698724318, 64.982735559545105 ], [ 10.785774100437354, 64.983099709112409 ], [ 10.786427073710691, 64.982643578213555 ] ] ] ] } },
{ "type": "Feature", "properties": { "fid": 122891, "navn": null, "hoyde_moh": 3, "arealInnsjo_km2": 0.0049, "magasinKategori": null, "fid_2": 539, "id": 539, "left": 10.486919847, "top": 65.446110046000001, "right": 10.986919847, "bottom": 64.946110046000001, "row_index": 18, "col_index": 13, "tile_id": 539 }, "geometry": { "type": "MultiPolygon", "coordinates": [ [ [ [ 10.758677969211151, 64.948523861670424 ], [ 10.757831050552005, 64.948081673811956 ], [ 10.756785679229324, 64.947925867837043 ], [ 10.75679061385919, 64.947589831749525 ], [ 10.755801239527294, 64.947873902466227 ], [ 10.756111439846743, 64.947923282528308 ], [ 10.756399478312652, 64.948362498806858 ], [ 10.756707860185379, 64.948212097133919 ], [ 10.757488208569217, 64.948236848606413 ], [ 10.75828372337849, 64.948631462327086 ], [ 10.758677969211151, 64.948523861670424 ] ] ] ] } },
{ "type": "Feature", "properties": { "fid": 122892, "navn": null, "hoyde_moh": null, "arealInnsjo_km2": 0.0057, "magasinKategori": null, "fid_2": 539, "id": 539, "left": 10.486919847, "top": 65.446110046000001, "right": 10.986919847, "bottom": 64.946110046000001, "row_index": 18, "col_index": 13, "tile_id": 539 }, "geometry": { "type": "MultiPolygon", "coordinates": [ [ [ [ 10.841223664495601, 64.984705565668932 ], [ 10.840857878426656, 64.984009933318674 ], [ 10.839525153006569, 64.984053277916672 ], [ 10.839589100308801, 64.984366588290968 ], [ 10.839066900647703, 64.984480812748515 ], [ 10.839375805083215, 64.984656612003022 ], [ 10.841223664495601, 64.984705565668932 ] ] ] ] } },
{ "type": "Feature", "properties": { "fid": 122893, "navn": null, "hoyde_moh": 4, "arealInnsjo_km2": 0.0074, "magasinKategori": null, "fid_2": 539, "id": 539, "left": 10.486919847, "top": 65.446110046000001, "right": 10.986919847, "bottom": 64.946110046000001, "row_index": 18, "col_index": 13, "tile_id": 539 }, "geometry": { "type": "MultiPolygon", "coordinates": [ [ [ [ 10.851424958976606, 64.986595223204944 ], [ 10.851975856758793, 64.986862214319402 ], [ 10.852759497406332, 64.98663792486748 ], [ 10.853266895976077, 64.986763938325154 ], [ 10.853456172821287, 64.986288527426225 ], [ 10.852830693356401, 64.986057486225832 ], [ 10.852539867568744, 64.986241917900529 ], [ 10.851815787201808, 64.986254938501375 ], [ 10.851603249366262, 64.985776437884141 ], [ 10.851415802772486, 64.986200217247642 ], [ 10.850673450648191, 64.986604329470467 ], [ 10.850633266123436, 64.986886331972585 ], [ 10.851424958976606, 64.986595223204944 ] ] ] ] } },
{ "type": "Feature", "properties": { "fid": 123012, "navn": null, "hoyde_moh": 4, "arealInnsjo_km2": 0.0039, "magasinKategori": null, "fid_2": 539, "id": 539, "left": 10.486919847, "top": 65.446110046000001, "right": 10.986919847, "bottom": 64.946110046000001, "row_index": 18, "col_index": 13, "tile_id": 539 }, "geometry": { "type": "MultiPolygon", "coordinates": [ [ [ [ 10.8948032672804, 64.978756060216526 ], [ 10.894028564512313, 64.978800422168376 ], [ 10.892210672312144, 64.978199931066712 ], [ 10.892052123484939, 64.978263508386291 ], [ 10.892649498088153, 64.978694930954703 ], [ 10.895723897861041, 64.97897491597088 ], [ 10.8948032672804, 64.978756060216526 ] ] ] ] } },
{ "type": "Feature", "properties": { "fid": 123013, "navn": null, "hoyde_moh": 7, "arealInnsjo_km2": 0.0035, "magasinKategori": null, "fid_2": 539, "id": 539, "left": 10.486919847, "top": 65.446110046000001, "right": 10.986919847, "bottom": 64.946110046000001, "row_index": 18, "col_index": 13, "tile_id": 539 }, "geometry": { "type": "MultiPolygon", "coordinates": [ [ [ [ 10.850328755865947, 64.979091578937854 ], [ 10.849501981404162, 64.978683244854182 ], [ 10.849356743773011, 64.978397966687936 ], [ 10.848707274885761, 64.978471736808615 ], [ 10.848917562836917, 64.978642882411776 ], [ 10.848745039331581, 64.978809388566347 ], [ 10.850000068516978, 64.979271445101261 ], [ 10.850328755865947, 64.979091578937854 ] ] ] ] } },
{ "type": "Feature", "properties": { "fid": 123014, "navn": null, "hoyde_moh": 10, "arealInnsjo_km2": 0.003, "magasinKategori": null, "fid_2": 539, "id": 539, "left": 10.486919847, "top": 65.446110046000001, "right": 10.986919847, "bottom": 64.946110046000001, "row_index": 18, "col_index": 13, "tile_id": 539 }, "geometry": { "type": "MultiPolygon", "coordinates": [ [ [ [ 10.925067732641304, 64.98253650168499 ], [ 10.925009170266943, 64.982416626393629 ], [ 10.924000683843095, 64.981953255950359 ], [ 10.923708913559, 64.982115500291201 ], [ 10.923711093464496, 64.982361456172839 ], [ 10.92401112209007, 64.982614117804573 ], [ 10.924771830392739, 64.982695219932651 ], [ 10.925067732641304, 64.98253650168499 ] ] ] ] } },
{ "type": "Feature", "properties": { "fid": 123093, "navn": null, "hoyde_moh": 4, "arealInnsjo_km2": 0.0029, "magasinKategori": null, "fid_2": 539, "id": 539, "left": 10.486919847, "top": 65.446110046000001, "right": 10.986919847, "bottom": 64.946110046000001, "row_index": 18, "col_index": 13, "tile_id": 539 }, "geometry": { "type": "MultiPolygon", "coordinates": [ [ [ [ 10.88897371231336, 64.97924817201779 ], [ 10.889323089431867, 64.979165234048921 ], [ 10.888686285241766, 64.979164298667598 ], [ 10.888458917765226, 64.978852805296341 ], [ 10.889176467405196, 64.978728882744235 ], [ 10.888294669849586, 64.978698090336664 ], [ 10.8879949812909, 64.978949208228883 ], [ 10.888636919791939, 64.979532151482559 ], [ 10.88888822579079, 64.979537644627172 ], [ 10.88897371231336, 64.97924817201779 ] ] ] ] } },
{ "type": "Feature", "properties": { "fid": 127726, "navn": null, "hoyde_moh": 4, "arealInnsjo_km2": 0.003, "magasinKategori": null, "fid_2": 539, "id": 539, "left": 10.486919847, "top": 65.446110046000001, "right": 10.986919847, "bottom": 64.946110046000001, "row_index": 18, "col_index": 13, "tile_id": 539 }, "geometry": { "type": "MultiPolygon", "coordinates": [ [ [ [ 10.813212413021823, 64.970748688680089 ], [ 10.812242649971504, 64.970236881645192 ], [ 10.81184364726073, 64.970234745900683 ], [ 10.811950685432366, 64.970673055670318 ], [ 10.812454834433206, 64.970754456090859 ], [ 10.812854824557865, 64.971091789688316 ], [ 10.813212413021823, 64.970748688680089 ] ] ] ] } },
{ "type": "Feature", "properties": { "fid": 127794, "navn": null, "hoyde_moh": 8, "arealInnsjo_km2": 0.0029, "magasinKategori": null, "fid_2": 539, "id": 539, "left": 10.486919847, "top": 65.446110046000001, "right": 10.986919847, "bottom": 64.946110046000001, "row_index": 18, "col_index": 13, "tile_id": 539 }, "geometry": { "type": "MultiPolygon", "coordinates": [ [ [ [ 10.848984420443912, 64.969398265549728 ], [ 10.848690112437122, 64.969167434316134 ], [ 10.849156940935277, 64.969049573812939 ], [ 10.848317530495985, 64.968573014402494 ], [ 10.847951954851013, 64.968559412898074 ], [ 10.847988852136725, 64.968895693215643 ], [ 10.848861931460902, 64.969533987414835 ], [ 10.848984420443912, 64.969398265549728 ] ] ] ] } },
{ "type": "Feature", "properties": { "fid": 127795, "navn": null, "hoyde_moh": 2, "arealInnsjo_km2": 0.0065, "magasinKategori": null, "fid_2": 539, "id": 539, "left": 10.486919847, "top": 65.446110046000001, "right": 10.986919847, "bottom": 64.946110046000001, "row_index": 18, "col_index": 13, "tile_id": 539 }, "geometry": { "type": "MultiPolygon", "coordinates": [ [ [ [ 10.854314973779788, 64.973507289748127 ], [ 10.853134285767633, 64.973467430718898 ], [ 10.852525967559247, 64.973212501608543 ], [ 10.852384040197633, 64.973323058350474 ], [ 10.851942205261313, 64.973250721570054 ], [ 10.850374005346003, 64.972448209854576 ], [ 10.849329192136723, 64.972356287511019 ], [ 10.851272802438992, 64.973276039313305 ], [ 10.855237724225896, 64.973895528875588 ], [ 10.854314973779788, 64.973507289748127 ] ] ] ] } },
{ "type": "Feature", "properties": { "fid": 127865, "navn": null, "hoyde_moh": 3, "arealInnsjo_km2": 0.004, "magasinKategori": null, "fid_2": 539, "id": 539, "left": 10.486919847, "top": 65.446110046000001, "right": 10.986919847, "bottom": 64.946110046000001, "row_index": 18, "col_index": 13, "tile_id": 539 }, "geometry": { "type": "MultiPolygon", "coordinates": [ [ [ [ 10.835804684035596, 64.966065725205581 ], [ 10.83624895347412, 64.965684013640512 ], [ 10.835808234411203, 64.965724097411723 ], [ 10.835550431894756, 64.965549983220598 ], [ 10.835691665774522, 64.965446792688951 ], [ 10.835284165755992, 64.965321253986943 ], [ 10.835040111413752, 64.96543352412246 ], [ 10.834663645581452, 64.96512100000048 ], [ 10.833612591549626, 64.965195155271758 ], [ 10.834291899602306, 64.965212711552212 ], [ 10.834708180543474, 64.965558347369949 ], [ 10.835320767458793, 64.965618884040055 ], [ 10.83512145797132, 64.965781659789371 ], [ 10.835177542834566, 64.966146256488628 ], [ 10.835804684035596, 64.966065725205581 ] ] ] ] } },
{ "type": "Feature", "properties": { "fid": 127937, "navn": null, "hoyde_moh": 3, "arealInnsjo_km2": 0.0146, "magasinKategori": null, "fid_2": 539, "id": 539, "left": 10.486919847, "top": 65.446110046000001, "right": 10.986919847, "bottom": 64.946110046000001, "row_index": 18, "col_index": 13, "tile_id": 539 }, "geometry": { "type": "MultiPolygon", "coordinates": [ [ [ [ 10.839089769776582, 64.963913002013655 ], [ 10.838697365795097, 64.963720483580516 ], [ 10.838796741928785, 64.963631221396952 ], [ 10.839770733148148, 64.963236432455503 ], [ 10.840417929531737, 64.963203720707014 ], [ 10.841098238388613, 64.9633836889371 ], [ 10.841149732330292, 64.963591402067067 ], [ 10.842560085439485, 64.963665727690554 ], [ 10.842750086633112, 64.963438239346985 ], [ 10.841734108862434, 64.963324230419602 ], [ 10.841478185387944, 64.963177502901374 ], [ 10.841668223419761, 64.963102633827503 ], [ 10.841477824557936, 64.96298335104126 ], [ 10.840097904624846, 64.962758595087379 ], [ 10.839416130848553, 64.962850020322477 ], [ 10.839368757114231, 64.962480905857234 ], [ 10.838381638274051, 64.962076735103352 ], [ 10.838244030165331, 64.961649642856898 ], [ 10.837930018393772, 64.961809666494418 ], [ 10.837433872780267, 64.961746999417144 ], [ 10.838144141057221, 64.962153959345713 ], [ 10.838158299013093, 64.962523764556138 ], [ 10.83869617786126, 64.963235903765664 ], [ 10.838168258132871, 64.963743993509979 ], [ 10.839089769776582, 64.963913002013655 ] ], [ [ 10.838721487410806, 64.962670991687574 ], [ 10.839242377925643, 64.96290062425652 ], [ 10.839109477304243, 64.963130422481171 ], [ 10.838732767311516, 64.963008898510267 ], [ 10.838721487410806, 64.962670991687574 ] ] ] ] } },
{ "type": "Feature", "properties": { "fid": 128102, "navn": null, "hoyde_moh": 4, "arealInnsjo_km2": 0.0039, "magasinKategori": null, "fid_2": 539, "id": 539, "left": 10.486919847, "top": 65.446110046000001, "right": 10.986919847, "bottom": 64.946110046000001, "row_index": 18, "col_index": 13, "tile_id": 539 }, "geometry": { "type": "MultiPolygon", "coordinates": [ [ [ [ 10.866110799172972, 64.991914197392262 ], [ 10.865761397236165, 64.991729517034116 ], [ 10.86421127364871, 64.99157436238815 ], [ 10.864017630256281, 64.991688080549707 ], [ 10.864314959863398, 64.991938819885235 ], [ 10.865636591191556, 64.992279348840427 ], [ 10.866110799172972, 64.991914197392262 ] ] ] ] } },
{ "type": "Feature", "properties": { "fid": 128147, "navn": null, "hoyde_moh": 8, "arealInnsjo_km2": 0.0035, "magasinKategori": null, "fid_2": 539, "id": 539, "left": 10.486919847, "top": 65.446110046000001, "right": 10.986919847, "bottom": 64.946110046000001, "row_index": 18, "col_index": 13, "tile_id": 539 }, "geometry": { "type": "MultiPolygon", "coordinates": [ [ [ [ 10.89952756259289, 64.986882462180219 ], [ 10.900162669588724, 64.986870717959647 ], [ 10.89837211163043, 64.986498545360092 ], [ 10.899691306590645, 64.987248716612342 ], [ 10.901628785968954, 64.987438597639141 ], [ 10.89952756259289, 64.986882462180219 ] ] ] ] } },
{ "type": "Feature", "properties": { "fid": 128245, "navn": null, "hoyde_moh": 4, "arealInnsjo_km2": 0.0063, "magasinKategori": null, "fid_2": 539, "id": 539, "left": 10.486919847, "top": 65.446110046000001, "right": 10.986919847, "bottom": 64.946110046000001, "row_index": 18, "col_index": 13, "tile_id": 539 }, "geometry": { "type": "MultiPolygon", "coordinates": [ [ [ [ 10.895081435045066, 64.980862785379571 ], [ 10.895177488065253, 64.98075425320711 ], [ 10.893463628398234, 64.980254790801212 ], [ 10.893196151740849, 64.980278519306253 ], [ 10.893346313526854, 64.980632905219323 ], [ 10.891580075194245, 64.98063187145506 ], [ 10.892566943486063, 64.98086057041246 ], [ 10.895282128553076, 64.981043121399182 ], [ 10.895081435045066, 64.980862785379571 ] ] ] ] } },
{ "type": "Feature", "properties": { "fid": 128246, "navn": null, "hoyde_moh": 7, "arealInnsjo_km2": 0.0042, "magasinKategori": null, "fid_2": 539, "id": 539, "left": 10.486919847, "top": 65.446110046000001, "right": 10.986919847, "bottom": 64.946110046000001, "row_index": 18, "col_index": 13, "tile_id": 539 }, "geometry": { "type": "MultiPolygon", "coordinates": [ [ [ [ 10.856144654802359, 64.980633024710443 ], [ 10.856605833918767, 64.980608814202014 ], [ 10.85535158446327, 64.98036785216614 ], [ 10.854735349891643, 64.980406441785348 ], [ 10.854642896854665, 64.980200563545367 ], [ 10.854439091905707, 64.980348589423883 ], [ 10.854558877919878, 64.980809316999739 ], [ 10.854939361484053, 64.98101529544229 ], [ 10.856144654802359, 64.980633024710443 ] ] ] ] } },
{ "type": "Feature", "properties": { "fid": 128247, "navn": null, "hoyde_moh": null, "arealInnsjo_km2": 0.0035, "magasinKategori": null, "fid_2": 539, "id": 539, "left": 10.486919847, "top": 65.446110046000001, "right": 10.986919847, "bottom": 64.946110046000001, "row_index": 18, "col_index": 13, "tile_id": 539 }, "geometry": { "type": "MultiPolygon", "coordinates": [ [ [ [ 10.937056102883853, 64.984157072668239 ], [ 10.935546700020836, 64.98410478664762 ], [ 10.935608603081782, 64.98437330866895 ], [ 10.937087591566378, 64.98459642308876 ], [ 10.937056102883853, 64.984157072668239 ] ] ] ] } },
{ "type": "Feature", "properties": { "fid": 128281, "navn": null, "hoyde_moh": 3, "arealInnsjo_km2": 0.0047, "magasinKategori": null, "fid_2": 539, "id": 539, "left": 10.486919847, "top": 65.446110046000001, "right": 10.986919847, "bottom": 64.946110046000001, "row_index": 18, "col_index": 13, "tile_id": 539 }, "geometry": { "type": "MultiPolygon", "coordinates": [ [ [ [ 10.879231419508207, 64.97638152178915 ], [ 10.877683984971943, 64.976239056846481 ], [ 10.878011875176156, 64.975994040935646 ], [ 10.877003288340109, 64.975692016907928 ], [ 10.876682918816121, 64.975728632384133 ], [ 10.877509171313083, 64.976019863338038 ], [ 10.877157546736335, 64.976151784629593 ], [ 10.876050688795116, 64.976126376070269 ], [ 10.875143419765358, 64.975916031702667 ], [ 10.874869366739333, 64.976095303207074 ], [ 10.879231419508207, 64.97638152178915 ] ] ] ] } },
{ "type": "Feature", "properties": { "fid": 134268, "navn": null, "hoyde_moh": 5, "arealInnsjo_km2": 0.0032, "magasinKategori": null, "fid_2": 539, "id": 539, "left": 10.486919847, "top": 65.446110046000001, "right": 10.986919847, "bottom": 64.946110046000001, "row_index": 18, "col_index": 13, "tile_id": 539 }, "geometry": { "type": "MultiPolygon", "coordinates": [ [ [ [ 10.842467300752626, 64.959408290564298 ], [ 10.842981906687768, 64.95951846414836 ], [ 10.843242050731355, 64.959261115538993 ], [ 10.841982913077741, 64.958918135127362 ], [ 10.841549746364105, 64.959244713398462 ], [ 10.841821690656927, 64.959275853169132 ], [ 10.841845808298777, 64.959524596415449 ], [ 10.842467300752626, 64.959408290564298 ] ] ] ] } },
{ "type": "Feature", "properties": { "fid": 134348, "navn": null, "hoyde_moh": null, "arealInnsjo_km2": 0.0065, "magasinKategori": null, "fid_2": 539, "id": 539, "left": 10.486919847, "top": 65.446110046000001, "right": 10.986919847, "bottom": 64.946110046000001, "row_index": 18, "col_index": 13, "tile_id": 539 }, "geometry": { "type": "MultiPolygon", "coordinates": [ [ [ [ 10.877135113364487, 64.994634427621179 ], [ 10.877617807030514, 64.9942603092166 ], [ 10.877142732285698, 64.994140670596821 ], [ 10.873224163111132, 64.994513039307023 ], [ 10.873749479675064, 64.994748675155108 ], [ 10.874927516499779, 64.994608341015635 ], [ 10.877135113364487, 64.994634427621179 ] ] ] ] } },
{ "type": "Feature", "properties": { "fid": 134835, "navn": null, "hoyde_moh": 3, "arealInnsjo_km2": 0.0028, "magasinKategori": null, "fid_2": 539, "id": 539, "left": 10.486919847, "top": 65.446110046000001, "right": 10.986919847, "bottom": 64.946110046000001, "row_index": 18, "col_index": 13, "tile_id": 539 }, "geometry": { "type": "MultiPolygon", "coordinates": [ [ [ [ 10.843011557095142, 64.971717939869535 ], [ 10.842229066026782, 64.971424042372249 ], [ 10.84104378706264, 64.971276549919907 ], [ 10.840850664563257, 64.971430877579948 ], [ 10.841463184813573, 64.971458667399162 ], [ 10.842989093142471, 64.97202892822078 ], [ 10.843427840491699, 64.972049884774137 ], [ 10.843011557095142, 64.971717939869535 ] ] ] ] } },
{ "type": "Feature", "properties": { "fid": 135098, "navn": null, "hoyde_moh": 3, "arealInnsjo_km2": 0.0045, "magasinKategori": null, "fid_2": 539, "id": 539, "left": 10.486919847, "top": 65.446110046000001, "right": 10.986919847, "bottom": 64.946110046000001, "row_index": 18, "col_index": 13, "tile_id": 539 }, "geometry": { "type": "MultiPolygon", "coordinates": [ [ [ [ 10.815016150490743, 64.976725029656151 ], [ 10.81492233625448, 64.976415986498267 ], [ 10.815398757077556, 64.976291574206414 ], [ 10.814725738214074, 64.975928426783724 ], [ 10.813301952687869, 64.976105413399821 ], [ 10.813433721619306, 64.976498575563724 ], [ 10.81372249655324, 64.976596659350975 ], [ 10.814022592336404, 64.976478803433793 ], [ 10.813953325812175, 64.976269229615298 ], [ 10.814423376198464, 64.97625735396872 ], [ 10.81452979335371, 64.976618703515015 ], [ 10.814419000837374, 64.976687857538167 ], [ 10.815016150490743, 64.976725029656151 ] ] ] ] } },
{ "type": "Feature", "properties": { "fid": 135127, "navn": null, "hoyde_moh": 5, "arealInnsjo_km2": 0.0047, "magasinKategori": null, "fid_2": 539, "id": 539, "left": 10.486919847, "top": 65.446110046000001, "right": 10.986919847, "bottom": 64.946110046000001, "row_index": 18, "col_index": 13, "tile_id": 539 }, "geometry": { "type": "MultiPolygon", "coordinates": [ [ [ [ 10.840004504574091, 64.966849327414735 ], [ 10.838547917947471, 64.966630689752122 ], [ 10.838648728676258, 64.966976759462668 ], [ 10.838990806281185, 64.966808528842336 ], [ 10.8415843963584, 64.967807332533411 ], [ 10.841917270181554, 64.967849697929481 ], [ 10.841929575524681, 64.967675044182741 ], [ 10.840004504574091, 64.966849327414735 ] ] ] ] } },
{ "type": "Feature", "properties": { "fid": 135147, "navn": null, "hoyde_moh": 4, "arealInnsjo_km2": 0.0072, "magasinKategori": null, "fid_2": 539, "id": 539, "left": 10.486919847, "top": 65.446110046000001, "right": 10.986919847, "bottom": 64.946110046000001, "row_index": 18, "col_index": 13, "tile_id": 539 }, "geometry": { "type": "MultiPolygon", "coordinates": [ [ [ [ 10.892493133765962, 64.979951411764461 ], [ 10.89201146392125, 64.979581777473371 ], [ 10.893035234472412, 64.979517594585218 ], [ 10.891154519618739, 64.979060511208957 ], [ 10.890318099275408, 64.979036823864291 ], [ 10.890376387631543, 64.979560525199886 ], [ 10.891404252856656, 64.979752794739298 ], [ 10.891775320047193, 64.979978905684291 ], [ 10.892493133765962, 64.979951411764461 ] ], [ [ 10.89090800574103, 64.979337277042987 ], [ 10.891413771692863, 64.979393999612583 ], [ 10.891244270842936, 64.979477676410141 ], [ 10.890769187339657, 64.979458828352193 ], [ 10.89090800574103, 64.979337277042987 ] ] ] ] } },
{ "type": "Feature", "properties": { "fid": 135148, "navn": null, "hoyde_moh": 4, "arealInnsjo_km2": 0.003, "magasinKategori": null, "fid_2": 539, "id": 539, "left": 10.486919847, "top": 65.446110046000001, "right": 10.986919847, "bottom": 64.946110046000001, "row_index": 18, "col_index": 13, "tile_id": 539 }, "geometry": { "type": "MultiPolygon", "coordinates": [ [ [ [ 10.830059451166015, 64.978200349746118 ], [ 10.830484128236955, 64.977835897795387 ], [ 10.830525852862985, 64.977617395411087 ], [ 10.829957602858029, 64.977665493379064 ], [ 10.829457274117541, 64.977516312905223 ], [ 10.829697782639672, 64.978306447371907 ], [ 10.830139415429594, 64.978370754608335 ], [ 10.830059451166015, 64.978200349746118 ] ] ] ] } },
{ "type": "Feature", "properties": { "fid": 135242, "navn": null, "hoyde_moh": 6, "arealInnsjo_km2": 0.0042, "magasinKategori": null, "fid_2": 539, "id": 539, "left": 10.486919847, "top": 65.446110046000001, "right": 10.986919847, "bottom": 64.946110046000001, "row_index": 18, "col_index": 13, "tile_id": 539 }, "geometry": { "type": "MultiPolygon", "coordinates": [ [ [ [ 10.8617009016202, 64.976056515117008 ], [ 10.860749356403485, 64.975986140989463 ], [ 10.860753635751619, 64.975798143147756 ], [ 10.860378989423477, 64.975577960327101 ], [ 10.859936228793538, 64.975608534322831 ], [ 10.859689728512022, 64.975876447120683 ], [ 10.860761316477157, 64.976305004214268 ], [ 10.862110292788024, 64.976471887077622 ], [ 10.8617009016202, 64.976056515117008 ] ] ] ] } },
{ "type": "Feature", "properties": { "fid": 135243, "navn": null, "hoyde_moh": 2, "arealInnsjo_km2": 0.0008, "magasinKategori": null, "fid_2": 539, "id": 539, "left": 10.486919847, "top": 65.446110046000001, "right": 10.986919847, "bottom": 64.946110046000001, "row_index": 18, "col_index": 13, "tile_id": 539 }, "geometry": { "type": "MultiPolygon", "coordinates": [ [ [ [ 10.842999081384788, 64.975724634691119 ], [ 10.842679693599848, 64.975760037025651 ], [ 10.843029724165001, 64.97589743032708 ], [ 10.843924704273636, 64.976028358694364 ], [ 10.842999081384788, 64.975724634691119 ] ] ] ] } },
{ "type": "Feature", "properties": { "fid": 135244, "navn": null, "hoyde_moh": 5, "arealInnsjo_km2": 0.0151, "magasinKategori": null, "fid_2": 539, "id": 539, "left": 10.486919847, "top": 65.446110046000001, "right": 10.986919847, "bottom": 64.946110046000001, "row_index": 18, "col_index": 13, "tile_id": 539 }, "geometry": { "type": "MultiPolygon", "coordinates": [ [ [ [ 10.820341505930163, 64.974674875918311 ], [ 10.819456548974623, 64.974114357641852 ], [ 10.819087293699301, 64.974141479766331 ], [ 10.819213233615969, 64.973933250779353 ], [ 10.818981708384429, 64.973595360393347 ], [ 10.820109554016842, 64.972953782174329 ], [ 10.820478118836899, 64.972982545102923 ], [ 10.820536743596051, 64.972786718639625 ], [ 10.819283996827638, 64.972891795419812 ], [ 10.819023569908847, 64.973315473655177 ], [ 10.818770203678671, 64.973356092566632 ], [ 10.818474400636603, 64.973342400025388 ], [ 10.81830746542045, 64.973043441901197 ], [ 10.81782855061005, 64.972917020788771 ], [ 10.817830745874275, 64.973105115833334 ], [ 10.818192327166338, 64.97339695314831 ], [ 10.817978273268452, 64.973658345802448 ], [ 10.818409870671051, 64.974195907369662 ], [ 10.818050352746356, 64.974563683762838 ], [ 10.819050788503736, 64.975237915356658 ], [ 10.819474242201895, 64.975314868671006 ], [ 10.819190697955092, 64.974978396013015 ], [ 10.818613489066539, 64.974675568664637 ], [ 10.818585941906491, 64.974281831337635 ], [ 10.819474855595804, 64.974398988211405 ], [ 10.820789964757539, 64.975140277445263 ], [ 10.822608594912857, 64.975567599003966 ], [ 10.820341505930163, 64.974674875918311 ] ] ] ] } },
{ "type": "Feature", "properties": { "fid": 135276, "navn": null, "hoyde_moh": 4, "arealInnsjo_km2": 0.0024, "magasinKategori": null, "fid_2": 539, "id": 539, "left": 10.486919847, "top": 65.446110046000001, "right": 10.986919847, "bottom": 64.946110046000001, "row_index": 18, "col_index": 13, "tile_id": 539 }, "geometry": { "type": "MultiPolygon", "coordinates": [ [ [ [ 10.840955964773412, 64.964972579377118 ], [ 10.840985070442859, 64.964781317247926 ], [ 10.840198972408979, 64.964806648919989 ], [ 10.839470864654958, 64.964496004319429 ], [ 10.839314965749397, 64.964703139866032 ], [ 10.83961792160277, 64.96505485374368 ], [ 10.839842380512284, 64.964957938321206 ], [ 10.840693593337715, 64.965086863531482 ], [ 10.840955964773412, 64.964972579377118 ] ] ] ] } },
{ "type": "Feature", "properties": { "fid": 135277, "navn": null, "hoyde_moh": null, "arealInnsjo_km2": 0.0027, "magasinKategori": null, "fid_2": 539, "id": 539, "left": 10.486919847, "top": 65.446110046000001, "right": 10.986919847, "bottom": 64.946110046000001, "row_index": 18, "col_index": 13, "tile_id": 539 }, "geometry": { "type": "MultiPolygon", "coordinates": [ [ [ [ 10.798602041223806, 64.964392566287287 ], [ 10.799541915277503, 64.964506884101937 ], [ 10.799802817629953, 64.964288272502216 ], [ 10.799708296005047, 64.964145838815014 ], [ 10.799282980141006, 64.964124050011108 ], [ 10.797901690360815, 64.964374073008401 ], [ 10.798526944475421, 64.964537048708593 ], [ 10.798602041223806, 64.964392566287287 ] ] ] ] } },
{ "type": "Feature", "properties": { "fid": 135279, "navn": null, "hoyde_moh": 3, "arealInnsjo_km2": 0.0027, "magasinKategori": null, "fid_2": 539, "id": 539, "left": 10.486919847, "top": 65.446110046000001, "right": 10.986919847, "bottom": 64.946110046000001, "row_index": 18, "col_index": 13, "tile_id": 539 }, "geometry": { "type": "MultiPolygon", "coordinates": [ [ [ [ 10.941484304282369, 64.970054721877403 ], [ 10.941089019086972, 64.969843808815995 ], [ 10.94100881666907, 64.969958459554533 ], [ 10.941200999914091, 64.970038378465247 ], [ 10.940703473472675, 64.969932168088519 ], [ 10.94069747852323, 64.969707501475227 ], [ 10.94110665988384, 64.969728981970349 ], [ 10.940710785694797, 64.969253644656689 ], [ 10.939989441726208, 64.969291423125171 ], [ 10.940141482177754, 64.96957282426699 ], [ 10.94048711216371, 64.969718038238028 ], [ 10.940600594195173, 64.970021485821746 ], [ 10.941369500994353, 64.970159712790661 ], [ 10.941484304282369, 64.970054721877403 ] ] ] ] } },
{ "type": "Feature", "properties": { "fid": 142854, "navn": null, "hoyde_moh": 7, "arealInnsjo_km2": 0.0025, "magasinKategori": null, "fid_2": 539, "id": 539, "left": 10.486919847, "top": 65.446110046000001, "right": 10.986919847, "bottom": 64.946110046000001, "row_index": 18, "col_index": 13, "tile_id": 539 }, "geometry": { "type": "MultiPolygon", "coordinates": [ [ [ [ 10.855432579551245, 64.981848079908829 ], [ 10.855057569693811, 64.981393199584403 ], [ 10.854380949323245, 64.981181862240575 ], [ 10.85476662546921, 64.981570620335845 ], [ 10.854758774130252, 64.982124867873154 ], [ 10.855376597632603, 64.982229589126931 ], [ 10.855432579551245, 64.981848079908829 ] ] ] ] } },
{ "type": "Feature", "properties": { "fid": 142859, "navn": null, "hoyde_moh": null, "arealInnsjo_km2": 0.0083, "magasinKategori": null, "fid_2": 539, "id": 539, "left": 10.486919847, "top": 65.446110046000001, "right": 10.986919847, "bottom": 64.946110046000001, "row_index": 18, "col_index": 13, "tile_id": 539 }, "geometry": { "type": "MultiPolygon", "coordinates": [ [ [ [ 10.846740727082233, 64.96941430182747 ], [ 10.845256709042726, 64.96878655408581 ], [ 10.844797699963385, 64.968890869024563 ], [ 10.844791876567919, 64.969115407087813 ], [ 10.84648234942132, 64.969659842865099 ], [ 10.850937313320985, 64.970349743323837 ], [ 10.846740727082233, 64.96941430182747 ] ] ] ] } },
{ "type": "Feature", "properties": { "fid": 142897, "navn": null, "hoyde_moh": 3, "arealInnsjo_km2": 0.0059, "magasinKategori": null, "fid_2": 539, "id": 539, "left": 10.486919847, "top": 65.446110046000001, "right": 10.986919847, "bottom": 64.946110046000001, "row_index": 18, "col_index": 13, "tile_id": 539 }, "geometry": { "type": "MultiPolygon", "coordinates": [ [ [ [ 10.779374687694524, 64.975619544808538 ], [ 10.778807889917301, 64.974957757824129 ], [ 10.777667563697323, 64.97438407600832 ], [ 10.777864669939611, 64.974795581552328 ], [ 10.778127323518275, 64.974939917576776 ], [ 10.777695403939381, 64.975571617853163 ], [ 10.77823738970908, 64.975727912009347 ], [ 10.779374687694524, 64.975619544808538 ] ] ] ] } },
{ "type": "Feature", "properties": { "fid": 149894, "navn": null, "hoyde_moh": null, "arealInnsjo_km2": 0.0067, "magasinKategori": null, "fid_2": 539, "id": 539, "left": 10.486919847, "top": 65.446110046000001, "right": 10.986919847, "bottom": 64.946110046000001, "row_index": 18, "col_index": 13, "tile_id": 539 }, "geometry": { "type": "MultiPolygon", "coordinates": [ [ [ [ 10.826333517271806, 64.953221971330052 ], [ 10.826922880438104, 64.953169816060765 ], [ 10.827600900916812, 64.953484701687088 ], [ 10.827773509523913, 64.953222229359113 ], [ 10.82834696670886, 64.953242157296614 ], [ 10.826134452804492, 64.952479363427571 ], [ 10.826122974210708, 64.95261413386082 ], [ 10.827614334477479, 64.953062634806543 ], [ 10.827451164893493, 64.953154416699221 ], [ 10.825925722003776, 64.952831961775004 ], [ 10.825224628103228, 64.952795683435127 ], [ 10.825127224087083, 64.952922562573988 ], [ 10.826489212217945, 64.953641767034526 ], [ 10.82734723436714, 64.953801887950888 ], [ 10.826333517271806, 64.953221971330052 ] ] ] ] } },
{ "type": "Feature", "properties": { "fid": 149984, "navn": null, "hoyde_moh": null, "arealInnsjo_km2": 0.006, "magasinKategori": null, "fid_2": 539, "id": 539, "left": 10.486919847, "top": 65.446110046000001, "right": 10.986919847, "bottom": 64.946110046000001, "row_index": 18, "col_index": 13, "tile_id": 539 }, "geometry": { "type": "MultiPolygon", "coordinates": [ [ [ [ 10.8405453494618, 65.001965330027673 ], [ 10.838517279043568, 65.002089059827739 ], [ 10.839371049374877, 65.002473567881097 ], [ 10.841491330545615, 65.002456298346829 ], [ 10.8405453494618, 65.001965330027673 ] ] ] ] } },
{ "type": "Feature", "properties": { "fid": 149989, "navn": null, "hoyde_moh": 3, "arealInnsjo_km2": 0.0079, "magasinKategori": null, "fid_2": 539, "id": 539, "left": 10.486919847, "top": 65.446110046000001, "right": 10.986919847, "bottom": 64.946110046000001, "row_index": 18, "col_index": 13, "tile_id": 539 }, "geometry": { "type": "MultiPolygon", "coordinates": [ [ [ [ 10.755427171129671, 64.947359603776505 ], [ 10.75552105880792, 64.947219449724301 ], [ 10.754438937092351, 64.946695480138075 ], [ 10.754326621461933, 64.946481312892573 ], [ 10.753625277641797, 64.946110046 ], [ 10.753136200021313, 64.946110046 ], [ 10.753297758845216, 64.94621260366641 ], [ 10.753233244475618, 64.946331931470894 ], [ 10.753568632416277, 64.946855830435339 ], [ 10.754077581683958, 64.947324183446369 ], [ 10.754618551382144, 64.947459786744659 ], [ 10.755427171129671, 64.947359603776505 ] ] ] ] } },
{ "type": "Feature", "properties": { "fid": 149995, "navn": null, "hoyde_moh": null, "arealInnsjo_km2": 0.0102, "magasinKategori": null, "fid_2": 539, "id": 539, "left": 10.486919847, "top": 65.446110046000001, "right": 10.986919847, "bottom": 64.946110046000001, "row_index": 18, "col_index": 13, "tile_id": 539 }, "geometry": { "type": "MultiPolygon", "coordinates": [ [ [ [ 10.799074561108696, 64.963857241298243 ], [ 10.799396945636703, 64.963925205081239 ], [ 10.799062417284571, 64.963677940663374 ], [ 10.800508149192249, 64.963436016282387 ], [ 10.799648035155863, 64.963248989718466 ], [ 10.799860336000378, 64.962941281679178 ], [ 10.799645523954409, 64.962898912405379 ], [ 10.798534670062919, 64.96307396123926 ], [ 10.798274489854757, 64.963301489449378 ], [ 10.799547033672614, 64.963322093642276 ], [ 10.798905290553366, 64.963545156206791 ], [ 10.79795945075476, 64.963655374458256 ], [ 10.797968589161519, 64.963475685113337 ], [ 10.796735412832867, 64.963409708368474 ], [ 10.796325341972826, 64.963612241432202 ], [ 10.796316220590459, 64.963791751632158 ], [ 10.797372087582207, 64.964057395087025 ], [ 10.797950129099538, 64.963834878867459 ], [ 10.798583968228291, 64.963809431034434 ], [ 10.798392186404625, 64.964107919072333 ], [ 10.799074561108696, 64.963857241298243 ] ] ] ] } },
{ "type": "Feature", "properties": { "fid": 150044, "navn": null, "hoyde_moh": 4, "arealInnsjo_km2": 0.0036, "magasinKategori": null, "fid_2": 539, "id": 539, "left": 10.486919847, "top": 65.446110046000001, "right": 10.986919847, "bottom": 64.946110046000001, "row_index": 18, "col_index": 13, "tile_id": 539 }, "geometry": { "type": "MultiPolygon", "coordinates": [ [ [ [ 10.86075814441346, 64.989995094824351 ], [ 10.860032462874596, 64.989758878698794 ], [ 10.857529643167425, 64.989581060668286 ], [ 10.857440348193206, 64.989425695379623 ], [ 10.856884652318671, 64.989540849650155 ], [ 10.856971531701562, 64.989677543224289 ], [ 10.86075814441346, 64.989995094824351 ] ] ] ] } },
{ "type": "Feature", "properties": { "fid": 150491, "navn": null, "hoyde_moh": 4, "arealInnsjo_km2": 0.0049, "magasinKategori": null, "fid_2": 539, "id": 539, "left": 10.486919847, "top": 65.446110046000001, "right": 10.986919847, "bottom": 64.946110046000001, "row_index": 18, "col_index": 13, "tile_id": 539 }, "geometry": { "type": "MultiPolygon", "coordinates": [ [ [ [ 10.787164435750194, 64.98190112142187 ], [ 10.789602475056762, 64.981900076956478 ], [ 10.789485144139226, 64.981700275911237 ], [ 10.788862690517037, 64.981646648442648 ], [ 10.786553809823261, 64.981624365954943 ], [ 10.785900806092959, 64.981854706225889 ], [ 10.786932714774716, 64.982055375340053 ], [ 10.787164435750194, 64.98190112142187 ] ] ] ] } },
{ "type": "Feature", "properties": { "fid": 190424, "navn": null, "hoyde_moh": 3, "arealInnsjo_km2": 0.0443, "magasinKategori": null, "fid_2": 539, "id": 539, "left": 10.486919847, "top": 65.446110046000001, "right": 10.986919847, "bottom": 64.946110046000001, "row_index": 18, "col_index": 13, "tile_id": 539 }, "geometry": { "type": "MultiPolygon", "coordinates": [ [ [ [ 10.830061041004198, 64.976247365311522 ], [ 10.830742543187531, 64.976294833606332 ], [ 10.83057732228338, 64.976012478789329 ], [ 10.831171265109347, 64.975998084288008 ], [ 10.830820045605376, 64.975610129757754 ], [ 10.83108894741615, 64.975275294453596 ], [ 10.830826226213203, 64.975218061232837 ], [ 10.829937259089103, 64.975498067566875 ], [ 10.829784472563171, 64.97532382709251 ], [ 10.826997969460079, 64.974656209028581 ], [ 10.826516931558881, 64.974412462594032 ], [ 10.826723181471673, 64.974318829334393 ], [ 10.825094821384051, 64.973846014876443 ], [ 10.824577342999524, 64.973470283066163 ], [ 10.823724085463722, 64.972471517298558 ], [ 10.823440113203679, 64.972535644055043 ], [ 10.823381441254186, 64.972865034116751 ], [ 10.822949150125712, 64.972844828621319 ], [ 10.823285671816516, 64.973524239136879 ], [ 10.822347721381567, 64.973279625917172 ], [ 10.822304736949814, 64.973020999430943 ], [ 10.821581706425695, 64.972571812411374 ], [ 10.821535275961169, 64.973038615327354 ], [ 10.822158431259208, 64.974232909024224 ], [ 10.822080506860294, 64.974507470640518 ], [ 10.822897035387662, 64.975108388257169 ], [ 10.823269817219591, 64.97514975531243 ], [ 10.823140578143686, 64.974920170626149 ], [ 10.822532209327893, 64.974592397785926 ], [ 10.822450646903643, 64.974140612682291 ], [ 10.823274536236582, 64.974532759617162 ], [ 10.823393361993029, 64.97447038619579 ], [ 10.822964950497445, 64.974123659748827 ], [ 10.823016377773799, 64.973990098754157 ], [ 10.823426870609797, 64.974120067503975 ], [ 10.824448617867054, 64.974087938376272 ], [ 10.824085267012352, 64.974195502530634 ], [ 10.824132528798412, 64.974316818846006 ], [ 10.824324678921821, 64.974486057024379 ], [ 10.824714686138968, 64.974485029702947 ], [ 10.825018508698188, 64.974787184460311 ], [ 10.825413993357659, 64.97471305517557 ], [ 10.824995978004891, 64.97442594830116 ], [ 10.825706198332369, 64.97448215493354 ], [ 10.826061218639577, 64.974649480920462 ], [ 10.825662450138468, 64.974641368145356 ], [ 10.825637968588183, 64.974866105367653 ], [ 10.826552353467982, 64.974891084766938 ], [ 10.828668109373144, 64.975739026332619 ], [ 10.827658292590151, 64.975146394506012 ], [ 10.827857186975436, 64.975133896378907 ], [ 10.82977783129915, 64.976110551555266 ], [ 10.829063205668778, 64.976166593803455 ], [ 10.829250217971357, 64.976560833456119 ], [ 10.830292170487912, 64.976875899584314 ], [ 10.830549583196394, 64.976816229252009 ], [ 10.830061041004198, 64.976247365311522 ] ], [ [ 10.823844158300156, 64.973123828064359 ], [ 10.824199863096263, 64.973181972104371 ], [ 10.82401412501885, 64.973349430228197 ], [ 10.82359031193735, 64.973239582630271 ], [ 10.823844158300156, 64.973123828064359 ] ] ] ] } },
{ "type": "Feature", "properties": { "fid": 208356, "navn": null, "hoyde_moh": 2, "arealInnsjo_km2": 0.0362, "magasinKategori": null, "fid_2": 539, "id": 539, "left": 10.486919847, "top": 65.446110046000001, "right": 10.986919847, "bottom": 64.946110046000001, "row_index": 18, "col_index": 13, "tile_id": 539 }, "geometry": { "type": "MultiPolygon", "coordinates": [ [ [ [ 10.839537846598651, 64.970680759433478 ], [ 10.839275617714055, 64.97056054796316 ], [ 10.839387616922236, 64.970459863008131 ], [ 10.837319421279787, 64.970154751863703 ], [ 10.836213696955321, 64.969451910838274 ], [ 10.833529977676417, 64.969102579452041 ], [ 10.832472684934723, 64.968622169178985 ], [ 10.831706674398696, 64.968494683264112 ], [ 10.831392079041596, 64.968283380235619 ], [ 10.831568817074222, 64.968170400490834 ], [ 10.831213176301707, 64.968064547798207 ], [ 10.831334665668434, 64.967816009780265 ], [ 10.829869272755106, 64.967142331084005 ], [ 10.829603079619432, 64.966771850223978 ], [ 10.829810823324321, 64.966579746083625 ], [ 10.829526485290737, 64.966339264757167 ], [ 10.829247785768823, 64.966421794372707 ], [ 10.828914208015901, 64.966178764931144 ], [ 10.828499850547296, 64.966181635528059 ], [ 10.829441306263254, 64.96689090901711 ], [ 10.82976586545327, 64.967527903910124 ], [ 10.829035790665237, 64.967285911511595 ], [ 10.828296691454534, 64.966653037993936 ], [ 10.828462825952352, 64.966919513874359 ], [ 10.828455014746437, 64.967417058327015 ], [ 10.829408384739343, 64.967846145005637 ], [ 10.830197448635998, 64.968486881330435 ], [ 10.831158452443555, 64.968689129088048 ], [ 10.8311150291959, 64.968781210886831 ], [ 10.832007677825493, 64.969162111534374 ], [ 10.831073057592377, 64.968932025708611 ], [ 10.83077500832214, 64.969069114474237 ], [ 10.831097829823166, 64.969346082346462 ], [ 10.831692830293616, 64.969356615672694 ], [ 10.833150699658928, 64.969829088315578 ], [ 10.83215413622953, 64.969374103080398 ], [ 10.832301215194805, 64.969267663066034 ], [ 10.832988579139656, 64.969531003370065 ], [ 10.833502199416973, 64.969497369054423 ], [ 10.835353598556686, 64.969941903602091 ], [ 10.832355426573784, 64.968972931220804 ], [ 10.832732045884319, 64.968907514915472 ], [ 10.833999317066231, 64.969448441264205 ], [ 10.837354194474013, 64.97031301449374 ], [ 10.837511059516929, 64.97057023074602 ], [ 10.839298248066381, 64.970846011363193 ], [ 10.839537846598651, 64.970680759433478 ] ], [ [ 10.830395296962555, 64.967997711421802 ], [ 10.830295513706529, 64.967853895467869 ], [ 10.830997266107296, 64.968123940533928 ], [ 10.830395296962555, 64.967997711421802 ] ] ] ] } }
]
}
